{"type": "Feature","bbox": [28.8199,-17.4733,28.9656,-17.3284],"geometry": {"type": "MultiPolygon","coordinates": [[[[28.951,-17.4733,790.53],[28.9484,-17.4688,791.0797],[28.9514,-17.4661,788.2496],[28.9495,-17.4627,794.4307],[28.9552,-17.4584,786.3666],[28.9529,-17.4553,789.9111],[28.9561,-17.4539,786.2265],[28.9549,-17.4514,787.7834],[28.9579,-17.4508,786.9154],[28.9582,-17.4432,785.7279],[28.961,-17.4402,784.8082],[28.9603,-17.4381,787.3021],[28.9627,-17.4368,785.2244],[28.9621,-17.4338,785.3187],[28.9656,-17.4305,782.4358],[28.9635,-17.43,784.2385],[28.9645,-17.427,790.571],[28.9621,-17.4273,781.193],[28.9584,-17.4207,782.0706],[28.9559,-17.4191,781.1917],[28.9551,-17.4156,782.8615],[28.9486,-17.4131,780.2423],[28.9478,-17.4112,787.0551],[28.9433,-17.4114,781.7202],[28.9411,-17.4082,783.3649],[28.9371,-17.4076,783.1334],[28.9397,-17.3987,778.8173],[28.9427,-17.3963,778.6353],[28.9394,-17.3906,785.1551],[28.9472,-17.3861,813.4849],[28.9427,-17.3842,777.9218],[28.942,-17.3784,791.7714],[28.9362,-17.3757,772.2247],[28.9379,-17.3679,777.5204],[28.9309,-17.3656,770.7993],[28.9335,-17.3622,769.2949],[28.9352,-17.3508,770.5551],[28.9376,-17.3473,770.0616],[28.9369,-17.342,767.5778],[28.9334,-17.3398,769.3478],[28.9297,-17.3315,767.4058],[28.9264,-17.3284,769.3673],[28.9241,-17.3301,766.7646],[28.9177,-17.331,775.9033],[28.917,-17.3329,769.4812],[28.9123,-17.3345,775.2831],[28.9095,-17.3374,775.536],[28.9001,-17.3339,784.8267],[28.8901,-17.3357,789.933],[28.891,-17.3429,789.6584],[28.8945,-17.3457,789.6426],[28.8922,-17.3475,791.4919],[28.8777,-17.3488,770.6859],[28.8624,-17.3472,748.7023],[28.8528,-17.3506,740.3593],[28.8483,-17.3447,732.9559],[28.8415,-17.3425,734.1304],[28.8392,-17.3387,734.4208],[28.8341,-17.3383,724.7865],[28.8336,-17.3341,729.7249],[28.8295,-17.3316,724.5159],[28.8272,-17.3323,719.3437],[28.8259,-17.3295,733.7815],[28.8246,-17.3311,722.4529],[28.8228,-17.33,718.4507],[28.8199,-17.3363,719.948],[28.8232,-17.3389,724.7245],[28.8221,-17.3411,725.6848],[28.824,-17.3406,733.9087],[28.8233,-17.3424,720.938],[28.825,-17.3435,724.1147],[28.8218,-17.3473,728.3231],[28.8239,-17.3501,727.5582],[28.8213,-17.358,726.3131],[28.8252,-17.3595,749.7592],[28.8269,-17.3641,727.2947],[28.826,-17.367,729.2217],[28.8282,-17.3708,729.0235],[28.8304,-17.3695,728.7153],[28.8306,-17.3714,729.3679],[28.8335,-17.3725,731.8712],[28.8302,-17.3738,730.659],[28.8331,-17.3743,731.7643],[28.8326,-17.3779,733.5675],[28.8343,-17.3784,735.7351],[28.8296,-17.3798,737.0258],[28.8308,-17.3805,733.0956],[28.8303,-17.3828,735.378],[28.8341,-17.3818,735.2745],[28.8335,-17.3836,736.0865],[28.8359,-17.3838,736.1511],[28.8365,-17.3869,738.5942],[28.8343,-17.3908,739.1825],[28.8348,-17.3928,741.7072],[28.8335,-17.3924,739.1245],[28.8324,-17.3947,741.5504],[28.8339,-17.3989,741.4582],[28.8299,-17.4079,744.1989],[28.8316,-17.4073,744.8047],[28.8306,-17.4105,746.1536],[28.8329,-17.4105,748.1577],[28.8384,-17.4171,759.5797],[28.8411,-17.4181,764.1036],[28.8426,-17.4225,757.9744],[28.8456,-17.4247,764.7529],[28.8487,-17.4238,762.1127],[28.8514,-17.4255,759.153],[28.8508,-17.4298,758.4451],[28.848,-17.4306,757.4116],[28.85,-17.4326,757.7415],[28.8475,-17.4405,761.0417],[28.8526,-17.4548,778.7509],[28.8604,-17.4591,791.4294],[28.866,-17.4578,805.3113],[28.8681,-17.4621,810.5176],[28.8707,-17.4633,810.0043],[28.8873,-17.4634,815.2241],[28.8938,-17.4669,825.0234],[28.951,-17.4733,790.53]]]]}
,"properties": {"GID_3": "ZWE.10.2.8_2","GID_0": "ZWE","country": "Zimbabwe","GID_1": "ZWE.10_1","province": "Midlands","NL_NAME_1": "NA","GID_2": "ZWE.10.2_2","county": "GokweNorth","NL_NAME_2": "NA","city": "Ward16","VARNAME_3": "NA","NL_NAME_3": "NA","TYPE_3": "Ward","ENGTYPE_3": "Ward","CC_3": "NA","HASC_3": "NA","name": "Ward16.city","area_km2": 162.9058,"hist_schema_id": "Elevation0-9000","hist_area_km2": {"725": 8.8031,"750": 18.9594,"775": 52.5863,"800": 66.5365,"825": 15.9193,"850": 0.1012}}}