{"type": "Feature","bbox": [28.1837,-21.7163,28.7852,-20.222],"geometry": {"type": "MultiPolygon","coordinates": [[[[28.5659,-21.6346,726.9856],[28.5724,-21.6286,730.8838],[28.5822,-21.6284,730.1777],[28.5874,-21.6314,730.4005],[28.5994,-21.6434,719.7812],[28.6085,-21.6431,716.532],[28.6272,-21.6491,713.4761],[28.6392,-21.6487,718.5255],[28.6448,-21.6502,716.3557],[28.6558,-21.6567,708.1237],[28.6632,-21.6642,704.2659],[28.6696,-21.6758,702.9357],[28.6981,-21.6864,688.7749],[28.7129,-21.6889,695.5311],[28.75,-21.6997,682.5007],[28.7693,-21.71,674.0255],[28.7751,-21.7163,676.6808],[28.7798,-21.7007,685.997],[28.7737,-21.6932,692.1759],[28.7745,-21.6768,709.9207],[28.7642,-21.6679,715.4222],[28.7635,-21.6625,716.3365],[28.7567,-21.6608,716.2203],[28.7553,-21.6553,721.6552],[28.749,-21.656,723.2041],[28.7434,-21.6542,721.1963],[28.7383,-21.6467,724.9708],[28.7321,-21.6427,728.7093],[28.7316,-21.6386,727.9935],[28.7341,-21.6349,733.9731],[28.7394,-21.6343,735.8654],[28.7421,-21.6316,733.4866],[28.7419,-21.6294,735.0671],[28.7306,-21.6259,735.8602],[28.7239,-21.6053,740.2438],[28.7668,-21.4592,832.7626],[28.747,-21.3293,853.5226],[28.6811,-21.2708,927.0321],[28.6951,-21.2399,978.1642],[28.6204,-21.2277,983.8219],[28.657,-21.1892,941.2169],[28.6338,-21.1394,1018.9805],[28.6892,-21.0828,913.0779],[28.6753,-21.0547,1006.0564],[28.7,-21.0361,925.8772],[28.7199,-21.07,916.032],[28.7629,-21.0516,971.5242],[28.7426,-21.0155,952.0535],[28.7623,-20.9945,928.1674],[28.6991,-20.9487,1047.1411],[28.7061,-20.8538,1052.8279],[28.6553,-20.6935,1060.7124],[28.6795,-20.6927,1093.6062],[28.7331,-20.6798,1229.7308],[28.748,-20.6471,1122.5963],[28.7844,-20.6226,1156.9932],[28.7377,-20.6083,1113.9388],[28.7393,-20.6023,1128.8782],[28.7295,-20.5864,1152.1699],[28.7255,-20.5827,1147.4019],[28.7245,-20.5786,1182.7367],[28.7179,-20.5723,1180.6807],[28.7171,-20.568,1183.2495],[28.7023,-20.5533,1187.537],[28.6997,-20.5471,1239.4712],[28.692,-20.5421,1241.01],[28.6917,-20.5373,1210.3812],[28.6805,-20.5152,1266.7258],[28.6816,-20.5073,1255.751],[28.6787,-20.501,1261.8334],[28.6779,-20.4971,1261.0643],[28.6793,-20.4958,1291.3203],[28.6579,-20.4731,1374.0496],[28.7107,-20.4779,1515.1733],[28.734,-20.4815,1500.9408],[28.7356,-20.5053,1519.5291],[28.7728,-20.4883,1477.1091],[28.7788,-20.4741,1485.0645],[28.7822,-20.4595,1436.8536],[28.766,-20.4435,1480.3824],[28.7852,-20.3847,1245.3381],[28.7708,-20.3456,1198.5803],[28.7648,-20.3485,1218.1639],[28.751,-20.3515,1246.1443],[28.7506,-20.3504,1233.1926],[28.7178,-20.3598,1287.7258],[28.7133,-20.3313,1329.7427],[28.6781,-20.3117,1397.8318],[28.657,-20.2824,1400.7844],[28.6331,-20.2588,1457.0288],[28.6053,-20.2274,1453.3615],[28.5773,-20.2276,1427.5931],[28.5526,-20.222,1397.04],[28.5388,-20.2587,1436.7795],[28.4966,-20.2355,1369.6887],[28.4811,-20.2367,1359.7682],[28.4617,-20.2597,1348.6577],[28.4588,-20.2654,1342.9353],[28.4384,-20.282,1361.5344],[28.4297,-20.2931,1371.3346],[28.4131,-20.2953,1359.5303],[28.3896,-20.2897,1399.8181],[28.3804,-20.2945,1405.688],[28.3661,-20.3149,1363.7363],[28.3434,-20.3619,1379.1235],[28.3316,-20.3546,1370.573],[28.3083,-20.406,1399.4852],[28.3013,-20.426,1389.999],[28.2987,-20.4479,1409.1432],[28.2695,-20.4615,1457.2179],[28.2666,-20.489,1426.2443],[28.2252,-20.5176,1384.4564],[28.2017,-20.5385,1308.3145],[28.1837,-20.5506,1249.736],[28.2506,-20.5935,1338.524],[28.212,-20.6528,1170.4315],[28.2131,-20.6713,1153.6108],[28.2169,-20.6756,1151.4998],[28.2185,-20.6926,1145.7854],[28.2291,-20.7284,1118.7948],[28.2322,-20.7317,1117.7515],[28.2317,-20.7359,1115.8468],[28.2364,-20.7441,1119.0891],[28.2427,-20.7505,1112.0583],[28.2431,-20.7552,1108.5039],[28.2476,-20.7632,1104.4169],[28.2528,-20.7649,1109.9939],[28.2548,-20.7672,1115.1484],[28.2544,-20.7725,1106.7366],[28.2651,-20.7935,1096.9894],[28.271,-20.8107,1090.0531],[28.2787,-20.8222,1082.5308],[28.286,-20.8258,1080.1825],[28.3036,-20.8212,1076.2192],[28.3039,-20.8262,1071.5288],[28.3105,-20.8335,1070.2434],[28.2421,-20.8913,1030.8188],[28.2373,-20.8965,1027.5944],[28.236,-20.9002,1029.8132],[28.2384,-20.906,1029.9551],[28.2354,-20.9088,1024.724],[28.2231,-20.9138,1019.8574],[28.2214,-20.9216,1014.7028],[28.2174,-20.9252,1013.1521],[28.2112,-20.9265,1010.4821],[28.2091,-20.9286,1008.0853],[28.2051,-20.9414,1000.0323],[28.202,-20.9471,999.7308],[28.1992,-20.9489,1005.0474],[28.2031,-20.9534,1003.3821],[28.2036,-20.9606,996.4081],[28.1977,-20.9645,997.919],[28.1891,-20.98,985.0099],[28.1887,-20.9908,984.2975],[28.1957,-20.9952,984.9237],[28.2062,-21.026,973.3232],[28.203,-21.0452,969.762],[28.229,-21.0564,979.9653],[28.2353,-21.054,974.0411],[28.2323,-21.0599,971.47],[28.2338,-21.0637,970.7977],[28.223,-21.0663,967.0087],[28.2249,-21.0734,965.361],[28.2232,-21.0764,964.7859],[28.2254,-21.0768,963.9227],[28.225,-21.0788,964.5865],[28.2268,-21.0807,963.7708],[28.2258,-21.0835,961.9478],[28.2277,-21.0904,960.3928],[28.224,-21.0937,957.3273],[28.2214,-21.0933,957.3154],[28.2205,-21.0954,956.77],[28.2219,-21.101,956.9391],[28.2284,-21.1053,953.9641],[28.2283,-21.11,952.4631],[28.2319,-21.1157,950.5317],[28.2318,-21.1188,949.1043],[28.2247,-21.1275,945.7126],[28.2179,-21.13,943.4726],[28.217,-21.1356,940.8147],[28.2123,-21.1386,940.6696],[28.2189,-21.1472,939.6232],[28.2178,-21.1544,935.3204],[28.2203,-21.1614,931.8168],[28.2203,-21.171,934.1865],[28.2163,-21.1803,930.5507],[28.2059,-21.1877,927.1887],[28.2029,-21.1972,922.9306],[28.209,-21.2067,922.4608],[28.2108,-21.2126,922.1103],[28.2073,-21.224,915.0267],[28.2085,-21.2324,917.1671],[28.2038,-21.24,911.2538],[28.2092,-21.2437,915.317],[28.2108,-21.2481,912.1083],[28.2038,-21.254,908.58],[28.206,-21.2615,905.5594],[28.2,-21.2654,906.7175],[28.1996,-21.2678,904.2303],[28.2054,-21.2749,903.5351],[28.2081,-21.2831,899.3669],[28.2124,-21.289,899.8666],[28.2126,-21.2922,898.051],[28.2117,-21.2953,898.8126],[28.2087,-21.2977,897.053],[28.2031,-21.299,895.5922],[28.1969,-21.3092,892.8671],[28.1967,-21.3138,891.7542],[28.2036,-21.321,894.0182],[28.2157,-21.3243,896.8112],[28.2286,-21.3419,882.1313],[28.2363,-21.3464,877.4191],[28.2401,-21.3531,878.0153],[28.25,-21.3594,875.0453],[28.2592,-21.3677,871.8356],[28.2602,-21.3842,868.9985],[28.2672,-21.3964,862.4219],[28.2712,-21.3999,862.2585],[28.2724,-21.4091,861.1527],[28.2754,-21.4098,857.7787],[28.2817,-21.4075,862.049],[28.2851,-21.4085,858.6918],[28.2828,-21.418,859.7172],[28.2876,-21.4246,852.681],[28.2891,-21.4347,854.0135],[28.2977,-21.4398,851.6788],[28.3048,-21.4542,850.9399],[28.3149,-21.4563,844.8374],[28.3194,-21.4595,846.3372],[28.3252,-21.4743,837.9801],[28.3375,-21.4912,834.6425],[28.3451,-21.4932,830.2341],[28.3527,-21.4915,826.9105],[28.3548,-21.493,825.5613],[28.357,-21.4988,826.3647],[28.3568,-21.507,818.2391],[28.3593,-21.5118,823.1891],[28.3733,-21.5222,823.306],[28.3843,-21.5357,810.1625],[28.3844,-21.54,803.6555],[28.3814,-21.5444,804.0977],[28.3829,-21.5591,795.2512],[28.3794,-21.5613,794.8659],[28.3694,-21.5618,795.1771],[28.3671,-21.5674,788.6509],[28.3708,-21.574,784.1602],[28.3752,-21.5899,782.0547],[28.3798,-21.5929,782.1744],[28.3871,-21.5917,783.8692],[28.3887,-21.5936,775.1031],[28.3897,-21.6005,774.5603],[28.394,-21.6117,767.4077],[28.3927,-21.6169,767.9741],[28.3884,-21.6164,764.4967],[28.3907,-21.6187,762.0298],[28.4083,-21.6291,759.2876],[28.4269,-21.6354,756.9539],[28.4422,-21.6375,757.3234],[28.4505,-21.6433,749.403],[28.4574,-21.6506,756.0861],[28.4656,-21.6518,756.1345],[28.4808,-21.66,740.4847],[28.4956,-21.6646,740.9205],[28.5007,-21.6679,742.5557],[28.5133,-21.6651,734.8435],[28.519,-21.6617,736.7667],[28.5278,-21.6549,732.0658],[28.5396,-21.6414,731.3187],[28.5462,-21.6406,737.723],[28.5563,-21.6422,734.5439],[28.5614,-21.6398,726.2181],[28.5659,-21.6346,726.9856]]]]}
,"properties": {"GID_2": "ZWE.9.8_2","GID_0": "ZWE","country": "Zimbabwe","GID_1": "ZWE.9_1","province": "MatabelelandSouth","NL_NAME_1": "NA","county": "Matobo","VARNAME_2": "NA","NL_NAME_2": "NA","TYPE_2": "District","ENGTYPE_2": "District","CC_2": "NA","HASC_2": "NA","name": "Matobo.county","area_km2": 7263.546,"hist_schema_id": "Elevation0-9000","hist_area_km2": {"675": 0.709,"700": 9.358,"725": 42.326,"750": 92.735,"775": 184.632,"800": 228.709,"825": 254.932,"850": 324.699,"875": 354.988,"900": 367.693,"925": 419.651,"950": 476.361,"975": 430.4,"1000": 420.143,"1025": 383.291,"1050": 331.53,"1075": 319.091,"1100": 240.143,"1125": 164.59,"1150": 108.818,"1175": 95.562,"1200": 90.061,"1225": 95.01,"1250": 122.11,"1275": 144.476,"1300": 164.699,"1325": 200.652,"1350": 247.339,"1375": 277.794,"1400": 250.572,"1425": 191.654,"1450": 118.553,"1475": 62.572,"1500": 32.142,"1525": 13.726,"1550": 1.827}}}