{"type":"Feature","properties":{"GID_3":"ZWE.6.3.5_2","GID_0":"ZWE","country":"Zimbabwe","GID_1":"ZWE.6_1","province":"MashonalandWest","NL_NAME_1":"NA","GID_2":"ZWE.6.3_2","county":"Chinhoyi","NL_NAME_2":"NA","city":"Ward13","VARNAME_3":"NA","NL_NAME_3":"NA","TYPE_3":"Ward","ENGTYPE_3":"Ward","CC_3":"NA","HASC_3":"NA","name":"Ward13.city"},
"geometry":{"type": "MultiPolygon","coordinates": [[[[30.203,-17.3923,1139.4525],[30.1975,-17.3951,1151.9282],[30.1929,-17.3922,1168.5188],[30.1863,-17.3913,1176.9446],[30.1878,-17.4035,1183.3386],[30.2085,-17.4183,1143.7341],[30.205,-17.4098,1142.0533],[30.207,-17.3995,1137.5728],[30.2104,-17.3962,1134.2634],[30.2077,-17.3909,1130.3835],[30.203,-17.3923,1139.4525]]]]}}