{"type": "Feature","bbox": [29.7761,-19.0629,29.8419,-19.0142],"geometry": {"type": "MultiPolygon","coordinates": [[[[29.8195,-19.0142,1222.4561],[29.7879,-19.0193,1202.4426],[29.7821,-19.0178,1198.5437],[29.7766,-19.0214,1203.7197],[29.7761,-19.0233,1207.9587],[29.7779,-19.0256,1208.7899],[29.7813,-19.025,1213.6503],[29.7836,-19.0275,1213.3905],[29.782,-19.03,1219.2748],[29.789,-19.0316,1214.069],[29.7908,-19.0517,1203.0],[29.7889,-19.055,1235.0597],[29.791,-19.058,1204.3318],[29.8007,-19.0629,1204.7596],[29.8038,-19.0573,1208.0396],[29.816,-19.0617,1209.522],[29.8303,-19.061,1222.5496],[29.8419,-19.025,1239.2295],[29.8195,-19.0142,1222.4561]]]]}
,"properties": {"GID_3": "ZWE.10.10.7_2","GID_0": "ZWE","country": "Zimbabwe","GID_1": "ZWE.10_1","province": "Midlands","NL_NAME_1": "NA","GID_2": "ZWE.10.10_2","county": "Redcliff","NL_NAME_2": "NA","city": "Ward7","VARNAME_3": "NA","NL_NAME_3": "NA","TYPE_3": "Ward","ENGTYPE_3": "Ward","CC_3": "NA","HASC_3": "NA","name": "Ward7.city","area_km2": 24.93299,"hist_schema_id": "Elevation0-9000","hist_area_km2": {"1200": 3.42735,"1225": 18.47923,"1250": 2.96628,"1275": 0.06013}}}