{"type": "Feature","bbox": [30.1665,-17.3702,30.2072,-17.356],"geometry": {"type": "MultiPolygon","coordinates": [[[[30.195,-17.3702,1158.2041],[30.1991,-17.3666,1147.8778],[30.1989,-17.3614,1144.1558],[30.2072,-17.356,1139.088],[30.1864,-17.359,1142.7399],[30.1815,-17.3574,1154.735],[30.1665,-17.3584,1160.6526],[30.1751,-17.367,1159.2605],[30.1795,-17.3638,1167.1133],[30.1839,-17.3651,1162.6787],[30.1833,-17.3659,1162.6787],[30.1893,-17.3633,1147.5734],[30.195,-17.3702,1158.2041]]]]}
,"properties": {"GID_3": "ZWE.6.3.2_2","GID_0": "ZWE","country": "Zimbabwe","GID_1": "ZWE.6_1","province": "MashonalandWest","NL_NAME_1": "NA","GID_2": "ZWE.6.3_2","county": "Chinhoyi","NL_NAME_2": "NA","city": "Ward10","VARNAME_3": "NA","NL_NAME_3": "NA","TYPE_3": "Ward","ENGTYPE_3": "Ward","CC_3": "NA","HASC_3": "NA","name": "Ward10.city","area_km2": 2.873547,"hist_schema_id": "Elevation0-9000","hist_area_km2": {"1125": 0.06071,"1150": 2.489061,"1175": 0.323776}}}