{"type":"Feature","properties":{"GID_3":"ZWE.9.4.3_2","GID_0":"ZWE","country":"Zimbabwe","GID_1":"ZWE.9_1","province":"MatabelelandSouth","NL_NAME_1":"NA","GID_2":"ZWE.9.4_2","county":"Gwanda","NL_NAME_2":"NA","city":"Ward11","VARNAME_3":"NA","NL_NAME_3":"NA","TYPE_3":"Ward","ENGTYPE_3":"Ward","CC_3":"NA","HASC_3":"NA","name":"Ward11.city"},
"geometry":{"type": "MultiPolygon","coordinates": [[[[28.6812,-21.2707,927.0321],[28.747,-21.3293,853.5226],[28.7499,-21.3522,865.5886],[28.7562,-21.355,869.1479],[28.7719,-21.3561,863.7485],[28.789,-21.3629,849.7609],[28.7961,-21.3605,845.4417],[28.807,-21.3625,836.5236],[28.8174,-21.3602,831.6472],[28.8313,-21.3703,825.1212],[28.8434,-21.3703,815.328],[28.8581,-21.3602,824.0437],[28.8618,-21.3664,817.3058],[28.8661,-21.3677,810.7462],[28.8715,-21.3668,803.2085],[28.8823,-21.3577,792.6199],[28.8863,-21.3567,786.3297],[28.8975,-21.3645,780.8556],[28.9026,-21.3647,776.7617],[28.9087,-21.3615,778.6091],[28.9148,-21.3613,771.9938],[28.9181,-21.3799,762.591],[28.9254,-21.3795,770.1146],[28.9383,-21.3855,765.1559],[28.9524,-21.4017,739.1103],[28.9583,-21.3936,744.0781],[28.9602,-21.3892,745.45],[28.9599,-21.378,747.5439],[28.95,-21.3543,751.915],[28.9532,-21.3479,759.5195],[28.9536,-21.3412,757.4391],[28.9417,-21.3225,759.2047],[28.9401,-21.3098,773.9551],[28.9359,-21.3,766.8922],[28.9336,-21.2849,774.1526],[28.9207,-21.2601,791.3677],[28.9143,-21.2404,789.3068],[28.907,-21.2278,802.7758],[28.8968,-21.221,802.5854],[28.8713,-21.1784,810.2151],[28.8667,-21.1778,828.5435],[28.8555,-21.1804,822.6324],[28.8464,-21.1776,825.9681],[28.8303,-21.1691,836.2787],[28.8043,-21.167,850.9761],[28.7966,-21.1637,844.3019],[28.796,-21.168,840.7975],[28.7923,-21.1683,853.1796],[28.7897,-21.1713,848.1],[28.7874,-21.1704,856.6743],[28.7865,-21.1728,857.7983],[28.7825,-21.1726,863.4739],[28.7814,-21.1747,876.2505],[28.7815,-21.1793,881.5303],[28.7975,-21.2199,858.3306],[28.8583,-21.2248,863.3779],[28.8591,-21.262,868.5813],[28.8324,-21.2614,932.2854],[28.6812,-21.2707,927.0321]]]]}}