{"type":"Feature","properties":{"GID_3":"ZWE.5.8.20_2","GID_0":"ZWE","country":"Zimbabwe","GID_1":"ZWE.5_1","province":"MashonalandEast","NL_NAME_1":"NA","GID_2":"ZWE.5.8_2","county":"Mutoko","NL_NAME_2":"NA","city":"Ward27","VARNAME_3":"NA","NL_NAME_3":"NA","TYPE_3":"Ward","ENGTYPE_3":"Ward","CC_3":"NA","HASC_3":"NA","name":"Ward27.city"},
"geometry":{"type": "MultiPolygon","coordinates": [[[[32.1882,-17.4415,1193.6699],[32.1266,-17.4597,1080.226],[32.1288,-17.4794,1110.2852],[32.0813,-17.5094,1079.5908],[32.0717,-17.525,1064.6208],[32.0533,-17.5337,1049.0657],[32.0515,-17.5402,1052.683],[32.0545,-17.543,1053.2091],[32.0522,-17.5446,1055.9951],[32.0462,-17.5445,1097.5083],[32.0445,-17.5483,1062.6489],[32.0472,-17.5499,1069.4451],[32.0476,-17.5528,1064.978],[32.04,-17.5641,1072.4321],[32.0454,-17.5667,1077.1194],[32.0512,-17.5766,1083.2698],[32.0617,-17.5854,1121.2057],[32.074,-17.6015,1190.8325],[32.0826,-17.6087,1164.4703],[32.095,-17.6046,1132.7916],[32.1012,-17.5969,1118.0137],[32.0974,-17.6069,1141.6533],[32.0844,-17.6187,1164.1228],[32.0812,-17.6238,1147.9419],[32.09,-17.6231,1159.6532],[32.1072,-17.6339,1159.2441],[32.1111,-17.6341,1162.0249],[32.1202,-17.6312,1173.5388],[32.1251,-17.6381,1169.8104],[32.1316,-17.639,1157.2507],[32.1374,-17.6426,1156.3118],[32.153,-17.6429,1139.3464],[32.1586,-17.6404,1132.8995],[32.1708,-17.6423,1116.3762],[32.1779,-17.6359,1103.5247],[32.1793,-17.6287,1101.3268],[32.182,-17.6252,1102.356],[32.186,-17.6232,1096.1892],[32.1925,-17.6244,1087.2139],[32.1963,-17.6229,1085.1759],[32.2065,-17.6087,1065.8684],[32.2066,-17.6218,1079.2754],[32.2007,-17.6308,1084.0153],[32.2048,-17.6397,1093.7308],[32.2141,-17.643,1106.9503],[32.2188,-17.652,1118.8328],[32.2231,-17.6457,1124.37],[32.2202,-17.6345,1121.3562],[32.2281,-17.6192,1106.9763],[32.2287,-17.5982,1073.3334],[32.2263,-17.5564,1062.5344],[32.2433,-17.5445,1171.0356],[32.2386,-17.5403,1089.6533],[32.2237,-17.512,1047.2546],[32.2463,-17.5052,1169.829],[32.2129,-17.4339,1246.4353],[32.1882,-17.4415,1193.6699]]]]}}