{"type": "Feature","bbox": [29.83,-18.904,29.8507,-18.8585],"geometry": {"type": "MultiPolygon","coordinates": [[[[29.8406,-18.904,1192.3492],[29.8507,-18.8989,1201.146],[29.8433,-18.8585,1177.5645],[29.832,-18.8587,1161.9626],[29.8323,-18.8676,1174.3927],[29.83,-18.8707,1182.756],[29.8304,-18.8882,1176.4501],[29.8406,-18.904,1192.3492]]]]}
,"properties": {"GID_3": "ZWE.10.8.10_2","GID_0": "ZWE","country": "Zimbabwe","GID_1": "ZWE.10_1","province": "Midlands","NL_NAME_1": "NA","GID_2": "ZWE.10.8_2","county": "KwekweUrban","NL_NAME_2": "NA","city": "Ward5","VARNAME_3": "NA","NL_NAME_3": "NA","TYPE_3": "Ward","ENGTYPE_3": "Ward","CC_3": "NA","HASC_3": "NA","name": "Ward5.city","area_km2": 7.643385,"hist_schema_id": "Elevation0-9000","hist_area_km2": {"1150": 0.521652,"1175": 5.216053,"1200": 1.90568}}}