{"type": "Feature","bbox": [29.0481,-20.7127,29.2162,-20.5574],"geometry": {"type": "MultiPolygon","coordinates": [[[[29.2162,-20.711,924.6906],[29.1999,-20.6711,923.9775],[29.1978,-20.653,920.9623],[29.1938,-20.6434,922.9433],[29.1908,-20.6266,927.4714],[29.1854,-20.6137,926.7274],[29.186,-20.6063,930.1163],[29.184,-20.5971,947.6661],[29.1821,-20.5947,939.452],[29.181,-20.583,938.8149],[29.1826,-20.5603,941.7889],[29.1587,-20.5574,968.2241],[29.1337,-20.5881,1002.0681],[29.0481,-20.6049,1115.6855],[29.0536,-20.6139,1058.8436],[29.0553,-20.6236,1038.5999],[29.05,-20.6358,1050.8921],[29.0488,-20.6449,1051.2045],[29.0569,-20.6489,1044.129],[29.0633,-20.6494,1034.8267],[29.0649,-20.6475,1038.2456],[29.0634,-20.642,1031.8481],[29.0712,-20.6423,1034.5852],[29.0805,-20.6587,1064.3091],[29.0975,-20.6723,1033.6038],[29.1007,-20.678,1019.0188],[29.113,-20.6877,1002.962],[29.1147,-20.6933,987.8132],[29.1278,-20.701,976.0858],[29.135,-20.7102,962.3514],[29.163,-20.7102,947.805],[29.1654,-20.7068,951.8248],[29.1767,-20.7055,948.7375],[29.1903,-20.7079,939.8079],[29.2032,-20.7127,922.5112],[29.206,-20.7091,930.7947],[29.2112,-20.7088,926.3811],[29.2162,-20.711,924.6906]]]]}
,"properties": {"GID_3": "ZWE.9.4.18_2","GID_0": "ZWE","country": "Zimbabwe","GID_1": "ZWE.9_1","province": "MatabelelandSouth","NL_NAME_1": "NA","GID_2": "ZWE.9.4_2","county": "Gwanda","NL_NAME_2": "NA","city": "Ward3","VARNAME_3": "NA","NL_NAME_3": "NA","TYPE_3": "Ward","ENGTYPE_3": "Ward","CC_3": "NA","HASC_3": "NA","name": "Ward3.city","area_km2": 170.3368,"hist_schema_id": "Elevation0-9000","hist_area_km2": {"925": 6.4671,"950": 29.8773,"975": 47.7575,"1000": 39.8025,"1025": 26.946,"1050": 15.6564,"1075": 3.1949,"1100": 0.5953,"1125": 0.0397}}}