{"type":"Feature","properties":{"GID_3":"ZWE.4.10.2_2","GID_0":"ZWE","country":"Zimbabwe","GID_1":"ZWE.4_1","province":"MashonalandCentral","NL_NAME_1":"NA","GID_2":"ZWE.4.10_2","county":"Shamva","NL_NAME_2":"NA","city":"Ward10","VARNAME_3":"NA","NL_NAME_3":"NA","TYPE_3":"Ward","ENGTYPE_3":"Ward","CC_3":"NA","HASC_3":"NA","name":"Ward10.city"},
"geometry":{"type": "MultiPolygon","coordinates": [[[[31.5599,-17.0232,1162.163],[31.5613,-16.9995,1170.5791],[31.5558,-16.9992,1139.5929],[31.5471,-17.0023,1120.3621],[31.5394,-16.9994,1090.5015],[31.5342,-17.001,1098.8632],[31.521,-17.0007,1128.4492],[31.5164,-17.003,1127.1302],[31.5074,-16.9995,1159.7125],[31.4998,-17.0034,1152.103],[31.4679,-17.032,1208.6293],[31.4721,-17.0339,1255.4773],[31.4786,-17.0438,1103.3086],[31.4825,-17.0462,1097.3646],[31.4999,-17.0493,1048.1417],[31.5018,-17.0518,1035.4324],[31.5036,-17.0512,1052.6757],[31.5043,-17.0532,1028.3732],[31.5098,-17.0528,1062.5789],[31.5099,-17.0615,1008.8022],[31.5113,-17.0604,1026.8799],[31.5133,-17.0625,1014.7624],[31.5141,-17.0672,995.327],[31.5216,-17.0742,989.8182],[31.5242,-17.0716,989.5],[31.5288,-17.0747,989.5],[31.532,-17.0747,989.5],[31.5311,-17.0725,1006.4569],[31.5361,-17.073,986.8458],[31.5361,-17.0761,996.5951],[31.5397,-17.0765,970.4165],[31.5503,-17.0718,960.0786],[31.5584,-17.0718,970.1099],[31.5599,-17.0232,1162.163]]]]}}