{"type":"Feature","properties":{"GID_3":"ZWE.6.13.13_2","GID_0":"ZWE","country":"Zimbabwe","GID_1":"ZWE.6_1","province":"MashonalandWest","NL_NAME_1":"NA","GID_2":"ZWE.6.13_2","county":"Zvimba","NL_NAME_2":"NA","city":"Ward20","VARNAME_3":"NA","NL_NAME_3":"NA","TYPE_3":"Ward","ENGTYPE_3":"Ward","CC_3":"NA","HASC_3":"NA","name":"Ward20.city"},
"geometry":{"type": "MultiPolygon","coordinates": [[[[30.6122,-17.5241,1453.8329],[30.5779,-17.5021,1446.6803],[30.5634,-17.4831,1349.1993],[30.5167,-17.4529,1295.1576],[30.5166,-17.4836,1324.7112],[30.5061,-17.485,1295.1948],[30.4909,-17.5031,1305.075],[30.488,-17.5006,1307.4176],[30.4807,-17.5026,1305.2131],[30.4772,-17.5008,1300.1027],[30.4714,-17.5541,1367.7842],[30.4571,-17.5487,1361.2253],[30.4554,-17.5365,1354.0449],[30.4486,-17.5212,1355.6694],[30.4395,-17.5111,1344.7344],[30.4336,-17.5006,1336.0295],[30.4309,-17.4893,1322.9214],[30.3924,-17.4943,1315.9076],[30.3958,-17.5007,1315.4653],[30.3922,-17.5068,1295.2759],[30.3893,-17.5083,1295.4794],[30.3868,-17.5203,1320.0038],[30.4054,-17.5701,1333.043],[30.4315,-17.5707,1366.551],[30.4333,-17.5804,1374.449],[30.4126,-17.5892,1359.6274],[30.4195,-17.6103,1392.7985],[30.4154,-17.6159,1407.1139],[30.4355,-17.6224,1402.468],[30.4473,-17.6215,1415.353],[30.4502,-17.6334,1429.3479],[30.4342,-17.6559,1398.439],[30.4831,-17.65,1453.7007],[30.4921,-17.6507,1453.6757],[30.4857,-17.6284,1437.3782],[30.4952,-17.6251,1447.3932],[30.5073,-17.6275,1431.803],[30.5228,-17.626,1430.4287],[30.5201,-17.6471,1426.3943],[30.5596,-17.6477,1494.4579],[30.5381,-17.6162,1448.9905],[30.5932,-17.6374,1380.1145],[30.5981,-17.6379,1364.4353],[30.6017,-17.6332,1365.9553],[30.6018,-17.6273,1368.6658],[30.596,-17.6279,1384.9471],[30.6079,-17.5762,1408.8838],[30.6115,-17.5519,1421.9153],[30.6122,-17.5241,1453.8329]]]]}}