{"type":"Feature","properties":{"GID_3":"ZWE.10.5.3_2","GID_0":"ZWE","country":"Zimbabwe","GID_1":"ZWE.10_1","province":"Midlands","NL_NAME_1":"NA","GID_2":"ZWE.10.5_2","county":"Gweru","NL_NAME_2":"NA","city":"Ward11","VARNAME_3":"NA","NL_NAME_3":"NA","TYPE_3":"Ward","ENGTYPE_3":"Ward","CC_3":"NA","HASC_3":"NA","name":"Ward11.city"},
"geometry":{"type": "MultiPolygon","coordinates": [[[[29.9504,-19.2771,1323.1379],[29.9747,-19.259,1362.8894],[30.0116,-19.2201,1313.5603],[29.9975,-19.2084,1296.5188],[29.9983,-19.2052,1297.8625],[29.9954,-19.2018,1300.5032],[29.9913,-19.2011,1299.6578],[29.9871,-19.1973,1295.6429],[29.9793,-19.1946,1295.2356],[29.9768,-19.1966,1290.8396],[29.9701,-19.195,1291.5197],[29.9651,-19.1906,1292.7059],[29.9568,-19.1885,1284.0562],[29.9496,-19.1797,1281.7015],[29.9465,-19.1781,1283.2776],[29.9391,-19.1758,1281.553],[29.9297,-19.176,1275.9777],[29.9287,-19.1742,1271.9163],[29.9254,-19.1751,1268.8148],[29.9186,-19.1661,1265.6364],[29.92,-19.1613,1267.0341],[29.9166,-19.1605,1259.6216],[29.9069,-19.1697,1288.9098],[29.8813,-19.172,1254.5917],[29.8971,-19.1872,1260.3611],[29.8981,-19.1965,1254.3577],[29.9003,-19.1985,1257.865],[29.9008,-19.203,1254.4539],[29.9041,-19.2056,1262.9672],[29.902,-19.2152,1264.0632],[29.9071,-19.2173,1263.7969],[29.9084,-19.2226,1267.3142],[29.9242,-19.2442,1274.7789],[29.9286,-19.2594,1277.4269],[29.9296,-19.274,1289.7751],[29.9328,-19.2739,1288.9468],[29.9336,-19.2712,1300.1765],[29.938,-19.2696,1299.4929],[29.9437,-19.2691,1307.9465],[29.9458,-19.2741,1318.9979],[29.9504,-19.2771,1323.1379]]]]}}