{"type":"Feature","properties":{"GID_3":"ZWE.3.5.24_2","GID_0":"ZWE","country":"Zimbabwe","GID_1":"ZWE.3_1","province":"Manicaland","NL_NAME_1":"NA","GID_2":"ZWE.3.5_2","county":"Makoni","NL_NAME_2":"NA","city":"Ward30","VARNAME_3":"NA","NL_NAME_3":"NA","TYPE_3":"Ward","ENGTYPE_3":"Ward","CC_3":"NA","HASC_3":"NA","name":"Ward30.city"},
"geometry":{"type": "MultiPolygon","coordinates": [[[[32.1131,-18.878,1148.5417],[32.1099,-18.8496,1085.5785],[32.1075,-18.8508,1080.5894],[32.1089,-18.8614,1061.7297],[32.107,-18.8697,1053.7267],[32.1049,-18.8709,1053.9774],[32.1049,-18.8791,1047.1272],[32.0926,-18.8777,1152.5344],[32.084,-18.8868,1420.8824],[32.0778,-18.9003,1144.0992],[32.0833,-18.9184,981.8071],[32.0858,-18.9197,983.5736],[32.095,-18.9191,993.7762],[32.0992,-18.9221,998.1719],[32.0988,-18.934,971.1458],[32.0934,-18.9379,967.4442],[32.076,-18.9422,951.4551],[32.0724,-18.9481,941.7549],[32.064,-18.9458,936.3599],[32.0557,-18.9469,930.0079],[32.0486,-18.9452,930.6859],[32.0475,-18.9484,921.2277],[32.0432,-18.9502,921.5588],[32.0366,-18.9504,911.4643],[32.035,-18.9529,910.9634],[32.1571,-18.9825,981.6299],[32.1656,-18.9906,942.5087],[32.1682,-18.9848,944.2772],[32.1754,-18.9812,950.78],[32.1792,-18.9693,965.157],[32.1785,-18.9674,972.1205],[32.1761,-18.9675,960.2664],[32.1745,-18.9638,959.255],[32.1755,-18.9581,960.474],[32.1812,-18.9484,972.7904],[32.1852,-18.9459,972.4127],[32.1834,-18.9429,973.2347],[32.1861,-18.9394,970.7937],[32.1824,-18.9317,979.573],[32.1856,-18.9273,991.3597],[32.1845,-18.9224,1005.5268],[32.1821,-18.9201,1006.3555],[32.1828,-18.9167,1016.037],[32.18,-18.9169,1006.6406],[32.1693,-18.9043,1029.5797],[32.165,-18.9034,1036.1003],[32.164,-18.8973,1043.4537],[32.166,-18.8933,1048.7883],[32.1644,-18.8894,1059.9618],[32.122,-18.8985,1055.2065],[32.1131,-18.878,1148.5417]]]]}}