{"type": "Feature","bbox": [31.0707,-17.2432,31.1312,-17.1419],"geometry": {"type": "MultiPolygon","coordinates": [[[[31.1207,-17.1735,1151.2594],[31.1155,-17.1585,1158.0708],[31.1158,-17.1544,1173.4641],[31.1128,-17.1526,1171.8865],[31.11,-17.1464,1184.9075],[31.0985,-17.1419,1206.6422],[31.0886,-17.1467,1239.1404],[31.087,-17.1595,1231.1343],[31.079,-17.1618,1263.6011],[31.0755,-17.1694,1247.2926],[31.081,-17.1731,1215.0414],[31.0811,-17.1764,1240.8802],[31.078,-17.1803,1247.6365],[31.0787,-17.1869,1292.4407],[31.0769,-17.1926,1352.6873],[31.0815,-17.2037,1196.958],[31.0813,-17.2088,1183.0371],[31.0861,-17.2145,1168.9043],[31.0834,-17.2151,1168.0023],[31.077,-17.2216,1154.7335],[31.0707,-17.2432,1147.8384],[31.0885,-17.2419,1153.4128],[31.1312,-17.2308,1115.7258],[31.1272,-17.1865,1146.6716],[31.1242,-17.1857,1129.9564],[31.1235,-17.1816,1138.9858],[31.1196,-17.1796,1136.6897],[31.1207,-17.1735,1151.2594]]]]}
,"properties": {"GID_3": "ZWE.4.5.5_2","GID_0": "ZWE","country": "Zimbabwe","GID_1": "ZWE.4_1","province": "MashonalandCentral","NL_NAME_1": "NA","GID_2": "ZWE.4.5_2","county": "Mazowe","NL_NAME_2": "NA","city": "Ward13","VARNAME_3": "NA","NL_NAME_3": "NA","TYPE_3": "Ward","ENGTYPE_3": "Ward","CC_3": "NA","HASC_3": "NA","name": "Ward13.city","area_km2": 48.77245,"hist_schema_id": "Elevation0-9000","hist_area_km2": {"1125": 7.29066,"1150": 15.71612,"1175": 11.22139,"1200": 7.11008,"1225": 4.25391,"1250": 1.98519,"1275": 0.58743,"1300": 0.36461,"1325": 0.22281,"1350": 0.02026}}}