{"type": "Feature","bbox": [29.962,-22.2037,29.9985,-22.1527],"geometry": {"type": "MultiPolygon","coordinates": [[[[29.9879,-22.1527,531.5978],[29.962,-22.1678,497.4904],[29.988,-22.1901,490.0377],[29.9889,-22.1948,481.8776],[29.9907,-22.1957,484.063],[29.989,-22.2035,472.368],[29.9909,-22.2037,468.9568],[29.9985,-22.1841,510.3192],[29.9879,-22.1527,531.5978]]]]}
,"properties": {"GID_3": "ZWE.9.2.6_2","GID_0": "ZWE","country": "Zimbabwe","GID_1": "ZWE.9_1","province": "MatabelelandSouth","NL_NAME_1": "NA","GID_2": "ZWE.9.2_2","county": "BeitbridgeUrban","NL_NAME_2": "NA","city": "Ward6","VARNAME_3": "NA","NL_NAME_3": "NA","TYPE_3": "Ward","ENGTYPE_3": "Ward","CC_3": "NA","HASC_3": "NA","name": "Ward6.city","area_km2": 8.756822,"hist_schema_id": "Elevation0-9000","hist_area_km2": {"475": 0.392618,"500": 5.045831,"525": 3.318374}}}