{"type":"Feature","properties":{"GID_3":"ZWE.5.9.2_2","GID_0":"ZWE","country":"Zimbabwe","GID_1":"ZWE.5_1","province":"MashonalandEast","NL_NAME_1":"NA","GID_2":"ZWE.5.9_2","county":"Ruwa","NL_NAME_2":"NA","city":"Ward2","VARNAME_3":"NA","NL_NAME_3":"NA","TYPE_3":"Ward","ENGTYPE_3":"Ward","CC_3":"NA","HASC_3":"NA","name":"Ward2.city"},
"geometry":{"type": "MultiPolygon","coordinates": [[[[31.2586,-17.8991,1554.6224],[31.2514,-17.8938,1549.1543],[31.2505,-17.8956,1545.051],[31.2476,-17.8954,1547.0751],[31.2383,-17.8914,1554.0457],[31.2369,-17.8938,1546.7808],[31.2477,-17.8982,1537.2798],[31.252,-17.8972,1541.9609],[31.2523,-17.8998,1546.5476],[31.2636,-17.9124,1553.2668],[31.2676,-17.9094,1566.7228],[31.2586,-17.8991,1554.6224]]]]}}