{"type":"Feature","properties":{"GID_3":"ZWE.5.8.27_2","GID_0":"ZWE","country":"Zimbabwe","GID_1":"ZWE.5_1","province":"MashonalandEast","NL_NAME_1":"NA","GID_2":"ZWE.5.8_2","county":"Mutoko","NL_NAME_2":"NA","city":"Ward7","VARNAME_3":"NA","NL_NAME_3":"NA","TYPE_3":"Ward","ENGTYPE_3":"Ward","CC_3":"NA","HASC_3":"NA","name":"Ward7.city"},
"geometry":{"type": "MultiPolygon","coordinates": [[[[32.2922,-17.1725,860.0521],[32.2875,-17.1835,886.0283],[32.2793,-17.195,937.799],[32.2746,-17.2138,895.3804],[32.2711,-17.2181,887.3717],[32.2683,-17.2253,864.2051],[32.2639,-17.2268,857.3647],[32.2573,-17.2252,846.7345],[32.2565,-17.2216,848.0701],[32.2538,-17.2227,837.8749],[32.2471,-17.2084,877.5445],[32.2367,-17.2018,817.8063],[32.2132,-17.2184,829.5281],[32.2015,-17.2242,851.1939],[32.2117,-17.2428,888.487],[32.2102,-17.2506,885.6667],[32.2136,-17.2556,906.2255],[32.2136,-17.2725,915.1425],[32.2225,-17.27,946.873],[32.2299,-17.2737,947.9151],[32.2327,-17.2873,997.4932],[32.2391,-17.2936,1018.9744],[32.2427,-17.2944,1024.9871],[32.2358,-17.3026,1055.6602],[32.2341,-17.3152,1038.6069],[32.2316,-17.321,1060.855],[32.2278,-17.3237,1053.2656],[32.2258,-17.3388,1054.0208],[32.2357,-17.3309,1022.4272],[32.2374,-17.3256,1030.1833],[32.2472,-17.3123,978.8247],[32.2457,-17.3026,986.0089],[32.255,-17.2852,956.5118],[32.2584,-17.282,954.0559],[32.268,-17.2799,927.2233],[32.276,-17.271,903.2642],[32.2766,-17.2653,900.309],[32.2741,-17.2623,891.2837],[32.2736,-17.2571,885.7832],[32.2706,-17.252,900.6398],[32.2832,-17.2466,922.4208],[32.3272,-17.2221,896.7286],[32.3228,-17.2182,893.8494],[32.3182,-17.2106,901.3016],[32.3091,-17.2032,871.7338],[32.3067,-17.1933,871.0688],[32.3014,-17.183,863.085],[32.2967,-17.1796,853.9953],[32.2957,-17.1734,866.6633],[32.2922,-17.1725,860.0521]]]]}}