{"type":"Feature","properties":{"GID_3":"ZWE.3.9.3_2","GID_0":"ZWE","country":"Zimbabwe","GID_1":"ZWE.3_1","province":"Manicaland","NL_NAME_1":"NA","GID_2":"ZWE.3.9_2","county":"Nyanga","NL_NAME_2":"NA","city":"Ward11","VARNAME_3":"NA","NL_NAME_3":"NA","TYPE_3":"Ward","ENGTYPE_3":"Ward","CC_3":"NA","HASC_3":"NA","name":"Ward11.city"},
"geometry":{"type": "MultiPolygon","coordinates": [[[[32.9621,-17.8142,812.5282],[32.9607,-17.8113,816.2549],[32.9647,-17.8089,810.1399],[32.9693,-17.802,814.1616],[32.9717,-17.8018,810.9504],[32.9746,-17.7962,812.881],[32.9763,-17.7994,803.1584],[32.9777,-17.7982,814.8153],[32.9811,-17.7996,803.3394],[32.9844,-17.7944,814.5289],[32.9866,-17.7942,827.6573],[32.9906,-17.7976,844.4196],[32.9943,-17.7981,809.7786],[32.9958,-17.8011,808.0782],[33.0001,-17.8014,801.709],[33.005,-17.8006,801.6422],[33.0057,-17.7957,815.7015],[33.0101,-17.7994,834.5272],[33.0102,-17.7949,810.957],[33.0135,-17.7864,797.8556],[33.0116,-17.7833,802.7204],[33.0146,-17.7834,803.8939],[33.0155,-17.7811,804.3177],[33.0137,-17.7694,865.5544],[33.0183,-17.7671,804.0391],[33.0172,-17.7637,801.5315],[33.0208,-17.7595,808.1115],[33.0265,-17.7593,803.5541],[33.0265,-17.758,803.5541],[33.0158,-17.7499,791.9169],[33.0069,-17.7456,806.7234],[33.0049,-17.7429,815.0525],[32.9919,-17.7472,988.4877],[32.9525,-17.7721,1242.7855],[32.9505,-17.7765,1211.2036],[32.9508,-17.7865,1105.7063],[32.9468,-17.7901,1137.9912],[32.9466,-17.8006,1062.3352],[32.9384,-17.8091,1208.5916],[32.9401,-17.818,1346.1323],[32.938,-17.8267,1253.4326],[32.9391,-17.8301,1293.0034],[32.9433,-17.8327,1221.5398],[32.9441,-17.8358,1182.7426],[32.9556,-17.8434,848.6113],[32.9597,-17.8424,838.6636],[32.9615,-17.8439,827.4299],[32.9601,-17.8175,807.6675],[32.9621,-17.8142,812.5282]]]]}}