{"type":"Feature","properties":{"GID_3":"ZWE.4.10.17_2","GID_0":"ZWE","country":"Zimbabwe","GID_1":"ZWE.4_1","province":"MashonalandCentral","NL_NAME_1":"NA","GID_2":"ZWE.4.10_2","county":"Shamva","NL_NAME_2":"NA","city":"Ward24","VARNAME_3":"NA","NL_NAME_3":"NA","TYPE_3":"Ward","ENGTYPE_3":"Ward","CC_3":"NA","HASC_3":"NA","name":"Ward24.city"},
"geometry":{"type": "MultiPolygon","coordinates": [[[[31.5742,-17.2685,904.9124],[31.5693,-17.285,938.6957],[31.5809,-17.2945,939.928],[31.583,-17.2914,927.1792],[31.5965,-17.2966,907.9411],[31.5988,-17.2922,919.5048],[31.6023,-17.276,920.2314],[31.6192,-17.2662,886.2512],[31.6105,-17.2657,876.5279],[31.6078,-17.2675,896.9158],[31.6037,-17.2674,884.9682],[31.5946,-17.2625,891.6356],[31.5909,-17.2625,894.6865],[31.5868,-17.2629,896.0153],[31.5794,-17.2686,900.3176],[31.5742,-17.2685,904.9124]]]]}}