{"type":"Feature","properties":{"GID_1":"ZWE.7_1","GID_0":"ZWE","country":"Zimbabwe","province":"Masvingo","VARNAME_1":"NA","NL_NAME_1":"NA","TYPE_1":"Province","ENGTYPE_1":"Province","CC_1":"NA","HASC_1":"ZW.MV","ISO_1":"ZW-MV","name":"Masvingo.province"},
"geometry":{"type": "MultiPolygon","coordinates": [[[[31.3084,-22.4196,200.0172],[31.3815,-22.3718,295.5596],[31.4699,-22.2836,214.2703],[31.4815,-22.2695,232.6514],[31.4867,-22.2666,231.8869],[31.4977,-22.2555,247.7252],[31.504,-22.2515,247.647],[31.5287,-22.2211,256.6233],[31.5374,-22.2148,247.7038],[31.5903,-22.1595,311.8247],[31.6113,-22.1408,321.9019],[31.6805,-22.0687,456.0549],[31.6816,-22.0697,455.5742],[31.7455,-22.0039,487.2104],[31.7578,-21.9939,483.2856],[31.8673,-21.8807,383.101],[31.8657,-21.8805,385.0516],[31.9039,-21.8397,346.625],[32.1427,-21.5929,353.4502],[32.1596,-21.5734,381.7582],[32.3998,-21.3276,193.8589],[32.4151,-21.3157,159.5915],[32.4265,-21.3115,157.3519],[32.4481,-21.3081,161.6993],[32.4463,-21.3066,166.6313],[32.4359,-21.3048,164.859],[32.4278,-21.2982,176.3092],[32.4175,-21.2933,160.5528],[32.4069,-21.2829,164.7479],[32.4025,-21.2745,164.3206],[32.3924,-21.2625,167.203],[32.3765,-21.2547,167.2559],[32.3624,-21.2524,172.0822],[32.3544,-21.2483,183.4361],[32.3379,-21.2461,212.0637],[32.3294,-21.239,199.4883],[32.322,-21.2291,242.382],[32.3124,-21.2221,256.5455],[32.3047,-21.2102,239.4368],[32.3059,-21.2022,307.7687],[32.2944,-21.1927,271.2249],[32.2892,-21.1843,326.4106],[32.2858,-21.1596,301.5857],[32.2707,-21.1045,338.9881],[32.2655,-21.0994,334.6653],[32.2577,-21.0969,345.4612],[32.2466,-21.0984,336.3186],[32.2404,-21.0975,345.1285],[32.2338,-21.0795,342.8304],[32.2247,-21.077,344.3237],[32.2165,-21.0686,349.1416],[32.1999,-21.0669,352.3182],[32.1947,-21.0643,356.8781],[32.188,-21.0526,356.2216],[32.186,-21.0455,357.5366],[32.1866,-21.0426,362.7902],[32.1953,-21.0355,358.1992],[32.1961,-21.024,359.0],[32.1905,-21.0164,372.2389],[32.1749,-21.0079,371.2375],[32.1649,-21.0053,372.1425],[32.1577,-20.9978,366.214],[32.1549,-20.9893,364.5],[32.1529,-20.9876,368.6423],[32.152,-20.9784,365.5],[32.1587,-20.9608,368.0],[32.1571,-20.949,374.2521],[32.1473,-20.9401,375.6194],[32.1401,-20.938,370.6038],[32.1355,-20.9266,371.5],[32.1398,-20.9143,374.5233],[32.1496,-20.9041,373.875],[32.154,-20.893,375.5714],[32.1563,-20.8909,375.906],[32.1585,-20.8819,376.0715],[32.1569,-20.8776,380.5212],[32.1659,-20.8673,386.4382],[32.1833,-20.8405,380.0],[32.1882,-20.8285,389.8384],[32.1895,-20.8208,388.8097],[32.1966,-20.8043,391.8588],[32.2045,-20.8018,384.5254],[32.2108,-20.7971,384.0],[32.2151,-20.7914,386.6253],[32.2197,-20.7807,393.6396],[32.2191,-20.7778,395.0201],[32.2152,-20.7764,389.6581],[32.2091,-20.769,395.2693],[32.2088,-20.7542,398.4481],[32.2091,-20.7522,388.625],[32.2127,-20.7508,389.0],[32.2138,-20.7403,389.625],[32.2173,-20.7297,390.5],[32.2277,-20.7118,393.9409],[32.2256,-20.6986,400.5925],[32.2289,-20.6906,395.3789],[32.2346,-20.6865,397.8203],[32.247,-20.6818,396.0],[32.2555,-20.6709,397.625],[32.2609,-20.6458,406.5114],[32.2569,-20.6167,404.0],[32.2712,-20.5999,406.9888],[32.2746,-20.5892,407.5],[32.2803,-20.5759,411.2913],[32.2853,-20.5688,412.4973],[32.2886,-20.559,418.3577],[32.2878,-20.5319,416.0437],[32.2829,-20.5182,418.1303],[32.2827,-20.5122,421.2556],[32.2864,-20.5042,429.9769],[32.2891,-20.4896,419.459],[32.2884,-20.4765,424.7746],[32.2843,-20.4546,423.1418],[32.2881,-20.4233,425.5],[32.2889,-20.3971,432.4297],[32.2912,-20.3884,433.1221],[32.2958,-20.3443,441.6726],[32.3063,-20.3098,445.8081],[32.3067,-20.302,447.7259],[32.312,-20.2857,449.9091],[32.3146,-20.269,452.5898],[32.3197,-20.2601,449.4142],[32.3222,-20.2437,451.5551],[32.3236,-20.2162,458.3352],[32.3269,-20.2054,459.558],[32.3272,-20.1875,456.5],[32.3391,-20.1575,462.8096],[32.3381,-20.1318,467.7157],[32.3408,-20.1142,471.6635],[32.339,-20.1056,472.4034],[32.3396,-20.096,471.198],[32.3404,-20.089,476.1497],[32.3451,-20.0766,471.5],[32.3391,-20.0559,473.5358],[32.3374,-20.0362,479.2439],[32.3433,-20.019,476.0],[32.3434,-20.0119,480.1154],[32.3401,-20.0028,485.667],[32.3406,-20.0,479.0],[32.3344,-19.9898,486.7192],[32.3294,-19.9855,485.587],[32.3184,-19.9817,487.7854],[32.2848,-19.9783,494.3989],[32.277,-19.9729,498.9399],[32.2717,-19.9642,508.6854],[32.2674,-19.9611,521.5871],[32.255,-19.9588,527.8033],[32.2336,-19.9414,533.8249],[32.2096,-19.9307,534.8849],[32.2073,-19.9277,539.1301],[32.2022,-19.9094,562.213],[32.1963,-19.9037,564.7655],[32.1901,-19.9026,586.4283],[32.1662,-19.9037,576.6688],[32.1419,-19.9015,587.2191],[32.0956,-19.9045,605.3428],[32.0931,-19.9019,594.0585],[32.09,-19.893,609.2296],[32.086,-19.8912,629.0911],[32.0829,-19.8874,618.7339],[32.0758,-19.8701,626.1064],[32.0669,-19.868,647.4565],[32.0619,-19.8641,649.3829],[32.0523,-19.8621,657.6752],[32.0334,-19.8653,661.4979],[32.0166,-19.8632,675.4912],[32.0037,-19.8578,683.0677],[31.9996,-19.8578,681.3058],[31.9848,-19.849,696.8402],[31.9778,-19.8402,690.5717],[31.9678,-19.7996,718.0348],[31.9267,-19.768,753.1313],[31.9191,-19.7548,752.6354],[31.8994,-19.7118,771.5553],[31.8959,-19.7085,776.1196],[31.877,-19.702,812.8896],[31.8589,-19.6838,807.9631],[31.8584,-19.685,806.2906],[31.8559,-19.683,813.3005],[31.8489,-19.6818,821.6802],[31.8435,-19.6785,831.757],[31.843,-19.6679,850.7742],[31.8353,-19.6649,839.2656],[31.8346,-19.6589,845.7314],[31.8329,-19.6569,847.627],[31.8235,-19.6552,846.9284],[31.8277,-19.6304,868.542],[31.8255,-19.6203,873.6022],[31.8162,-19.6175,884.8781],[31.8022,-19.6069,888.8507],[31.7955,-19.6051,899.5396],[31.7913,-19.5999,904.8042],[31.791,-19.594,905.3793],[31.7747,-19.5901,909.0754],[31.7701,-19.5837,913.1501],[31.7609,-19.5833,912.8199],[31.7563,-19.5858,908.9523],[31.7393,-19.584,920.5054],[31.7361,-19.5797,916.433],[31.7335,-19.5602,939.0],[31.7265,-19.5424,939.0],[31.7143,-19.5405,939.0],[31.7095,-19.5286,939.0],[31.7031,-19.5243,939.0],[31.6832,-19.5223,939.0],[31.6818,-19.506,939.0],[31.6784,-19.4972,939.0],[31.6793,-19.4927,939.0],[31.6759,-19.4866,940.9733],[31.6752,-19.4743,943.3353],[31.6778,-19.4683,941.2914],[31.6746,-19.4614,950.7531],[31.6689,-19.4609,960.0314],[31.6567,-19.4662,966.6183],[31.6493,-19.4665,958.5548],[31.6396,-19.4575,961.1544],[31.622,-19.4634,969.5245],[31.6104,-19.4471,964.6203],[31.5937,-19.4507,994.8662],[31.5896,-19.4559,980.5065],[31.5863,-19.456,1006.8042],[31.5832,-19.4539,1001.5911],[31.573,-19.4569,1010.372],[31.5636,-19.4449,1006.3085],[31.5606,-19.4372,1019.735],[31.5486,-19.4173,1021.1958],[31.5275,-19.4118,1028.213],[31.525,-19.4057,1036.6477],[31.5264,-19.3947,1039.6705],[31.5216,-19.3905,1054.1648],[31.5032,-19.3854,1063.2388],[31.4923,-19.3852,1076.3986],[31.4903,-19.3836,1071.8866],[31.4893,-19.3768,1079.7319],[31.48,-19.3727,1094.2576],[31.4773,-19.3727,1092.0898],[31.4641,-19.381,1093.8644],[31.4613,-19.3813,1084.9888],[31.4484,-19.3624,1098.399],[31.4438,-19.3601,1103.2335],[31.4402,-19.3627,1105.1196],[31.4338,-19.3775,1111.3646],[31.431,-19.3769,1107.7958],[31.4251,-19.37,1120.9119],[31.4111,-19.3748,1122.8088],[31.4068,-19.3743,1138.3896],[31.4021,-19.3705,1132.2043],[31.396,-19.3688,1127.8435],[31.3821,-19.3522,1144.8732],[31.3649,-19.3369,1149.8116],[31.3588,-19.3351,1151.5868],[31.354,-19.3292,1164.1967],[31.3383,-19.3188,1165.6415],[31.3252,-19.3115,1167.3337],[31.3181,-19.3094,1172.0559],[31.3112,-19.2995,1165.9734],[31.2939,-19.2911,1180.9954],[31.2838,-19.2808,1190.3259],[31.2588,-19.2729,1225.5978],[31.2502,-19.2673,1202.7484],[31.2414,-19.2586,1203.1479],[31.2306,-19.2548,1199.5697],[31.2178,-19.2448,1212.2582],[31.2093,-19.2444,1214.6565],[31.2036,-19.2398,1206.9026],[31.1932,-19.2407,1217.3225],[31.1885,-19.2338,1227.1112],[31.0821,-19.244,1338.2987],[31.0149,-19.2562,1394.85],[30.996,-19.2579,1409.5562],[30.996,-19.2538,1406.5051],[31.0001,-19.2487,1418.6279],[30.9891,-19.225,1421.5295],[30.9895,-19.1953,1393.0067],[30.9991,-19.1556,1437.0137],[30.9695,-19.1557,1453.1245],[30.9376,-19.1486,1454.5249],[30.92,-19.1802,1461.0527],[30.9214,-19.1923,1462.5641],[30.8924,-19.192,1461.9679],[30.8898,-19.1973,1470.318],[30.8952,-19.202,1476.0198],[30.907,-19.2223,1470.5103],[30.9085,-19.2439,1494.624],[30.8939,-19.2445,1489.9219],[30.8876,-19.2479,1477.1166],[30.6989,-19.3912,1494.3428],[30.6957,-19.3958,1485.2693],[30.7584,-19.4026,1459.1694],[30.7552,-19.4068,1457.2493],[30.76,-19.4145,1459.1035],[30.7541,-19.4225,1457.3904],[30.7534,-19.4374,1459.3818],[30.714,-19.429,1471.0886],[30.7093,-19.4565,1460.3542],[30.7182,-19.4637,1448.3351],[30.7201,-19.5211,1395.8385],[30.719,-19.5301,1403.1738],[30.715699999999998,-19.5386,1395.1538],[30.7097,-19.5478,1384.891],[30.7092,-19.5538,1365.6978],[30.7127,-19.5589,1352.5768],[30.6978,-19.5689,1322.6866],[30.6949,-19.5804,1311.7509],[30.6872,-19.5879,1276.4202],[30.6972,-19.6063,1279.9735],[30.7094,-19.6369,1258.1711],[30.7055,-19.6589,1252.37],[30.7055,-19.6866,1248.578],[30.6965,-19.6911,1208.5511],[30.6961,-19.7181,1178.3077],[30.6992,-19.7228,1172.0779],[30.6986,-19.73,1208.4688],[30.7047,-19.7441,1183.297],[30.6956,-19.7442,1161.0767],[30.6902,-19.7484,1184.8684],[30.6883,-19.7564,1137.2034],[30.6926,-19.773,1139.6909],[30.6928,-19.7795,1131.2339],[30.6835,-19.7847,1121.158],[30.6841,-19.7901,1126.4498],[30.6802,-19.7951,1122.644],[30.6788,-19.8022,1108.7301],[30.6811,-19.8092,1105.6406],[30.6776,-19.8134,1107.6804],[30.6803,-19.8234,1100.6841],[30.6831,-19.8244,1109.6154],[30.6791,-19.8302,1104.6377],[30.6778,-19.8419,1092.2091],[30.6806,-19.8463,1091.464],[30.6922,-19.8518,1080.2795],[30.6926,-19.856,1080.0239],[30.6868,-19.8588,1080.2794],[30.6865,-19.8614,1077.3855],[30.6339,-19.8664,1119.0547],[30.522,-19.8365,1105.1],[30.4695,-19.8423,1047.8611],[30.4599,-19.8397,1029.9839],[30.459,-19.8457,1022.4234],[30.4539,-19.8499,1022.8843],[30.4559,-19.8541,1029.9736],[30.4554,-19.8579,1018.327],[30.459,-19.8631,1017.0505],[30.4548,-19.8675,1018.4263],[30.4482,-19.8694,1013.1063],[30.4544,-19.8773,1026.4493],[30.4508,-19.8831,1011.4995],[30.4512,-19.8849,1009.3577],[30.4544,-19.887,1011.8542],[30.4573,-19.8854,1015.7221],[30.4595,-19.8861,1023.9244],[30.4586,-19.891,1006.6425],[30.4549,-19.8931,1006.6172],[30.4545,-19.8952,1007.4271],[30.4577,-19.8949,1013.4678],[30.4645,-19.9022,1003.7557],[30.4696,-19.9008,998.3808],[30.4705,-19.9037,997.209],[30.4664,-19.9086,995.1284],[30.4616,-19.919,1001.2189],[30.457,-19.9219,995.2686],[30.4549,-19.9324,986.5626],[30.4529,-19.9324,995.3956],[30.4504,-19.9298,996.6606],[30.4429,-19.9398,988.3547],[30.4307,-19.9375,1002.1059],[30.4288,-19.9424,979.0068],[30.4274,-19.941,984.46],[30.4254,-19.9433,977.9268],[30.4263,-19.9521,976.4697],[30.4227,-19.9612,978.4204],[30.4258,-19.9629,980.6614],[30.4325,-19.9612,985.1228],[30.4333,-19.9622,978.9099],[30.4279,-19.985,967.6986],[30.4314,-19.9861,967.0692],[30.431,-19.9901,976.5558],[30.3548,-19.9974,1021.8387],[30.3342,-19.9928,1039.1422],[30.3221,-19.9996,1006.3529],[30.2507,-20.0063,1015.0634],[30.2238,-20.0125,1010.1627],[30.2198,-20.0168,999.5348],[30.1501,-20.0233,977.517],[30.1445,-20.0242,956.6622],[30.143,-20.0265,950.549],[30.144,-20.0333,943.7126],[30.151,-20.0365,943.7621],[30.1604,-20.044,940.3314],[30.1668,-20.0436,941.2587],[30.1707,-20.0545,935.973],[30.1904,-20.0653,930.3776],[30.1917,-20.0673,923.1663],[30.1882,-20.0717,922.3459],[30.1853,-20.0806,916.792],[30.1863,-20.0844,919.0468],[30.185,-20.0891,910.1808],[30.1875,-20.098,902.2753],[30.1767,-20.1001,901.4343],[30.1759,-20.1038,900.1643],[30.1719,-20.1082,897.1136],[30.1683,-20.1188,890.4108],[30.1666,-20.1211,892.3038],[30.1618,-20.1224,895.5877],[30.1582,-20.1267,885.2262],[30.1619,-20.1352,890.3245],[30.1667,-20.155,877.01],[30.164,-20.1695,873.9592],[30.1606,-20.1759,875.5089],[30.16,-20.1877,869.4421],[30.1523,-20.1906,873.4581],[30.1481,-20.1992,868.3167],[30.1536,-20.2004,872.2836],[30.1553,-20.202,872.6376],[30.1565,-20.2073,865.2119],[30.1585,-20.2065,880.5381],[30.1978,-20.1717,905.4708],[30.2778,-20.229,850.5958],[30.2773,-20.2374,844.6456],[30.2795,-20.2425,845.9471],[30.2751,-20.2512,839.098],[30.2748,-20.2569,836.6437],[30.2681,-20.2627,838.363],[30.2692,-20.2651,832.9513],[30.2671,-20.272,827.6023],[30.2613,-20.2764,825.9889],[30.2602,-20.2835,872.6522],[30.2436,-20.322,810.1562],[30.244,-20.3357,811.0016],[30.258,-20.3523,801.4715],[30.2739,-20.3538,804.324],[30.2819,-20.357,801.4059],[30.2868,-20.3566,793.3686],[30.3138,-20.3649,819.8743],[30.3201,-20.3713,790.9147],[30.3183,-20.3876,788.3976],[30.3227,-20.3964,783.9068],[30.3391,-20.4181,782.0774],[30.3452,-20.4231,780.2138],[30.3524,-20.4199,779.9016],[30.358,-20.4155,782.2671],[30.3602,-20.4161,790.2662],[30.3643,-20.4274,762.5217],[30.3681,-20.4311,771.7612],[30.3717,-20.4389,770.3678],[30.3756,-20.4411,773.8193],[30.3902,-20.4564,745.1567],[30.3941,-20.4574,769.3794],[30.4135,-20.4777,748.5645],[30.4141,-20.4813,737.2352],[30.411,-20.4878,736.1373],[30.4123,-20.4912,737.7042],[30.421,-20.4993,751.8304],[30.4438,-20.528,732.1659],[30.461,-20.5566,725.4796],[30.4603,-20.5629,726.4571],[30.4525,-20.5629,730.9874],[30.4481,-20.5657,721.849],[30.4449,-20.573,720.0955],[30.4449,-20.5757,723.5862],[30.4493,-20.5827,719.9373],[30.4506,-20.5895,719.119],[30.4512,-20.5963,713.3337],[30.4495,-20.6092,714.5807],[30.4538,-20.6173,727.4454],[30.4514,-20.6237,707.4584],[30.449,-20.6249,710.7682],[30.4504,-20.6268,703.6412],[30.4506,-20.6329,702.7563],[30.4583,-20.6467,699.565],[30.467,-20.6524,701.2142],[30.4769,-20.6544,704.2255],[30.4788,-20.6563,695.2742],[30.4814,-20.6611,699.9774],[30.4815,-20.6659,689.352],[30.4788,-20.6761,686.3681],[30.4815,-20.6802,695.4088],[30.4925,-20.684,694.9467],[30.5116,-20.681,688.0723],[30.5199,-20.6823,685.0805],[30.5098,-20.6919,700.516],[30.4975,-20.6974,729.5922],[30.4869,-20.7049,704.497],[30.4814,-20.7151,704.9494],[30.4786,-20.7407,709.6302],[30.4801,-20.7484,693.2985],[30.4734,-20.7563,684.8372],[30.4691,-20.7696,701.6327],[30.466,-20.7905,693.2468],[30.4543,-20.8311,718.248],[30.4508,-20.8692,728.527],[30.4534,-20.8826,749.9575],[30.4488,-20.894,719.9576],[30.4477,-20.9095,697.6915],[30.4434,-20.9231,685.3191],[30.4427,-20.9392,707.5309],[30.4452,-20.9625,711.3664],[30.4175,-20.9865,646.2275],[30.4093,-20.9993,632.5626],[30.4027,-20.9998,620.7665],[30.4011,-21.0061,618.8618],[30.3958,-21.0097,621.1896],[30.3965,-21.0146,618.8436],[30.3934,-21.0195,618.0],[30.3813,-21.019,624.8575],[30.3783,-21.0204,626.9316],[30.3719,-21.0256,633.1238],[30.3637,-21.0354,618.0],[30.3572,-21.0379,693.4104],[30.3568,-21.0399,618.0],[30.3426,-21.0434,618.0],[30.3372,-21.0431,618.0],[30.3163,-21.0301,654.9199],[30.3089,-21.0307,634.6644],[30.3009,-21.0366,631.1099],[30.288,-21.0272,675.22],[30.2817,-21.0194,668.8049],[30.2533,-21.0298,650.771],[30.2501,-21.041,663.1939],[30.2294,-21.0374,669.8276],[30.2171,-21.0317,669.8488],[30.2095,-21.0321,678.9947],[30.1948,-21.0381,675.7712],[30.1794,-21.0278,685.3284],[30.1726,-21.03,685.3722],[30.1694,-21.0338,681.3598],[30.1659,-21.0345,686.5044],[30.1465,-21.022,680.1508],[30.1419,-21.0165,682.5834],[30.1313,-21.0084,695.16],[30.109,-21.007,693.9837],[30.0736,-20.9901,698.2114],[30.0712,-20.9875,701.8443],[30.0673,-20.9745,714.7335],[30.0688,-20.9663,723.8731],[30.0595,-20.9603,734.6478],[30.0492,-20.9593,734.9922],[29.9911,-20.9181,769.8226],[29.9876,-20.9114,771.0468],[29.9707,-20.9094,791.7135],[29.9543,-20.9153,781.3943],[29.9468,-20.9117,799.3965],[29.9431,-20.9153,814.5593],[29.9274,-20.9228,864.0424],[29.9029,-20.9454,849.4151],[29.8823,-20.9586,950.7568],[29.8457,-20.9925,882.4081],[29.841,-20.9948,900.9974],[29.8236,-21.0129,1023.2167],[29.7828,-21.032,864.3434],[29.7674,-21.0324,881.1901],[29.7307,-21.0229,870.6164],[29.7321,-21.0312,852.588],[29.731,-21.0333,834.31],[29.7361,-21.0429,869.6409],[29.7478,-21.0732,817.9328],[29.7474,-21.0773,809.5529],[29.7521,-21.0873,811.8858],[29.7547,-21.0878,817.892],[29.7567,-21.0909,811.8945],[29.766,-21.0889,804.204],[29.766,-21.0994,797.2595],[29.7701,-21.1022,796.439],[29.7705,-21.107,800.725],[29.7741,-21.1114,791.1699],[29.7772,-21.1123,790.3926],[29.786,-21.1195,790.3307],[29.7915,-21.128,784.3015],[29.8013,-21.1356,783.5514],[29.804,-21.1358,782.0493],[29.8077,-21.1391,781.4272],[29.8128,-21.1394,785.3043],[29.8159,-21.1422,777.1904],[29.8204,-21.1422,777.7483],[29.8341,-21.1501,773.919],[29.8388,-21.1499,771.6738],[29.8412,-21.1515,772.3674],[29.8434,-21.1585,763.5966],[29.8314,-21.1649,778.623],[29.8311,-21.1741,754.0],[29.8385,-21.179,755.9542],[29.8422,-21.1884,733.2472],[29.8448,-21.1878,748.0614],[29.8457,-21.189,741.1135],[29.8472,-21.1928,737.113],[29.8469,-21.2007,733.6675],[29.851,-21.2044,734.9605],[29.8791,-21.21,724.1707],[29.8808,-21.2143,717.7249],[29.8857,-21.217,720.2635],[29.8878,-21.2214,725.1278],[29.8947,-21.2266,712.0605],[29.893,-21.2293,714.1783],[29.8862,-21.2317,710.2031],[29.8874,-21.246,708.4607],[29.8924,-21.251,705.8337],[29.8865,-21.2634,691.898],[29.8893,-21.2652,694.4454],[29.8914,-21.2698,686.244],[29.9012,-21.2681,689.9025],[29.9063,-21.2694,695.4617],[29.9188,-21.2768,688.3932],[29.919,-21.2934,694.09],[29.9214,-21.2985,687.5369],[29.9364,-21.3083,669.7913],[29.9481,-21.3489,669.2587],[29.9538,-21.3536,651.0098],[29.9991,-21.3713,647.6],[30.0077,-21.3811,633.879],[30.0188,-21.3878,635.5144],[30.0247,-21.4074,623.5148],[30.0272,-21.4109,630.7145],[30.0338,-21.4137,630.1246],[30.035,-21.4181,623.071],[30.0402,-21.423,621.646],[30.0391,-21.4276,616.7628],[30.0415,-21.4394,613.7526],[30.0459,-21.4438,621.1288],[30.0546,-21.4476,620.115],[30.0689,-21.4594,614.9024],[30.0696,-21.4725,606.2401],[30.0727,-21.4789,610.8511],[30.0814,-21.4791,605.4098],[30.0935,-21.4762,608.3871],[30.1087,-21.4834,602.1086],[30.107,-21.4875,601.9219],[30.097,-21.4928,602.6473],[30.0957,-21.4957,594.6437],[30.0961,-21.5007,601.0024],[30.1269,-21.4965,592.2693],[30.1335,-21.4982,588.778],[30.1414,-21.5045,587.5902],[30.1462,-21.5058,588.6803],[30.1658,-21.5005,584.9689],[30.1701,-21.5041,580.0521],[30.1661,-21.5162,572.9313],[30.1684,-21.5263,577.1965],[30.1725,-21.5319,577.0356],[30.1783,-21.5327,576.6053],[30.1852,-21.5285,570.5684],[30.193,-21.5287,574.599],[30.2086,-21.5387,568.2608],[30.2115,-21.5426,570.8901],[30.2144,-21.5514,562.939],[30.2183,-21.5539,570.2393],[30.2213,-21.5535,564.1415],[30.2308,-21.544,563.4649],[30.2361,-21.5458,562.3495],[30.2418,-21.552,559.3244],[30.2429,-21.5636,557.3586],[30.2397,-21.5758,552.9022],[30.2298,-21.5858,550.3539],[30.2302,-21.5915,556.168],[30.2334,-21.5944,557.2486],[30.2639,-21.5916,546.4819],[30.2757,-21.5969,547.828],[30.295,-21.5953,541.5325],[30.306,-21.6014,542.4128],[30.3282,-21.6002,537.4547],[30.3321,-21.6023,535.7758],[30.3383,-21.6111,537.5192],[30.345,-21.6072,532.3286],[30.3559,-21.5956,530.3666],[30.3611,-21.5949,531.5895],[30.3722,-21.601,526.8782],[30.3812,-21.6108,533.2858],[30.3878,-21.6111,530.0168],[30.3952,-21.6088,524.254],[30.4022,-21.6204,523.322],[30.4075,-21.6246,518.985],[30.4269,-21.6305,524.8227],[30.4434,-21.6312,513.4313],[30.4464,-21.6357,515.3168],[30.4461,-21.647,518.044],[30.4502,-21.6526,519.0759],[30.4704,-21.6516,508.7037],[30.4762,-21.656,507.5332],[30.4783,-21.6615,511.0391],[30.4825,-21.6632,509.5654],[30.4855,-21.6625,512.564],[30.4899,-21.6568,505.4723],[30.5035,-21.6581,502.5499],[30.5081,-21.6634,502.6958],[30.5076,-21.6738,506.8533],[30.5053,-21.6777,506.8044],[30.5001,-21.6795,500.5049],[30.4992,-21.6818,501.692],[30.4995,-21.6871,504.4663],[30.5019,-21.6914,497.8246],[30.4979,-21.7011,496.3602],[30.4982,-21.705,497.0284],[30.4998,-21.708,498.2333],[30.5038,-21.7103,498.1341],[30.5185,-21.7115,493.9332],[30.5218,-21.7142,493.576],[30.5243,-21.7198,491.0255],[30.5341,-21.7199,490.3643],[30.5353,-21.7283,489.4556],[30.5431,-21.736,494.5742],[30.5408,-21.745,483.8105],[30.5443,-21.7479,485.5596],[30.554,-21.7453,486.6118],[30.5577,-21.7384,482.9023],[30.5592,-21.7319,481.8009],[30.5622,-21.7298,484.2962],[30.5712,-21.7374,483.284],[30.5767,-21.7351,480.9299],[30.5821,-21.736,479.2809],[30.5877,-21.7449,481.6649],[30.5881,-21.752,478.5994],[30.5902,-21.754,481.7107],[30.5965,-21.7519,473.0078],[30.5995,-21.7431,473.459],[30.6071,-21.7458,481.3874],[30.6195,-21.7632,470.7612],[30.6316,-21.7594,470.7257],[30.6396,-21.7509,470.0327],[30.6445,-21.7481,470.2876],[30.6485,-21.7485,466.2927],[30.6501,-21.7503,466.0621],[30.6488,-21.7531,467.4094],[30.6392,-21.7618,462.6737],[30.6348,-21.7701,461.8956],[30.637,-21.773,461.2148],[30.6426,-21.7744,461.2311],[30.6532,-21.7814,459.6545],[30.6586,-21.7799,460.7481],[30.6659,-21.7824,458.3481],[30.6666,-21.7911,456.4722],[30.669,-21.7972,452.272],[30.6649,-21.8082,455.5318],[30.6651,-21.8112,456.6256],[30.6742,-21.8174,452.0131],[30.6698,-21.8237,450.0959],[30.6702,-21.8295,449.1387],[30.6724,-21.8315,447.1499],[30.6828,-21.8305,449.4421],[30.6852,-21.8316,447.2896],[30.7029,-21.8473,446.6239],[30.7108,-21.8503,443.6633],[30.7151,-21.856,444.9252],[30.7143,-21.8587,440.9111],[30.7101,-21.8618,436.8996],[30.7128,-21.8721,438.0593],[30.7167,-21.8753,440.8138],[30.7305,-21.8751,435.6021],[30.7276,-21.8903,434.7212],[30.7381,-21.8913,431.3839],[30.7503,-21.9035,429.1996],[30.7614,-21.907,426.4923],[30.7602,-21.9135,422.257],[30.7689,-21.9188,426.4034],[30.7713,-21.9223,423.1198],[30.755,-21.9306,424.453],[30.7541,-21.9341,422.1113],[30.7569,-21.9414,420.4991],[30.7662,-21.954,419.0693],[30.7727,-21.9566,421.0409],[30.783,-21.9644,416.4258],[30.7981,-21.9642,414.461],[30.8068,-21.9698,412.2967],[30.8087,-21.9748,408.3665],[30.8011,-21.9753,408.3822],[30.7966,-21.9808,407.8276],[30.7978,-21.9855,407.0057],[30.8029,-21.9915,400.7057],[30.8017,-21.9966,401.1761],[30.8037,-21.9991,410.6641],[30.833,-21.9975,406.0897],[30.8574,-22.0167,392.0186],[30.8595,-22.0343,393.4016],[30.8734,-22.0418,410.3226],[30.8869,-22.0811,377.7776],[30.8895,-22.0843,381.3188],[30.8997,-22.0835,366.024],[30.9171,-22.0736,383.7561],[30.9276,-22.0725,354.7548],[30.9313,-22.0738,370.26],[30.9353,-22.0862,354.8098],[30.9312,-22.1053,335.8452],[30.9441,-22.1129,315.2913],[30.9481,-22.125,308.0338],[30.9479,-22.1365,305.2533],[30.9547,-22.1551,324.3592],[30.9626,-22.1598,312.2812],[30.983,-22.1619,301.0963],[30.9859,-22.1633,298.6247],[30.9894,-22.1692,312.4603],[30.9877,-22.1742,304.5465],[31.0053,-22.1786,295.3999],[31.0098,-22.194,293.2289],[31.0065,-22.1972,273.8475],[31.0024,-22.2072,272.3484],[31.0133,-22.2084,275.2358],[31.0059,-22.2246,263.6065],[31.0109,-22.2275,267.4688],[31.0204,-22.2184,292.8961],[31.0304,-22.2214,275.7391],[31.0345,-22.224,306.4642],[31.036,-22.227,264.1948],[31.0363,-22.2302,333.7762],[31.0318,-22.2358,252.5475],[31.0263,-22.2367,257.5439],[31.0209,-22.2328,256.8107],[31.0162,-22.2331,249.5372],[31.0139,-22.2437,252.3546],[31.0151,-22.2446,250.5411],[31.0125,-22.249,248.3133],[31.0135,-22.2509,254.3549],[31.0178,-22.2526,251.7574],[31.0242,-22.2509,297.2373],[31.0276,-22.2519,281.1294],[31.0308,-22.2634,244.0384],[31.0343,-22.2667,247.7986],[31.0533,-22.2666,273.6225],[31.0533,-22.2684,274.8314],[31.0496,-22.2716,244.0904],[31.0521,-22.2787,256.6476],[31.0497,-22.2831,241.5223],[31.0512,-22.2859,259.2924],[31.0554,-22.2869,240.638],[31.0611,-22.2852,309.6043],[31.0683,-22.2941,236.1353],[31.0725,-22.2938,235.4227],[31.0802,-22.2885,250.3877],[31.0841,-22.2897,264.0247],[31.0841,-22.2976,229.9119],[31.0861,-22.302,230.8915],[31.0986,-22.3143,229.4575],[31.1003,-22.3202,228.5681],[31.1133,-22.3353,221.2136],[31.1133,-22.3375,223.6936],[31.1205,-22.3382,220.2615],[31.1296,-22.3332,216.0],[31.1478,-22.3285,218.204],[31.1599,-22.3276,217.1429],[31.1736,-22.329,212.0],[31.1814,-22.3312,212.3457],[31.1856,-22.3341,210.9396],[31.1977,-22.3549,208.125],[31.2109,-22.364,212.1059],[31.2165,-22.366,210.4912],[31.2261,-22.3666,210.6456],[31.2336,-22.3662,209.4725],[31.2488,-22.3617,204.9598],[31.2646,-22.3638,200.7164],[31.2738,-22.3719,199.5],[31.2871,-22.4044,199.7168],[31.3046,-22.4146,201.635],[31.3084,-22.4196,200.0172]]]]}}