{"type":"Feature","properties":{"ISO3166-1-Alpha-3":"ZWE","country":"Zimbabwe","fill":"#F00","id":"532","name":"Masvingo"},
"geometry":{"type": "Polygon","coordinates": [[[31.04181,-19.25226,1368.3695],[30.99835,-19.24637,1424.2728],[30.99525,-19.24131,1432.2555],[30.99385,-19.23588,1413.7039],[30.99276,-19.22415,1412.9829],[30.9937,-19.21154,1422.7108],[30.9968,-19.20012,1390.6713],[30.99866,-19.19593,1394.2136],[30.9999,-19.19376,1386.4016],[31.00114,-19.19025,1378.8943],[31.00036,-19.18803,1363.4844],[31.00021,-19.18694,1351.5881],[30.9999,-19.18606,1359.2524],[31.00036,-19.1856,1359.2524],[31.00393,-19.18033,1369.1771],[31.00599,-19.17304,1386.7062],[31.00672,-19.1655,1416.1761],[31.0063,-19.16095,1438.5658],[31.00222,-19.15909,1436.7839],[30.99928,-19.15852,1432.4591],[30.96439,-19.15568,1452.9957],[30.95401,-19.15712,1444.7725],[30.94729,-19.16203,1440.7571],[30.93675,-19.17749,1435.9517],[30.93039,-19.18477,1449.3818],[30.9214,-19.18896,1461.202],[30.90714,-19.19087,1467.5081],[30.90125,-19.19257,1471.0374],[30.89871,-19.19609,1471.127],[30.90063,-19.2041,1475.9996],[30.90466,-19.2133,1475.8763],[30.90264,-19.23448,1481.083],[30.85934,-19.27236,1464.4507],[30.71965,-19.38114,1500.17],[30.71175,-19.38864,1502.5891],[30.70927,-19.39354,1495.4417],[30.71376,-19.39721,1491.9429],[30.71981,-19.39954,1496.4213],[30.75087,-19.4061,1464.475],[30.75831,-19.40993,1462.2354],[30.7642,-19.41613,1466.86],[30.76498,-19.42321,1463.4214],[30.76017,-19.43117,1462.0133],[30.74684,-19.43861,1460.6241],[30.73629,-19.44305,1451.5022],[30.73004,-19.44786,1455.396],[30.72818,-19.45623,1447.2728],[30.72622,-19.53824,1403.728],[30.71562,-19.59147,1309.7864],[30.71872,-19.60759,1287.0518],[30.72307,-19.62149,1296.2693],[30.72415,-19.63188,1297.0654],[30.72322,-19.64211,1311.5409],[30.70555,-19.72288,1204.4644],[30.70493,-19.73073,1204.7361],[30.70601,-19.75538,1179.0114],[30.70508,-19.76107,1185.0975],[30.69392,-19.7929,1151.9646],[30.69097,-19.81135,1124.6638],[30.69144,-19.82416,1119.6152],[30.69299,-19.83522,1129.4132],[30.69408,-19.83972,1110.6538],[30.69563,-19.8423,1115.2169],[30.69873,-19.84525,1138.5276],[30.70198,-19.84783,1141.6195],[30.70369,-19.8516,1108.2609],[30.70183,-19.8561,1103.4849],[30.69377,-19.86039,1089.8911],[30.68663,-19.86292,1074.3657],[30.65744,-19.87005,1081.4963],[30.64457,-19.87067,1069.7268],[30.63201,-19.86954,1093.8933],[30.60235,-19.86168,1061.8015],[30.57475,-19.84773,1099.7767],[30.56731,-19.84509,1104.9729],[30.55755,-19.84447,1091.0891],[30.47249,-19.84695,1051.8254],[30.46303,-19.85238,1053.7887],[30.45187,-19.87248,1024.3364],[30.45125,-19.87744,1017.7356],[30.45218,-19.88034,1016.2982],[30.45342,-19.88251,1010.0153],[30.45435,-19.8869,1011.8542],[30.45512,-19.8884,1006.8483],[30.45621,-19.88954,1006.396],[30.45776,-19.89072,1006.6425],[30.45869,-19.89279,1006.369],[30.45915,-19.89584,1013.4678],[30.45946,-19.9008,1006.0414],[30.4607,-19.90452,1008.994],[30.46241,-19.90731,1018.0441],[30.46365,-19.90902,1016.9867],[30.46474,-19.91114,996.5038],[30.4652,-19.91351,994.7198],[30.46443,-19.91672,995.8438],[30.46163,-19.9208,993.2358],[30.45605,-19.92767,992.702],[30.43259,-19.94426,992.4435],[30.42965,-19.94896,990.3035],[30.42763,-19.95852,986.2254],[30.42763,-19.96317,973.4323],[30.42856,-19.96627,983.3481],[30.4298,-19.96767,977.434],[30.43011,-19.9701,968.0601],[30.42949,-19.97356,970.9165],[30.42701,-19.9793,967.1766],[30.42655,-19.9825,970.1119],[30.42655,-19.98462,976.7682],[30.42794,-19.9856,967.6986],[30.4312,-19.9857,967.0692],[30.43833,-19.98669,964.7656],[30.43321,-19.99113,971.7162],[30.42794,-19.99284,977.3194],[30.42112,-19.99397,977.7538],[30.26516,-20.00002,1031.1827],[30.25896,-20.00079,1035.3501],[30.25353,-20.00229,1030.0349],[30.17845,-20.03697,958.5474],[30.17054,-20.04219,942.2584],[30.16708,-20.0473,936.0901],[30.17302,-20.05428,940.0776],[30.1755,-20.06188,936.0869],[30.1769,-20.07567,1020.9316],[30.17008,-20.11097,905.0699],[30.15809,-20.13216,883.4],[30.15251,-20.17303,889.1861],[30.15297,-20.20192,867.5513],[30.15576,-20.20414,867.0358],[30.16243,-20.20161,894.4164],[30.18,-20.19076,902.9872],[30.19643,-20.1922,882.2155],[30.21255,-20.19685,878.0267],[30.22578,-20.20492,862.5803],[30.23152,-20.21184,858.0196],[30.23602,-20.22497,854.23],[30.23943,-20.24062,844.9448],[30.24082,-20.26047,843.0193],[30.24005,-20.28067,848.1055],[30.23214,-20.30532,833.4432],[30.23198,-20.31587,814.8953],[30.23462,-20.32165,815.6946],[30.23958,-20.32357,809.4868],[30.24315,-20.32723,805.6503],[30.25694,-20.3492,811.1842],[30.26035,-20.35281,807.0284],[30.26811,-20.35917,806.4573],[30.2726,-20.36175,807.3466],[30.27777,-20.36377,800.5429],[30.28862,-20.36703,808.1885],[30.308,-20.36832,790.4769],[30.31327,-20.3694,787.7831],[30.3173,-20.37204,792.3627],[30.31932,-20.37617,786.0262],[30.31916,-20.38129,786.4266],[30.31854,-20.38666,788.3976],[30.31901,-20.39255,784.5589],[30.32071,-20.39767,786.0112],[30.32304,-20.40232,791.611],[30.32955,-20.41018,787.4834],[30.33348,-20.41333,780.2598],[30.33792,-20.41591,788.113],[30.3434,-20.41777,795.8569],[30.35534,-20.41979,771.2883],[30.36045,-20.42165,766.8617],[30.36448,-20.42464,765.4755],[30.36727,-20.42899,774.6597],[30.3696,-20.43384,779.4006],[30.37146,-20.43911,770.3678],[30.37409,-20.44366,758.5677],[30.37751,-20.44749,761.6844],[30.38138,-20.45074,765.7972],[30.40376,-20.46464,780.6605],[30.40748,-20.4681,772.9611],[30.41027,-20.47229,758.4723],[30.41197,-20.47766,743.0795],[30.41337,-20.48976,749.6924],[30.41445,-20.49482,735.1635],[30.41647,-20.49994,819.1943],[30.41709,-20.50087,784.1613],[30.45807,-20.54443,740.617],[30.45962,-20.54991,733.4089],[30.45869,-20.5574,732.8914],[30.45419,-20.56887,737.4518],[30.45311,-20.5773,759.4094],[30.45326,-20.58432,818.1119],[30.45714,-20.59466,760.2333],[30.45869,-20.60009,786.0752],[30.459,-20.60624,765.4705],[30.45729,-20.62396,718.6127],[30.45791,-20.63026,720.071],[30.45931,-20.63595,715.7529],[30.46117,-20.64107,715.6211],[30.46412,-20.64546,718.8693],[30.46737,-20.64933,714.6869],[30.47125,-20.65269,706.729],[30.47946,-20.65869,690.8392],[30.48256,-20.66241,703.6931],[30.48442,-20.66773,704.8978],[30.4869,-20.67967,696.2751],[30.48861,-20.6853,680.0923],[30.49063,-20.68985,699.4891],[30.49031,-20.69584,698.1278],[30.48861,-20.7007,709.312],[30.47543,-20.72251,701.3816],[30.47295,-20.7285,695.0519],[30.4714,-20.7346,692.5069],[30.4714,-20.74049,701.427],[30.47652,-20.76132,690.3224],[30.47636,-20.76679,697.699],[30.47497,-20.7731,695.1589],[30.46412,-20.79248,693.1088],[30.45915,-20.81615,706.954],[30.45636,-20.82229,712.0422],[30.45249,-20.82819,718.9155],[30.44143,-20.84085,750.606],[30.43817,-20.84586,772.603],[30.43678,-20.85154,806.7179],[30.44205,-20.92446,686.5005],[30.43957,-20.94032,696.6859],[30.43213,-20.95133,670.7332],[30.33286,-21.03742,695.4556],[30.3235,-21.03835,621.7399],[30.31668,-21.03727,671.8964],[30.31048,-21.03494,664.9834],[30.30319,-21.03319,638.0984],[30.28444,-21.02301,641.5733],[30.27942,-21.0228,643.2487],[30.27601,-21.02378,643.9736],[30.26578,-21.03055,717.51],[30.26097,-21.03288,702.5487],[30.25663,-21.03432,680.9771],[30.25369,-21.03572,676.5368],[30.25028,-21.03835,653.2996],[30.24501,-21.04037,671.8593],[30.23772,-21.04099,666.085],[30.21085,-21.03665,678.2408],[30.19256,-21.0368,681.6212],[30.16729,-21.03334,686.5044],[30.15762,-21.03117,682.1937],[30.1522,-21.02854,683.9609],[30.14801,-21.02605,678.7817],[30.14227,-21.02115,675.53],[30.13623,-21.01432,679.0543],[30.13251,-21.01091,684.6657],[30.12662,-21.00797,685.4249],[30.10362,-21.00146,711.5115],[30.09168,-20.99464,715.7207],[30.08207,-20.98632,716.2245],[30.06657,-20.96652,721.6066],[30.06238,-20.96332,727.8856],[30.05587,-20.96001,729.426],[30.04063,-20.95428,738.3414],[30.03582,-20.95169,742.345],[30.02915,-20.9473,761.424],[30.02295,-20.94146,748.9387],[30.01489,-20.93562,748.9698],[30.00776,-20.93138,748.5577],[30.00089,-20.92632,764.0283],[29.99582,-20.92136,770.4876],[29.98864,-20.91717,764.7123],[29.98182,-20.91531,776.2841],[29.96973,-20.91485,795.8972],[29.95903,-20.91593,775.4502],[29.94957,-20.91919,789.5329],[29.93665,-20.92585,820.5295],[29.81842,-21.01882,913.0315],[29.79811,-21.02828,840.1202],[29.78664,-21.03009,859.8181],[29.77858,-21.0306,866.5927],[29.72798,-21.02419,885.7827],[29.74302,-21.07158,823.4241],[29.75046,-21.08641,810.5839],[29.79563,-21.13576,783.7144],[29.80059,-21.13907,784.1605],[29.80834,-21.14217,778.0281],[29.83222,-21.15519,784.0484],[29.83614,-21.15891,775.2311],[29.83723,-21.1615,768.5797],[29.83506,-21.16315,757.1362],[29.83475,-21.16873,769.1545],[29.83707,-21.17773,755.9835],[29.84731,-21.19881,729.0989],[29.85289,-21.20728,753.1348],[29.85769,-21.2123,782.2692],[29.86622,-21.21369,748.7448],[29.871949999999998,-21.21581,790.4492],[29.88141,-21.2215,741.7319],[29.88544,-21.22635,724.6375],[29.88761,-21.23405,709.3083],[29.88906,-21.26149,698.8215],[29.89108,-21.26811,696.2809],[29.89356,-21.27095,699.3061],[29.89774,-21.27141,694.6434],[29.9027,-21.27234,691.0026],[29.91045,-21.2757,692.6207],[29.91402,-21.27927,686.3445],[29.91588,-21.28433,681.2807],[29.91619,-21.2896,682.5211],[29.91774,-21.29663,692.3947],[29.92053,-21.30004,679.0706],[29.92518,-21.30247,672.8409],[29.93076,-21.30475,673.7805],[29.93371,-21.30692,673.7106],[29.93588,-21.30955,669.7913],[29.95081,-21.34319,680.2726],[29.95593,-21.35218,656.1107],[29.96073,-21.35833,654.2949],[29.96539,-21.36112,656.298],[29.97577,-21.36593,652.3931],[29.9843,-21.37198,634.1031],[29.98818,-21.37539,642.9617],[29.99221,-21.37844,643.4308],[30.00388,-21.38469,646.7427],[30.00869,-21.38831,641.945],[30.01954,-21.39807,629.5981],[30.03613,-21.42536,620.7112],[30.04063,-21.43001,613.6236],[30.05122,-21.43631,633.6376],[30.06982,-21.45197,622.1702],[30.07773,-21.46468,623.3112],[30.08362,-21.47171,612.0904],[30.08905,-21.4761,606.2869],[30.09556,-21.47843,599.2253],[30.10285,-21.48272,604.8651],[30.10724,-21.48835,595.7566],[30.11158,-21.49703,600.2561],[30.11561,-21.49993,593.6082],[30.11948,-21.50081,592.1114],[30.12228,-21.50019,592.6985],[30.12321,-21.49988,592.6985],[30.12724,-21.49931,587.9846],[30.13173,-21.49988,583.5599],[30.14506,-21.50365,586.8282],[30.15096,-21.50453,584.9014],[30.1645,-21.50489,583.2715],[30.17318,-21.50825,585.4062],[30.17643,-21.51388,592.2325],[30.18093,-21.52794,576.6039],[30.18496,-21.53192,575.7869],[30.18992,-21.53424,577.5625],[30.19829,-21.53646,578.3282],[30.21876,-21.54731,572.5085],[30.22609,-21.55042,560.3283],[30.23493,-21.55243,569.255],[30.23958,-21.55558,562.5658],[30.24284,-21.55967,560.4806],[30.24439,-21.56463,562.9716],[30.24454,-21.57052,559.2236],[30.24284,-21.58344,564.3813],[30.24547,-21.58767,561.2446],[30.24997,-21.59062,550.2482],[30.25632,-21.59227,552.5105],[30.3372,-21.60194,539.4562],[30.34851,-21.6053,532.1807],[30.35425,-21.60597,531.506],[30.35937,-21.60473,530.5262],[30.36417,-21.60266,535.3845],[30.36929,-21.60096,529.0973],[30.37549,-21.60054,530.2908],[30.39895,-21.6115,524.0305],[30.42345,-21.62741,519.0677],[30.4452,-21.63672,521.1358],[30.45311,-21.64364,511.5736],[30.4838,-21.65434,506.9697],[30.50401,-21.65573,500.7445],[30.51176,-21.65842,502.2578],[30.51486,-21.6623,501.5938],[30.5144,-21.66664,500.2715],[30.50851,-21.67418,506.8533],[30.50695,-21.67821,501.6133],[30.50757,-21.68188,500.5983],[30.51657,-21.69335,501.8385],[30.53672,-21.71413,494.7618],[30.5423,-21.72105,522.196],[30.55005,-21.73433,491.4037],[30.55501,-21.73619,483.5008],[30.56034,-21.7364,488.1232],[30.56576,-21.73604,489.1719],[30.57134,-21.73764,483.284],[30.58328,-21.74425,479.1085],[30.60669,-21.75294,473.782],[30.61243,-21.75309,473.4023],[30.6177,-21.75185,479.3002],[30.62798,-21.74772,476.0084],[30.6348,-21.74865,467.9082],[30.63806,-21.75195,466.4853],[30.63868,-21.75728,472.3312],[30.63728,-21.7625,466.9182],[30.63682,-21.76885,464.5275],[30.64069,-21.77242,463.1795],[30.65449,-21.77888,461.4745],[30.65775,-21.78358,461.0124],[30.65914,-21.78932,462.1173],[30.65883,-21.79516,465.3698],[30.65961,-21.80063,459.758],[30.66658,-21.82198,454.1443],[30.66958,-21.8289,449.5965],[30.6734,-21.8334,447.2432],[30.69888,-21.8475,444.1059],[30.70462,-21.85272,442.1943],[30.70896,-21.85861,442.6009],[30.7119,-21.86481,440.436],[30.75722,-21.91856,441.9065],[30.75893,-21.9228,435.3996],[30.75769,-21.9338,422.4749],[30.75831,-21.94062,422.7028],[30.76513,-21.95173,419.4795],[30.77211,-21.95747,417.7132],[30.78001,-21.96212,417.0513],[30.78983,-21.96651,409.9171],[30.79278,-21.97111,418.3419],[30.79309,-21.97623,419.7926],[30.79107,-21.98083,418.5367],[30.79061,-21.98625,420.5753],[30.79076,-21.99561,412.5673],[30.78937,-21.99855,408.3488],[30.78875,-21.99979,412.7081],[30.78797,-22.00057,412.7081],[30.78668,-22.00191,414.838],[30.78472,-22.00486,421.7411],[30.78358,-22.00946,428.6169],[30.78658,-22.01199,419.6611],[30.79169,-22.01276,415.6602],[30.79774,-22.01276,417.6649],[30.80611,-22.01457,421.138],[30.8151,-22.01819,426.1065],[30.82905,-22.02672,422.4635],[30.83603,-22.03318,420.71],[30.84228,-22.04186,404.295],[30.84833,-22.04785,399.943],[30.85887,-22.05576,403.4956],[30.86352,-22.06222,393.9543],[30.86926,-22.07617,367.5983],[30.87329,-22.07979,361.2665],[30.87872,-22.08098,367.5938],[30.89174,-22.07927,386.949],[30.90094,-22.07979,374.2121],[30.90559,-22.08289,374.0976],[30.90822,-22.0877,360.3405],[30.90822,-22.09927,355.5757],[30.90993,-22.10465,380.6385],[30.91318,-22.10945,357.8288],[30.92186,-22.11948,342.7159],[30.9245,-22.12418,355.265],[30.92605,-22.12929,339.8085],[30.92869,-22.1432,332.9273],[30.93272,-22.15245,337.0462],[30.93706,-22.15746,313.6463],[30.94217,-22.16071,350.8984],[30.95726,-22.16345,304.5887],[30.96796,-22.16655,300.2024],[30.97261,-22.17058,299.0673],[30.97416,-22.1758,290.247],[30.97277,-22.18712,305.6675],[30.97664,-22.18965,280.7153],[30.98176,-22.19022,306.1706],[30.99463,-22.18945,293.6394],[31.00129,-22.19027,280.5002],[31.00909,-22.19337,274.75],[31.01282,-22.19771,345.1452],[31.01406,-22.2034,376.1243],[31.01483,-22.21053,282.951],[31.01685,-22.21859,270.4335],[31.02398,-22.23027,267.3715],[31.02723,-22.23709,257.5439],[31.0277,-22.24924,317.4552],[31.02971,-22.25637,247.1513],[31.04119,-22.27213,266.0257],[31.04382,-22.27812,286.1005],[31.04568,-22.29078,334.365],[31.04863,-22.29781,329.3411],[31.05374,-22.30153,312.7145],[31.06056,-22.30412,322.112],[31.06697,-22.30505,338.8624],[31.07255,-22.30458,342.4465],[31.07875,-22.30505,334.4799],[31.0831,-22.3099,233.0697],[31.09705,-22.33461,225.7003],[31.09705,-22.33466,225.7003],[31.09705,-22.33492,225.7003],[31.10454,-22.33336,224.9306],[31.13772,-22.31848,221.7078],[31.1526,-22.31641,221.3168],[31.16335,-22.32262,220.1062],[31.18366,-22.34556,220.7915],[31.19068,-22.35062,212.0955],[31.19787,-22.35259,208.5],[31.21347,-22.36189,213.7794],[31.22154,-22.36489,211.5698],[31.2296,-22.36396,212.202],[31.24572,-22.35755,210.8482],[31.25564,-22.35796,208.2866],[31.26562,-22.36551,202.4588],[31.28892,-22.39734,202.5488],[31.36871,-22.34504,295.6074],[31.43382,-22.30205,223.6262],[31.48581,-22.2483,239.5598],[31.53821,-22.19394,253.4688],[31.59071,-22.13958,308.8593],[31.64311,-22.08521,412.7645],[31.69551,-22.03075,484.8791],[31.74781,-21.97638,495.4578],[31.80031,-21.92202,410.3753],[31.85271,-21.86755,397.8849],[31.90521,-21.81319,346.0469],[31.95761,-21.75883,377.9194],[32.01001,-21.70446,406.1664],[32.06241,-21.65,343.9523],[32.11481,-21.59563,329.3848],[32.16732,-21.54127,339.4485],[32.21972,-21.4869,336.9162],[32.27222,-21.43254,310.0571],[32.32452,-21.37818,207.6816],[32.37299,-21.32795,167.8406],[32.40854,-21.29033,163.003],[32.31289,-21.23266,294.0212],[32.29687,-21.21323,285.7931],[32.29816,-21.19819,247.2327],[32.26271,-21.11706,378.6153],[32.25527,-21.09339,346.9871],[32.25021,-21.08863,356.8224],[32.18013,-21.05561,377.9645],[32.19166,-21.04037,357.7548],[32.18856,-21.0306,368.7283],[32.16649,-21.01401,380.6663],[32.1606,-21.00507,362.5],[32.1575,-20.99588,367.0493],[32.1482,-20.94921,379.2328],[32.14432,-20.94032,370.0],[32.13549,-20.92833,371.0],[32.13502,-20.91981,377.3517],[32.14913,-20.89723,383.0486],[32.15285,-20.8871,383.873],[32.15807,-20.8656,386.7314],[32.19383,-20.80173,395.2769],[32.21233,-20.75036,389.0],[32.21429,-20.73005,401.6064],[32.21822,-20.71243,406.5812],[32.22778,-20.69713,405.3828],[32.24845,-20.67202,420.553],[32.25884,-20.61264,405.3084],[32.27331,-20.59316,407.0],[32.28163,-20.5451,420.2283],[32.28659,-20.40434,437.0227],[32.33625,-20.12306,467.9061],[32.33718,-20.02338,486.9811],[32.33108,-20.01459,524.5168],[32.32834,-20.00508,507.0653],[32.31005,-19.99408,509.8024],[32.25775,-19.96953,528.29],[32.19135,-19.92095,575.0148],[32.17812,-19.91599,599.1519],[32.16897,-19.91367,599.5603],[32.16107,-19.91274,609.5267],[32.14153,-19.91331,627.7448],[32.11838,-19.91677,663.1296],[32.11218,-19.91491,677.5895],[32.10598,-19.91072,646.215],[32.09776,-19.90189,618.8076],[32.09125,-19.8963,604.6359],[32.08381,-19.89186,609.6204],[32.07218,-19.88886,645.3768],[32.06376,-19.88778,666.4312],[32.05306,-19.88514,676.534],[32.04035,-19.8791,689.4617],[32.01896,-19.86432,725.2624],[32.00387,-19.85016,701.1589],[31.99611,-19.84137,729.5992],[31.9879,-19.82633,743.6725],[31.9834,-19.82168,734.7845],[31.97705,-19.81708,726.499],[31.95064,-19.80577,752.5953],[31.94521,-19.8021,781.5393],[31.93948,-19.79729,765.6931],[31.93204,-19.78799,757.3062],[31.92832,-19.78138,759.4656],[31.92583,-19.77528,730.0884],[31.91607,-19.74479,809.5618],[31.91095,-19.73828,795.6132],[31.9033,-19.73027,769.9724],[31.87214,-19.70298,823.8607],[31.84915,-19.67714,841.4454],[31.84605,-19.67244,842.0297],[31.84372,-19.66795,839.3935],[31.83674,-19.64826,876.7477],[31.83426,-19.64319,905.2311],[31.82729,-19.63699,876.4543],[31.81535,-19.62934,884.2896],[31.76925,-19.60537,945.4583],[31.76243,-19.6001,1084.3107],[31.75375,-19.59095,918.3362],[31.74957,-19.58454,921.7059],[31.74724,-19.57829,939.9667],[31.74647,-19.57271,991.6428],[31.74492,-19.56749,1001.5684],[31.7429,-19.56268,940.5662],[31.73949,-19.5585,939.0],[31.7089,-19.53007,939.0],[31.70347,-19.52108,944.7108],[31.70068,-19.51333,953.7819],[31.70115,-19.50201,974.7107],[31.70068,-19.49907,979.4371],[31.69665,-19.4955,978.89],[31.68967,-19.49292,960.0364],[31.66575,-19.48935,969.6091],[31.65521,-19.48672,985.4647],[31.6411,-19.48098,978.411],[31.63257,-19.47638,987.2579],[31.62539,-19.47049,982.5653],[31.62012,-19.46734,971.8996],[31.61237,-19.46677,983.3253],[31.60182,-19.47075,1001.7275],[31.59655,-19.47199,1003.6169],[31.59035,-19.47049,1004.1724],[31.58415,-19.46708,1017.4007],[31.5781,-19.45964,1018.8159],[31.57454,-19.4539,1039.9713],[31.56865,-19.44729,1007.2159],[31.56038,-19.44073,1007.2984],[31.53418,-19.42305,1038.2434],[31.52441,-19.41845,1054.3014],[31.50498,-19.41427,1049.076],[31.4994,-19.41215,1058.9011],[31.49444,-19.40915,1064.5942],[31.48374,-19.39892,1087.4692],[31.4794,-19.39628,1095.9819],[31.47367,-19.39463,1099.8608],[31.46297,-19.3938,1119.1898],[31.45579,-19.39494,1119.2042],[31.4502,-19.39737,1124.3298],[31.44617,-19.40021,1120.0835],[31.44106,-19.40171,1124.4313],[31.43486,-19.40114,1123.468],[31.42338,-19.39556,1129.3643],[31.41052,-19.3874,1162.3472],[31.37419,-19.35871,1171.9847],[31.21156,-19.2642,1241.2153],[31.1987,-19.24844,1236.8236],[31.04181,-19.25226,1368.3695]]]}}