{"type": "Feature","bbox": [30.9566,-18.8889,31.0604,-18.7655],"geometry": {"type": "MultiPolygon","coordinates": [[[[30.9566,-18.8472,1421.3231],[30.9604,-18.848,1418.0088],[30.9631,-18.8516,1418.9281],[30.9684,-18.853,1430.4741],[30.9729,-18.858,1429.8977],[30.9827,-18.8582,1445.9928],[30.9948,-18.8613,1451.7965],[30.9972,-18.8633,1453.7913],[30.9994,-18.8709,1476.5037],[31.0063,-18.878,1497.889],[31.0391,-18.8773,1537.0267],[31.0499,-18.887,1557.1139],[31.0604,-18.8889,1546.916],[31.0556,-18.8261,1517.1178],[31.0089,-18.7655,1426.6232],[30.9686,-18.8062,1427.7581],[30.9566,-18.8472,1421.3231]]]]}
,"properties": {"GID_3": "ZWE.5.1.26_2","GID_0": "ZWE","country": "Zimbabwe","GID_1": "ZWE.5_1","province": "MashonalandEast","NL_NAME_1": "NA","GID_2": "ZWE.5.1_2","county": "Chikomba","NL_NAME_2": "NA","city": "Ward5","VARNAME_3": "NA","NL_NAME_3": "NA","TYPE_3": "Ward","ENGTYPE_3": "Ward","CC_3": "NA","HASC_3": "NA","name": "Ward5.city","area_km2": 87.55351,"hist_schema_id": "Elevation0-9000","hist_area_km2": {"1400": 0.62222,"1425": 19.36787,"1450": 25.64757,"1475": 17.57792,"1500": 14.86813,"1525": 8.26608,"1550": 1.20371}}}