{"type": "Feature","bbox": [29.9675,-16.775,30.3338,-16.2649],"geometry": {"type": "MultiPolygon","coordinates": [[[[30.0495,-16.3866,552.4292],[30.0491,-16.3901,567.6855],[30.0459,-16.3941,627.7473],[30.0463,-16.3959,579.1089],[30.0298,-16.3941,651.0132],[30.0322,-16.4033,604.9295],[30.0279,-16.4195,632.3813],[30.0258,-16.4208,656.7769],[30.0208,-16.4174,798.9702],[30.0165,-16.4175,785.554],[30.015,-16.4189,754.7267],[30.015,-16.4235,658.7883],[30.0109,-16.4273,682.0149],[30.014,-16.4316,683.7971],[30.0224,-16.4353,697.7158],[30.0194,-16.4408,676.6253],[30.0242,-16.4482,669.9388],[30.0209,-16.4501,697.709],[30.0138,-16.447,693.1097],[30.0069,-16.4514,733.0175],[30.0052,-16.4554,685.625],[30.0085,-16.4664,708.7206],[30.0085,-16.4807,690.8375],[30.0044,-16.4808,733.5278],[29.9979,-16.4875,762.0264],[29.999,-16.4894,703.8489],[30.003,-16.4905,742.4697],[30.0028,-16.4939,690.7676],[29.9984,-16.496,736.7614],[29.9923,-16.4927,764.5353],[29.9918,-16.4981,694.5768],[29.9943,-16.5004,722.827],[29.9935,-16.5044,710.7877],[29.9891,-16.5065,721.3476],[29.9858,-16.504,773.7218],[29.9816,-16.5075,738.413],[29.9793,-16.5191,727.6431],[29.9735,-16.5184,760.377],[29.9732,-16.5213,711.6719],[29.978,-16.5244,736.7913],[29.9909,-16.5287,783.4901],[29.9911,-16.5327,787.3594],[29.984,-16.5416,763.0735],[29.9839,-16.5448,734.3013],[29.9861,-16.5469,728.826],[29.9927,-16.5466,754.4595],[29.9943,-16.5521,734.6897],[29.991,-16.5553,741.4374],[29.9828,-16.5565,762.1995],[29.9794,-16.5618,772.2767],[29.9794,-16.5751,756.2454],[29.9805,-16.5804,771.3168],[29.9837,-16.5853,771.591],[29.9772,-16.5915,781.4855],[29.9738,-16.592,864.6143],[29.9797,-16.5987,777.4205],[29.98,-16.6012,769.7738],[29.9721,-16.6066,824.1088],[29.9736,-16.6117,811.7646],[29.9792,-16.6189,830.3064],[29.9772,-16.6236,835.6992],[29.9789,-16.6262,808.0787],[29.9753,-16.6273,876.4852],[29.9762,-16.6332,864.9436],[29.9712,-16.6425,857.6072],[29.9677,-16.6448,864.113],[29.9675,-16.6496,833.6984],[29.9763,-16.6573,915.7515],[29.9766,-16.6641,846.4598],[29.973,-16.667,861.9916],[29.9776,-16.6725,878.09],[29.9852,-16.6779,964.842],[29.9862,-16.6818,847.4619],[29.9849,-16.6845,860.5089],[29.9938,-16.6963,941.243],[29.9946,-16.7045,883.2144],[29.9982,-16.7036,895.6879],[30.0033,-16.6977,979.7107],[30.0071,-16.6987,1041.8712],[30.0075,-16.7004,952.508],[30.0045,-16.7051,944.763],[30.005,-16.7078,895.7482],[30.011,-16.7245,922.2601],[30.0139,-16.728,953.5068],[30.0118,-16.7317,937.0127],[30.0141,-16.7391,958.8554],[30.0102,-16.7432,1000.0951],[30.0159,-16.7464,1073.2673],[30.0166,-16.7497,1025.0991],[30.0201,-16.7502,1059.7742],[30.0207,-16.762,967.2756],[30.0216,-16.7636,1019.1833],[30.0274,-16.7629,1087.42],[30.0284,-16.7714,989.3313],[30.0326,-16.7725,1069.7629],[30.0401,-16.7669,1109.5092],[30.1163,-16.7636,1137.3755],[30.1252,-16.775,1226.688],[30.1443,-16.7421,1198.7379],[30.1526,-16.7397,1218.4362],[30.1107,-16.6881,1084.991],[30.1186,-16.6864,1096.3193],[30.1278,-16.6814,1120.5],[30.1384,-16.6797,1158.4196],[30.1668,-16.6998,1158.3804],[30.1658,-16.6932,1155.3918],[30.1678,-16.6871,1148.1217],[30.172,-16.6824,1145.0],[30.1717,-16.6798,1145.0],[30.2087,-16.7099,1220.384],[30.2409,-16.6793,1123.6031],[30.2603,-16.6921,1118.3281],[30.2689,-16.692,1099.5525],[30.2686,-16.6894,1108.272],[30.265,-16.6871,1101.9766],[30.2673,-16.686,1102.0366],[30.2621,-16.6781,1094.5117],[30.2629,-16.675,1105.1725],[30.2669,-16.6759,1093.8132],[30.2666,-16.6722,1093.804],[30.2632,-16.6676,1086.3228],[30.2627,-16.6626,1105.3506],[30.2596,-16.6597,1092.5664],[30.2606,-16.6577,1099.4376],[30.2581,-16.6552,1086.9227],[30.2563,-16.6479,1082.2136],[30.2561,-16.6419,1081.0881],[30.259,-16.6394,1075.5052],[30.2593,-16.6369,1078.2377],[30.2493,-16.6231,1077.9905],[30.2536,-16.6216,1073.8503],[30.2509,-16.6164,1073.8768],[30.2538,-16.615,1083.8516],[30.251,-16.6129,1066.9603],[30.2518,-16.6093,1059.3855],[30.2491,-16.6075,1066.4038],[30.2515,-16.6028,1059.0538],[30.2475,-16.6008,1069.1921],[30.2522,-16.5931,1072.5796],[30.252,-16.589,1071.5771],[30.2509,-16.5878,1056.8456],[30.2478,-16.589,1061.2467],[30.2462,-16.5862,1041.9762],[30.2437,-16.5863,1045.0371],[30.2462,-16.5821,1034.786],[30.2426,-16.5721,1036.8988],[30.2382,-16.5711,1033.3759],[30.2359,-16.5653,1029.4205],[30.2342,-16.5665,1026.4979],[30.2303,-16.5587,1033.9626],[30.2271,-16.5593,1024.5083],[30.227,-16.556,1026.4675],[30.223,-16.5537,1018.6222],[30.2134,-16.5415,1024.4445],[30.2124,-16.5442,1026.1344],[30.2062,-16.5455,1005.9802],[30.2046,-16.5428,1047.8416],[30.2032,-16.5443,1020.2485],[30.1995,-16.5442,1001.671],[30.1964,-16.5413,1001.0776],[30.1957,-16.5448,994.9447],[30.1944,-16.5443,999.993],[30.1896,-16.5365,992.9255],[30.1828,-16.5329,990.2587],[30.1859,-16.5281,990.2512],[30.1851,-16.5257,990.8961],[30.1864,-16.5237,982.5049],[30.1845,-16.5203,992.1658],[30.1798,-16.5217,978.6071],[30.1798,-16.5193,988.4774],[30.1772,-16.5187,976.2199],[30.1722,-16.5114,984.7448],[30.1683,-16.5127,976.3508],[30.164,-16.509,965.2617],[30.1626,-16.5045,995.562],[30.1593,-16.5071,972.8658],[30.1589,-16.5029,1014.4885],[30.1551,-16.5022,960.3895],[30.1523,-16.4962,1003.7072],[30.1502,-16.4969,1009.8612],[30.1501,-16.4995,983.7739],[30.1473,-16.5009,979.3186],[30.1397,-16.5008,957.8109],[30.1383,-16.4995,964.0501],[30.1356,-16.5007,966.0393],[30.1316,-16.4984,951.0292],[30.1269,-16.4924,975.6583],[30.132,-16.4903,982.4724],[30.1363,-16.4834,972.8275],[30.1604,-16.4768,999.2819],[30.1637,-16.4743,995.0199],[30.1708,-16.4739,1026.7462],[30.174,-16.4687,1064.9175],[30.1744,-16.4645,1060.2302],[30.1806,-16.4609,1079.1885],[30.1841,-16.4557,1087.0502],[30.1866,-16.4551,1078.5897],[30.1936,-16.4578,1110.1703],[30.2032,-16.4496,1141.3169],[30.22,-16.4452,1150.0068],[30.2344,-16.4237,1114.0891],[30.2406,-16.4186,1075.6921],[30.2468,-16.4184,1072.8088],[30.2518,-16.4159,1103.1814],[30.256,-16.4077,1117.085],[30.2612,-16.403199999999998,1126.2037],[30.2692,-16.3997,1110.7192],[30.2824,-16.3836,965.1774],[30.2953,-16.375,885.9794],[30.3022,-16.3737,873.7849],[30.3083,-16.3685,934.1169],[30.3134,-16.3687,861.1204],[30.3183,-16.3663,805.9678],[30.319,-16.3628,867.6107],[30.3255,-16.3567,802.9513],[30.3318,-16.3473,811.6058],[30.3338,-16.3414,666.0974],[30.3305,-16.3363,707.9116],[30.3275,-16.3371,818.549],[30.3177,-16.3339,800.2671],[30.3161,-16.3298,710.2498],[30.3184,-16.3252,707.5686],[30.3169,-16.3202,541.8433],[30.3131,-16.3163,668.7917],[30.3041,-16.3149,663.2878],[30.3017,-16.3116,644.25],[30.3021,-16.2904,700.3113],[30.2996,-16.2821,792.0634],[30.2949,-16.2767,601.7438],[30.2767,-16.27,929.0594],[30.2663,-16.2714,951.9914],[30.2542,-16.2762,1069.3542],[30.2482,-16.2731,960.1974],[30.2442,-16.2673,878.3535],[30.2409,-16.2655,878.3223],[30.2342,-16.2649,708.2745],[30.2177,-16.2682,647.3823],[30.2071,-16.2763,893.3002],[30.208,-16.2895,694.5191],[30.2069,-16.2996,721.8936],[30.2093,-16.3048,702.8267],[30.214,-16.3064,692.3863],[30.2143,-16.3096,746.1407],[30.2082,-16.3121,679.3561],[30.2057,-16.3156,614.7238],[30.2103,-16.329,646.253],[30.2084,-16.3364,848.45],[30.1976,-16.349,962.319],[30.1932,-16.3512,976.2083],[30.1639,-16.3548,817.4935],[30.1533,-16.361,863.22],[30.1465,-16.3682,885.7709],[30.1442,-16.3688,875.5931],[30.118,-16.3693,801.8389],[30.1105,-16.373,798.0526],[30.1059,-16.3734,809.5292],[30.0913,-16.3725,831.858],[30.0812,-16.3891,764.272],[30.081,-16.3919,890.6271],[30.0864,-16.3987,793.0518],[30.0862,-16.4011,792.5859],[30.0834,-16.4036,846.6114],[30.0801,-16.4037,883.0696],[30.0753,-16.3997,793.5107],[30.0656,-16.3982,708.4773],[30.0609,-16.3937,718.2089],[30.0555,-16.3927,697.9364],[30.0495,-16.3866,552.4292]]]]}
,"properties": {"GID_3": "ZWE.6.9.1_2","GID_0": "ZWE","country": "Zimbabwe","GID_1": "ZWE.6_1","province": "MashonalandWest","NL_NAME_1": "NA","GID_2": "ZWE.6.9_2","county": "Makonde","NL_NAME_2": "NA","city": "Ward1","VARNAME_3": "NA","NL_NAME_3": "NA","TYPE_3": "Ward","ENGTYPE_3": "Ward","CC_3": "NA","HASC_3": "NA","name": "Ward1.city","area_km2": 1110.327,"hist_schema_id": "Elevation0-9000","hist_area_km2": {"525": 0.529,"550": 1.4039,"575": 2.3601,"600": 3.3774,"625": 4.9236,"650": 6.9787,"675": 10.8035,"700": 14.4847,"725": 16.1103,"750": 18.9361,"775": 21.2332,"800": 24.8115,"825": 29.1438,"850": 33.9008,"875": 38.4959,"900": 43.475,"925": 45.9942,"950": 47.9011,"975": 54.0172,"1000": 57.7709,"1025": 66.7882,"1050": 79.5031,"1075": 93.3969,"1100": 101.1883,"1125": 98.677,"1150": 92.1223,"1175": 58.011,"1200": 21.0409,"1225": 10.9263,"1250": 6.275,"1275": 3.6145,"1300": 1.2387,"1325": 0.4265,"1350": 0.2641,"1375": 0.0813,"1400": 0.1016,"1425": 0.0203}}}