{"type":"Feature","properties":{"GID_3":"ZWE.7.5.18_2","GID_0":"ZWE","country":"Zimbabwe","GID_1":"ZWE.7_1","province":"Masvingo","NL_NAME_1":"NA","GID_2":"ZWE.7.5_2","county":"Gutu","NL_NAME_2":"NA","city":"Ward25","VARNAME_3":"NA","NL_NAME_3":"NA","TYPE_3":"Ward","ENGTYPE_3":"Ward","CC_3":"NA","HASC_3":"NA","name":"Ward25.city"},
"geometry":{"type": "MultiPolygon","coordinates": [[[[31.3311,-19.8952,1188.0889],[31.3222,-19.8951,1166.2144],[31.3182,-19.8904,1186.9176],[31.3099,-19.8892,1199.1398],[31.2936,-19.8794,1235.353],[31.2772,-19.873,1229.8345],[31.2619,-19.8877,1300.8153],[31.2529,-19.8996,1278.5859],[31.2434,-19.9054,1263.541],[31.1992,-19.91,1237.3756],[31.1957,-19.9137,1244.5922],[31.2067,-19.9158,1252.9238],[31.2111,-19.9138,1264.9098],[31.2144,-19.9141,1276.451],[31.2222,-19.9207,1278.4349],[31.229,-19.9219,1301.2231],[31.2263,-19.9309,1289.8698],[31.2277,-19.9325,1305.2488],[31.2249,-19.9463,1250.5449],[31.2181,-19.9674,1176.5364],[31.2181,-19.9739,1208.1498],[31.2994,-19.9494,1285.5983],[31.308,-19.9588,1181.955],[31.3538,-19.9269,1140.9036],[31.3534,-19.9218,1189.4244],[31.3485,-19.9192,1153.0748],[31.3378,-19.9076,1161.7897],[31.3383,-19.9025,1171.6873],[31.3316,-19.8999,1162.3138],[31.3311,-19.8952,1188.0889]]]]}}