{"type":"Feature","properties":{"GID_3":"ZWE.10.9.8_2","GID_0":"ZWE","country":"Zimbabwe","GID_1":"ZWE.10_1","province":"Midlands","NL_NAME_1":"NA","GID_2":"ZWE.10.9_2","county":"Mberengwa","NL_NAME_2":"NA","city":"Ward16","VARNAME_3":"NA","NL_NAME_3":"NA","TYPE_3":"Ward","ENGTYPE_3":"Ward","CC_3":"NA","HASC_3":"NA","name":"Ward16.city"},
"geometry":{"type": "MultiPolygon","coordinates": [[[[29.9788,-20.7836,1047.734],[29.9817,-20.7908,1019.0255],[29.9899,-20.7967,972.6616],[29.9938,-20.8038,944.8271],[30.0001,-20.8102,912.9744],[30.0045,-20.842,909.9965],[30.008,-20.8448,941.9617],[30.0129,-20.8454,945.515],[30.0184,-20.8514,893.5518],[30.022,-20.8528,885.5618],[30.0373,-20.8487,877.2228],[30.0364,-20.8624,1033.8009],[30.0529,-20.855,835.5273],[30.0595,-20.8598,819.4662],[30.0616,-20.8538,855.7903],[30.0622,-20.8435,1084.4768],[30.0805,-20.8299,844.3911],[30.0839,-20.8249,834.373],[30.0939,-20.823,815.8604],[30.1019,-20.8176,812.5266],[30.108,-20.8173,802.5109],[30.118,-20.812,783.0991],[30.1118,-20.8069,786.9303],[30.1076,-20.8061,791.8478],[30.1107,-20.8003,785.0701],[30.1093,-20.7974,791.0323],[30.1011,-20.7905,830.2641],[30.0854,-20.7869,803.1745],[30.0791,-20.7778,812.4868],[30.0709,-20.7777,817.5016],[30.0645,-20.7758,849.4281],[30.0589,-20.7775,820.3618],[30.0518,-20.7845,818.8948],[30.0315,-20.7891,819.7134],[30.0301,-20.7873,821.9802],[30.0068,-20.7945,900.7668],[30.0045,-20.7936,923.6196],[29.9988,-20.7833,968.8816],[29.9788,-20.7836,1047.734]]]]}}