{"type":"Feature","properties":{"GID_3":"ZWE.10.6.9_2","GID_0":"ZWE","country":"Zimbabwe","GID_1":"ZWE.10_1","province":"Midlands","NL_NAME_1":"NA","GID_2":"ZWE.10.6_2","county":"GweruUrban","NL_NAME_2":"NA","city":"Ward17","VARNAME_3":"NA","NL_NAME_3":"NA","TYPE_3":"Ward","ENGTYPE_3":"Ward","CC_3":"NA","HASC_3":"NA","name":"Ward17.city"},
"geometry":{"type": "MultiPolygon","coordinates": [[[[29.749,-19.4542,1420.73],[29.7493,-19.4461,1411.6589],[29.7426,-19.4461,1420.6106],[29.7384,-19.4421,1406.1167],[29.7332,-19.4475,1424.5131],[29.7406,-19.4579,1434.6473],[29.749,-19.4542,1420.73]]]]}}