{"type":"Feature","properties":{"GID_3":"ZWE.3.1.17_2","GID_0":"ZWE","country":"Zimbabwe","GID_1":"ZWE.3_1","province":"Manicaland","NL_NAME_1":"NA","GID_2":"ZWE.3.1_2","county":"Buhera","NL_NAME_2":"NA","city":"Ward25","VARNAME_3":"NA","NL_NAME_3":"NA","TYPE_3":"Ward","ENGTYPE_3":"Ward","CC_3":"NA","HASC_3":"NA","name":"Ward25.city"},
"geometry":{"type": "MultiPolygon","coordinates": [[[[31.9613,-19.5641,973.5051],[31.9613,-19.5853,987.734],[31.9652,-19.5915,953.4515],[31.9679,-19.5936,946.2635],[31.9755,-19.5953,912.5714],[31.9795,-19.5994,906.5081],[31.9869,-19.6006,887.242],[31.9939,-19.6073,872.0907],[32.0107,-19.6147,834.6392],[32.0081,-19.6164,834.2883],[31.9985,-19.6176,849.8171],[31.9847,-19.6149,872.1447],[31.9826,-19.6165,875.2854],[31.9724,-19.6169,892.4851],[31.9622,-19.6077,924.1337],[31.9627,-19.6056,926.9089],[31.96,-19.6028,934.9266],[31.9598,-19.6051,945.7932],[31.965,-19.6156,925.6061],[31.9653,-19.6232,920.1348],[31.969,-19.6325,926.6298],[31.9681,-19.6429,944.8571],[31.9774,-19.6535,956.6605],[31.9795,-19.6584,935.2779],[31.9841,-19.6624,914.8779],[31.9965,-19.6596,894.4974],[31.9976,-19.6568,895.8546],[32.0141,-19.6495,908.043],[32.0178,-19.6496,857.389],[32.0185,-19.6483,858.9448],[32.0256,-19.6493,847.5312],[32.0297,-19.6472,862.8362],[32.0346,-19.6472,832.6547],[32.0397,-19.6416,832.9788],[32.0442,-19.6406,825.9562],[32.0506,-19.6353,816.0245],[32.0498,-19.6261,797.4275],[32.0472,-19.6193,786.9348],[32.0504,-19.6127,779.2456],[32.0605,-19.6083,770.9932],[32.0645,-19.6095,764.5072],[32.0659,-19.6064,764.7838],[32.0672,-19.6101,759.5137],[32.0713,-19.6072,755.4921],[32.0763,-19.6073,751.9767],[32.0785,-19.6042,755.1136],[32.0795,-19.607,745.0095],[32.0821,-19.6028,753.4263],[32.0837,-19.6053,738.9293],[32.09,-19.6026,742.1882],[32.1,-19.6047,726.2767],[32.1027,-19.6034,722.9583],[32.1134,-19.6037,712.913],[32.1162,-19.6004,720.3228],[32.1251,-19.6004,698.588],[32.1274,-19.5977,704.1144],[32.1363,-19.5996,691.7039],[32.1369,-19.5969,690.0493],[32.1455,-19.5956,688.0024],[32.1527,-19.5977,679.8685],[32.1583,-19.595,672.1138],[32.1648,-19.6002,662.9188],[32.1727,-19.6028,658.0331],[32.1848,-19.5999,649.9308],[32.188,-19.6034,635.6926],[32.2351,-19.6101,587.4254],[32.2344,-19.5936,590.7803],[32.2273,-19.5738,609.5359],[32.226,-19.5524,628.3135],[32.2229,-19.54,632.9778],[32.205,-19.5296,643.4001],[32.2006,-19.5249,645.9896],[32.1974,-19.5181,648.5014],[32.1896,-19.5196,655.3569],[32.1809,-19.5176,673.4307],[32.165,-19.5212,679.8198],[32.1526,-19.5143,706.2468],[32.126,-19.5145,722.722],[32.1243,-19.518,719.0071],[32.1216,-19.5183,722.8091],[32.1193,-19.5226,728.7006],[32.1129,-19.5279,737.0693],[32.1077,-19.5269,748.0341],[32.105,-19.5292,743.4529],[32.0987,-19.5287,753.1405],[32.0913,-19.5345,758.1584],[32.0833,-19.5317,767.187],[32.0759,-19.5323,769.4653],[32.0709,-19.5359,773.5382],[32.0671,-19.5414,781.0802],[32.0529,-19.5439,801.1621],[32.0505,-19.5486,798.1117],[32.0461,-19.549,808.1012],[32.0395,-19.5464,814.927],[32.0338,-19.551,822.5053],[32.0285,-19.548,826.6975],[32.0275,-19.5447,833.4465],[32.0231,-19.5444,846.0599],[32.0206,-19.5472,837.4263],[32.0085,-19.5514,855.9967],[32.0032,-19.5621,871.5575],[31.9978,-19.5641,881.8142],[31.9899,-19.5719,893.7743],[31.9823,-19.5729,909.8301],[31.9694,-19.5634,947.9839],[31.9613,-19.5641,973.5051]]]]}}