{"type":"Feature","properties":{"GID_3":"ZWE.4.6.8_2","GID_0":"ZWE","country":"Zimbabwe","GID_1":"ZWE.4_1","province":"MashonalandCentral","NL_NAME_1":"NA","GID_2":"ZWE.4.6_2","county":"Mbire","NL_NAME_2":"NA","city":"Ward16","VARNAME_3":"NA","NL_NAME_3":"NA","TYPE_3":"Ward","ENGTYPE_3":"Ward","CC_3":"NA","HASC_3":"NA","name":"Ward16.city"},
"geometry":{"type": "MultiPolygon","coordinates": [[[[30.4813,-16.2142,376.4974],[30.4751,-16.2134,375.1005],[30.4705,-16.2169,377.2413],[30.4674,-16.2134,379.1999],[30.4659,-16.2158,379.651],[30.4613,-16.2158,382.2632],[30.4577,-16.2137,382.1105],[30.4551,-16.2142,383.3295],[30.4536,-16.2117,383.9256],[30.4464,-16.2126,390.1215],[30.4452,-16.2136,389.1096],[30.4468,-16.2182,393.5371],[30.4448,-16.2212,393.608],[30.4391,-16.2186,396.4144],[30.4386,-16.2216,396.5074],[30.436,-16.2206,395.1661],[30.4351,-16.2181,395.2088],[30.4345,-16.2211,396.6256],[30.4278,-16.2239,400.1381],[30.4272,-16.2274,406.2719],[30.4195,-16.2303,404.7281],[30.4195,-16.2328,405.2713],[30.4226,-16.2328,406.2606],[30.4225,-16.2353,409.5854],[30.421,-16.2363,412.4223],[30.4184,-16.2357,411.7514],[30.4168,-16.2382,411.4618],[30.4122,-16.2396,414.2492],[30.4117,-16.2416,414.0532],[30.4076,-16.2405,419.3094],[30.407,-16.2425,416.9202],[30.3926,-16.2458,431.1662],[30.3885,-16.2492,424.9554],[30.3813,-16.2506,430.6449],[30.3757,-16.2456,438.5072],[30.3727,-16.2456,433.2495],[30.3686,-16.242,442.0058],[30.3624,-16.2444,442.7271],[30.3609,-16.2429,446.1158],[30.3557,-16.2454,446.2039],[30.3444,-16.2467,459.2971],[30.3394,-16.2422,459.2316],[30.3322,-16.2411,461.6188],[30.3296,-16.244,469.9282],[30.3296,-16.2465,476.1291],[30.326,-16.2455,472.3568],[30.3239,-16.2504,481.6368],[30.3213,-16.2499,482.4052],[30.3136,-16.2528,501.3534],[30.3151,-16.2533,499.0323],[30.314,-16.2582,504.9543],[30.312,-16.2597,510.5626],[30.3104,-16.2601,515.079],[30.3099,-16.2572,506.0938],[30.3079,-16.2571,506.1077],[30.3083,-16.2611,515.9313],[30.3047,-16.2635,533.3788],[30.2989,-16.2739,580.126],[30.2949,-16.2767,601.7438],[30.2996,-16.2821,792.0634],[30.3021,-16.2904,700.3113],[30.3017,-16.3116,644.25],[30.3041,-16.3149,663.2878],[30.315,-16.3178,663.957],[30.3184,-16.3243,675.988],[30.3161,-16.3288,681.3209],[30.3177,-16.3339,800.2671],[30.3275,-16.3371,818.549],[30.3408,-16.3348,623.6198],[30.3593,-16.3406,792.9229],[30.3631,-16.3406,715.2551],[30.3742,-16.3348,696.8759],[30.3819,-16.3368,686.6652],[30.4196,-16.3389,399.4595],[30.4244,-16.3261,387.7589],[30.4109,-16.3075,387.468],[30.4093,-16.2949,383.4129],[30.4165,-16.2932,383.5104],[30.4213,-16.2893,381.9568],[30.4285,-16.2876,381.2254],[30.4309,-16.2865,388.4882],[30.4309,-16.2836,382.0459],[30.4381,-16.2825,379.6183],[30.4417,-16.2797,393.0159],[30.4429,-16.2751,380.2277],[30.4412,-16.2745,382.3122],[30.4424,-16.2688,384.8508],[30.4407,-16.267,381.3703],[30.4431,-16.263,380.8668],[30.4426,-16.2578,381.2304],[30.4456,-16.251,378.9227],[30.4445,-16.2475,383.1182],[30.4415,-16.2475,378.6332],[30.4386,-16.2423,386.2809],[30.4458,-16.2377,389.527],[30.4524,-16.2372,385.6477],[30.4607,-16.2414,381.4121],[30.4667,-16.2368,376.4291],[30.4673,-16.2345,376.1281],[30.4768,-16.2335,388.0956],[30.4751,-16.2283,375.4395],[30.4793,-16.2278,374.5708],[30.4781,-16.2249,375.4027],[30.4813,-16.2142,376.4974]]]]}}