{"type": "Feature","bbox": [30.6957,-19.5066,31.2849,-19.1488],"geometry": {"type": "MultiPolygon","coordinates": [[[[31.2605,-19.2738,1208.1611],[31.2587,-19.2912,1240.6586],[31.2533,-19.2905,1232.7323],[31.242,-19.2929,1246.3888],[31.2347,-19.291,1238.9263],[31.2132,-19.3003,1257.8798],[31.1859,-19.2994,1264.0107],[31.1791,-19.3037,1268.7955],[31.1604,-19.308,1286.9814],[31.1531,-19.3041,1293.84],[31.1519,-19.2965,1311.7412],[31.1459,-19.2964,1298.9843],[31.1463,-19.2951,1298.5603],[31.1411,-19.2947,1301.3784],[31.1347,-19.2914,1302.3511],[31.1365,-19.2396,1280.8948],[31.0821,-19.244,1338.2987],[31.0149,-19.2562,1394.85],[30.996,-19.2579,1409.5562],[30.996,-19.2538,1406.5051],[31.0001,-19.2487,1418.6279],[30.9891,-19.225,1421.5295],[30.9895,-19.1953,1393.0067],[30.9991,-19.1556,1437.0137],[30.9695,-19.1557,1453.1245],[30.9368,-19.1488,1447.4227],[30.92,-19.1802,1461.0527],[30.9214,-19.1923,1462.5641],[30.8924,-19.192,1461.9679],[30.8898,-19.1973,1470.318],[30.8952,-19.202,1476.0198],[30.907,-19.2223,1470.5103],[30.9085,-19.2439,1494.624],[30.8939,-19.2445,1489.9219],[30.8876,-19.2479,1477.1166],[30.6989,-19.3912,1494.3428],[30.6957,-19.3958,1485.2693],[30.7584,-19.4026,1459.1694],[30.7552,-19.4068,1457.2493],[30.76,-19.4145,1459.1035],[30.7541,-19.4225,1457.3904],[30.7534,-19.4374,1459.3818],[30.714,-19.429,1471.0886],[30.7093,-19.4565,1460.3542],[30.7412,-19.481,1407.8451],[30.7676,-19.4854,1418.9745],[30.7702,-19.506,1444.5906],[30.8014,-19.5066,1465.8546],[30.8029,-19.5061,1469.2764],[30.7948,-19.4728,1472.0833],[30.8259,-19.4746,1468.0293],[30.8395,-19.4225,1514.6862],[30.819,-19.4159,1527.2965],[30.8536,-19.4222,1533.3773],[30.9064,-19.44,1519.6812],[31.0871,-19.4432,1403.8965],[31.0981,-19.4029,1405.3937],[31.0979,-19.374,1420.5966],[31.1237,-19.3614,1440.9972],[31.153199999999998,-19.3907,1359.9283],[31.1791,-19.3677,1411.7548],[31.1939,-19.3621,1402.7529],[31.2232,-19.3433,1329.5941],[31.2849,-19.2834,1162.7211],[31.2826,-19.2801,1185.0846],[31.2605,-19.2738,1208.1611]]]]}
,"properties": {"GID_3": "ZWE.7.5.1_2","GID_0": "ZWE","country": "Zimbabwe","GID_1": "ZWE.7_1","province": "Masvingo","NL_NAME_1": "NA","GID_2": "ZWE.7.5_2","county": "Gutu","NL_NAME_2": "NA","city": "Ward1","VARNAME_3": "NA","NL_NAME_3": "NA","TYPE_3": "Ward","ENGTYPE_3": "Ward","CC_3": "NA","HASC_3": "NA","name": "Ward1.city","area_km2": 996.1437,"hist_schema_id": "Elevation0-9000","hist_area_km2": {"1150": 0.06,"1175": 0.9406,"1200": 0.5604,"1225": 0.8605,"1250": 8.3444,"1275": 14.387,"1300": 27.1729,"1325": 44.8793,"1350": 55.8631,"1375": 65.423,"1400": 92.0927,"1425": 126.92529999999999,"1450": 131.4415,"1475": 214.9381,"1500": 163.8627,"1525": 48.1722,"1550": 0.22}}}