{"type": "Feature","bbox": [32.2943,-19.2457,32.4417,-19.1278],"geometry": {"type": "MultiPolygon","coordinates": [[[[32.3525,-19.2371,1028.1378],[32.3663,-19.2405,989.418],[32.3718,-19.2384,972.7044],[32.3795,-19.2378,964.5029],[32.3846,-19.2392,943.9307],[32.3911,-19.2373,939.0518],[32.4015,-19.2385,919.6023],[32.4119,-19.2424,896.9022],[32.4129,-19.2447,888.9968],[32.4202,-19.2437,888.9739],[32.4218,-19.2457,874.629],[32.4253,-19.2449,865.0927],[32.4248,-19.2351,888.5343],[32.4272,-19.2266,908.6283],[32.426,-19.2266,898.0185],[32.4269,-19.2217,905.1673],[32.4252,-19.2148,913.6082],[32.4285,-19.2031,946.2081],[32.4296,-19.1824,984.0928],[32.4333,-19.1766,975.8177],[32.4409,-19.1731,973.2357],[32.4417,-19.1701,965.9612],[32.4413,-19.1674,952.453],[32.4371,-19.1631,943.7124],[32.4376,-19.1554,948.4724],[32.434,-19.1517,920.4189],[32.4353,-19.1344,894.9753],[32.4374,-19.1278,890.2457],[32.4177,-19.1361,1059.6125],[32.3837,-19.1347,958.1979],[32.3768,-19.1385,959.1595],[32.3736,-19.1382,969.0748],[32.3669,-19.1424,983.8552],[32.3556,-19.142,1000.824],[32.3461,-19.153199999999998,1013.176],[32.3411,-19.1556,1018.1733],[32.3194,-19.1607,1016.0941],[32.315,-19.1645,1003.7061],[32.3102,-19.1656,996.223],[32.3009,-19.1664,978.1252],[32.2998,-19.1677,978.1252],[32.2973,-19.166,979.7389],[32.2943,-19.1664,967.2599],[32.3063,-19.1776,1015.4015],[32.3129,-19.1808,1029.415],[32.3143,-19.1847,1041.8164],[32.3264,-19.1918,1111.0879],[32.3406,-19.2103,1680.7578],[32.3397,-19.2226,1321.405],[32.3366,-19.2304,1114.6639],[32.3415,-19.2355,1064.6741],[32.3525,-19.2371,1028.1378]]]]}
,"properties": {"GID_3": "ZWE.3.6.3_2","GID_0": "ZWE","country": "Zimbabwe","GID_1": "ZWE.3_1","province": "Manicaland","NL_NAME_1": "NA","GID_2": "ZWE.3.6_2","county": "Mutare","NL_NAME_2": "NA","city": "Ward11","VARNAME_3": "NA","NL_NAME_3": "NA","TYPE_3": "Ward","ENGTYPE_3": "Ward","CC_3": "NA","HASC_3": "NA","name": "Ward11.city","area_km2": 120.16716,"hist_schema_id": "Elevation0-9000","hist_area_km2": {"875": 0.42038,"900": 3.12358,"925": 5.72702,"950": 13.65674,"975": 17.92249,"1000": 18.64342,"1025": 17.34219,"1050": 11.51469,"1075": 6.10755,"1100": 3.54425,"1125": 3.00342,"1150": 4.2648,"1175": 2.76312,"1200": 2.08234,"1225": 1.82206,"1250": 0.86097,"1275": 1.1413,"1300": 0.74083,"1325": 0.78087,"1350": 0.78087,"1375": 0.78086,"1400": 0.70077,"1425": 0.60065,"1450": 0.52056,"1475": 0.2803,"1500": 0.10011,"1525": 0.18019,"1550": 0.10011,"1575": 0.12013,"1600": 0.04004,"1625": 0.08009,"1650": 0.12013,"1675": 0.24026,"1700": 0.06006}}}