{"type":"Feature","properties":{"GID_3":"ZWE.8.4.1_2","GID_0":"ZWE","country":"Zimbabwe","GID_1":"ZWE.8_1","province":"MatabelelandNorth","NL_NAME_1":"NA","GID_2":"ZWE.8.4_2","county":"HwangeUrban","NL_NAME_2":"NA","city":"Ward1","VARNAME_3":"NA","NL_NAME_3":"NA","TYPE_3":"Ward","ENGTYPE_3":"Ward","CC_3":"NA","HASC_3":"NA","name":"Ward1.city"},
"geometry":{"type": "MultiPolygon","coordinates": [[[[26.4745,-18.3129,708.9831],[26.4816,-18.3219,704.0894],[26.4832,-18.321,718.6031],[26.4834,-18.323,711.575],[26.488,-18.3254,717.7],[26.4998,-18.3454,732.2883],[26.5088,-18.3438,740.9469],[26.506,-18.3345,802.1091],[26.5078,-18.3304,800.2343],[26.5036,-18.3281,789.7137],[26.5042,-18.2687,642.8865],[26.5004,-18.2741,655.5552],[26.4745,-18.3129,708.9831]]]]}}