{"type": "Feature","bbox": [30.3495,-17.4062,30.4308,-17.3493],"geometry": {"type": "MultiPolygon","coordinates": [[[[30.3735,-17.3892,1250.8208],[30.3902,-17.3977,1274.293],[30.3966,-17.3954,1253.8723],[30.3975,-17.3967,1258.969],[30.3949,-17.3976,1263.9707],[30.3978,-17.4007,1262.9097],[30.4009,-17.3991,1256.2444],[30.4037,-17.4021,1274.395],[30.4233,-17.4062,1245.4978],[30.4185,-17.3912,1237.2229],[30.4308,-17.381,1215.4032],[30.4062,-17.3763,1271.1803],[30.4238,-17.3513,1227.4639],[30.3947,-17.3493,1259.0354],[30.3962,-17.3711,1269.6307],[30.3906,-17.3746,1255.6199],[30.3894,-17.3746,1249.8058],[30.3864,-17.3656,1244.0046],[30.3719,-17.3598,1248.7758],[30.3539,-17.3677,1234.2996],[30.3495,-17.3825,1225.6223],[30.3648,-17.3885,1244.303],[30.3735,-17.3892,1250.8208]]]]}
,"properties": {"GID_3": "ZWE.6.13.16_2","GID_0": "ZWE","country": "Zimbabwe","GID_1": "ZWE.6_1","province": "MashonalandWest","NL_NAME_1": "NA","GID_2": "ZWE.6.13_2","county": "Zvimba","NL_NAME_2": "NA","city": "Ward23","VARNAME_3": "NA","NL_NAME_3": "NA","TYPE_3": "Ward","ENGTYPE_3": "Ward","CC_3": "NA","HASC_3": "NA","name": "Ward23.city","area_km2": 27.33676,"hist_schema_id": "Elevation0-9000","hist_area_km2": {"1200": 0.02023,"1225": 4.83612,"1250": 16.9565,"1275": 5.50367,"1300": 0.02023}}}