{"type":"Feature","properties":{"GID_3":"ZWE.7.5.38_2","GID_0":"ZWE","country":"Zimbabwe","GID_1":"ZWE.7_1","province":"Masvingo","NL_NAME_1":"NA","GID_2":"ZWE.7.5_2","county":"Gutu","NL_NAME_2":"NA","city":"Ward5","VARNAME_3":"NA","NL_NAME_3":"NA","TYPE_3":"Ward","ENGTYPE_3":"Ward","CC_3":"NA","HASC_3":"NA","name":"Ward5.city"},
"geometry":{"type": "MultiPolygon","coordinates": [[[[30.9062,-19.4399,1525.1453],[30.8841,-19.4678,1507.595],[30.8715,-19.4887,1485.6898],[30.8884,-19.5034,1472.7684],[30.9005,-19.4998,1447.3922],[30.9141,-19.5122,1432.666],[30.9365,-19.5224,1372.4021],[30.9348,-19.5307,1371.0713],[30.938,-19.5354,1400.5131],[30.9347,-19.5414,1360.4897],[30.9362,-19.5469,1359.7511],[30.9402,-19.5521,1369.6652],[30.9619,-19.5196,1419.4004],[31.0188,-19.4413,1469.8962],[30.9062,-19.4399,1525.1453]]]]}}