{"type": "Feature","bbox": [32.8809,-18.3727,32.9895,-18.2313],"geometry": {"type": "MultiPolygon","coordinates": [[[[32.9885,-18.2964,688.9586],[32.9895,-18.2349,1367.231],[32.9773,-18.2313,1319.4214],[32.9628,-18.2522,1168.2758],[32.9739,-18.2566,1022.8693],[32.9759,-18.2636,945.1703],[32.9722,-18.2768,1033.3079],[32.9539,-18.297,1081.5228],[32.9494,-18.3048,1052.8208],[32.9423,-18.3299,913.9828],[32.9246,-18.3355,970.9982],[32.904,-18.3032,1529.6382],[32.8809,-18.3116,1312.2811],[32.8972,-18.3391,1033.3313],[32.9071,-18.3597,1051.5198],[32.9114,-18.3727,1024.0782],[32.9886,-18.3404,873.6801],[32.9885,-18.2964,688.9586]]]]}
,"properties": {"GID_3": "ZWE.3.8.12_2","GID_0": "ZWE","country": "Zimbabwe","GID_1": "ZWE.3_1","province": "Manicaland","NL_NAME_1": "NA","GID_2": "ZWE.3.8_2","county": "Mutasa","NL_NAME_2": "NA","city": "Ward2","VARNAME_3": "NA","NL_NAME_3": "NA","TYPE_3": "Ward","ENGTYPE_3": "Ward","CC_3": "NA","HASC_3": "NA","name": "Ward2.city","area_km2": 66.34158,"hist_schema_id": "Elevation0-9000","hist_area_km2": {"675": 0.48308,"700": 2.55597,"725": 3.01898,"750": 4.28696,"775": 5.27319,"800": 5.57499,"825": 5.41424,"850": 4.66959,"875": 4.26705,"900": 3.74381,"925": 3.14,"950": 2.97891,"975": 2.79782,"1000": 2.41547,"1025": 2.21416,"1050": 2.05316,"1075": 2.1136,"1100": 1.6305,"1125": 1.55001,"1150": 1.18775,"1175": 1.24809,"1200": 1.04686,"1225": 0.765,"1250": 0.38251,"1275": 0.34223,"1300": 0.24158,"1325": 0.18118,"1350": 0.06039,"1375": 0.12077,"1400": 0.08052,"1425": 0.18116,"1450": 0.16103,"1475": 0.10065,"1500": 0.02013,"1525": 0.04026}}}