{"type": "Feature","bbox": [31.0897,-22.1433,31.3681,-21.7166],"geometry": {"type": "MultiPolygon","coordinates": [[[[31.2777,-21.7166,375.2929],[31.2563,-21.7303,432.856],[31.0897,-22.021,448.5735],[31.1032,-22.0361,418.3038],[31.1185,-22.0492,396.3671],[31.1241,-22.0592,390.7404],[31.1338,-22.0646,392.4819],[31.146,-22.0678,382.1476],[31.1473,-22.086,377.2966],[31.1462,-22.1149,406.4291],[31.1525,-22.1309,408.88869999999997],[31.1743,-22.1433,385.0351],[31.1941,-22.1299,353.737],[31.2048,-22.1201,332.1158],[31.213,-22.1156,322.2791],[31.2322,-22.1128,305.6826],[31.2303,-22.1029,316.9933],[31.2297,-22.0809,307.1312],[31.2357,-22.0597,422.4005],[31.2248,-22.018,498.3026],[31.2244,-22.0029,501.8892],[31.3643,-21.9742,342.8594],[31.3681,-21.9747,334.8705],[31.3291,-21.8176,381.2371],[31.3544,-21.8158,357.6566],[31.353,-21.7866,387.1125],[31.3469,-21.775,351.3918],[31.328,-21.7584,363.4538],[31.3258,-21.7467,367.447],[31.3112,-21.7397,365.2801],[31.3065,-21.7223,377.3908],[31.3014,-21.72,375.3514],[31.2877,-21.7196,376.3978],[31.2777,-21.7166,375.2929]]]]}
,"properties": {"GID_3": "ZWE.7.2.5_2","GID_0": "ZWE","country": "Zimbabwe","GID_1": "ZWE.7_1","province": "Masvingo","NL_NAME_1": "NA","GID_2": "ZWE.7.2_2","county": "Chiredzi","NL_NAME_2": "NA","city": "Ward13","VARNAME_3": "NA","NL_NAME_3": "NA","TYPE_3": "Ward","ENGTYPE_3": "Ward","CC_3": "NA","HASC_3": "NA","name": "Ward13.city","area_km2": 658.7811,"hist_schema_id": "Elevation0-9000","hist_area_km2": {"300": 1.4931,"325": 13.9309,"350": 52.7883,"375": 95.2702,"400": 109.2894,"425": 77.148,"450": 65.6859,"475": 60.2095,"500": 64.195,"525": 57.5462,"550": 35.4103,"575": 18.0087,"600": 7.8055}}}