{"type":"Feature","properties":{"GID_3":"ZWE.1.1.29_2","GID_0":"ZWE","country":"Zimbabwe","GID_1":"ZWE.1_1","province":"Bulawayo","NL_NAME_1":"NA","GID_2":"ZWE.1.1_2","county":"Bulawayo","NL_NAME_2":"NA","city":"Ward9","VARNAME_3":"NA","NL_NAME_3":"NA","TYPE_3":"Ward","ENGTYPE_3":"Ward","CC_3":"NA","HASC_3":"NA","name":"Ward9.city"},
"geometry":{"type": "MultiPolygon","coordinates": [[[[28.5422,-20.134,1370.9515],[28.5365,-20.1401,1362.0205],[28.5333,-20.1467,1379.525],[28.5321,-20.1558,1378.8948],[28.5469,-20.1537,1353.6633],[28.5613,-20.1376,1345.9592],[28.5613,-20.1357,1346.2528],[28.5422,-20.134,1370.9515]]]]}}