{"type": "Feature","bbox": [29.7868,-20.0718,30.4885,-19.4153],"geometry": {"type": "MultiPolygon","coordinates": [[[[29.8756,-20.0057,1162.506],[29.8731,-20.0613,1102.316],[29.9019,-20.0718,1108.3909],[29.9384,-20.0077,1070.7124],[29.9771,-20.0006,1042.0168],[29.9859,-19.9735,1052.5081],[30.0333,-19.9394,1081.1388],[30.0474,-19.9348,1111.058],[30.078,-19.9432,1069.1963],[30.0919,-19.9439,1254.2852],[30.1433,-19.9586,989.1895],[30.1447,-19.9604,981.7768],[30.1442,-19.9647,977.1122],[30.1425,-19.9686,974.0505],[30.1388,-19.9704,972.0546],[30.138,-19.9746,976.0276],[30.1444,-19.987,966.804],[30.1391,-19.9922,968.6821],[30.1425,-19.9998,964.7545],[30.1425,-20.0059,963.53],[30.139,-20.0104,963.9395],[30.1466,-20.016,958.4198],[30.1442,-20.0199,957.6851],[30.1452,-20.0241,952.7179],[30.2198,-20.0168,999.5348],[30.2238,-20.0125,1010.1627],[30.2405,-20.0081,1004.1402],[30.3221,-19.9996,1006.3529],[30.3342,-19.9928,1039.1422],[30.3548,-19.9974,1021.8387],[30.431,-19.9901,976.5558],[30.4314,-19.9861,967.0692],[30.4279,-19.985,967.6986],[30.4333,-19.9622,978.9099],[30.4325,-19.9612,985.1228],[30.4258,-19.9629,980.6614],[30.4227,-19.9612,978.4204],[30.4263,-19.9521,976.4697],[30.4254,-19.9433,977.9268],[30.4274,-19.941,984.46],[30.4288,-19.9424,979.0068],[30.4307,-19.9375,1002.1059],[30.4429,-19.9398,988.3547],[30.4504,-19.9298,996.6606],[30.4529,-19.9324,995.3956],[30.4549,-19.9324,986.5626],[30.457,-19.9219,995.2686],[30.4616,-19.919,1001.2189],[30.4664,-19.9086,995.1284],[30.4703,-19.9042,997.209],[30.4696,-19.9008,998.3808],[30.4645,-19.9022,1003.7557],[30.4577,-19.8949,1013.4678],[30.4545,-19.8952,1007.4271],[30.4549,-19.8931,1006.6172],[30.4586,-19.891,1006.6425],[30.4595,-19.8861,1023.9244],[30.4573,-19.8854,1015.7221],[30.4544,-19.887,1011.8542],[30.4512,-19.8849,1009.3577],[30.4508,-19.8831,1011.4995],[30.4544,-19.8773,1026.4493],[30.4482,-19.8694,1013.1063],[30.4548,-19.8675,1018.4263],[30.459,-19.8631,1017.0505],[30.4554,-19.8579,1018.327],[30.4559,-19.8541,1029.9736],[30.4539,-19.8499,1022.8843],[30.459,-19.8457,1022.4234],[30.4599,-19.8402,1029.9839],[30.455,-19.8347,1022.4293],[30.4568,-19.8319,1029.4448],[30.4676,-19.8352,1031.6326],[30.4712,-19.8322,1028.0703],[30.4705,-19.8289,1037.9124],[30.4673,-19.8255,1031.7704],[30.4705,-19.8198,1033.9523],[30.4775,-19.8153,1037.5347],[30.48,-19.8067,1038.4554],[30.4799,-19.8028,1039.9934],[30.4766,-19.7973,1040.9037],[30.4782,-19.7825,1049.0177],[30.4812,-19.7751,1046.1301],[30.4885,-19.7673,1051.6062],[30.4844,-19.7654,1049.8662],[30.478,-19.7541,1056.2419],[30.4758,-19.7543,1064.2305],[30.4791,-19.7494,1057.7554],[30.4787,-19.745,1067.2733],[30.4705,-19.7416,1074.129],[30.4665,-19.7421,1071.0778],[30.4648,-19.7378,1069.3645],[30.467,-19.7353,1068.3274],[30.4665,-19.7329,1081.3958],[30.4643,-19.7317,1076.7524],[30.463,-19.7277,1077.8698],[30.4563,-19.7251,1081.0493],[30.4535,-19.7215,1077.3672],[30.4531,-19.7178,1083.4425],[30.4565,-19.7113,1076.5129],[30.4556,-19.7043,1082.562],[30.4567,-19.6997,1082.3467],[30.447,-19.6967,1082.7112],[30.4444,-19.6909,1090.6711],[30.4453,-19.6886,1087.5133],[30.4432,-19.682,1094.1523],[30.4386,-19.6784,1098.7133],[30.4437,-19.6716,1102.0934],[30.4417,-19.666,1104.406],[30.4436,-19.6612,1107.5251],[30.441,-19.6544,1105.5076],[30.441,-19.6438,1114.0559],[30.4378,-19.6405,1115.8539],[30.4403,-19.6151,1128.3171],[30.4361,-19.608,1135.6489],[30.4325,-19.5892,1145.1407],[30.4363,-19.584,1152.4917],[30.4386,-19.5736,1150.5802],[30.4345,-19.5713,1155.1082],[30.4359,-19.5612,1170.8936],[30.4294,-19.5554,1173.1494],[30.4292,-19.5496,1184.4907],[30.4261,-19.5475,1186.3984],[30.4282,-19.5455,1190.5763],[30.4273,-19.5385,1196.7124],[30.4298,-19.5343,1225.4845],[30.4282,-19.5296,1215.423],[30.4301,-19.5269,1226.6061],[30.4358,-19.5254,1225.799],[30.434,-19.5229,1251.0223],[30.4415,-19.5213,1234.123],[30.445,-19.5183,1257.1178],[30.4445,-19.513,1272.1582],[30.4414,-19.5094,1294.4707],[30.4388,-19.5088,1291.9431],[30.4377,-19.5049,1312.5576],[30.4401,-19.5008,1320.9722],[30.4393,-19.495,1329.428],[30.4365,-19.49,1328.267],[30.4416,-19.4788,1331.5116],[30.4408,-19.4711,1339.0812],[30.4445,-19.4612,1336.9958],[30.4452,-19.4543,1341.1534],[30.4438,-19.4502,1343.9519],[30.4476,-19.4491,1350.28],[30.4505,-19.445,1359.552],[30.453,-19.4338,1364.8872],[30.4511,-19.4293,1367.4661],[30.4538,-19.4244,1382.1062],[30.4454,-19.416,1395.1887],[30.4441,-19.4153,1412.2654],[30.4081,-19.4512,1420.9218],[30.3731,-19.477,1397.3994],[30.3381,-19.4985,1391.6379],[30.3182,-19.5034,1369.354],[30.2906,-19.472,1344.6399],[30.2464,-19.5042,1302.6881],[30.2092,-19.4906,1325.1359],[30.1578,-19.4747,1300.6002],[30.1444,-19.4831,1284.04],[30.1058,-19.4815,1240.9888],[30.0803,-19.4637,1413.0314],[30.0434,-19.458,1411.074],[30.0336,-19.4858,1444.5901],[30.0178,-19.5144,1429.0913],[29.9941,-19.5067,1458.1802],[29.9537,-19.5264,1469.7047],[29.9379,-19.5475,1457.1775],[29.9063,-19.547,1434.8132],[29.856,-19.5503,1409.9119],[29.8286,-19.6107,1336.6554],[29.8324,-19.6367,1310.266],[29.8169,-19.6723,1337.3665],[29.8215,-19.6859,1325.281],[29.811,-19.689,1309.3811],[29.8081,-19.6923,1298.634],[29.8124,-19.6996,1290.719],[29.817,-19.6999,1292.2242],[29.8162,-19.7011,1292.2242],[29.819,-19.7053,1288.7393],[29.8186,-19.7089,1283.5779],[29.8152,-19.7114,1284.248],[29.8135,-19.7203,1280.3417],[29.826,-19.7222,1270.0748],[29.8331,-19.7217,1265.6561],[29.8346,-19.7226,1272.6562],[29.8339,-19.7257,1263.4983],[29.8373,-19.7362,1261.4321],[29.847,-19.7371,1261.2046],[29.8517,-19.7458,1254.1426],[29.8595,-19.7495,1261.641],[29.8541,-19.7561,1249.5194],[29.8552,-19.7626,1242.7588],[29.8518,-19.7648,1242.5],[29.8538,-19.7742,1242.5],[29.8501,-19.7765,1242.5],[29.8474,-19.7861,1242.5],[29.8437,-19.7889,1242.5],[29.842,-19.7933,1226.9541],[29.8421,-19.795,1225.8784],[29.8458,-19.795,1228.4346],[29.8442,-19.8019,1222.4612],[29.8459,-19.8055,1223.7632],[29.8454,-19.8125,1211.0812],[29.8415,-19.8201,1205.0984],[29.8411,-19.8284,1204.8976],[29.8377,-19.8359,1197.4507],[29.8418,-19.8387,1206.4453],[29.8405,-19.8432,1200.0647],[29.8439,-19.848,1190.0474],[29.8412,-19.8519,1189.9108],[29.8395,-19.8603,1194.8447],[29.8352,-19.8643,1187.4598],[29.8407,-19.8681,1186.2244],[29.8394,-19.87,1183.4177],[29.8362,-19.8699,1214.2693],[29.837,-19.8875,1176.1046],[29.844,-19.8899,1171.0836],[29.8412,-19.896,1163.5886],[29.8446,-19.8948,1175.6172],[29.848,-19.8957,1169.4899],[29.7868,-19.9234,1215.726],[29.7977,-19.9449,1208.7732],[29.7982,-19.9526,1180.3392],[29.8014,-19.9541,1187.2666],[29.8004,-20.0032,1176.5753],[29.8094,-20.0001,1171.8326],[29.8756,-20.0057,1162.506]],
[[30.0,-19.6124,1369.1243],[29.9984,-19.607,1394.2793],[30.0317,-19.6013,1418.5607],[30.0312,-19.6435,1378.7286],[30.0394,-19.6425,1212.7228],[30.0395,-19.6486,1179.542],[30.0316,-19.6487,1349.5647],[30.031,-19.672,1391.3721],[30.016,-19.6809,1399.1442],[30.03,-19.6836,1374.9531],[30.0344,-19.694,1311.3633],[30.0481,-19.7016,1137.3898],[30.0572,-19.6946,1123.6133],[30.0525,-19.7085,1117.9769],[30.0468,-19.7111,1121.8853],[30.0457,-19.7163,1115.9011],[30.0397,-19.7244,1112.406],[30.0353,-19.7267,1109.5479],[30.0304,-19.7431,1099.8865],[30.025,-19.7505,1100.8704],[30.0145,-19.7851,1180.7761],[30.0018,-19.7855,1084.2732],[30.0101,-19.7729,1087.3036],[30.0081,-19.7705,1096.1783],[30.0012,-19.7737,1096.6039],[29.9941,-19.7841,1095.8396],[29.9753,-19.7822,1135.8884],[29.9763,-19.7383,1236.6588],[29.9667,-19.7335,1321.1191],[29.9645,-19.7222,1347.3652],[29.9522,-19.7215,1405.2977],[29.9521,-19.6928,1367.9706],[29.9277,-19.6915,1317.5852],[29.9277,-19.6826,1310.8112],[29.9476,-19.6809,1370.9294],[29.9621,-19.6565,1411.0669],[29.9698,-19.6516,1433.689],[29.9664,-19.6441,1441.1635],[30.0,-19.6124,1369.1243]]]]}
,"properties": {"GID_2": "ZWE.10.11_2","GID_0": "ZWE","country": "Zimbabwe","GID_1": "ZWE.10_1","province": "Midlands","NL_NAME_1": "NA","county": "Shurugwi","VARNAME_2": "NA","NL_NAME_2": "NA","TYPE_2": "District","ENGTYPE_2": "District","CC_2": "NA","HASC_2": "NA","name": "Shurugwi.county","area_km2": 3474.13,"hist_schema_id": "Elevation0-9000","hist_area_km2": {"950": 0.976,"975": 29.23,"1000": 95.082,"1025": 176.267,"1050": 291.474,"1075": 353.927,"1100": 329.047,"1125": 299.827,"1150": 283.523,"1175": 259.839,"1200": 238.91,"1225": 190.971,"1250": 167.587,"1275": 147.011,"1300": 135.079,"1325": 111.061,"1350": 79.29,"1375": 83.014,"1400": 92.809,"1425": 73.586,"1450": 32.465,"1475": 2.897,"1500": 0.16,"1525": 0.1}}}