{"type": "Feature","bbox": [31.525,-19.4665,31.7327,-19.3718],"geometry": {"type": "MultiPolygon","coordinates": [[[[31.5915,-19.4031,1006.2751],[31.578,-19.3955,1026.8184],[31.5748,-19.3954,1030.5997],[31.5734,-19.392,1035.3992],[31.5691,-19.3944,1038.2695],[31.5599,-19.3938,1050.6471],[31.549,-19.3978,1067.2334],[31.5433,-19.3943,1084.7881],[31.5263,-19.3981,1039.6949],[31.525,-19.4057,1036.6477],[31.529,-19.4129,1036.3083],[31.5369,-19.4136,1037.7476],[31.5486,-19.4173,1021.1958],[31.5606,-19.4372,1019.735],[31.5636,-19.4449,1006.3085],[31.573,-19.4569,1010.372],[31.5832,-19.4539,1001.5911],[31.5863,-19.456,1006.8042],[31.5896,-19.4559,980.5065],[31.5937,-19.4507,994.8662],[31.6104,-19.4471,964.6203],[31.6211,-19.463,969.5245],[31.6324,-19.4609,963.8318],[31.64,-19.4575,961.1544],[31.6456,-19.4642,953.532],[31.65,-19.4665,958.5548],[31.6598,-19.4653,960.0819],[31.6689,-19.4609,960.0314],[31.6742,-19.4612,953.9147],[31.6736,-19.4578,951.1129],[31.6813,-19.4537,965.6215],[31.6846,-19.4502,973.6125],[31.6891,-19.4512,977.8729],[31.6958,-19.4484,988.1556],[31.6973,-19.4445,1004.3258],[31.7027,-19.4393,1011.5786],[31.7081,-19.4375,1017.9182],[31.7327,-19.4163,1034.4152],[31.722,-19.394,1046.3531],[31.7204,-19.3838,1043.5973],[31.7142,-19.3718,1082.7986],[31.7005,-19.3751,1047.2253],[31.694,-19.373,1071.8157],[31.6567,-19.3789,1056.3708],[31.6433,-19.3839,1083.5601],[31.6373,-19.3877,1084.6211],[31.6312,-19.387,1074.6533],[31.6148,-19.3927,1037.3911],[31.6095,-19.3924,1033.2603],[31.603,-19.3959,1026.5598],[31.597,-19.4031,1008.9253],[31.5932,-19.4052,1006.3427],[31.5915,-19.4031,1006.2751]]]]}
,"properties": {"GID_3": "ZWE.3.1.7_2","GID_0": "ZWE","country": "Zimbabwe","GID_1": "ZWE.3_1","province": "Manicaland","NL_NAME_1": "NA","GID_2": "ZWE.3.1_2","county": "Buhera","NL_NAME_2": "NA","city": "Ward16","VARNAME_3": "NA","NL_NAME_3": "NA","TYPE_3": "Ward","ENGTYPE_3": "Ward","CC_3": "NA","HASC_3": "NA","name": "Ward16.city","area_km2": 137.8734,"hist_schema_id": "Elevation0-9000","hist_area_km2": {"950": 1.1595,"975": 13.2151,"1000": 34.8705,"1025": 46.6723,"1050": 31.2768,"1075": 7.8994,"1100": 1.9399,"1125": 0.5399,"1150": 0.18,"1175": 0.1,"1200": 0.02}}}