{"type":"Feature","properties":{"GID_3":"ZWE.9.7.4_2","GID_0":"ZWE","country":"Zimbabwe","GID_1":"ZWE.9_1","province":"MatabelelandSouth","NL_NAME_1":"NA","GID_2":"ZWE.9.7_2","county":"Mangwe","NL_NAME_2":"NA","city":"Ward12","VARNAME_3":"NA","NL_NAME_3":"NA","TYPE_3":"Ward","ENGTYPE_3":"Ward","CC_3":"NA","HASC_3":"NA","name":"Ward12.city"},
"geometry":{"type": "MultiPolygon","coordinates": [[[[27.914,-20.6211,1254.7604],[27.943,-20.6082,1327.6016],[27.9266,-20.5776,1356.3523],[27.9176,-20.5793,1355.7057],[27.8769,-20.5543,1328.9578],[27.8435,-20.5616,1315.8589],[27.819,-20.5931,1295.9351],[27.7858,-20.5634,1333.1332],[27.7731,-20.5544,1324.6509],[27.781,-20.5289,1382.165],[27.7238,-20.5128,1377.3765],[27.73,-20.5221,1349.9841],[27.7296,-20.528199999999998,1334.7687],[27.7555,-20.5359,1349.0686],[27.75,-20.5482,1337.8633],[27.7422,-20.5602,1305.5049],[27.7447,-20.5607,1309.8097],[27.7426,-20.5668,1300.6522],[27.756,-20.5715,1301.9509],[27.7592,-20.5657,1317.7965],[27.7813,-20.5753,1300.5626],[27.78,-20.5857,1287.0571],[27.7811,-20.5879,1292.1711],[27.7723,-20.6196,1262.3922],[27.7787,-20.6494,1238.3907],[27.782,-20.6543,1234.2],[27.778199999999998,-20.669,1221.8033],[27.8219,-20.6837,1196.7645],[27.8365,-20.661,1241.194],[27.853,-20.6417,1260.4259],[27.8757,-20.6106,1253.6475],[27.9084,-20.6164,1261.4017],[27.914,-20.6211,1254.7604]]]]}}