{"type":"Feature","properties":{"GID_3":"ZWE.8.5.2_2","GID_0":"ZWE","country":"Zimbabwe","GID_1":"ZWE.8_1","province":"MatabelelandNorth","NL_NAME_1":"NA","GID_2":"ZWE.8.5_2","county":"Lupane","NL_NAME_2":"NA","city":"Ward10","VARNAME_3":"NA","NL_NAME_3":"NA","TYPE_3":"Ward","ENGTYPE_3":"Ward","CC_3":"NA","HASC_3":"NA","name":"Ward10.city"},
"geometry":{"type": "MultiPolygon","coordinates": [[[[27.7874,-18.7843,951.9619],[27.7936,-18.7855,948.7529],[27.8046,-18.7838,953.3187],[27.8193,-18.7884,947.9839],[27.8381,-18.7862,963.4235],[27.8425,-18.7887,960.5472],[27.8494,-18.7977,952.6227],[27.8526,-18.799,956.0886],[27.8847,-18.7968,955.0413],[27.9079,-18.8046,953.8244],[27.9221,-18.8047,952.9615],[27.9475,-18.8088,962.4916],[27.9635,-18.8144,956.6752],[27.9728,-18.8203,955.1326],[27.9828,-18.8229,961.3269],[28.0055,-18.8187,963.7354],[28.019,-18.8115,962.3751],[28.0347,-18.8173,962.1855],[28.0594,-18.8188,962.9908],[28.0614,-18.8148,967.5853],[28.0602,-18.8034,979.1727],[28.0624,-18.8026,976.6379],[28.0623,-18.7988,979.7377],[28.0645,-18.7943,984.8315],[28.0614,-18.7902,988.2707],[28.0609,-18.7862,990.8877],[28.0634,-18.7794,1001.1748],[28.0626,-18.7763,998.3582],[28.0651,-18.7737,1003.4169],[28.0668,-18.7662,1018.983],[28.066,-18.7535,1073.3557],[28.0422,-18.7496,1070.0565],[28.0274,-18.7496,994.3349],[28.0281,-18.7436,1000.1332],[28.0326,-18.7362,1010.9095],[28.0368,-18.7312,1016.4171],[28.0412,-18.7295,1015.7635],[28.042,-18.7256,1037.9949],[28.0376,-18.7107,1039.2622],[28.0379,-18.7043,1072.0739],[28.035,-18.6947,1082.3612],[28.034,-18.6881,1081.9471],[28.035,-18.6819,1085.2072],[28.037,-18.6781,1091.2988],[28.0415,-18.6749,1095.5164],[28.0529,-18.652,1116.0585],[28.0577,-18.6502,1116.4413],[28.0701,-18.6495,1120.1302],[28.0724,-18.647,1119.7957],[28.0766,-18.6342,1125.829],[28.0176,-18.6337,1124.8948],[27.9954,-18.6355,1119.3711],[27.9968,-18.6929,1106.1365],[27.8668,-18.6983,1082.8048],[27.8276,-18.7248,1042.9679],[27.7874,-18.7843,951.9619]]]]}}