{"type": "Feature","bbox": [28.9774,-18.6129,29.3875,-18.4079],"geometry": {"type": "MultiPolygon","coordinates": [[[[29.129,-18.6129,1172.9783],[29.1918,-18.6046,1118.8586],[29.2026,-18.6069,1122.1478],[29.2069,-18.605,1127.9285],[29.218,-18.6061,1121.9012],[29.2277,-18.6031,1121.1644],[29.2339,-18.6052,1119.374],[29.2495,-18.5996,1102.1069],[29.2546,-18.601,1101.5364],[29.2641,-18.598,1099.4976],[29.2785,-18.5995,1101.3411],[29.2815,-18.5982,1100.6687],[29.2868,-18.6002,1091.3302],[29.2964,-18.5956,1091.4799],[29.3014,-18.5949,1086.4883],[29.3146,-18.5943,1087.5586],[29.3231,-18.5977,1077.2456],[29.3319,-18.5958,1076.04],[29.3362,-18.5907,1077.3312],[29.3454,-18.5867,1064.1121],[29.3456,-18.5775,1061.5463],[29.3499,-18.575,1061.1787],[29.3538,-18.5768,1059.936],[29.3581,-18.5746,1058.3694],[29.3606,-18.5587,1055.197],[29.3686,-18.551,1049.3015],[29.3677,-18.541,1037.9218],[29.3716,-18.5376,1039.4879],[29.3723,-18.535,1045.859],[29.3747,-18.5362,1043.3467],[29.38,-18.5331,1039.1827],[29.3807,-18.5284,1038.7104],[29.3787,-18.526,1035.8538],[29.381,-18.5144,1034.1575],[29.3846,-18.5115,1034.666],[29.384,-18.5079,1032.8193],[29.3875,-18.5041,1030.2466],[29.3736,-18.499,1045.5],[29.3675,-18.4984,1045.2394],[29.3615,-18.504,1048.3359],[29.3481,-18.5018,1044.6586],[29.328,-18.5109,1047.1405],[29.325,-18.5173,1048.2466],[29.3198,-18.5188,1049.7142],[29.3071,-18.5302,1070.6357],[29.2784,-18.5194,1088.0668],[29.2708,-18.5188,1098.4683],[29.2607,-18.5087,1108.6294],[29.2571,-18.5022,1113.7007],[29.2489,-18.4775,1106.21],[29.2419,-18.4772,1107.8396],[29.2386,-18.4793,1098.3911],[29.2374,-18.4741,1100.2002],[29.2387,-18.4722,1109.3927],[29.2362,-18.4732,1100.2002],[29.2346,-18.4716,1102.6763],[29.2338,-18.474,1101.1714],[29.2316,-18.472,1103.2329],[29.2289,-18.473,1101.604],[29.2266,-18.4715,1103.7882],[29.227,-18.4693,1105.5032],[29.2255,-18.4678,1109.2733],[29.2279,-18.4655,1111.0679],[29.2268,-18.4625,1106.1437],[29.2277,-18.4601,1123.683],[29.2253,-18.4607,1111.2817],[29.2234,-18.4585,1116.5759],[29.221,-18.4599,1107.4961],[29.2181,-18.4584,1119.7335],[29.2203,-18.4573,1111.2897],[29.2207,-18.4537,1114.4402],[29.2193,-18.4525,1121.3566],[29.2176,-18.4547,1111.1736],[29.2177,-18.4522,1124.4497],[29.2153,-18.4519,1117.2767],[29.2151,-18.4536,1112.6631],[29.2131,-18.4526,1114.3965],[29.2116,-18.4481,1123.6298],[29.2092,-18.4469,1120.0641],[29.2104,-18.4441,1124.3821],[29.2072,-18.4459,1120.3248],[29.2007,-18.4436,1126.9396],[29.199,-18.4444,1124.7115],[29.1991,-18.4466,1121.0565],[29.1945,-18.4428,1131.6125],[29.18,-18.4418,1138.6704],[29.1788,-18.4367,1234.4062],[29.1424,-18.4122,1281.2236],[29.1032,-18.4079,1310.7729],[29.035,-18.4998,1319.0806],[29.0317,-18.5015,1318.495],[29.006,-18.5346,1309.8711],[29.0001,-18.5454,1284.9692],[28.9774,-18.5774,1154.7369],[29.0086,-18.5805,1201.6509],[29.0903,-18.5786,1210.1505],[29.129,-18.6129,1172.9783]]]]}
,"properties": {"GID_3": "ZWE.10.3.21_2","GID_0": "ZWE","country": "Zimbabwe","GID_1": "ZWE.10_1","province": "Midlands","NL_NAME_1": "NA","GID_2": "ZWE.10.3_2","county": "GokweSouth","NL_NAME_2": "NA","city": "Ward28","VARNAME_3": "NA","NL_NAME_3": "NA","TYPE_3": "Ward","ENGTYPE_3": "Ward","CC_3": "NA","HASC_3": "NA","name": "Ward28.city","area_km2": 535.3735,"hist_schema_id": "Elevation0-9000","hist_area_km2": {"1025": 1.5883,"1050": 23.9026,"1075": 33.125,"1100": 32.161,"1125": 56.2845,"1150": 57.5742,"1175": 75.2672,"1200": 97.2809,"1225": 86.5692,"1250": 24.3274,"1275": 14.5773,"1300": 22.8441,"1325": 9.8718}}}