{"type": "Feature","bbox": [31.2437,-20.5933,31.3547,-20.4584],"geometry": {"type": "MultiPolygon","coordinates": [[[[31.269,-20.5902,569.442],[31.2753,-20.5933,584.1767],[31.2791,-20.5886,600.8519],[31.2832,-20.5776,617.9608],[31.2921,-20.5702,617.8578],[31.294,-20.5653,623.3804],[31.298,-20.5634,627.443],[31.309,-20.5626,656.227],[31.3165,-20.5684,644.2216],[31.322,-20.5751,631.6423],[31.3281,-20.5752,582.3433],[31.3275,-20.5707,590.5042],[31.3378,-20.5242,615.0168],[31.3374,-20.5192,623.0624],[31.3471,-20.5196,627.6094],[31.3472,-20.5151,637.1989],[31.3434,-20.5161,633.3512],[31.3465,-20.5099,635.9029],[31.3451,-20.5026,653.3121],[31.3488,-20.5011,639.0336],[31.3547,-20.495,643.3134],[31.3537,-20.485,657.7707],[31.3485,-20.4806,665.6048],[31.3399,-20.4769,673.8715],[31.3408,-20.4731,686.661],[31.338,-20.4704,684.1011],[31.3308,-20.4686,693.9215],[31.3282,-20.466,708.2128],[31.3223,-20.4663,707.7607],[31.3158,-20.4608,760.4695],[31.3112,-20.4794,687.342],[31.3035,-20.4839,675.8407],[31.3016,-20.4786,684.3872],[31.2914,-20.4681,742.6763],[31.2916,-20.465699999999998,760.2988],[31.2958,-20.4602,791.0604],[31.2897,-20.4584,798.4391],[31.2825,-20.4638,733.8278],[31.2776,-20.4653,720.9612],[31.2717,-20.4723,689.102],[31.2658,-20.4735,681.8518],[31.263,-20.4782,663.2783],[31.263,-20.4877,640.3329],[31.2564,-20.4893,634.8617],[31.2519,-20.4884,624.2522],[31.2437,-20.496,603.4818],[31.248,-20.5172,602.1479],[31.2536,-20.5281,591.7694],[31.2588,-20.5499,583.6184],[31.2647,-20.5663,596.9152],[31.269,-20.5902,569.442]]]]}
,"properties": {"GID_3": "ZWE.7.9.16_2","GID_0": "ZWE","country": "Zimbabwe","GID_1": "ZWE.7_1","province": "Masvingo","NL_NAME_1": "NA","GID_2": "ZWE.7.9_2","county": "Zaka","NL_NAME_2": "NA","city": "Ward23","VARNAME_3": "NA","NL_NAME_3": "NA","TYPE_3": "Ward","ENGTYPE_3": "Ward","CC_3": "NA","HASC_3": "NA","name": "Ward23.city","area_km2": 101.84707,"hist_schema_id": "Elevation0-9000","hist_area_km2": {"575": 1.21088,"600": 6.88909,"625": 16.67837,"650": 23.3906,"675": 25.3791,"700": 14.87483,"725": 6.07675,"750": 2.93898,"775": 2.34323,"800": 1.40993,"825": 0.39717,"850": 0.19858,"875": 0.05957}}}