{"type":"Feature","properties":{"GID_3":"ZWE.8.3.15_2","GID_0":"ZWE","country":"Zimbabwe","GID_1":"ZWE.8_1","province":"MatabelelandNorth","NL_NAME_1":"NA","GID_2":"ZWE.8.3_2","county":"Hwange","NL_NAME_2":"NA","city":"Ward4","VARNAME_3":"NA","NL_NAME_3":"NA","TYPE_3":"Ward","ENGTYPE_3":"Ward","CC_3":"NA","HASC_3":"NA","name":"Ward4.city"},
"geometry":{"type": "MultiPolygon","coordinates": [[[[26.0725,-17.976,814.4866],[26.0721,-17.9772,718.0154],[26.0741,-17.9767,722.9606],[26.0727,-17.9799,651.0095],[26.0742,-17.9853,776.0798],[26.0653,-17.9903,810.2339],[26.0642,-17.9942,862.358],[26.0653,-17.9978,882.7488],[26.065,-18.0602,985.1765],[26.0851,-18.0982,963.4304],[26.1081,-18.1039,968.9077],[26.1348,-18.1083,909.2567],[26.1744,-18.0812,926.2187],[26.1938,-18.0709,948.4301],[26.2032,-18.0683,904.8355],[26.1997,-18.0648,938.8492],[26.195,-18.0537,891.5146],[26.1968,-18.044,911.4469],[26.1805,-17.9687,904.6613],[26.1805,-17.9622,891.2749],[26.1842,-17.962,854.4708],[26.1857,-17.9591,854.9658],[26.1885,-17.9596,853.064],[26.1868,-17.9555,846.3346],[26.1886,-17.9533,855.0233],[26.1878,-17.9509,840.119],[26.1915,-17.9503,826.5268],[26.1903,-17.9482,796.9392],[26.1934,-17.9428,758.9492],[26.1905,-17.9366,827.7856],[26.1816,-17.9353,835.0116],[26.1677,-17.9228,692.9131],[26.1689,-17.9152,659.9453],[26.1714,-17.915,622.4003],[26.1728,-17.9116,602.2657],[26.1732,-17.9062,717.2064],[26.1704,-17.9062,753.9086],[26.1687,-17.9031,801.8582],[26.1454,-17.914,752.3062],[26.1009,-17.9211,775.4219],[26.0926,-17.9252,819.9478],[26.0899,-17.9321,667.3171],[26.0903,-17.937,655.7844],[26.1018,-17.942,853.8207],[26.1035,-17.9447,654.2287],[26.1026,-17.9481,721.0862],[26.0976,-17.9536,831.9694],[26.0918,-17.9673,723.1852],[26.0827,-17.9739,809.4977],[26.0725,-17.976,814.4866]]]]}}