{"type":"Feature","properties":{"GID_3":"ZWE.4.7.15_2","GID_0":"ZWE","country":"Zimbabwe","GID_1":"ZWE.4_1","province":"MashonalandCentral","NL_NAME_1":"NA","GID_2":"ZWE.4.7_2","county":"MountDarwin","NL_NAME_2":"NA","city":"Ward22","VARNAME_3":"NA","NL_NAME_3":"NA","TYPE_3":"Ward","ENGTYPE_3":"Ward","CC_3":"NA","HASC_3":"NA","name":"Ward22.city"},
"geometry":{"type": "MultiPolygon","coordinates": [[[[31.2963,-16.8263,1012.5632],[31.3716,-16.8364,1065.7303],[31.3513,-16.8575,1073.9512],[31.3593,-16.8828,1115.0155],[31.386,-16.8384,1077.5327],[31.4988,-16.8511,1008.9653],[31.5011,-16.8497,1002.4351],[31.5007,-16.8484,1011.4338],[31.5082,-16.8489,1007.4568],[31.5087,-16.8462,999.562],[31.515,-16.8412,996.1949],[31.5152,-16.8393,996.1182],[31.5015,-16.8228,1067.8336],[31.4739,-16.7939,1310.4048],[31.4902,-16.758,960.5212],[31.4818,-16.7568,984.4978],[31.4677,-16.7325,927.9668],[31.462,-16.7321,929.9642],[31.4595,-16.7261,927.4056],[31.4528,-16.729,927.8323],[31.4482,-16.7285,926.9282],[31.4383,-16.7403,944.3041],[31.4347,-16.7373,932.2046],[31.4306,-16.7383,933.7461],[31.4316,-16.7447,944.0175],[31.4238,-16.7496,946.7983],[31.4125,-16.7496,942.7268],[31.4099,-16.7545,952.5534],[31.4021,-16.7594,962.5684],[31.3955,-16.7559,946.9645],[31.3812,-16.7529,946.9978],[31.3768,-16.7557,959.3267],[31.3778,-16.7617,960.3663],[31.3721,-16.7696,968.0203],[31.3597,-16.769,959.0627],[31.3571,-16.771,965.778],[31.3536,-16.7694,970.7549],[31.353,-16.7739,961.6234],[31.3509,-16.7759,962.1874],[31.3463,-16.7753,976.5842],[31.3447,-16.7808,970.9915],[31.3391,-16.7802,970.9234],[31.3354,-16.7842,969.1515],[31.3298,-16.7851,988.2845],[31.3261,-16.79,992.9731],[31.3215,-16.791,999.3899],[31.3214,-16.7979,982.1152],[31.3126,-16.8043,984.3191],[31.309,-16.8048,984.2983],[31.3085,-16.8082,988.2032],[31.3064,-16.8097,1017.1603],[31.2961,-16.8086,998.9747],[31.2956,-16.8126,990.8935],[31.2847,-16.814,1010.0054],[31.2827,-16.8126,1032.8247],[31.2774,-16.8235,1014.8142],[31.2963,-16.8263,1012.5632]]]]}}