{"type":"Feature","properties":{"GID_3":"ZWE.7.5.6_2","GID_0":"ZWE","country":"Zimbabwe","GID_1":"ZWE.7_1","province":"Masvingo","NL_NAME_1":"NA","GID_2":"ZWE.7.5_2","county":"Gutu","NL_NAME_2":"NA","city":"Ward14","VARNAME_3":"NA","NL_NAME_3":"NA","TYPE_3":"Ward","ENGTYPE_3":"Ward","CC_3":"NA","HASC_3":"NA","name":"Ward14.city"},
"geometry":{"type": "MultiPolygon","coordinates": [[[[31.7591,-19.5836,915.9399],[31.7508,-19.5927,917.762],[31.7417,-19.5968,939.8159],[31.7355,-19.6016,939.64],[31.7278,-19.6025,949.2891],[31.7231,-19.6052,951.3118],[31.7214,-19.6085,950.844],[31.6982,-19.6246,979.004],[31.692,-19.6219,982.9614],[31.6798,-19.6122,1002.0544],[31.6692,-19.614,1023.0872],[31.672,-19.6225,1007.9529],[31.6813,-19.6249,1004.3831],[31.6911,-19.6343,980.7906],[31.7007,-19.6327,968.8276],[31.7057,-19.6366,961.3821],[31.7131,-19.6367,956.6729],[31.726,-19.6472,943.8177],[31.7407,-19.6539,927.6103],[31.7517,-19.6559,921.5984],[31.7549,-19.659,922.386],[31.7769,-19.6673,888.1385],[31.7871,-19.6658,874.8728],[31.8043,-19.6578,877.2018],[31.8104,-19.6579,860.167],[31.8231,-19.6537,847.0192],[31.8277,-19.6304,868.542],[31.8255,-19.6203,873.6022],[31.8162,-19.6175,884.8781],[31.8022,-19.6069,888.8507],[31.7953,-19.6049,899.5396],[31.7913,-19.5999,904.8042],[31.7904,-19.5936,905.3793],[31.7747,-19.5901,909.0754],[31.7701,-19.5837,913.1501],[31.7591,-19.5836,915.9399]]]]}}