{"type":"Feature","properties":{"GID_3":"ZWE.7.1.29_2","GID_0":"ZWE","country":"Zimbabwe","GID_1":"ZWE.7_1","province":"Masvingo","NL_NAME_1":"NA","GID_2":"ZWE.7.1_2","county":"Bikita","NL_NAME_2":"NA","city":"Ward6","VARNAME_3":"NA","NL_NAME_3":"NA","TYPE_3":"Ward","ENGTYPE_3":"Ward","CC_3":"NA","HASC_3":"NA","name":"Ward6.city"},
"geometry":{"type": "MultiPolygon","coordinates": [[[[31.6723,-20.1686,717.872],[31.6786,-20.1733,723.4961],[31.6862,-20.1866,713.6562],[31.686,-20.1926,701.0651],[31.6943,-20.2003,695.6764],[31.695,-20.2051,691.5185],[31.7083,-20.2248,679.5386],[31.7084,-20.2293,682.4905],[31.7132,-20.2341,684.1852],[31.72,-20.2473,681.1982],[31.7833,-20.2466,659.585],[31.7841,-20.2423,663.5718],[31.7828,-20.2389,667.4697],[31.7726,-20.2284,683.203],[31.7716,-20.2114,696.9043],[31.7493,-20.1886,773.1284],[31.7511,-20.1714,766.1298],[31.727,-20.1625,794.6787],[31.6996,-20.1561,759.7488],[31.6723,-20.1686,717.872]]]]}}