{"type": "Feature","bbox": [29.581,-18.3005,29.9393,-17.8897],"geometry": {"type": "MultiPolygon","coordinates": [[[[29.9046,-17.8897,1003.7784],[29.8959,-17.8948,999.481],[29.8656,-17.9243,1047.531],[29.837,-17.9433,1019.3366],[29.8247,-17.9549,1029.266],[29.795,-17.9528,1045.265],[29.7768,-17.9548,1063.9961],[29.7303,-17.9461,1076.2284],[29.7172,-17.9409,1074.368],[29.7164,-18.0466,1049.0006],[29.7791,-18.0401,1083.4099],[29.7807,-18.0591,1084.078],[29.7375,-18.0575,1063.9508],[29.7357,-18.0742,1079.7473],[29.7495,-18.0733,1075.5466],[29.7496,-18.1008,1073.9569],[29.7161,-18.0921,1058.1855],[29.7156,-18.1452,1062.5442],[29.6558,-18.1392,1025.0569],[29.6559,-18.1212,1017.2379],[29.6234,-18.1211,1006.5378],[29.6083,-18.1254,995.4297],[29.6134,-18.1289,998.6251],[29.6152,-18.1345,997.9363],[29.5942,-18.1593,1009.8264],[29.5946,-18.188,1035.4163],[29.581,-18.2001,1027.9091],[29.5984,-18.2134,1031.5809],[29.6729,-18.2156,1065.1741],[29.6725,-18.2418,1051.4669],[29.6631,-18.2419,1049.6198],[29.6583,-18.2438,1046.6483],[29.6575,-18.2491,1043.1255],[29.6517,-18.249,1038.85],[29.6517,-18.2521,1037.4902],[29.6501,-18.2533,1036.1007],[29.651,-18.2636,1045.3772],[29.6695,-18.3005,1044.1832],[29.675,-18.2922,1049.2561],[29.686,-18.2827,1055.3325],[29.695,-18.2827,1057.7975],[29.7066,-18.2784,1057.1859],[29.7163,-18.2669,1061.9335],[29.7235,-18.2694,1066.3536],[29.7296,-18.2686,1063.6963],[29.7341,-18.2648,1065.2675],[29.7436,-18.2605,1072.3287],[29.7478,-18.2609,1071.3401],[29.7509,-18.2592,1074.1974],[29.7532,-18.2499,1077.8464],[29.7546,-18.249,1078.8008],[29.7595,-18.249,1076.9724],[29.7619,-18.2468,1077.9487],[29.7731,-18.2485,1080.9521],[29.7765,-18.2459,1085.429],[29.7803,-18.2459,1085.7649],[29.7988,-18.2337,1091.2867],[29.7789,-18.2003,1103.2701],[29.7769,-18.1731,1089.9078],[29.7815,-18.1616,1077.2548],[29.7809,-18.1501,1082.3451],[29.8041,-18.152,1092.1256],[29.8106,-18.1317,1100.9609],[29.8387,-18.1083,1095.8223],[29.8426,-18.1021,1099.7764],[29.8669,-18.0968,1093.571],[29.9065,-18.0923,1119.7573],[29.9393,-18.0968,1115.0371],[29.938,-18.0897,1108.1735],[29.9348,-18.0843,1103.6445],[29.9352,-18.0783,1103.0],[29.9287,-18.0703,1099.6145],[29.9285,-18.0663,1091.814],[29.9239,-18.0643,1089.8643],[29.9253,-18.0595,1087.6985],[29.9241,-18.0549,1087.5618],[29.9219,-18.0549,1084.1346],[29.9192,-18.0499,1083.2717],[29.922,-18.0359,1069.4883],[29.9188,-18.0231,1067.0376],[29.9221,-18.0215,1065.3606],[29.928,-18.0058,1048.0712],[29.921,-17.9994,1063.1067],[29.9192,-18.0019,1037.1543],[29.9157,-17.9983,1033.4774],[29.9159,-17.9934,1034.2367],[29.9191,-17.9888,1042.817],[29.9124,-17.9862,1034.9457],[29.9107,-17.9834,1031.1604],[29.9061,-17.9571,1023.5],[29.8941,-17.9459,1007.6865],[29.8952,-17.9407,1015.4191],[29.899,-17.9356,994.2516],[29.8942,-17.9234,983.6317],[29.8972,-17.9174,979.9023],[29.8968,-17.9085,983.4478],[29.8951,-17.9067,998.8218],[29.8935,-17.9071,973.4342],[29.8922,-17.901,984.2247],[29.8986,-17.8948,970.179],[29.9037,-17.8939,957.6158],[29.9046,-17.8897,1003.7784]]]]}
,"properties": {"GID_3": "ZWE.6.12.12_2","GID_0": "ZWE","country": "Zimbabwe","GID_1": "ZWE.6_1","province": "MashonalandWest","NL_NAME_1": "NA","GID_2": "ZWE.6.12_2","county": "Sanyati","NL_NAME_2": "NA","city": "Ward3","VARNAME_3": "NA","NL_NAME_3": "NA","TYPE_3": "Ward","ENGTYPE_3": "Ward","CC_3": "NA","HASC_3": "NA","name": "Ward3.city","area_km2": 656.098,"hist_schema_id": "Elevation0-9000","hist_area_km2": {"950": 0.0807,"975": 1.1903,"1000": 24.9198,"1025": 107.2982,"1050": 169.2174,"1075": 205.7106,"1100": 135.8904,"1125": 11.7904}}}