{"type":"Feature","properties":{"GID_3":"ZWE.5.11.16_2","GID_0":"ZWE","country":"Zimbabwe","GID_1":"ZWE.5_1","province":"MashonalandEast","NL_NAME_1":"NA","GID_2":"ZWE.5.11_2","county":"UzumbaMarambaPfungwe","NL_NAME_2":"NA","city":"Ward8","VARNAME_3":"NA","NL_NAME_3":"NA","TYPE_3":"Ward","ENGTYPE_3":"Ward","CC_3":"NA","HASC_3":"NA","name":"Ward8.city"},
"geometry":{"type": "MultiPolygon","coordinates": [[[[32.0384,-17.1868,763.8163],[32.0126,-17.1898,830.8726],[31.9971,-17.1897,840.7731],[31.9952,-17.1885,910.2294],[31.979,-17.1904,983.3874],[31.9679,-17.1858,1145.7747],[31.9634,-17.187,1059.0339],[31.924,-17.1817,1069.0262],[31.9141,-17.1772,880.9098],[31.9019,-17.1852,922.6561],[31.8843,-17.1912,943.547],[31.8748,-17.1983,938.6531],[31.8728,-17.2026,932.3768],[31.8369,-17.2211,959.0358],[31.8326,-17.2262,978.3573],[31.8321,-17.2338,995.8815],[31.8228,-17.2449,1049.322],[31.8212,-17.2485,1100.5642],[31.8224,-17.256,1050.9272],[31.8355,-17.2914,1114.2699],[31.8396,-17.2967,1088.1897],[31.8489,-17.3011,1028.6049],[31.8512,-17.3005,1021.6699],[31.8877,-17.2762,1004.8263],[31.8977,-17.2679,1046.4343],[31.9145,-17.2627,990.4657],[31.92,-17.2595,1000.6309],[31.9246,-17.26,961.3964],[31.9284,-17.2556,951.638],[31.9465,-17.2494,923.5632],[31.9516,-17.2438,928.4721],[31.9575,-17.2419,926.0279],[31.9649,-17.2348,909.2656],[31.9748,-17.2305,880.4451],[31.9764,-17.227,883.2534],[31.9959,-17.2211,921.6017],[32.016,-17.2182,824.767],[32.0194,-17.216,847.5011],[32.0285,-17.2165,761.1307],[32.0352,-17.1995,761.1396],[32.0361,-17.1905,742.4473],[32.0384,-17.1868,763.8163]]]]}}