{"type":"Feature","properties":{"GID_3":"ZWE.8.3.16_2","GID_0":"ZWE","country":"Zimbabwe","GID_1":"ZWE.8_1","province":"MatabelelandNorth","NL_NAME_1":"NA","GID_2":"ZWE.8.3_2","county":"Hwange","NL_NAME_2":"NA","city":"Ward5","VARNAME_3":"NA","NL_NAME_3":"NA","TYPE_3":"Ward","ENGTYPE_3":"Ward","CC_3":"NA","HASC_3":"NA","name":"Ward5.city"},
"geometry":{"type": "MultiPolygon","coordinates": [[[[26.1636,-18.2022,792.8975],[26.1644,-18.1911,845.2873],[26.1747,-18.1558,906.2184],[26.1543,-18.1197,880.1995],[26.1407,-18.1197,896.3976],[26.1348,-18.1083,909.2567],[26.1081,-18.1039,968.9077],[26.0851,-18.0982,963.4304],[26.065,-18.0599,985.1765],[26.0253,-18.0634,998.426],[25.9996,-18.0685,1013.3185],[26.0126,-18.086,959.5811],[26.0207,-18.1006,995.0507],[26.0138,-18.1091,1009.7256],[25.9997,-18.1434,1026.2179],[26.0002,-18.1453,1029.33],[25.993,-18.1602,1023.7968],[26.0016,-18.1597,1013.9131],[26.0059,-18.1626,1007.5536],[26.0103,-18.1691,1007.5575],[26.0227,-18.1697,990.3844],[26.0273,-18.1722,990.7714],[26.0603,-18.1566,1001.9158],[26.0685,-18.148,999.4537],[26.0991,-18.1486,960.3759],[26.1025,-18.1423,939.0728],[26.1061,-18.1418,929.6725],[26.1088,-18.1385,928.6283],[26.1118,-18.1376,922.8041],[26.1203,-18.1254,913.2249],[26.1236,-18.1237,912.1216],[26.1341,-18.1232,907.9626],[26.1321,-18.1397,930.5071],[26.1195,-18.1832,918.7039],[26.159,-18.2175,821.8453],[26.1636,-18.2022,792.8975]]]]}}