{"type":"Feature","properties":{"GID_3":"ZWE.3.2.11_2","GID_0":"ZWE","country":"Zimbabwe","GID_1":"ZWE.3_1","province":"Manicaland","NL_NAME_1":"NA","GID_2":"ZWE.3.2_2","county":"Chimanimani","NL_NAME_2":"NA","city":"Ward19","VARNAME_3":"NA","NL_NAME_3":"NA","TYPE_3":"Ward","ENGTYPE_3":"Ward","CC_3":"NA","HASC_3":"NA","name":"Ward19.city"},
"geometry":{"type": "MultiPolygon","coordinates": [[[[32.6349,-19.9035,1915.2616],[32.6388,-19.8978,1693.494],[32.6393,-19.8897,1607.7793],[32.6432,-19.8827,1503.5197],[32.6421,-19.8816,1572.119],[32.6287,-19.8866,1755.0977],[32.6246,-19.8865,1788.0669],[32.6158,-19.8782,1513.3108],[32.6085,-19.8761,1386.0465],[32.6204,-19.8672,1625.6981],[32.6187,-19.8549,1692.9229],[32.6164,-19.8545,1608.344],[32.6148,-19.8506,1445.3086],[32.6104,-19.8475,1324.8522],[32.6097,-19.8428,1216.5244],[32.6065,-19.8405,1173.1514],[32.6046,-19.8349,1147.0688],[32.5973,-19.8271,1151.0015],[32.5747,-19.8267,1218.9592],[32.5763,-19.8234,1200.6649],[32.5888,-19.8147,1146.4597],[32.5899,-19.8083,1067.4087],[32.5732,-19.8137,1077.4846],[32.5657,-19.8138,1019.5498],[32.5608,-19.818,1063.6066],[32.5561,-19.8181,926.4606],[32.5531,-19.8204,928.8995],[32.5364,-19.826,834.4945],[32.5242,-19.8258,821.288],[32.523,-19.8281,788.8485],[32.5156,-19.8296,774.9877],[32.5109,-19.8278,752.5253],[32.5064,-19.8371,797.5118],[32.4993,-19.8458,908.2405],[32.5004,-19.8502,996.9744],[32.5046,-19.854,1180.0139],[32.507,-19.8537,1219.1858],[32.515,-19.8587,1311.1226],[32.5149,-19.864,1260.2869],[32.5028,-19.8743,1018.1356],[32.4976,-19.8807,1249.3066],[32.4955,-19.8869,1076.6727],[32.4973,-19.8939,959.7394],[32.4955,-19.8981,871.2872],[32.4968,-19.9058,820.2542],[32.4849,-19.9135,777.3861],[32.4813,-19.9182,765.9491],[32.482,-19.9212,764.8232],[32.4862,-19.9186,774.1692],[32.5016,-19.9192,863.0043],[32.5035,-19.9211,803.7579],[32.5141,-19.9238,839.3242],[32.5193,-19.9228,880.2664],[32.5307,-19.9162,941.2288],[32.5339,-19.9158,953.1556],[32.5507,-19.9236,1047.0009],[32.5633,-19.9262,1122.4485],[32.5712,-19.9257,1151.0106],[32.5757,-19.9232,1143.6082],[32.5798,-19.9171,1158.0201],[32.585,-19.913,1196.4473],[32.5967,-19.9163,1530.7489],[32.6013,-19.916,1590.014],[32.6097,-19.9041,1763.6584],[32.6334,-19.8998,1908.5164],[32.6349,-19.9035,1915.2616]]]]}}