{"type": "Feature","bbox": [29.0434,-20.8461,29.2702,-20.7055],"geometry": {"type": "MultiPolygon","coordinates": [[[[29.2702,-20.8461,888.6207],[29.269,-20.8432,892.3179],[29.2702,-20.8379,896.8192],[29.2581,-20.8283,898.2083],[29.2576,-20.8174,900.6371],[29.2485,-20.8065,896.7706],[29.2457,-20.7946,905.5974],[29.2404,-20.7844,901.8468],[29.2389,-20.7698,906.4107],[29.2351,-20.7568,908.4817],[29.2226,-20.7221,923.4056],[29.2162,-20.711,924.6906],[29.2112,-20.7088,926.3811],[29.206,-20.7091,930.7947],[29.2032,-20.7127,922.5112],[29.1903,-20.7079,939.8079],[29.1752,-20.7055,947.2742],[29.1654,-20.7068,951.8248],[29.163,-20.7102,947.805],[29.1446,-20.71,958.903],[29.142,-20.7437,998.9115],[29.1426,-20.7491,1003.4069],[29.1445,-20.7497,997.1582],[29.1411,-20.7573,983.0761],[29.1438,-20.7662,973.7278],[29.1419,-20.7706,971.3478],[29.1427,-20.7801,955.855],[29.1348,-20.7806,960.6628],[29.1187,-20.7779,966.6281],[29.107,-20.7703,972.9375],[29.0936,-20.7727,980.2269],[29.0905,-20.7725,973.0048],[29.089,-20.7699,978.3779],[29.0776,-20.7708,984.3686],[29.0777,-20.7656,995.8027],[29.076,-20.7647,989.6782],[29.0613,-20.7662,1003.7346],[29.0434,-20.7647,1005.9651],[29.0443,-20.7884,1032.6594],[29.0551,-20.8273,1020.6558],[29.067,-20.827,1006.9274],[29.0718,-20.8218,1001.3179],[29.075,-20.8226,1000.0314],[29.0778,-20.8255,998.4985],[29.0916,-20.8182,984.8406],[29.099,-20.818,981.7869],[29.102,-20.8202,981.2235],[29.1108,-20.8201,977.0143],[29.1333,-20.8273,967.3116],[29.1616,-20.8321,949.0679],[29.166,-20.8312,958.2747],[29.1772,-20.8349,942.3473],[29.1877,-20.8338,936.2751],[29.1931,-20.8301,932.4131],[29.2009,-20.8292,933.9297],[29.2099,-20.8323,926.1097],[29.236,-20.8352,916.8346],[29.2452,-20.8387,911.5588],[29.2619,-20.841,903.2771],[29.2655,-20.8451,895.3578],[29.2702,-20.8461,888.6207]]]]}
,"properties": {"GID_3": "ZWE.9.4.12_2","GID_0": "ZWE","country": "Zimbabwe","GID_1": "ZWE.9_1","province": "MatabelelandSouth","NL_NAME_1": "NA","GID_2": "ZWE.9.4_2","county": "Gwanda","NL_NAME_2": "NA","city": "Ward2","VARNAME_3": "NA","NL_NAME_3": "NA","TYPE_3": "Ward","ENGTYPE_3": "Ward","CC_3": "NA","HASC_3": "NA","name": "Ward2.city","area_km2": 196.3238,"hist_schema_id": "Elevation0-9000","hist_area_km2": {"900": 10.3654,"925": 34.7083,"950": 52.2951,"975": 46.4072,"1000": 34.3916,"1025": 15.599,"1050": 1.8831,"1075": 0.2577,"1100": 0.1784,"1125": 0.1388,"1150": 0.0991}}}