{"type": "Feature","bbox": [31.6541,-20.1081,31.8021,-19.9675],"geometry": {"type": "MultiPolygon","coordinates": [[[[31.6541,-20.0311,1015.0115],[31.6574,-20.0365,1026.1586],[31.6566,-20.0425,967.1212],[31.659,-20.0546,947.6758],[31.6642,-20.0702,932.5265],[31.6654,-20.0915,819.0099],[31.6671,-20.0954,804.8101],[31.6706,-20.0979,813.5263],[31.6702,-20.1002,793.9576],[31.6755,-20.1025,820.0608],[31.682,-20.1081,794.1518],[31.686,-20.1057,798.2701],[31.6876,-20.0941,826.5491],[31.6935,-20.0921,961.3911],[31.6964,-20.0929,963.7703],[31.6995,-20.0971,940.6475],[31.7111,-20.0934,985.7918],[31.7159,-20.0902,973.8457],[31.7238,-20.092,1039.4952],[31.7389,-20.0914,1175.5159],[31.7449,-20.0945,1145.6768],[31.7581,-20.0961,884.9352],[31.7605,-20.0874,1001.1144],[31.7945,-20.0719,933.4078],[31.801,-20.0647,889.7817],[31.8021,-20.0611,917.1006],[31.8014,-20.0559,955.8047],[31.7984,-20.054,920.9271],[31.7952,-20.0542,945.6277],[31.7936,-20.0565,929.632],[31.7889,-20.0534,954.4188],[31.782,-20.0453,978.7957],[31.7805,-20.0382,1058.3344],[31.7746,-20.0341,1204.299],[31.7683,-20.0245,1186.3319],[31.7661,-20.0005,974.6806],[31.7628,-19.9946,956.6163],[31.765,-19.986,953.7546],[31.7624,-19.976,900.6323],[31.7655,-19.9708,882.0737],[31.7682,-19.9712,878.5447],[31.7678,-19.9675,891.6329],[31.749,-19.9703,920.0458],[31.7441,-19.9745,927.7926],[31.7432,-19.9776,926.0444],[31.7369,-19.9782,953.0427],[31.7305,-19.9843,957.229],[31.7012,-19.9959,1006.3937],[31.6861,-20.0075,991.9653],[31.6798,-20.0085,1006.3783],[31.6749,-20.0123,1002.6241],[31.6751,-20.0197,1017.9065],[31.6693,-20.0243,1059.641],[31.6685,-20.0276,1067.0337],[31.6648,-20.0281,1081.3068],[31.6654,-20.0324,1125.134],[31.6541,-20.0311,1015.0115]]]]}
,"properties": {"GID_3": "ZWE.7.1.7_2","GID_0": "ZWE","country": "Zimbabwe","GID_1": "ZWE.7_1","province": "Masvingo","NL_NAME_1": "NA","GID_2": "ZWE.7.1_2","county": "Bikita","NL_NAME_2": "NA","city": "Ward15","VARNAME_3": "NA","NL_NAME_3": "NA","TYPE_3": "Ward","ENGTYPE_3": "Ward","CC_3": "NA","HASC_3": "NA","name": "Ward15.city","area_km2": 136.9363,"hist_schema_id": "Elevation0-9000","hist_area_km2": {"800": 0.4181,"825": 1.3141,"850": 1.4934,"875": 1.3742,"900": 2.4304,"925": 3.1873,"950": 5.3183,"975": 7.6888,"1000": 8.7043,"1025": 9.5605,"1050": 7.688,"1075": 7.2698,"1100": 7.9073,"1125": 7.4292,"1150": 7.2501,"1175": 6.3936,"1200": 7.6688,"1225": 9.581,"1250": 9.3219,"1275": 7.0709,"1300": 6.3737,"1325": 4.123,"1350": 2.7487,"1375": 2.0117,"1400": 0.9959,"1425": 0.737,"1450": 0.3585,"1475": 0.3784,"1500": 0.1394}}}