{"type":"Feature","properties":{"GID_3":"ZWE.8.2.9_2","GID_0":"ZWE","country":"Zimbabwe","GID_1":"ZWE.8_1","province":"MatabelelandNorth","NL_NAME_1":"NA","GID_2":"ZWE.8.2_2","county":"Bubi","NL_NAME_2":"NA","city":"Ward17","VARNAME_3":"NA","NL_NAME_3":"NA","TYPE_3":"Ward","ENGTYPE_3":"Ward","CC_3":"NA","HASC_3":"NA","name":"Ward17.city"},
"geometry":{"type": "MultiPolygon","coordinates": [[[[27.9399,-19.4074,1031.9554],[28.0663,-19.4667,1055.3058],[28.0719,-19.3579,1103.929],[28.3635,-19.4921,1167.8054],[28.3835,-19.4349,1123.7648],[28.3725,-19.4332,1132.959],[28.3393,-19.4326,1131.7019],[28.3514,-19.3822,1085.6796],[28.3444,-19.3835,1084.7891],[28.3411,-19.388,1080.4926],[28.3358,-19.39,1081.7222],[28.3318,-19.3863,1080.8302],[28.3259,-19.3853,1080.0084],[28.319,-19.38,1078.6418],[28.3131,-19.3777,1079.6361],[28.3127,-19.374,1085.5361],[28.3075,-19.3756,1080.986],[28.3045,-19.3729,1086.7842],[28.3025,-19.3731,1080.8512],[28.297,-19.3795,1074.3215],[28.2954,-19.3778,1075.7915],[28.2978,-19.3741,1077.697],[28.296,-19.3733,1083.265],[28.2908,-19.3762,1086.549],[28.2825,-19.3744,1090.76],[28.2792,-19.3773,1069.6439],[28.2776,-19.3684,1076.8556],[28.272,-19.3688,1088.4353],[28.2674,-19.3653,1072.8279],[28.267,-19.3596,1072.9802],[28.264,-19.3593,1070.9043],[28.2614,-19.3614,1071.6033],[28.2558,-19.3597,1074.5873],[28.2498,-19.3601,1070.7106],[28.2411,-19.3569,1068.8943],[28.2385,-19.353,1068.4044],[28.2399,-19.3441,1067.9109],[28.2328,-19.3442,1072.7178],[28.2287,-19.3488,1063.4478],[28.2227,-19.3503,1062.4507],[28.2197,-19.3475,1065.5378],[28.2193,-19.3386,1072.6443],[28.2124,-19.3283,1067.3416],[28.2036,-19.3198,1061.531],[28.1995,-19.3126,1086.9497],[28.1848,-19.3129,1048.2357],[28.1835,-19.3111,1052.6415],[28.1837,-19.3065,1047.9482],[28.1724,-19.2994,1066.0052],[28.1636,-19.2998,1046.7329],[28.1587,-19.2964,1053.4297],[28.1521,-19.2983,1045.137],[28.1465,-19.2977,1043.5854],[28.1369,-19.3202,1102.288],[28.0904,-19.2872,1084.6462],[27.9399,-19.4074,1031.9554]]]]}}