{"type":"Feature","properties":{"GID_3":"ZWE.9.6.17_2","GID_0":"ZWE","country":"Zimbabwe","GID_1":"ZWE.9_1","province":"MatabelelandSouth","NL_NAME_1":"NA","GID_2":"ZWE.9.6_2","county":"Insiza","NL_NAME_2":"NA","city":"Ward3","VARNAME_3":"NA","NL_NAME_3":"NA","TYPE_3":"Ward","ENGTYPE_3":"Ward","CC_3":"NA","HASC_3":"NA","name":"Ward3.city"},
"geometry":{"type": "MultiPolygon","coordinates": [[[[29.2612,-20.7077,1017.8611],[29.2655,-20.7164,999.8629],[29.2721,-20.725,1008.7407],[29.2862,-20.7313,1005.2692],[29.2917,-20.7399,990.2592],[29.2915,-20.7447,973.1301],[29.2931,-20.7476,970.0391],[29.29,-20.7529,969.7711],[29.29,-20.7635,958.7405],[29.279,-20.7885,935.1477],[29.2863,-20.8039,932.0932],[29.2934,-20.8145,925.7258],[29.3183,-20.9045,886.6478],[29.3583,-20.902,894.7676],[29.3588,-20.895,903.0663],[29.3636,-20.8853,900.4778],[29.366,-20.8832,907.6613],[29.3708,-20.8831,903.2973],[29.3717,-20.8778,915.4196],[29.3651,-20.8553,914.9076],[29.3605,-20.8463,913.8327],[29.3549,-20.8293,914.8191],[29.3675,-20.8218,918.8382],[29.3702,-20.8186,925.4014],[29.3699,-20.8098,930.1284],[29.3756,-20.7929,951.3503],[29.3658,-20.7778,971.5],[29.3621,-20.768,971.5],[29.3618,-20.7558,971.5],[29.366,-20.746,971.5],[29.349,-20.733,978.4919],[29.3415,-20.7239,984.02],[29.3374,-20.7226,979.0033],[29.3328,-20.7102,978.5206],[29.334,-20.7073,987.5527],[29.3384,-20.7058,977.5424],[29.3395,-20.6997,984.6754],[29.3448,-20.694,991.222],[29.3405,-20.6878,1002.4252],[29.3408,-20.6831,999.0201],[29.3384,-20.6787,997.3333],[29.3393,-20.6724,998.3101],[29.3359,-20.666,1004.1326],[29.3396,-20.6587,1011.6213],[29.3426,-20.6582,1006.7972],[29.3438,-20.6523,1010.8599],[29.3401,-20.6515,1011.2498],[29.3003,-20.6813,1016.1869],[29.2612,-20.7077,1017.8611]]]]}}