{"type": "Feature","bbox": [30.8842,-20.9342,31.1902,-20.6588],"geometry": {"type": "MultiPolygon","coordinates": [[[[31.1902,-20.8687,479.5872],[31.1792,-20.8576,505.5562],[31.1832,-20.8206,601.545],[31.1606,-20.8048,515.0359],[31.1517,-20.8005,561.3952],[31.1348,-20.7868,599.5163],[31.1088,-20.7642,588.1196],[31.0812,-20.736,604.1691],[31.047,-20.7059,654.9473],[31.0211,-20.6853,742.0686],[30.9618,-20.6764,684.918],[30.8928,-20.6588,728.0588],[30.8902,-20.6591,764.9738],[30.8842,-20.664,679.3865],[30.8869,-20.6734,667.1877],[30.8975,-20.6948,662.3731],[30.9008,-20.698,662.5007],[30.9022,-20.7062,732.6711],[30.9056,-20.7103,654.3051],[30.9047,-20.7125,650.3643],[30.9003,-20.7141,701.4592],[30.9006,-20.7176,636.5258],[30.8968,-20.7203,641.5887],[30.9156,-20.7399,608.2508],[30.9214,-20.7555,601.1455],[30.9242,-20.7557,604.5161],[30.93,-20.7504,603.895],[30.9372,-20.752,607.1683],[30.9527,-20.7614,601.837],[30.9675,-20.7765,587.3516],[30.9745,-20.778,583.0156],[30.9793,-20.7829,597.7185],[30.9903,-20.7992,579.3192],[30.9939,-20.8021,579.3452],[30.9978,-20.8146,567.4863],[31.0015,-20.8172,583.0307],[31.0123,-20.8337,566.5425],[31.0153,-20.840699999999998,561.2779],[31.0197,-20.8625,552.7122],[31.031,-20.8875,535.1789],[31.0328,-20.8872,533.3936],[31.0366,-20.8822,535.2543],[31.0419,-20.8837,530.1886],[31.042,-20.893,525.7979],[31.0388,-20.8955,530.4307],[31.0385,-20.8974,515.3445],[31.0435,-20.9008,517.4068],[31.0429,-20.9045,509.701],[31.0488,-20.9101,511.5434],[31.0534,-20.9189,503.9422],[31.0577,-20.9201,487.292],[31.0612,-20.9249,494.5585],[31.0649,-20.9267,488.3488],[31.0702,-20.9214,486.1175],[31.0722,-20.9222,487.9562],[31.0775,-20.9207,488.2601],[31.0815,-20.9246,477.4211],[31.0797,-20.9283,477.8817],[31.0842,-20.9342,478.7211],[31.102,-20.9166,498.3182],[31.1335,-20.8921,497.6174],[31.1741,-20.8782,509.3537],[31.1902,-20.8687,479.5872]]]]}
,"properties": {"GID_3": "ZWE.7.6.24_2","GID_0": "ZWE","country": "Zimbabwe","GID_1": "ZWE.7_1","province": "Masvingo","NL_NAME_1": "NA","GID_2": "ZWE.7.6_2","county": "Masvingo","NL_NAME_2": "NA","city": "Ward30","VARNAME_3": "NA","NL_NAME_3": "NA","TYPE_3": "Ward","ENGTYPE_3": "Ward","CC_3": "NA","HASC_3": "NA","name": "Ward30.city","area_km2": 419.7215,"hist_schema_id": "Elevation0-9000","hist_area_km2": {"475": 5.1507,"500": 60.026,"525": 45.2145,"550": 47.1009,"575": 52.0442,"600": 42.0641,"625": 42.4293,"650": 31.4291,"675": 27.9826,"700": 22.6494,"725": 15.1722,"750": 8.7262,"775": 5.3348,"800": 3.8275,"825": 3.5101,"850": 2.6177,"875": 2.003,"900": 0.8923,"925": 0.6346,"950": 0.6742,"975": 0.119,"1000": 0.0793,"1025": 0.0397}}}