{"type":"Feature","properties":{"GID_3":"ZWE.9.3.11_2","GID_0":"ZWE","country":"Zimbabwe","GID_1":"ZWE.9_1","province":"MatabelelandSouth","NL_NAME_1":"NA","GID_2":"ZWE.9.3_2","county":"Bulilima","NL_NAME_2":"NA","city":"Ward19","VARNAME_3":"NA","NL_NAME_3":"NA","TYPE_3":"Ward","ENGTYPE_3":"Ward","CC_3":"NA","HASC_3":"NA","name":"Ward19.city"},
"geometry":{"type": "MultiPolygon","coordinates": [[[[27.9926,-20.1225,1281.8197],[28.028199999999998,-20.1567,1303.0903],[27.9575,-20.247,1326.4658],[27.9576,-20.2508,1325.3577],[27.9732,-20.2737,1329.339],[27.9612,-20.2753,1320.2231],[27.9301,-20.2886,1304.2],[27.9327,-20.2975,1305.4222],[27.9312,-20.3058,1317.0803],[27.9338,-20.3112,1321.9009],[27.9463,-20.3202,1318.3965],[27.9474,-20.3283,1332.4208],[27.9553,-20.3317,1325.8884],[27.9645,-20.34,1337.4567],[27.9701,-20.3427,1339.5593],[27.9719,-20.3503,1335.7101],[27.9736,-20.3507,1340.2732],[27.9741,-20.349,1347.2991],[27.9782,-20.3522,1347.4542],[27.9867,-20.3615,1351.2384],[27.9978,-20.3703,1359.5378],[27.9908,-20.4102,1405.9871],[27.9773,-20.4176,1409.0121],[27.9723,-20.4122,1397.7161],[27.9491,-20.4079,1377.7098],[27.9306,-20.413,1370.0636],[27.924,-20.4103,1384.1492],[27.9133,-20.411,1386.6997],[27.8852,-20.4036,1380.1633],[27.8781,-20.4037,1379.7651],[27.8423,-20.4212,1350.224],[27.8319,-20.4227,1328.5807],[27.8668,-20.4593,1381.196],[27.8701,-20.4773,1391.7374],[27.8648,-20.4934,1383.1627],[27.9285,-20.4882,1437.2598],[27.977,-20.5169,1440.6467],[27.9916,-20.5006,1471.7065],[28.0003,-20.4953,1461.6926],[28.0517,-20.491,1470.9897],[28.0699,-20.4852,1476.2554],[28.1495,-20.4116,1443.2256],[28.1876,-20.4399,1454.3148],[28.2044,-20.4145,1427.7294],[28.2186,-20.4331,1444.5493],[28.2227,-20.4521,1420.7987],[28.2455,-20.4176,1421.7201],[28.251,-20.4204,1418.9336],[28.2768,-20.427,1410.2032],[28.3083,-20.406,1399.4852],[28.3316,-20.3546,1370.573],[28.3144,-20.2726,1318.6725],[28.3066,-20.2824,1302.0074],[28.3029,-20.2718,1284.3353],[28.2924,-20.256,1279.9794],[28.2877,-20.2523,1277.3838],[28.2762,-20.2477,1271.808],[28.2742,-20.2457,1267.3943],[28.2742,-20.24,1264.4932],[28.271,-20.2371,1270.7642],[28.251,-20.2264,1253.7959],[28.2497,-20.2146,1250.6146],[28.2371,-20.2045,1249.2317],[28.2353,-20.194,1253.938],[28.233,-20.1918,1246.4822],[28.2234,-20.1888,1246.7523],[28.2214,-20.1826,1245.6436],[28.2133,-20.1738,1245.6171],[28.2107,-20.1778,1235.6622],[28.1832,-20.1984,1287.0459],[28.1614,-20.1585,1261.4678],[28.1151,-20.1393,1247.9265],[28.0855,-20.1169,1239.3789],[28.0919,-20.0974,1215.3767],[28.0334,-20.1026,1228.1455],[27.9926,-20.1225,1281.8197]]]]}}