{"type":"Feature","properties":{"GID_3":"ZWE.9.10.4_2","GID_0":"ZWE","country":"Zimbabwe","GID_1":"ZWE.9_1","province":"MatabelelandSouth","NL_NAME_1":"NA","GID_2":"ZWE.9.10_2","county":"Umzingwane","NL_NAME_2":"NA","city":"Ward12","VARNAME_3":"NA","NL_NAME_3":"NA","TYPE_3":"Ward","ENGTYPE_3":"Ward","CC_3":"NA","HASC_3":"NA","name":"Ward12.city"},
"geometry":{"type": "MultiPolygon","coordinates": [[[[28.9531,-20.6089,1152.8804],[28.9109,-20.5977,1215.2098],[28.9147,-20.5354,1329.8016],[28.9106,-20.5355,1327.4058],[28.9079,-20.5308,1170.4738],[28.9102,-20.5272,1194.8483],[28.9097,-20.5246,1199.3435],[28.9078,-20.5268,1183.7191],[28.9048,-20.5261,1221.3508],[28.9024,-20.52,1270.6605],[28.8982,-20.5244,1213.9495],[28.8983,-20.5273,1189.7762],[28.9017,-20.528,1170.0297],[28.9034,-20.5377,1253.7417],[28.9045,-20.5377,1204.3124],[28.9027,-20.5424,1250.8085],[28.9039,-20.5489,1181.354],[28.9004,-20.5483,1239.9934],[28.8958,-20.5432,1274.9883],[28.8881,-20.5433,1225.1741],[28.8874,-20.548,1189.3698],[28.8931,-20.5487,1170.5763],[28.8982,-20.5566,1191.6443],[28.8876,-20.5632,1334.4238],[28.886,-20.5618,1336.3549],[28.8806,-20.5619,1320.9888],[28.8764,-20.5641,1298.1366],[28.8685,-20.5743,1366.7273],[28.8654,-20.5754,1388.2063],[28.8586,-20.5824,1240.7236],[28.8555,-20.582,1227.9829],[28.8551,-20.5846,1175.2688],[28.8525,-20.585,1158.9059],[28.8521,-20.5879,1155.0994],[28.8486,-20.5899,1088.4517],[28.8535,-20.6091,1074.6564],[28.8593,-20.6229,1073.436],[28.8644,-20.6435,1061.5709],[28.8641,-20.6496,1060.8168],[28.8686,-20.6594,1055.905],[28.8718,-20.6781,1050.7014],[28.9232,-20.6992,1078.9553],[28.9531,-20.6089,1152.8804]]]]}}