{"type":"Feature","properties":{"GID_3":"ZWE.3.9.16_2","GID_0":"ZWE","country":"Zimbabwe","GID_1":"ZWE.3_1","province":"Manicaland","NL_NAME_1":"NA","GID_2":"ZWE.3.9_2","county":"Nyanga","NL_NAME_2":"NA","city":"Ward23","VARNAME_3":"NA","NL_NAME_3":"NA","TYPE_3":"Ward","ENGTYPE_3":"Ward","CC_3":"NA","HASC_3":"NA","name":"Ward23.city"},
"geometry":{"type": "MultiPolygon","coordinates": [[[[32.4458,-18.3995,1798.1542],[32.4825,-18.3861,1845.269],[32.5001,-18.3722,1744.2275],[32.5004,-18.37,1742.1136],[32.4908,-18.3536,1701.2184],[32.4975,-18.3493,1728.4221],[32.5023,-18.354,1808.7925],[32.5034,-18.3506,1783.0702],[32.5015,-18.3457,1644.218],[32.5047,-18.3434,1600.6045],[32.5105,-18.364,1858.5508],[32.5404,-18.3601,1734.9962],[32.5212,-18.3362,1626.1598],[32.562,-18.3193,1604.5193],[32.5521,-18.2881,1422.2701],[32.5549,-18.2879,1412.9106],[32.5576,-18.2833,1414.468],[32.5691,-18.2787,1389.8521],[32.5752,-18.2735,1380.4055],[32.5748,-18.2712,1399.6873],[32.5854,-18.2672,1364.2581],[32.5868,-18.2646,1375.3148],[32.6137,-18.2459,1372.5613],[32.6225,-18.2709,1456.3323],[32.6245,-18.2729,1452.9104],[32.6454,-18.2543,1350.5543],[32.6742,-18.2345,1425.6584],[32.7148,-18.2307,1759.3773],[32.6836,-18.1973,1382.8683],[32.6814,-18.1839,1390.5179],[32.6723,-18.1693,1311.7983],[32.711,-18.1544,1463.6948],[32.7195,-18.1282,1412.0181],[32.7356,-18.112,1417.853],[32.7154,-18.1009,1375.4082],[32.7017,-18.0677,1259.7051],[32.6747,-18.0551,1251.9324],[32.6568,-18.0922,1277.4425],[32.6038,-18.1356,1179.1637],[32.5996,-18.1344,1170.2277],[32.5968,-18.1382,1175.3663],[32.5909,-18.1385,1182.29],[32.5754,-18.1581,1335.0349],[32.5643,-18.1671,1281.6167],[32.5276,-18.1697,1365.3314],[32.5062,-18.1821,1400.0637],[32.4273,-18.1954,1492.7783],[32.4184,-18.2763,1750.3807],[32.4207,-18.2928,1782.0774],[32.4539,-18.319,1814.7234],[32.4247,-18.3362,1790.3811],[32.4096,-18.3846,1738.3993],[32.4408,-18.373,1753.603],[32.4458,-18.3995,1798.1542]]]]}}