{"type":"Feature","properties":{"GID_3":"ZWE.6.12.7_2","GID_0":"ZWE","country":"Zimbabwe","GID_1":"ZWE.6_1","province":"MashonalandWest","NL_NAME_1":"NA","GID_2":"ZWE.6.12_2","county":"Sanyati","NL_NAME_2":"NA","city":"Ward15","VARNAME_3":"NA","NL_NAME_3":"NA","TYPE_3":"Ward","ENGTYPE_3":"Ward","CC_3":"NA","HASC_3":"NA","name":"Ward15.city"},
"geometry":{"type": "MultiPolygon","coordinates": [[[[29.6576,-17.7445,894.1401],[29.6529,-17.7384,860.6431],[29.6488,-17.7289,871.265],[29.6315,-17.7251,866.7896],[29.6283,-17.7194,872.5334],[29.6243,-17.7192,865.2736],[29.621,-17.7214,864.9558],[29.6174,-17.7327,855.1207],[29.6095,-17.7439,857.178],[29.6064,-17.7443,861.2668],[29.6019,-17.7408,864.2579],[29.5969,-17.7476,859.913],[29.5916,-17.7626,913.2848],[29.5622,-17.7669,891.1683],[29.5557,-17.7937,882.3036],[29.5192,-17.8156,926.4635],[29.5179,-17.8223,929.4585],[29.5109,-17.8256,927.0106],[29.509,-17.8499,904.9852],[29.5016,-17.8595,898.4667],[29.4914,-17.8607,898.9371],[29.5108,-17.896,927.3663],[29.5486,-17.9037,958.058],[29.6562,-17.7484,876.0477],[29.6599,-17.7497,869.8563],[29.6576,-17.7445,894.1401]]]]}}