{"type": "Feature","bbox": [32.4502,-17.2783,32.639,-17.1499],"geometry": {"type": "MultiPolygon","coordinates": [[[[32.574,-17.1499,757.7133],[32.5626,-17.1533,776.7429],[32.5587,-17.1592,748.6689],[32.5516,-17.1626,768.433],[32.5477,-17.1677,758.3713],[32.5393,-17.1719,778.8467],[32.5355,-17.1717,788.0637],[32.532,-17.1767,766.8367],[32.5234,-17.1777,789.7435],[32.5131,-17.1705,810.9708],[32.5037,-17.175,813.1204],[32.5038,-17.1805,801.7568],[32.4942,-17.1765,822.1759],[32.4916,-17.1839,812.2747],[32.4806,-17.1741,839.7088],[32.4781,-17.1745,827.6484],[32.4774,-17.1769,828.2006],[32.4726,-17.1805,833.5853],[32.4713,-17.1766,841.5868],[32.4698,-17.1771,833.1576],[32.4672,-17.1738,856.4893],[32.4644,-17.1738,858.1636],[32.4612,-17.1768,849.059],[32.4502,-17.1786,868.7145],[32.451,-17.1818,854.4288],[32.457,-17.1819,908.851],[32.4763,-17.1968,982.016],[32.4977,-17.2185,923.3677],[32.5206,-17.2384,991.4153],[32.5565,-17.2559,941.9203],[32.5597,-17.2783,911.2215],[32.5682,-17.276,896.7756],[32.5742,-17.2721,908.459],[32.589,-17.2741,869.3486],[32.6102,-17.2641,850.9399],[32.6173,-17.2649,829.5461],[32.6214,-17.2581,822.6484],[32.6224,-17.2455,815.8753],[32.6284,-17.2346,797.8222],[32.6271,-17.2285,791.135],[32.6284,-17.2257,787.1669],[32.6257,-17.2188,784.4205],[32.6307,-17.2145,783.7288],[32.6389,-17.212,765.1215],[32.639,-17.2095,770.7782],[32.6306,-17.2071,784.1248],[32.6281,-17.2033,787.1976],[32.6211,-17.1985,802.4943],[32.6158,-17.1987,803.1155],[32.6076,-17.194,811.303],[32.5976,-17.1973,822.8177],[32.5905,-17.1811,800.4705],[32.5849,-17.1741,786.4501],[32.5717,-17.1702,766.8589],[32.5729,-17.1685,763.0381],[32.5723,-17.1602,749.7773],[32.574,-17.1499,757.7133]]]]}
,"properties": {"GID_3": "ZWE.5.6.10_2","GID_0": "ZWE","country": "Zimbabwe","GID_1": "ZWE.5_1","province": "MashonalandEast","NL_NAME_1": "NA","GID_2": "ZWE.5.6_2","county": "Mudzi","NL_NAME_2": "NA","city": "Ward18","VARNAME_3": "NA","NL_NAME_3": "NA","TYPE_3": "Ward","ENGTYPE_3": "Ward","CC_3": "NA","HASC_3": "NA","name": "Ward18.city","area_km2": 131.6001,"hist_schema_id": "Elevation0-9000","hist_area_km2": {"750": 2.0258,"775": 9.2774,"800": 18.1482,"825": 22.9067,"850": 22.1968,"875": 18.4085,"900": 12.7375,"925": 9.5783,"950": 6.0142,"975": 3.9082,"1000": 2.2072,"1025": 1.4984,"1050": 0.972,"1075": 0.6885,"1100": 0.4455,"1125": 0.3037,"1150": 0.1215,"1175": 0.081,"1200": 0.081}}}