{"type": "Feature","bbox": [31.1842,-17.4862,31.3016,-17.3783],"geometry": {"type": "MultiPolygon","coordinates": [[[[31.234,-17.3847,1273.1937],[31.2256,-17.3866,1285.2903],[31.2236,-17.3848,1234.4464],[31.2218,-17.3783,1142.3688],[31.2198,-17.3788,1140.5859],[31.2203,-17.3861,1227.5454],[31.2177,-17.3891,1264.5806],[31.2178,-17.3932,1302.5333],[31.2266,-17.4011,1336.6575],[31.226,-17.4028,1322.2913],[31.2171,-17.4043,1395.2261],[31.2138,-17.4064,1359.848],[31.2015,-17.404,1389.7852],[31.185,-17.4079,1146.2153],[31.1842,-17.4213,1162.8958],[31.1879,-17.4213,1174.585],[31.1928,-17.439,1299.8995],[31.1968,-17.4454,1293.5737],[31.21,-17.4539,1461.7903],[31.2146,-17.4534,1459.323],[31.2173,-17.4446,1452.5898],[31.2229,-17.4413,1359.4341],[31.228,-17.4487,1328.4622],[31.2346,-17.4507,1309.6232],[31.2365,-17.4684,1266.4275],[31.2395,-17.4715,1257.6725],[31.2434,-17.4733,1265.0221],[31.2453,-17.4722,1375.296],[31.2534,-17.4765,1241.5109],[31.2619,-17.4759,1254.7887],[31.2692,-17.48,1203.1135],[31.2755,-17.4783,1266.9856],[31.2923,-17.4858,1214.946],[31.3016,-17.4862,1239.6035],[31.2974,-17.4778,1298.0458],[31.2943,-17.4618,1319.5876],[31.2913,-17.4598,1319.3617],[31.2918,-17.4564,1336.2273],[31.2863,-17.4431,1338.8488],[31.2793,-17.4352,1317.2257],[31.269,-17.4361,1367.8811],[31.2665,-17.4336,1347.3379],[31.2666,-17.4277,1317.6066],[31.2655,-17.4287,1320.4382],[31.26,-17.4179,1315.9658],[31.2565,-17.4061,1197.4937],[31.2602,-17.4022,1199.9844],[31.2658,-17.4007,1185.2812],[31.2619,-17.3938,1213.3934],[31.2531,-17.3888,1240.6848],[31.2373,-17.3922,1270.3328],[31.234,-17.3847,1273.1937]]]]}
,"properties": {"GID_3": "ZWE.4.1.4_2","GID_0": "ZWE","country": "Zimbabwe","GID_1": "ZWE.4_1","province": "MashonalandCentral","NL_NAME_1": "NA","GID_2": "ZWE.4.1_2","county": "Bindura","NL_NAME_2": "NA","city": "Ward12","VARNAME_3": "NA","NL_NAME_3": "NA","TYPE_3": "Ward","ENGTYPE_3": "Ward","CC_3": "NA","HASC_3": "NA","name": "Ward12.city","area_km2": 69.13974,"hist_schema_id": "Elevation0-9000","hist_area_km2": {"1150": 0.48556,"1175": 0.20231,"1200": 0.9104,"1225": 1.88136,"1250": 2.46792,"1275": 3.80311,"1300": 6.65531,"1325": 9.38598,"1350": 13.18847,"1375": 13.99752,"1400": 6.1897,"1425": 3.62075,"1450": 2.58905,"1475": 1.77998,"1500": 0.8698,"1525": 0.52591,"1550": 0.32364,"1575": 0.26297}}}