{"type": "Feature","bbox": [32.1842,-18.6217,32.3385,-18.4681],"geometry": {"type": "MultiPolygon","coordinates": [[[[32.2257,-18.6026,1365.5646],[32.2266,-18.6033,1351.9158],[32.2283,-18.6008,1371.996],[32.2371,-18.5962,1380.5499],[32.2411,-18.5905,1402.3917],[32.2435,-18.5989,1442.1519],[32.2629,-18.5859,1505.9445],[32.3369,-18.6217,1216.3611],[32.3379,-18.6195,1242.9641],[32.3353,-18.6137,1243.8562],[32.3367,-18.6094,1278.0856],[32.3316,-18.603,1269.635],[32.3346,-18.6011,1289.8566],[32.3385,-18.5913,1321.7472],[32.3374,-18.5769,1365.6196],[32.3328,-18.5634,1414.9492],[32.3342,-18.5556,1514.168],[32.2923,-18.5325,1638.0249],[32.2666,-18.5038,1575.066],[32.2218,-18.4681,1445.5417],[32.2215,-18.4701,1432.4038],[32.2159,-18.4688,1453.6915],[32.2068,-18.4749,1431.8285],[32.1958,-18.4777,1449.812],[32.1898,-18.4844,1435.7219],[32.1864,-18.4849,1417.502],[32.1861,-18.4828,1447.2991],[32.1842,-18.4844,1436.3136],[32.187,-18.4969,1436.0609],[32.1911,-18.4996,1446.2817],[32.2038,-18.4991,1480.4088],[32.2114,-18.4936,1486.3981],[32.2225,-18.5228,1514.8156],[32.2312,-18.5386,1554.9349],[32.2349,-18.5629,1492.3662],[32.22,-18.5768,1431.1571],[32.2257,-18.6026,1365.5646]]]]}
,"properties": {"GID_3": "ZWE.3.5.11_2","GID_0": "ZWE","country": "Zimbabwe","GID_1": "ZWE.3_1","province": "Manicaland","NL_NAME_1": "NA","GID_2": "ZWE.3.5_2","county": "Makoni","NL_NAME_2": "NA","city": "Ward19","VARNAME_3": "NA","NL_NAME_3": "NA","TYPE_3": "Ward","ENGTYPE_3": "Ward","CC_3": "NA","HASC_3": "NA","name": "Ward19.city","area_km2": 119.11764,"hist_schema_id": "Elevation0-9000","hist_area_km2": {"1225": 0.20093,"1250": 0.48224,"1275": 0.76358,"1300": 1.46693,"1325": 1.78848,"1350": 2.81349,"1375": 3.35605,"1400": 5.28531,"1425": 9.50718,"1450": 11.87959,"1475": 13.28688,"1500": 16.44368,"1525": 18.09189,"1550": 16.28267,"1575": 8.88511,"1600": 6.01061,"1625": 2.33181,"1650": 0.24122}}}