{"type":"Feature","properties":{"GID_3":"ZWE.8.7.3_2","GID_0":"ZWE","country":"Zimbabwe","GID_1":"ZWE.8_1","province":"MatabelelandNorth","NL_NAME_1":"NA","GID_2":"ZWE.8.7_2","county":"Tsholotsho","NL_NAME_2":"NA","city":"Ward11","VARNAME_3":"NA","NL_NAME_3":"NA","TYPE_3":"Ward","ENGTYPE_3":"Ward","CC_3":"NA","HASC_3":"NA","name":"Ward11.city"},
"geometry":{"type": "MultiPolygon","coordinates": [[[[27.4959,-19.8543,1069.6101],[27.5051,-19.8561,1072.5237],[27.5142,-19.8543,1073.4745],[27.5201,-19.8561,1074.5878],[27.5256,-19.86,1076.3008],[27.5286,-19.8644,1075.4155],[27.5389,-19.8706,1079.1438],[27.5398,-19.8802,1078.6858],[27.5458,-19.8862,1081.2385],[27.5512,-19.8893,1082.7971],[27.5585,-19.8899,1086.5785],[27.5644,-19.8964,1084.1465],[27.5653,-19.9008,1083.449],[27.5729,-19.9003,1086.9009],[27.5789,-19.8981,1095.0288],[27.5818,-19.8901,1111.3057],[27.5926,-19.8757,1109.6594],[27.591,-19.8673,1106.2871],[27.5963,-19.8576,1102.5507],[27.5982,-19.8425,1095.3192],[27.5994,-19.8405,1094.0804],[27.6073,-19.8384,1094.83],[27.616,-19.8279,1094.2534],[27.6177,-19.8193,1090.8674],[27.5988,-19.8141,1088.6313],[27.5896,-19.8028,1083.9314],[27.586,-19.7904,1081.5356],[27.5859,-19.7719,1077.8156],[27.4889,-19.7699,1068.3651],[27.4892,-19.7953,1071.668],[27.4938,-19.8043,1074.6261],[27.4917,-19.8111,1075.2542],[27.493,-19.8155,1076.3391],[27.4916,-19.8249,1077.8151],[27.4927,-19.8419,1078.6676],[27.4959,-19.8543,1069.6101]]]]}}