{"type":"Feature","properties":{"GID_3":"ZWE.10.3.10_2","GID_0":"ZWE","country":"Zimbabwe","GID_1":"ZWE.10_1","province":"Midlands","NL_NAME_1":"NA","GID_2":"ZWE.10.3_2","county":"GokweSouth","NL_NAME_2":"NA","city":"Ward18","VARNAME_3":"NA","NL_NAME_3":"NA","TYPE_3":"Ward","ENGTYPE_3":"Ward","CC_3":"NA","HASC_3":"NA","name":"Ward18.city"},
"geometry":{"type": "MultiPolygon","coordinates": [[[[28.5346,-18.0621,1155.7657],[28.5261,-18.0968,1224.6837],[28.5166,-18.1201,1153.8181],[28.5164,-18.2029,1199.6488],[28.4762,-18.2045,1197.6808],[28.4702,-18.1996,1195.4303],[28.4491,-18.1964,1141.3583],[28.4371,-18.1978,1132.6445],[28.4382,-18.2035,1109.4197],[28.4373,-18.2076,1101.179],[28.4329,-18.2096,1079.8767],[28.4323,-18.2145,1072.2555],[28.4256,-18.2189,1057.4897],[28.425,-18.2224,1050.821],[28.4212,-18.2283,1039.4441],[28.4218,-18.2349,1026.1508],[28.4229,-18.2366,1026.7711],[28.4245,-18.2363,1026.7711],[28.4305,-18.2442,1013.763],[28.4284,-18.2453,1009.9398],[28.4261,-18.254,996.9032],[28.4237,-18.2539,994.532],[28.4221,-18.2573,990.9581],[28.4181,-18.2564,975.4512],[28.4109,-18.2602,967.019],[28.4055,-18.2715,951.9464],[28.4004,-18.2741,949.009],[28.3981,-18.2795,942.8274],[28.3948,-18.2804,942.1681],[28.4,-18.2858,934.886],[28.4028,-18.2814,936.6831],[28.4087,-18.2779,949.05],[28.4159,-18.2791,951.3887],[28.4141,-18.2833,939.5793],[28.4162,-18.2865,940.9667],[28.421,-18.2871,943.2789],[28.4218,-18.2838,943.8943],[28.4253,-18.2807,947.3011],[28.427,-18.2852,944.6275],[28.4288,-18.2857,949.371],[28.429,-18.2784,946.9825],[28.4331,-18.2758,961.4393],[28.433,-18.29,951.0913],[28.4396,-18.296,953.692],[28.4437,-18.2941,958.8633],[28.4497,-18.2969,956.507],[28.4526,-18.2891,967.9903],[28.4559,-18.2867,971.6509],[28.459,-18.2885,972.3819],[28.4634,-18.2963,960.0071],[28.4666,-18.2984,961.6859],[28.4659,-18.2937,962.3064],[28.4683,-18.2942,962.6523],[28.4765,-18.2905,967.916],[28.4818,-18.2915,967.6722],[28.4837,-18.2878,968.9719],[28.4887,-18.2869,970.0771],[28.4975,-18.2902,974.5093],[28.5004,-18.2898,975.2975],[28.5092,-18.2961,979.6298],[28.5152,-18.2945,980.9628],[28.5222,-18.2977,983.6282],[28.5328,-18.2987,987.4466],[28.5352,-18.3008,988.8476],[28.553,-18.299,999.2495],[28.5547,-18.298,1000.364],[28.5546,-18.295,1008.7763],[28.5637,-18.2966,1001.6165],[28.5647,-18.2913,1007.1466],[28.5671,-18.2892,1025.0457],[28.5738,-18.2893,1020.1439],[28.5806,-18.2859,1008.7214],[28.5776,-18.2783,1036.6509],[28.5813,-18.2698,1090.45],[28.5813,-18.2616,1091.4978],[28.5839,-18.261,1080.8323],[28.5862,-18.2567,1106.684],[28.5884,-18.2571,1099.8721],[28.598,-18.2499,1110.9044],[28.606,-18.2346,1180.7402],[28.6376,-18.1955,1205.774],[28.6386,-18.193,1206.2646],[28.6222,-18.1498,1177.1389],[28.6322,-18.1454,1188.3185],[28.652,-18.1403,1188.3684],[28.6544,-18.1277,1117.2454],[28.649,-18.1274,1097.9156],[28.6505,-18.1339,1169.1255],[28.6423,-18.1376,1145.9585],[28.6396,-18.1338,1180.9872],[28.6414,-18.1268,1128.3002],[28.6396,-18.1253,1128.8135],[28.6405,-18.1231,1109.6515],[28.6401,-18.1221,1089.8252],[28.6385,-18.1235,1145.04],[28.6385,-18.1212,1123.9795],[28.6347,-18.1203,1126.2396],[28.6301,-18.1286,1133.6824],[28.6317,-18.1333,1171.14],[28.6306,-18.1385,1182.9417],[28.6225,-18.1415,1147.5024],[28.6209,-18.1441,1142.4221],[28.616,-18.1407,1104.2368],[28.6122,-18.1432,1123.348],[28.6091,-18.1397,1144.4479],[28.6106,-18.1334,1141.0601],[28.6087,-18.1317,1135.2869],[28.6069,-18.1321,1155.8783],[28.6055,-18.128,1185.0983],[28.6062,-18.1271,1188.0237],[28.6093,-18.1295,1185.2858],[28.6182,-18.1252,1149.0935],[28.619,-18.1235,1104.3073],[28.6167,-18.1209,1177.6272],[28.6218,-18.1197,1174.8505],[28.6232,-18.1123,1082.1001],[28.6218,-18.1102,1100.4952],[28.6187,-18.1103,1123.4955],[28.6129,-18.1131,1116.9854],[28.6069,-18.1089,1193.8212],[28.6027,-18.1101,1095.4327],[28.6006,-18.1125,1097.5348],[28.5997,-18.116,1166.4343],[28.601,-18.1222,1191.8274],[28.5965,-18.1279,1167.1907],[28.5926,-18.1252,1176.2698],[28.590699999999998,-18.1281,1168.5591],[28.5883,-18.1253,1130.3027],[28.5841,-18.1285,1161.5339],[28.5835,-18.1253,1186.9336],[28.5851,-18.122,1182.5378],[28.591,-18.1148,1176.4702],[28.5914,-18.1098,1129.6658],[28.5878,-18.1056,1202.0577],[28.5928,-18.1056,1195.7253],[28.5964,-18.1001,1196.1689],[28.5999,-18.0991,1160.1073],[28.5994,-18.0936,1157.6494],[28.5957,-18.0909,1061.4912],[28.5927,-18.0844,1101.8757],[28.5876,-18.0844,1043.7601],[28.5923,-18.0964,1180.5629],[28.5823,-18.103,1129.6216],[28.58,-18.0995,1132.5112],[28.5762,-18.0985,1065.5945],[28.5675,-18.1025,1189.8663],[28.5688,-18.0928,1072.3733],[28.567,-18.0889,1211.9001],[28.5692,-18.0862,1171.012],[28.568,-18.0836,1213.6663],[28.5694,-18.0811,1097.2638],[28.5679,-18.0774,1071.3589],[28.5655,-18.0774,1120.4161],[28.5644,-18.0744,1042.5862],[28.5582,-18.0765,1079.1802],[28.5559,-18.0804,1092.6777],[28.5576,-18.0848,1157.2738],[28.5509,-18.0849,1130.3787],[28.5541,-18.0908,1209.5819],[28.5507,-18.0922,1151.009],[28.5473,-18.0905,1115.2084],[28.5454,-18.0944,1189.1376],[28.5426,-18.094,1129.1212],[28.539,-18.0909,1208.9226],[28.5413,-18.0862,1152.6749],[28.5386,-18.0819,1213.8364],[28.5428,-18.0802,1154.5542],[28.542,-18.0769,1210.7767],[28.5447,-18.0768,1196.2513],[28.5463,-18.0726,1192.7007],[28.5483,-18.0714,1174.1946],[28.5481,-18.0689,1136.5591],[28.5452,-18.0681,1188.783],[28.5471,-18.0617,1183.821],[28.5459,-18.0608,1107.2285],[28.5429,-18.0656,1131.726],[28.541,-18.0601,1079.5126],[28.5388,-18.0638,1129.6838],[28.5346,-18.0621,1155.7657]]]]}}