{"type": "Feature","bbox": [29.7861,-19.4461,29.8729,-19.373],"geometry": {"type": "MultiPolygon","coordinates": [[[[29.7861,-19.4166,1389.9241],[29.7888,-19.4187,1389.5688],[29.7894,-19.4228,1394.3577],[29.7917,-19.4229,1397.7339],[29.7927,-19.4272,1393.4645],[29.7937,-19.4259,1394.9546],[29.7968,-19.4282,1393.3337],[29.8005,-19.4275,1400.5679],[29.8062,-19.4408,1399.5405],[29.8193,-19.4461,1402.2946],[29.8224,-19.435,1414.7157],[29.8259,-19.431,1418.2205],[29.8446,-19.4461,1418.6898],[29.8527,-19.4156,1457.4053],[29.8694,-19.4258,1467.0267],[29.8729,-19.4193,1460.1101],[29.8644,-19.4133,1470.8164],[29.8671,-19.4057,1431.5699],[29.8647,-19.401,1425.5931],[29.8533,-19.4048,1473.5748],[29.8456,-19.3981,1463.4786],[29.8412,-19.4017,1456.2134],[29.8357,-19.3968,1440.2104],[29.8322,-19.4001,1435.1775],[29.8301,-19.3985,1430.7885],[29.8276,-19.4002,1423.1113],[29.8264,-19.3993,1426.2833],[29.832,-19.3908,1443.7805],[29.817,-19.3847,1423.7585],[29.8102,-19.373,1429.9655],[29.793,-19.3867,1392.8933],[29.7861,-19.4166,1389.9241]]]]}
,"properties": {"GID_3": "ZWE.10.6.1_2","GID_0": "ZWE","country": "Zimbabwe","GID_1": "ZWE.10_1","province": "Midlands","NL_NAME_1": "NA","GID_2": "ZWE.10.6_2","county": "GweruUrban","NL_NAME_2": "NA","city": "Ward1","VARNAME_3": "NA","NL_NAME_3": "NA","TYPE_3": "Ward","ENGTYPE_3": "Ward","CC_3": "NA","HASC_3": "NA","name": "Ward1.city","area_km2": 37.83408,"hist_schema_id": "Elevation0-9000","hist_area_km2": {"1375": 0.02,"1400": 16.59747,"1425": 15.13751,"1450": 2.59963,"1475": 3.47947}}}