{"type":"Feature","properties":{"GID_3":"ZWE.4.7.33_2","GID_0":"ZWE","country":"Zimbabwe","GID_1":"ZWE.4_1","province":"MashonalandCentral","NL_NAME_1":"NA","GID_2":"ZWE.4.7_2","county":"MountDarwin","NL_NAME_2":"NA","city":"Ward39","VARNAME_3":"NA","NL_NAME_3":"NA","TYPE_3":"Ward","ENGTYPE_3":"Ward","CC_3":"NA","HASC_3":"NA","name":"Ward39.city"},
"geometry":{"type": "MultiPolygon","coordinates": [[[[31.5152,-16.8393,996.1182],[31.5174,-16.8352,994.3566],[31.5227,-16.8334,991.3428],[31.5275,-16.8343,989.3337],[31.5285,-16.8256,989.0109],[31.5333,-16.827,987.254],[31.5338,-16.8252,988.9884],[31.5371,-16.8238,993.9923],[31.5362,-16.821,1042.1399],[31.5324,-16.8196,978.8235],[31.5372,-16.8164,1025.2843],[31.5334,-16.8141,1017.7411],[31.5454,-16.8082,994.7601],[31.5583,-16.8097,976.7115],[31.5655,-16.8074,958.8391],[31.5669,-16.8051,960.0351],[31.5674,-16.7982,948.082],[31.5567,-16.7806,1030.4611],[31.5483,-16.7807,1002.5762],[31.5484,-16.7731,990.9038],[31.5545,-16.7627,979.8505],[31.4903,-16.7592,960.5212],[31.4902,-16.758,960.5212],[31.4739,-16.7939,1310.4048],[31.5015,-16.8228,1067.8336],[31.5152,-16.8393,996.1182]]]]}}