{"type": "Feature","bbox": [31.347,-17.3197,31.365,-17.3111],"geometry": {"type": "MultiPolygon","coordinates": [[[[31.365,-17.3197,1066.3223],[31.3639,-17.3163,1075.7086],[31.347,-17.3111,1092.2349],[31.347,-17.3154,1088.4956],[31.365,-17.3197,1066.3223]]]]}
,"properties": {"GID_3": "ZWE.4.2.11_2","GID_0": "ZWE","country": "Zimbabwe","GID_1": "ZWE.4_1","province": "MashonalandCentral","NL_NAME_1": "NA","GID_2": "ZWE.4.2_2","county": "BinduraUrban","NL_NAME_2": "NA","city": "Ward8","VARNAME_3": "NA","NL_NAME_3": "NA","TYPE_3": "Ward","ENGTYPE_3": "Ward","CC_3": "NA","HASC_3": "NA","name": "Ward8.city","area_km2": 0.7894116,"hist_schema_id": "Elevation0-9000","hist_area_km2": {"1075": 0.5667554,"1100": 0.2226562}}}