{"type":"Feature","properties":{"GID_3":"ZWE.4.10.19_2","GID_0":"ZWE","country":"Zimbabwe","GID_1":"ZWE.4_1","province":"MashonalandCentral","NL_NAME_1":"NA","GID_2":"ZWE.4.10_2","county":"Shamva","NL_NAME_2":"NA","city":"Ward26","VARNAME_3":"NA","NL_NAME_3":"NA","TYPE_3":"Ward","ENGTYPE_3":"Ward","CC_3":"NA","HASC_3":"NA","name":"Ward26.city"},
"geometry":{"type": "MultiPolygon","coordinates": [[[[31.5107,-17.0012,1154.4585],[31.4995,-16.9823,1132.6534],[31.4992,-16.9795,1124.7721],[31.4941,-16.9746,1134.7598],[31.4976,-16.9672,1121.3601],[31.4947,-16.9613,1114.2629],[31.49,-16.9566,1106.49],[31.4791,-16.952,1102.0701],[31.4773,-16.9549,1107.1819],[31.4772,-16.9725,1119.7395],[31.4676,-16.9774,1132.1869],[31.4395,-17.0005,1151.5144],[31.4508,-17.0032,1164.0245],[31.4736,-16.9922,1148.0405],[31.5107,-17.0012,1154.4585]]]]}}