{"type": "Feature","bbox": [30.7502,-16.4169,30.8527,-16.2556],"geometry": {"type": "MultiPolygon","coordinates": [[[[30.7978,-16.3929,466.4128],[30.8008,-16.3913,459.604],[30.7998,-16.3885,466.4791],[30.8025,-16.3882,456.9894],[30.8019,-16.3851,465.9214],[30.8061,-16.3829,450.9493],[30.8039,-16.3804,462.1815],[30.8064,-16.3793,447.2986],[30.8086,-16.3807,452.0834],[30.8066,-16.375,460.6312],[30.809,-16.3746,456.3102],[30.8115,-16.3769,451.5945],[30.8131,-16.3722,451.5214],[30.8156,-16.3718,443.3354],[30.8181,-16.3647,434.5125],[30.8236,-16.3627,433.6353],[30.8227,-16.3584,441.1036],[30.8248,-16.3588,431.9016],[30.8248,-16.3561,440.2297],[30.8303,-16.3548,429.5413],[30.8307,-16.3497,429.274],[30.8334,-16.3494,425.7348],[30.8314,-16.3458,431.6901],[30.8366,-16.3456,423.8222],[30.8381,-16.3396,422.7995],[30.8353,-16.3355,426.0766],[30.8418,-16.336,417.2323],[30.8439,-16.3314,415.1249],[30.8394,-16.3335,418.4674],[30.8381,-16.3311,426.0627],[30.8425,-16.3313,415.1249],[30.8436,-16.3289,421.5735],[30.8474,-16.3285,413.4245],[30.8478,-16.3261,415.8715],[30.8458,-16.3253,418.9536],[30.8479,-16.3238,417.8329],[30.8474,-16.3215,419.9904],[30.8497,-16.3203,417.7358],[30.8515,-16.3222,412.7747],[30.8527,-16.3215,412.7747],[30.8507,-16.3188,419.5036],[30.8525,-16.3156,416.7432],[30.8474,-16.3124,418.8302],[30.8455,-16.3005,427.7318],[30.8439,-16.3089,422.2921],[30.8418,-16.3079,424.9017],[30.8424,-16.3034,426.9072],[30.846,-16.299,426.2203],[30.842,-16.2906,421.6451],[30.8442,-16.2757,425.5049],[30.8499,-16.2712,419.5632],[30.8328,-16.2717,413.0796],[30.817,-16.266,408.5777],[30.8135,-16.2556,407.6185],[30.8077,-16.2623,405.7619],[30.7998,-16.2645,409.1426],[30.7987,-16.2669,410.0396],[30.7958,-16.268,411.4858],[30.7958,-16.2706,408.3963],[30.7983,-16.271,409.4432],[30.7984,-16.2723,411.5856],[30.7936,-16.2749,415.6068],[30.7902,-16.2801,414.8859],[30.7809,-16.2841,416.7859],[30.7733,-16.292,421.168],[30.7675,-16.2949,423.4642],[30.7654,-16.2938,425.1734],[30.7652,-16.2964,423.319],[30.7629,-16.2976,425.6781],[30.7645,-16.2994,424.7133],[30.7588,-16.303,427.684],[30.7566,-16.3077,428.8649],[30.7534,-16.309,431.1043],[30.7533,-16.3124,431.799],[30.7502,-16.3177,434.0262],[30.7529,-16.3232,439.7543],[30.7511,-16.3273,439.4368],[30.7561,-16.3308,445.4323],[30.7555,-16.3366,445.1313],[30.7599,-16.3402,447.7289],[30.7653,-16.3583,460.5942],[30.7625,-16.3632,464.7903],[30.763,-16.3685,467.9872],[30.771,-16.3734,457.1884],[30.7703,-16.375,465.6792],[30.7738,-16.3782,451.6996],[30.7727,-16.3802,463.6376],[30.7723,-16.3784,455.6225],[30.7697,-16.3784,466.9966],[30.7684,-16.385,465.8605],[30.7657,-16.3853,470.3882],[30.7661,-16.3898,462.8273],[30.7609,-16.3878,478.7032],[30.7565,-16.3908,480.9012],[30.7563,-16.3938,483.2681],[30.7534,-16.395,558.4993],[30.7552,-16.4043,568.5419],[30.7565,-16.4062,618.6699],[30.7716,-16.4128,680.4604],[30.7925,-16.4169,652.1806],[30.7927,-16.4146,756.329],[30.7967,-16.4145,666.36],[30.7985,-16.4116,577.7781],[30.7948,-16.3989,503.8658],[30.7978,-16.3929,466.4128]]]]}
,"properties": {"GID_3": "ZWE.4.6.14_2","GID_0": "ZWE","country": "Zimbabwe","GID_1": "ZWE.4_1","province": "MashonalandCentral","NL_NAME_1": "NA","GID_2": "ZWE.4.6_2","county": "Mbire","NL_NAME_2": "NA","city": "Ward6","VARNAME_3": "NA","NL_NAME_3": "NA","TYPE_3": "Ward","ENGTYPE_3": "Ward","CC_3": "NA","HASC_3": "NA","name": "Ward6.city","area_km2": 110.80764,"hist_schema_id": "Elevation0-9000","hist_area_km2": {"400": 5.23067,"425": 51.95182,"450": 34.72897,"475": 10.29273,"500": 1.38311,"525": 0.9763,"550": 0.6712,"575": 0.71187,"600": 0.73221,"625": 0.95593,"650": 0.75254,"675": 0.38644,"700": 0.56948,"725": 0.44745,"750": 0.44744,"775": 0.18304,"800": 0.28473,"825": 0.10169}}}