{"type": "Feature","bbox": [31.1773,-17.7256,31.2907,-17.6393],"geometry": {"type": "MultiPolygon","coordinates": [[[[31.2095,-17.7256,1370.8179],[31.2312,-17.7107,1309.2263],[31.2496,-17.7055,1331.2084],[31.2568,-17.6979,1305.2772],[31.2583,-17.6934,1304.8005],[31.2835,-17.6919,1282.3704],[31.2907,-17.6415,1416.8356],[31.2688,-17.6466,1368.9843],[31.2482,-17.6412,1405.3883],[31.2137,-17.6427,1434.2898],[31.2014,-17.6393,1441.8661],[31.1835,-17.6557,1480.4017],[31.1955,-17.6596,1466.2764],[31.1773,-17.6831,1472.6215],[31.1818,-17.6937,1538.5574],[31.1812,-17.6962,1540.6139],[31.1892,-17.7052,1416.9297],[31.1973,-17.7186,1350.2208],[31.1973,-17.716,1343.1226],[31.2004,-17.7121,1335.4559],[31.2054,-17.7119,1350.6512],[31.2095,-17.7256,1370.8179]]]]}
,"properties": {"GID_3": "ZWE.5.2.23_2","GID_0": "ZWE","country": "Zimbabwe","GID_1": "ZWE.5_1","province": "MashonalandEast","NL_NAME_1": "NA","GID_2": "ZWE.5.2_2","county": "Goromonzi","NL_NAME_2": "NA","city": "Ward7","VARNAME_3": "NA","NL_NAME_3": "NA","TYPE_3": "Ward","ENGTYPE_3": "Ward","CC_3": "NA","HASC_3": "NA","name": "Ward7.city","area_km2": 75.59312,"hist_schema_id": "Elevation0-9000","hist_area_km2": {"1275": 1.95953,"1300": 15.45357,"1325": 18.09992,"1350": 13.93904,"1375": 10.70704,"1400": 7.13127,"1425": 4.22219,"1450": 2.22215,"1475": 0.82822,"1500": 0.48479,"1525": 0.48478,"1550": 0.0606}}}