{"type": "Feature","bbox": [31.5192,-20.4191,31.6171,-20.2489],"geometry": {"type": "MultiPolygon","coordinates": [[[[31.6113,-20.2734,704.8018],[31.6015,-20.275,718.6463],[31.593,-20.2732,723.0475],[31.5914,-20.2721,723.9736],[31.5914,-20.2679,730.8529],[31.5739,-20.2581,755.5632],[31.5736,-20.2533,774.9736],[31.5619,-20.2489,793.7197],[31.5513,-20.2575,828.2592],[31.555,-20.2611,806.0812],[31.5549,-20.2632,799.5652],[31.5479,-20.2655,813.1555],[31.5465,-20.2679,813.5468],[31.5464,-20.2711,805.1935],[31.5517,-20.2757,787.3477],[31.5537,-20.2825,776.3094],[31.5492,-20.2831,782.645],[31.5355,-20.2791,830.2638],[31.5335,-20.2712,817.6561],[31.5192,-20.2767,837.4337],[31.5195,-20.2794,836.6616],[31.5247,-20.2822,820.4566],[31.5261,-20.2955,795.9493],[31.5409,-20.3004,776.6983],[31.5447,-20.3043,763.5977],[31.5441,-20.3066,784.7415],[31.5358,-20.3089,795.9845],[31.5315,-20.3129,807.4175],[31.5343,-20.3162,793.1694],[31.5343,-20.3197,793.1805],[31.5274,-20.3285,778.945],[31.5399,-20.3358,787.1123],[31.5374,-20.3442,762.2029],[31.5438,-20.3477,746.364],[31.5413,-20.3522,748.7911],[31.5407,-20.3725,753.5281],[31.5214,-20.4,717.204],[31.5286,-20.408,710.4504],[31.5297,-20.4143,704.7955],[31.5334,-20.4182,698.8505],[31.5357,-20.4191,702.1535],[31.5427,-20.4161,707.4674],[31.5437,-20.4091,718.2063],[31.5518,-20.4017,721.7549],[31.5588,-20.3921,739.1366],[31.5602,-20.3881,739.1055],[31.559,-20.3705,778.0725],[31.5635,-20.3615,736.7034],[31.5706,-20.3356,747.6307],[31.5723,-20.3236,758.4374],[31.5772,-20.3085,731.3031],[31.5857,-20.2995,719.355],[31.6161,-20.293,697.6858],[31.6171,-20.2869,699.5752],[31.6098,-20.2865,699.0364],[31.6113,-20.2734,704.8018]]]]}
,"properties": {"GID_3": "ZWE.7.9.6_2","GID_0": "ZWE","country": "Zimbabwe","GID_1": "ZWE.7_1","province": "Masvingo","NL_NAME_1": "NA","GID_2": "ZWE.7.9_2","county": "Zaka","NL_NAME_2": "NA","city": "Ward14","VARNAME_3": "NA","NL_NAME_3": "NA","TYPE_3": "Ward","ENGTYPE_3": "Ward","CC_3": "NA","HASC_3": "NA","name": "Ward14.city","area_km2": 71.69725,"hist_schema_id": "Elevation0-9000","hist_area_km2": {"700": 2.30628,"725": 11.84855,"750": 26.62068,"775": 20.9584,"800": 7.41769,"825": 2.34676,"850": 0.19889}}}