{"type":"Feature","properties":{"GID_3":"ZWE.4.5.34_2","GID_0":"ZWE","country":"Zimbabwe","GID_1":"ZWE.4_1","province":"MashonalandCentral","NL_NAME_1":"NA","GID_2":"ZWE.4.5_2","county":"Mazowe","NL_NAME_2":"NA","city":"Ward9","VARNAME_3":"NA","NL_NAME_3":"NA","TYPE_3":"Ward","ENGTYPE_3":"Ward","CC_3":"NA","HASC_3":"NA","name":"Ward9.city"},
"geometry":{"type": "MultiPolygon","coordinates": [[[[31.0458,-17.1166,1233.5021],[31.0446,-17.1152,1241.0955],[31.0395,-17.1156,1237.4534],[31.0353,-17.1124,1247.1907],[31.0308,-17.1117,1245.7008],[31.032,-17.1091,1254.3158],[31.0255,-17.1062,1260.666],[31.0151,-17.1065,1264.5],[31.0118,-17.1047,1268.561],[31.0103,-17.1069,1265.7354],[31.0009,-17.1076,1279.0933],[30.9978,-17.1016,1276.408],[30.9847,-17.129,1308.874],[30.971,-17.1765,1255.3376],[30.9777,-17.1729,1234.0575],[30.9914,-17.1765,1214.4756],[30.9927,-17.175,1221.4694],[30.9948,-17.1763,1209.4321],[30.9961,-17.1754,1219.3545],[30.9969,-17.1773,1214.2402],[31.0019,-17.1795,1210.0956],[31.0105,-17.18,1222.7048],[31.032,-17.1764,1301.7736],[31.0352,-17.1773,1303.8152],[31.0402,-17.1753,1303.6331],[31.0384,-17.1679,1308.8228],[31.0439,-17.1409,1258.145],[31.049,-17.1386,1248.2659],[31.0497,-17.1335,1241.8871],[31.0497,-17.132,1235.7866],[31.0479,-17.1313,1236.3495],[31.044,-17.1316,1238.0598],[31.0466,-17.1257,1250.1156],[31.0458,-17.1166,1233.5021]]]]}}