{"type": "Feature","bbox": [28.8914,-19.0212,29.0074,-18.8215],"geometry": {"type": "MultiPolygon","coordinates": [[[[28.9377,-19.0099,1133.9087],[28.9395,-19.0133,1126.476],[28.9511,-19.0201,1129.074],[28.9602,-19.0212,1131.2024],[28.9651,-19.0187,1129.1522],[28.9716,-19.021,1132.8538],[28.9768,-19.0206,1128.7566],[29.0011,-18.8834,1261.7781],[29.0074,-18.8662,1212.4491],[28.9552,-18.8511,1219.8312],[28.8914,-18.8215,1225.5073],[28.9076,-18.8835,1218.0619],[28.9377,-19.0099,1133.9087]]]]}
,"properties": {"GID_3": "ZWE.10.7.27_2","GID_0": "ZWE","country": "Zimbabwe","GID_1": "ZWE.10_1","province": "Midlands","NL_NAME_1": "NA","GID_2": "ZWE.10.7_2","county": "Kwekwe","NL_NAME_2": "NA","city": "Ward33","VARNAME_3": "NA","NL_NAME_3": "NA","TYPE_3": "Ward","ENGTYPE_3": "Ward","CC_3": "NA","HASC_3": "NA","name": "Ward33.city","area_km2": 147.4987,"hist_schema_id": "Elevation0-9000","hist_area_km2": {"1125": 7.3175,"1150": 45.5169,"1175": 22.8629,"1200": 13.3194,"1225": 18.3969,"1250": 28.6698,"1275": 11.4152}}}