{"type": "Feature","bbox": [31.3412,-18.4944,31.5963,-18.2501],"geometry": {"type": "MultiPolygon","coordinates": [[[[31.4021,-18.4944,1436.2411],[31.4356,-18.4731,1459.1584],[31.4782,-18.45,1446.5227],[31.4559,-18.4259,1494.7706],[31.4601,-18.4076,1483.1046],[31.5539,-18.4317,1382.9603],[31.5566,-18.4647,1437.0774],[31.58,-18.4752,1346.0],[31.5808,-18.4703,1348.908],[31.5853,-18.4691,1347.4976],[31.5839,-18.4616,1351.9373],[31.5942,-18.45,1355.7515],[31.5925,-18.4425,1358.2673],[31.5963,-18.4361,1364.4026],[31.5853,-18.4099,1365.9012],[31.58,-18.4041,1375.0073],[31.5695,-18.3996,1388.0077],[31.5644,-18.3861,1386.1738],[31.5578,-18.3823,1395.9518],[31.5541,-18.3756,1406.7642],[31.552,-18.3744,1399.5397],[31.5519,-18.3698,1405.6376],[31.5476,-18.3614,1413.3894],[31.5434,-18.3622,1420.8719],[31.5395,-18.3578,1432.5416],[31.5378,-18.3581,1425.2775],[31.537,-18.3609,1416.9067],[31.5354,-18.3605,1419.298],[31.5335,-18.3584,1417.3268],[31.5331,-18.3515,1419.427],[31.5315,-18.3493,1422.1604],[31.528199999999998,-18.3499,1422.2712],[31.5209,-18.3416,1429.2456],[31.5193,-18.3405,1441.6676],[31.5167,-18.3415,1439.2681],[31.5121,-18.3381,1441.1044],[31.525,-18.3164,1467.3818],[31.5296,-18.3112,1492.4495],[31.539,-18.2693,1601.8984],[31.5151,-18.2631,1572.9067],[31.5056,-18.2882,1517.0946],[31.4349,-18.2501,1554.8315],[31.4195,-18.2888,1528.1091],[31.3412,-18.3172,1563.988],[31.349,-18.3332,1565.7025],[31.3497,-18.3409,1564.499],[31.3547,-18.354,1558.4922],[31.3543,-18.3596,1548.8052],[31.3497,-18.37,1539.7451],[31.3508,-18.3755,1546.1162],[31.3544,-18.3806,1539.6831],[31.3574,-18.3983,1523.8623],[31.3753,-18.4145,1530.2354],[31.3803,-18.4294,1518.8511],[31.3845,-18.4304,1517.4116],[31.3882,-18.4451,1495.5646],[31.3878,-18.4573,1499.3439],[31.3926,-18.4667,1465.8044],[31.392,-18.4804,1461.3292],[31.4021,-18.4944,1436.2411]]]]}
,"properties": {"GID_3": "ZWE.5.4.19_2","GID_0": "ZWE","country": "Zimbabwe","GID_1": "ZWE.5_1","province": "MashonalandEast","NL_NAME_1": "NA","GID_2": "ZWE.5.4_2","county": "Marondera","NL_NAME_2": "NA","city": "Ward5","VARNAME_3": "NA","NL_NAME_3": "NA","TYPE_3": "Ward","ENGTYPE_3": "Ward","CC_3": "NA","HASC_3": "NA","name": "Ward5.city","area_km2": 383.5603,"hist_schema_id": "Elevation0-9000","hist_area_km2": {"1350": 4.9273,"1375": 16.2926,"1400": 26.9374,"1425": 42.4509,"1450": 67.2782,"1475": 81.7311,"1500": 63.8349,"1525": 47.7202,"1550": 26.3886,"1575": 5.8582,"1600": 0.1409}}}