{"type": "Feature","bbox": [30.0622,-20.3359,30.0796,-20.3196],"geometry": {"type": "MultiPolygon","coordinates": [[[[30.0622,-20.3231,943.6609],[30.0778,-20.3359,965.9422],[30.0796,-20.3264,970.6473],[30.0763,-20.3196,956.0316],[30.0734,-20.3211,958.5905],[30.0724,-20.32,957.2053],[30.0675,-20.3237,952.3644],[30.0622,-20.3231,943.6609]]]]}
,"properties": {"GID_3": "ZWE.10.14.9_2","GID_0": "ZWE","country": "Zimbabwe","GID_1": "ZWE.10_1","province": "Midlands","NL_NAME_1": "NA","GID_2": "ZWE.10.14_2","county": "ZvishavaneUrban","NL_NAME_2": "NA","city": "Ward8","VARNAME_3": "NA","NL_NAME_3": "NA","TYPE_3": "Ward","ENGTYPE_3": "Ward","CC_3": "NA","HASC_3": "NA","name": "Ward8.city","area_km2": 1.570669,"hist_schema_id": "Elevation0-9000","hist_area_km2": {"950": 0.417531,"975": 0.437395,"1000": 0.238581,"1025": 0.178936,"1050": 0.09941,"1075": 0.198818}}}