{"type": "Feature","bbox": [27.7251,-20.1882,27.9199,-20.0056],"geometry": {"type": "MultiPolygon","coordinates": [[[[27.7251,-20.0862,1142.1353],[27.7314,-20.0968,1141.1287],[27.7369,-20.0964,1143.6699],[27.7407,-20.0988,1146.8927],[27.7461,-20.1057,1159.0371],[27.746,-20.1097,1152.0101],[27.7522,-20.1134,1158.1029],[27.7532,-20.1202,1160.0768],[27.757,-20.1246,1167.1553],[27.7588,-20.1345,1163.2418],[27.7666,-20.1304,1168.7795],[27.7801,-20.1443,1171.8896],[27.7857,-20.1473,1175.2764],[27.793,-20.1468,1192.5452],[27.8051,-20.1514,1191.6729],[27.8125,-20.1714,1196.7017],[27.8187,-20.1749,1197.5491],[27.8235,-20.174,1202.5029],[27.8304,-20.1752,1203.7496],[27.8372,-20.1711,1223.6392],[27.8486,-20.1786,1217.6083],[27.8538,-20.1778,1227.3304],[27.8571,-20.1803,1220.2594],[27.8611,-20.177,1253.283],[27.8647,-20.1796,1228.3195],[27.8683,-20.1866,1236.0935],[27.8801,-20.1836,1239.9034],[27.8834,-20.1863,1236.8459],[27.8864,-20.186,1246.3024],[27.8903,-20.1882,1259.7386],[27.8972,-20.1842,1263.1079],[27.9195,-20.125,1288.3027],[27.9199,-20.1214,1284.2308],[27.8897,-20.1073,1270.2183],[27.8922,-20.0852,1249.6754],[27.8883,-20.0825,1245.3811],[27.8736,-20.0839,1251.1239],[27.8678,-20.0866,1251.8392],[27.862,-20.0862,1251.2075],[27.8571,-20.0825,1248.7844],[27.8556,-20.0788,1247.3824],[27.8571,-20.0668,1240.1238],[27.8537,-20.0581,1234.489],[27.8449,-20.0521,1228.7729],[27.8449,-20.0498,1228.0317],[27.8493,-20.0443,1226.302],[27.8522,-20.0433,1226.6348],[27.86,-20.0355,1223.4752],[27.86,-20.0328,1222.3279],[27.8551,-20.0277,1219.3564],[27.8512,-20.0268,1218.7574],[27.8415,-20.0295,1217.5767],[27.8332,-20.0466,1224.7344],[27.8284,-20.0466,1223.2191],[27.8235,-20.0415,1218.5461],[27.8225,-20.0111,1205.233],[27.8196,-20.0056,1202.27],[27.8162,-20.0134,1205.5237],[27.8138,-20.0166,1204.0054],[27.8116,-20.0169,1203.2355],[27.8108,-20.024,1205.4738],[27.8055,-20.0291,1205.7764],[27.7957,-20.0304,1202.8251],[27.7904,-20.036,1201.6204],[27.7811,-20.053,1209.7991],[27.7699,-20.0617,1212.4972],[27.7485,-20.0673,1182.1824],[27.727,-20.0832,1148.2344],[27.7251,-20.0862,1142.1353]]]]}
,"properties": {"GID_3": "ZWE.8.7.11_2","GID_0": "ZWE","country": "Zimbabwe","GID_1": "ZWE.8_1","province": "MatabelelandNorth","NL_NAME_1": "NA","GID_2": "ZWE.8.7_2","county": "Tsholotsho","NL_NAME_2": "NA","city": "Ward19","VARNAME_3": "NA","NL_NAME_3": "NA","TYPE_3": "Ward","ENGTYPE_3": "Ward","CC_3": "NA","HASC_3": "NA","name": "Ward19.city","area_km2": 203.04,"hist_schema_id": "Elevation0-9000","hist_area_km2": {"1125": 0.0199,"1150": 3.7036,"1175": 15.5699,"1200": 34.9836,"1225": 53.4234,"1250": 52.9378,"1275": 33.6831,"1300": 8.7188}}}