{"type":"Feature","properties":{"GID_2":"ZWE.4.8_2","GID_0":"ZWE","country":"Zimbabwe","GID_1":"ZWE.4_1","province":"MashonalandCentral","NL_NAME_1":"NA","county":"Mvurwi","VARNAME_2":"NA","NL_NAME_2":"NA","TYPE_2":"District","ENGTYPE_2":"District","CC_2":"NA","HASC_2":"NA","name":"Mvurwi.county"},
"geometry":{"type": "MultiPolygon","coordinates": [[[[30.8635,-17.0246,1480.052],[30.8634,-17.022,1480.661],[30.8591,-17.0205,1476.7548],[30.8577,-17.0218,1477.0184],[30.8565,-17.0206,1470.7913],[30.8553,-17.023,1479.343],[30.8452,-17.019,1468.8673],[30.8452,-17.014,1457.8058],[30.8406,-17.0142,1458.8674],[30.8406,-17.0248,1481.1022],[30.8439,-17.0309,1491.3134],[30.8502,-17.033,1488.9722],[30.8523,-17.0286,1491.2046],[30.8569,-17.0297,1481.8505],[30.8596,-17.0323,1475.9607],[30.8635,-17.0246,1480.052]]]]}}