{"type": "Feature","bbox": [28.8669,-18.8099,29.2511,-18.6799],"geometry": {"type": "MultiPolygon","coordinates": [[[[28.9218,-18.7092,1107.271],[28.8669,-18.7233,1066.0537],[28.8672,-18.7247,1068.9685],[28.8705,-18.7283,1072.6409],[28.8757,-18.7297,1066.1262],[28.8834,-18.7384,1065.533],[28.8892,-18.7395,1069.8809],[28.8935,-18.7423,1074.0146],[28.9059,-18.743,1076.381],[28.9075,-18.7461,1077.5923],[28.915,-18.7441,1082.2266],[28.9312,-18.746,1086.3719],[28.932,-18.7535,1078.4197],[28.9447,-18.7613,1084.0131],[28.9518,-18.7727,1096.6245],[28.9571,-18.7743,1099.3016],[28.9598,-18.7786,1099.8926],[28.9681,-18.7847,1102.5427],[28.9747,-18.787,1111.7295],[28.9788,-18.7913,1102.4817],[28.9893,-18.7918,1115.6875],[28.9953,-18.7945,1119.8474],[28.9997,-18.7929,1120.8701],[29.027,-18.7238,1189.5101],[29.2198,-18.7929,1208.1677],[29.2382,-18.8099,1227.5919],[29.2449,-18.8011,1227.4435],[29.2487,-18.7889,1245.7491],[29.2511,-18.7861,1245.9679],[29.2459,-18.7785,1246.7269],[29.2454,-18.7687,1247.0691],[29.2409,-18.756,1264.994],[29.2359,-18.756,1260.0219],[29.23,-18.7524,1260.0193],[29.2199,-18.7499,1291.6851],[29.2127,-18.7435,1301.2007],[29.2106,-18.7329,1249.3232],[29.2063,-18.7273,1241.7334],[29.2039,-18.7135,1253.4335],[29.0243,-18.6963,1182.1494],[29.0191,-18.701,1151.2568],[29.011,-18.6896,1139.0557],[29.0008,-18.6799,1125.3978],[28.9218,-18.7092,1107.271]]]]}
,"properties": {"GID_3": "ZWE.10.7.9_2","GID_0": "ZWE","country": "Zimbabwe","GID_1": "ZWE.10_1","province": "Midlands","NL_NAME_1": "NA","GID_2": "ZWE.10.7_2","county": "Kwekwe","NL_NAME_2": "NA","city": "Ward17","VARNAME_3": "NA","NL_NAME_3": "NA","TYPE_3": "Ward","ENGTYPE_3": "Ward","CC_3": "NA","HASC_3": "NA","name": "Ward17.city","area_km2": 238.2717,"hist_schema_id": "Elevation0-9000","hist_area_km2": {"1075": 7.4694,"1100": 23.3909,"1125": 28.1878,"1150": 18.7755,"1175": 29.3581,"1200": 20.0992,"1225": 54.5498,"1250": 35.0766,"1275": 19.1155,"1300": 2.2487}}}