{"type": "Feature","bbox": [28.761,-20.0439,28.8289,-19.9581],"geometry": {"type": "MultiPolygon","coordinates": [[[[28.7795,-19.9994,1385.3043],[28.7826,-20.007,1371.684],[28.7821,-20.0126,1367.348],[28.7633,-20.0277,1338.4351],[28.761,-20.0405,1329.4381],[28.7704,-20.0417,1334.8145],[28.7791,-20.0366,1338.8351],[28.7895,-20.0337,1347.9572],[28.803,-20.0332,1358.8198],[28.8289,-20.0439,1380.7688],[28.8228,-20.0154,1399.0559],[28.8289,-20.0025,1395.4208],[28.8286,-19.9979,1391.5294],[28.8149,-19.9832,1395.7603],[28.8156,-19.9791,1397.3137],[28.8215,-19.9688,1390.7888],[28.8162,-19.9581,1382.5232],[28.8147,-19.9678,1395.2001],[28.788,-19.9726,1358.7806],[28.7805,-19.9996,1404.48],[28.7795,-19.9994,1385.3043]]]]}
,"properties": {"GID_3": "ZWE.8.8.16_2","GID_0": "ZWE","country": "Zimbabwe","GID_1": "ZWE.8_1","province": "MatabelelandNorth","NL_NAME_1": "NA","GID_2": "ZWE.8.8_2","county": "Umguza","NL_NAME_2": "NA","city": "Ward6","VARNAME_3": "NA","NL_NAME_3": "NA","TYPE_3": "Ward","ENGTYPE_3": "Ward","CC_3": "NA","HASC_3": "NA","name": "Ward6.city","area_km2": 35.66142,"hist_schema_id": "Elevation0-9000","hist_area_km2": {"1325": 1.03578,"1350": 7.54982,"1375": 16.09751,"1400": 10.93846,"1425": 0.03985}}}