{"type": "Feature","bbox": [31.8056,-18.8466,31.9097,-18.7455],"geometry": {"type": "MultiPolygon","coordinates": [[[[31.847,-18.751,1099.8394],[31.8279,-18.7707,1108.939],[31.8246,-18.7802,1083.0967],[31.815,-18.7889,1067.4547],[31.8148,-18.797,1063.7048],[31.8177,-18.8019,1062.1433],[31.8171,-18.8068,1044.6771],[31.8112,-18.8101,1051.4413],[31.8093,-18.8184,1035.1241],[31.8056,-18.8243,1018.6124],[31.81,-18.8341,1024.1545],[31.822,-18.833,1037.3597],[31.8396,-18.8349,1057.1908],[31.8439,-18.8369,1039.7465],[31.8587,-18.8287,1022.1507],[31.8707,-18.8281,985.095],[31.8819,-18.8361,975.0835],[31.892,-18.8384,993.2015],[31.8936,-18.8437,950.499],[31.8957,-18.8452,960.6345],[31.9004,-18.8466,943.4676],[31.9044,-18.8442,940.0834],[31.9097,-18.8444,922.68],[31.9068,-18.8339,926.8558],[31.9066,-18.8225,926.2674],[31.9085,-18.8191,933.449],[31.9066,-18.8125,934.9587],[31.9091,-18.7961,943.6865],[31.9026,-18.7872,960.1089],[31.8922,-18.7626,1006.2315],[31.8884,-18.7588,976.437],[31.8837,-18.7491,1005.9341],[31.8701,-18.7455,1076.504],[31.8581,-18.7485,1102.7556],[31.8521,-18.7524,1076.0129],[31.847,-18.751,1099.8394]]]]}
,"properties": {"GID_3": "ZWE.5.3.2_2","GID_0": "ZWE","country": "Zimbabwe","GID_1": "ZWE.5_1","province": "MashonalandEast","NL_NAME_1": "NA","GID_2": "ZWE.5.3_2","county": "Hwedza","NL_NAME_2": "NA","city": "Ward10","VARNAME_3": "NA","NL_NAME_3": "NA","TYPE_3": "Ward","ENGTYPE_3": "Ward","CC_3": "NA","HASC_3": "NA","name": "Ward10.city","area_km2": 80.92763,"hist_schema_id": "Elevation0-9000","hist_area_km2": {"925": 0.56189,"950": 3.01047,"975": 5.41882,"1000": 6.98432,"1025": 8.1486,"1050": 12.28286,"1075": 15.79607,"1100": 13.04735,"1125": 11.72284,"1150": 3.51284,"1175": 0.42148,"1200": 0.02007}}}