{"type": "Feature","bbox": [28.2756,-18.2029,28.456,-18.0188],"geometry": {"type": "MultiPolygon","coordinates": [[[[28.4239,-18.054,1067.5654],[28.4128,-18.0482,1028.1345],[28.4048,-18.0342,1018.0541],[28.3797,-18.0204,978.7804],[28.3649,-18.0188,987.331],[28.3219,-18.0333,991.7065],[28.294,-18.0541,987.8677],[28.2908,-18.0637,976.5731],[28.291,-18.0757,950.2358],[28.2883,-18.0815,945.7243],[28.2906,-18.0894,932.6851],[28.2857,-18.0974,905.033],[28.2779,-18.0989,911.8577],[28.2756,-18.1072,876.3434],[28.2857,-18.1107,897.3519],[28.2918,-18.1166,913.126],[28.3023,-18.1193,913.7673],[28.3125,-18.1302,922.3293],[28.317,-18.1321,905.1508],[28.3258,-18.1416,920.7002],[28.3303,-18.144,930.9208],[28.3371,-18.1571,932.6759],[28.3465,-18.1641,944.8027],[28.3512,-18.1738,957.4324],[28.351,-18.1771,965.7365],[28.3576,-18.1797,1017.4335],[28.3629,-18.1897,1033.9048],[28.366,-18.1899,1048.1414],[28.3705,-18.1931,1066.5461],[28.3737,-18.1982,1056.9626],[28.3775,-18.1985,1060.8877],[28.3879,-18.1952,1074.7336],[28.3902,-18.1964,1062.9999],[28.3964,-18.1959,1062.7976],[28.4129,-18.2029,1080.0894],[28.429,-18.2027,1118.8245],[28.4372,-18.1974,1132.6445],[28.4341,-18.192,1106.2859],[28.433,-18.1818,1094.9607],[28.4248,-18.1727,1058.9436],[28.4189,-18.1622,1032.2634],[28.4135,-18.1588,1019.5723],[28.409,-18.1429,989.3466],[28.4024,-18.1373,962.4309],[28.4017,-18.1341,960.0629],[28.404,-18.1311,996.3313],[28.4097,-18.1295,1002.0316],[28.4143,-18.1303,1000.417],[28.4203,-18.1249,1011.954],[28.4199,-18.1235,1015.4737],[28.4262,-18.1171,1013.4063],[28.429,-18.1108,1027.4265],[28.4332,-18.1096,1020.3788],[28.4362,-18.1055,1047.7419],[28.4454,-18.0999,1056.3044],[28.4531,-18.0983,1100.453],[28.456,-18.0942,1195.9707],[28.4551,-18.0888,1196.9382],[28.4524,-18.0894,1193.7115],[28.4447,-18.0831,1198.4889],[28.4437,-18.0857,1193.1687],[28.4415,-18.0862,1196.354],[28.4364,-18.085,1191.8942],[28.4346,-18.0829,1203.7289],[28.4337,-18.0894,1170.3329],[28.431,-18.0894,1190.4471],[28.4306,-18.0915,1174.0972],[28.4276,-18.0921,1188.2263],[28.4266,-18.0939,1184.0641],[28.4218,-18.0911,1125.6616],[28.4253,-18.0871,1168.1581],[28.4235,-18.0848,1098.3052],[28.4277,-18.0824,1173.483],[28.429,-18.0796,1198.2288],[28.4243,-18.0797,1141.5427],[28.4246,-18.0738,1195.218],[28.4227,-18.0736,1195.218],[28.4211,-18.0763,1170.7714],[28.4202,-18.0755,1175.6296],[28.4196,-18.072,1120.009],[28.4229,-18.0669,1206.9323],[28.4157,-18.0697,1197.1123],[28.4151,-18.0663,1201.0035],[28.4114,-18.0663,1191.7239],[28.4115,-18.0638,1198.9448],[28.4076,-18.0647,1188.0167],[28.4034,-18.0626,1146.2301],[28.4042,-18.0605,1060.619],[28.4073,-18.0602,1089.0747],[28.4093,-18.0579,1042.9487],[28.4153,-18.0578,1079.8805],[28.4177,-18.0592,1095.191],[28.4227,-18.0568,1172.9753],[28.4239,-18.054,1067.5654]]]]}
,"properties": {"GID_3": "ZWE.10.3.30_2","GID_0": "ZWE","country": "Zimbabwe","GID_1": "ZWE.10_1","province": "Midlands","NL_NAME_1": "NA","GID_2": "ZWE.10.3_2","county": "GokweSouth","NL_NAME_2": "NA","city": "Ward6","VARNAME_3": "NA","NL_NAME_3": "NA","TYPE_3": "Ward","ENGTYPE_3": "Ward","CC_3": "NA","HASC_3": "NA","name": "Ward6.city","area_km2": 217.1634,"hist_schema_id": "Elevation0-9000","hist_area_km2": {"875": 2.6198,"900": 10.7006,"925": 36.4138,"950": 45.4866,"975": 44.9276,"1000": 28.3131,"1025": 21.9437,"1050": 10.4971,"1075": 7.1324,"1100": 4.3519,"1125": 1.5518,"1150": 1.0481,"1175": 1.0682,"1200": 1.1086}}}