{"type": "Feature","bbox": [29.1441,-21.5924,29.3599,-21.4252],"geometry": {"type": "MultiPolygon","coordinates": [[[[29.3599,-21.5612,719.7314],[29.3416,-21.4992,723.2872],[29.3338,-21.4648,705.6599],[29.2486,-21.4598,753.2631],[29.2336,-21.4567,757.6096],[29.2218,-21.4495,766.9274],[29.2148,-21.4485,770.9272],[29.2088,-21.4449,771.5937],[29.2047,-21.4471,775.1934],[29.1998,-21.4461,779.9139],[29.1966,-21.4428,783.3455],[29.1878,-21.4266,798.4234],[29.1826,-21.4252,804.0018],[29.171,-21.4263,809.1995],[29.1519,-21.4316,817.1273],[29.1546,-21.4414,809.0474],[29.1441,-21.4429,813.962],[29.1445,-21.4525,809.2448],[29.1515,-21.4587,802.0853],[29.1526,-21.4643,803.7991],[29.1532,-21.4747,811.6276],[29.1512,-21.4989,801.8588],[29.1491,-21.5071,799.7155],[29.1744,-21.5576,786.2607],[29.1769,-21.5663,777.2839],[29.1849,-21.559,781.4739],[29.1906,-21.5504,771.4792],[29.1946,-21.5492,770.8577],[29.2123,-21.5589,759.8562],[29.2175,-21.5593,757.6644],[29.2257,-21.5634,753.1385],[29.2373,-21.5641,748.4305],[29.2379,-21.5661,746.6844],[29.2449,-21.5708,743.2412],[29.2502,-21.5715,741.4183],[29.2515,-21.5746,740.697],[29.2565,-21.5748,738.6295],[29.258,-21.577,737.6755],[29.2644,-21.5778,735.1263],[29.2705,-21.5711,733.8123],[29.2751,-21.5722,728.5496],[29.2836,-21.5683,727.0597],[29.2877,-21.5715,724.688],[29.2973,-21.5742,719.851],[29.2978,-21.576,718.3039],[29.3024,-21.5767,717.4202],[29.3023,-21.579,718.5513],[29.3041,-21.5805,714.5085],[29.3019,-21.5829,715.087],[29.3094,-21.589,710.5227],[29.3205,-21.5897,704.6726],[29.3224,-21.5912,703.9244],[29.333,-21.5888,701.4398],[29.3389,-21.5924,698.2883],[29.3599,-21.5612,719.7314]]]]}
,"properties": {"GID_3": "ZWE.9.4.10_2","GID_0": "ZWE","country": "Zimbabwe","GID_1": "ZWE.9_1","province": "MatabelelandSouth","NL_NAME_1": "NA","GID_2": "ZWE.9.4_2","county": "Gwanda","NL_NAME_2": "NA","city": "Ward18","VARNAME_3": "NA","NL_NAME_3": "NA","TYPE_3": "Ward","ENGTYPE_3": "Ward","CC_3": "NA","HASC_3": "NA","name": "Ward18.city","area_km2": 260.3949,"hist_schema_id": "Elevation0-9000","hist_area_km2": {"700": 13.3111,"725": 70.2351,"750": 72.627,"775": 58.8244,"800": 44.4105,"825": 0.967,"850": 0.0197}}}