{"type":"Feature","properties":{"GID_3":"ZWE.10.1.9_2","GID_0":"ZWE","country":"Zimbabwe","GID_1":"ZWE.10_1","province":"Midlands","NL_NAME_1":"NA","GID_2":"ZWE.10.1_2","county":"Chirumhanzu","NL_NAME_2":"NA","city":"Ward17","VARNAME_3":"NA","NL_NAME_3":"NA","TYPE_3":"Ward","ENGTYPE_3":"Ward","CC_3":"NA","HASC_3":"NA","name":"Ward17.city"},
"geometry":{"type": "MultiPolygon","coordinates": [[[[30.1652,-19.3469,1478.9677],[30.2119,-19.3455,1459.9553],[30.1855,-19.3096,1498.8505],[30.1304,-19.319,1440.5798],[30.1391,-19.3329,1460.5742],[30.1601,-19.3419,1469.6487],[30.1652,-19.3469,1478.9677]]]]}}