{"type": "Feature","bbox": [30.0593,-20.9435,30.1648,-20.8114],"geometry": {"type": "MultiPolygon","coordinates": [[[[30.0593,-20.8598,819.4662],[30.0606,-20.8618,815.2041],[30.0652,-20.8634,811.1028],[30.0673,-20.8685,802.5226],[30.065,-20.8696,803.1886],[30.0631,-20.8763,793.3163],[30.0658,-20.8808,788.1272],[30.0644,-20.8843,787.1043],[30.0669,-20.8896,779.5186],[30.0655,-20.8913,778.2119],[30.0734,-20.9035,769.7321],[30.072,-20.9056,768.5968],[30.0747,-20.9103,764.2043],[30.0753,-20.9161,761.6509],[30.0728,-20.9167,763.5875],[30.07,-20.9274,752.5707],[30.0748,-20.9353,747.4314],[30.0747,-20.9435,745.0358],[30.0774,-20.9433,746.3552],[30.0782,-20.939,747.4408],[30.0838,-20.9366,748.4855],[30.0833,-20.9343,748.199],[30.0861,-20.931,751.3492],[30.0858,-20.9245,753.7715],[30.0916,-20.9208,765.0588],[30.1016,-20.9174,770.4067],[30.1186,-20.9066,772.2343],[30.1266,-20.8935,826.6873],[30.1301,-20.8766,768.2482],[30.1279,-20.8585,775.0575],[30.1332,-20.847,771.3787],[30.1375,-20.8434,770.5364],[30.1509,-20.8374,776.5038],[30.1648,-20.8271,770.0],[30.1594,-20.8259,771.1444],[30.1578,-20.8229,770.4717],[30.1527,-20.8216,770.0],[30.1476,-20.8164,770.0],[30.1446,-20.8179,781.1877],[30.1459,-20.8243,770.0],[30.1449,-20.8251,770.0],[30.141,-20.8202,776.4512],[30.1384,-20.8203,776.7048],[30.1361,-20.8226,777.8683],[30.1311,-20.8195,786.1794],[30.1271,-20.821,780.6013],[30.126,-20.8193,783.5485],[30.1285,-20.8129,792.1282],[30.1247,-20.8114,782.4515],[30.1201,-20.8145,783.4336],[30.118,-20.812,783.0991],[30.108,-20.8173,802.5109],[30.1019,-20.8176,812.5266],[30.0939,-20.823,815.8604],[30.0839,-20.8249,834.373],[30.0805,-20.8299,844.3911],[30.0622,-20.8435,1084.4768],[30.0616,-20.8538,855.7903],[30.0593,-20.8598,819.4662]]]]}
,"properties": {"GID_3": "ZWE.10.9.20_2","GID_0": "ZWE","country": "Zimbabwe","GID_1": "ZWE.10_1","province": "Midlands","NL_NAME_1": "NA","GID_2": "ZWE.10.9_2","county": "Mberengwa","NL_NAME_2": "NA","city": "Ward27","VARNAME_3": "NA","NL_NAME_3": "NA","TYPE_3": "Ward","ENGTYPE_3": "Ward","CC_3": "NA","HASC_3": "NA","name": "Ward27.city","area_km2": 76.07692,"hist_schema_id": "Elevation0-9000","hist_area_km2": {"750": 2.67352,"775": 36.7294,"800": 24.62703,"825": 7.68789,"850": 2.41736,"875": 0.7331,"900": 0.39627,"925": 0.2972,"950": 0.17833,"975": 0.07926,"1000": 0.1387,"1025": 0.07926,"1075": 0.03963}}}