{"type":"Feature","properties":{"GID_3":"ZWE.3.6.13_2","GID_0":"ZWE","country":"Zimbabwe","GID_1":"ZWE.3_1","province":"Manicaland","NL_NAME_1":"NA","GID_2":"ZWE.3.6_2","county":"Mutare","NL_NAME_2":"NA","city":"Ward20","VARNAME_3":"NA","NL_NAME_3":"NA","TYPE_3":"Ward","ENGTYPE_3":"Ward","CC_3":"NA","HASC_3":"NA","name":"Ward20.city"},
"geometry":{"type": "MultiPolygon","coordinates": [[[[32.4796,-19.2657,791.5177],[32.4705,-19.2836,778.0538],[32.492,-19.2903,822.3371],[32.5225,-19.2834,885.9684],[32.5437,-19.2645,960.5959],[32.5903,-19.2957,793.1713],[32.5948,-19.2911,796.5305],[32.596,-19.2859,819.5],[32.6007,-19.2819,819.5],[32.6007,-19.2792,820.8317],[32.6076,-19.2681,819.5],[32.6075,-19.2666,819.5],[32.6046,-19.2665,825.5671],[32.603,-19.2643,842.6823],[32.6055,-19.2578,836.3598],[32.6115,-19.2542,838.1942],[32.6112,-19.2493,867.7798],[32.5183,-19.2307,1096.0713],[32.4973,-19.2287,805.0615],[32.4922,-19.2415,798.4849],[32.4877,-19.2475,806.4257],[32.4853,-19.2569,788.0705],[32.4796,-19.2657,791.5177]]]]}}