{"type": "Feature","bbox": [30.4429,-20.3023,30.7109,-20.0964],"geometry": {"type": "MultiPolygon","coordinates": [[[[30.5851,-20.237,857.9402],[30.588,-20.2353,851.4839],[30.5936,-20.2276,861.5504],[30.5985,-20.2272,856.7649],[30.6033,-20.23,847.6198],[30.6079,-20.2368,845.4238],[30.6043,-20.247,849.5181],[30.6055,-20.2511,846.0787],[30.6175,-20.2552,841.5972],[30.6245,-20.2611,840.2032],[30.6282,-20.2669,838.0436],[30.6399,-20.2758,837.3448],[30.653,-20.2921,812.1375],[30.6527,-20.3015,814.6421],[30.6959,-20.3023,827.2819],[30.6955,-20.2969,828.8689],[30.6976,-20.2925,830.5779],[30.6999,-20.2926,834.0233],[30.6991,-20.2897,833.1516],[30.7028,-20.2882,840.0422],[30.7024,-20.2867,839.4508],[30.6997,-20.2872,834.6042],[30.6996,-20.2857,834.3529],[30.7048,-20.284,840.9789],[30.7049,-20.2793,846.1338],[30.7031,-20.2775,841.5978],[30.7109,-20.2742,854.0927],[30.709,-20.2658,854.936],[30.7056,-20.2596,857.0614],[30.7032,-20.2561,859.9043],[30.6986,-20.2542,864.3611],[30.7055,-20.2376,875.3242],[30.6844,-20.2482,857.6944],[30.67,-20.2515,848.6697],[30.6859,-20.2144,899.5476],[30.6872,-20.2108,905.4515],[30.686,-20.2074,900.0139],[30.6907,-20.2042,911.8932],[30.6897,-20.2023,910.4678],[30.6856,-20.2048,903.5397],[30.6814,-20.2021,910.757],[30.6778,-20.2032,907.6108],[30.6787,-20.206,900.4668],[30.6751,-20.2073,904.3168],[30.6666,-20.2053,916.125],[30.6601,-20.206,911.9594],[30.66,-20.2022,904.837],[30.6645,-20.1974,910.9199],[30.6625,-20.1965,911.2137],[30.6572,-20.2002,905.6093],[30.6553,-20.1914,912.6453],[30.6493,-20.1843,922.0874],[30.6484,-20.1791,942.6835],[30.6428,-20.1725,923.549],[30.6415,-20.1668,922.9785],[30.6321,-20.1613,916.5841],[30.6276,-20.1487,935.1045],[30.5978,-20.1428,1185.6698],[30.5774,-20.1528,932.4952],[30.5671,-20.1674,918.4087],[30.5288,-20.1474,955.6244],[30.5071,-20.1394,945.0795],[30.4744,-20.1514,930.8269],[30.4771,-20.0964,981.8345],[30.4568,-20.0991,932.9846],[30.4581,-20.1019,925.2057],[30.4555,-20.1019,921.4964],[30.4434,-20.1139,921.3893],[30.4429,-20.1195,918.0137],[30.4464,-20.1286,918.8684],[30.4448,-20.1382,912.491],[30.4531,-20.1492,902.5298],[30.46,-20.1651,897.9564],[30.4702,-20.1782,891.6639],[30.477,-20.185,890.1774],[30.4891,-20.1916,885.8403],[30.4901,-20.1962,892.0712],[30.487,-20.1997,883.0707],[30.4889,-20.2046,883.7332],[30.4933,-20.2065,884.7941],[30.5014,-20.2062,891.8193],[30.509,-20.2091,889.165],[30.5142,-20.215,881.1133],[30.5273,-20.215,878.1638],[30.539,-20.2084,874.7137],[30.5431,-20.2131,873.4524],[30.5449,-20.2196,872.7634],[30.5571,-20.2192,868.1375],[30.5669,-20.2222,864.8102],[30.5851,-20.237,857.9402]]]]}
,"properties": {"GID_3": "ZWE.7.6.35_2","GID_0": "ZWE","country": "Zimbabwe","GID_1": "ZWE.7_1","province": "Masvingo","NL_NAME_1": "NA","GID_2": "ZWE.7.6_2","county": "Masvingo","NL_NAME_2": "NA","city": "Ward9","VARNAME_3": "NA","NL_NAME_3": "NA","TYPE_3": "Ward","ENGTYPE_3": "Ward","CC_3": "NA","HASC_3": "NA","name": "Ward9.city","area_km2": 227.7116,"hist_schema_id": "Elevation0-9000","hist_area_km2": {"825": 10.202,"850": 35.6634,"875": 50.3754,"900": 66.6634,"925": 46.2947,"950": 12.9789,"975": 3.0656,"1000": 0.8957,"1025": 0.4976,"1050": 0.2588,"1075": 0.2588,"1100": 0.1592,"1125": 0.0796,"1150": 0.0995,"1175": 0.0597,"1200": 0.0398,"1250": 0.0597,"1275": 0.0398,"1300": 0.0199}}}