{"type": "Feature","bbox": [31.9743,-19.8249,32.1613,-19.6472],"geometry": {"type": "MultiPolygon","coordinates": [[[[31.9743,-19.6761,914.7047],[31.9908,-19.6885,917.7975],[31.9919,-19.6945,924.1395],[31.9939,-19.6962,906.5408],[31.9947,-19.7057,892.1274],[31.9971,-19.7096,878.8818],[31.9999,-19.7088,883.4319],[32.0071,-19.7121,865.0165],[32.0132,-19.7123,852.7698],[32.0152,-19.7387,858.1391],[32.0218,-19.745,807.7799],[32.0316,-19.7467,793.1755],[32.0343,-19.7515,788.0638],[32.0372,-19.7502,782.2613],[32.0404,-19.7514,778.0752],[32.0449,-19.7611,770.2897],[32.0441,-19.7659,761.6219],[32.0464,-19.7696,756.3757],[32.049,-19.7706,757.6015],[32.05,-19.7737,750.7489],[32.056,-19.7767,742.1484],[32.0561,-19.7792,740.3885],[32.0632,-19.7826,732.649],[32.0716,-19.7838,718.2296],[32.0739,-19.7866,720.6708],[32.075,-19.7966,706.9604],[32.0737,-19.8032,701.8136],[32.0755,-19.8111,695.3081],[32.0735,-19.8143,690.1521],[32.0753,-19.8208,685.3021],[32.0825,-19.8126,709.0327],[32.0867,-19.8023,720.7272],[32.0873,-19.7922,740.1372],[32.0854,-19.7865,740.5418],[32.1055,-19.7872,707.9307],[32.1119,-19.7853,703.1489],[32.115,-19.7875,697.1006],[32.119,-19.7879,694.8395],[32.1249,-19.7966,685.3589],[32.1313,-19.7998,679.745],[32.1313,-19.804,677.7073],[32.1355,-19.8065,671.1516],[32.1358,-19.8098,670.3826],[32.1385,-19.81,668.4529],[32.1412,-19.8157,662.9305],[32.1413,-19.8193,659.3041],[32.1393,-19.8193,657.4729],[32.1393,-19.8207,656.6089],[32.1412,-19.8241,653.2429],[32.1434,-19.8249,651.3537],[32.144,-19.8233,650.0616],[32.1459,-19.8246,649.0698],[32.1475,-19.823,658.5345],[32.1452,-19.8176,659.1745],[32.1467,-19.8164,659.1745],[32.1466,-19.8076,674.3037],[32.1477,-19.8071,673.6202],[32.1453,-19.7957,683.6091],[32.1492,-19.7916,689.4983],[32.1495,-19.7853,695.0129],[32.1611,-19.7737,712.6693],[32.1613,-19.7685,719.5142],[32.1586,-19.7625,706.837],[32.1596,-19.759,708.1472],[32.1521,-19.7507,732.8793],[32.1548,-19.7431,721.3252],[32.1582,-19.7398,712.4825],[32.1565,-19.735,693.1105],[32.1606,-19.7326,717.8808],[32.1559,-19.7324,719.0967],[32.1531,-19.7343,699.9538],[32.1528,-19.7323,703.3187],[32.1456,-19.7274,719.3494],[32.1368,-19.7254,719.5557],[32.1251,-19.719,735.2802],[32.1199,-19.7208,746.1895],[32.1141,-19.7203,751.995],[32.1138,-19.7178,762.9403],[32.1031,-19.7156,772.9991],[32.085,-19.7051,809.0026],[32.0818,-19.6971,829.7555],[32.0668,-19.6818,863.2753],[32.0647,-19.6751,854.9993],[32.0448,-19.6667,869.4307],[32.0433,-19.6622,906.922],[32.038,-19.6579,858.6163],[32.036,-19.652,962.8817],[32.0297,-19.6472,862.8362],[32.0256,-19.6493,847.5312],[32.0185,-19.6483,858.9448],[32.0178,-19.6496,857.389],[32.0141,-19.6495,908.043],[31.9976,-19.6568,895.8546],[31.9965,-19.6596,894.4974],[31.9841,-19.6624,914.8779],[31.9826,-19.6687,924.4263],[31.9743,-19.6761,914.7047]]]]}
,"properties": {"GID_3": "ZWE.3.1.19_2","GID_0": "ZWE","country": "Zimbabwe","GID_1": "ZWE.3_1","province": "Manicaland","NL_NAME_1": "NA","GID_2": "ZWE.3.1_2","county": "Buhera","NL_NAME_2": "NA","city": "Ward27","VARNAME_3": "NA","NL_NAME_3": "NA","TYPE_3": "Ward","ENGTYPE_3": "Ward","CC_3": "NA","HASC_3": "NA","name": "Ward27.city","area_km2": 164.4091,"hist_schema_id": "Elevation0-9000","hist_area_km2": {"650": 0.6383,"675": 3.3314,"700": 13.3874,"725": 25.9393,"750": 20.593,"775": 21.9519,"800": 16.8645,"825": 13.3131,"850": 15.9498,"875": 10.82,"900": 6.1886,"925": 7.9056,"950": 2.4955,"975": 1.1978,"1000": 1.058,"1025": 0.6388,"1050": 0.9782,"1075": 0.9582,"1100": 0.1397,"1125": 0.0399,"1150": 0.02}}}