{"type":"Feature","properties":{"GID_3":"ZWE.10.1.7_2","GID_0":"ZWE","country":"Zimbabwe","GID_1":"ZWE.10_1","province":"Midlands","NL_NAME_1":"NA","GID_2":"ZWE.10.1_2","county":"Chirumhanzu","NL_NAME_2":"NA","city":"Ward15","VARNAME_3":"NA","NL_NAME_3":"NA","TYPE_3":"Ward","ENGTYPE_3":"Ward","CC_3":"NA","HASC_3":"NA","name":"Ward15.city"},
"geometry":{"type": "MultiPolygon","coordinates": [[[[30.575,-18.9405,1276.8424],[30.5878,-18.9469,1275.0309],[30.3877,-19.0732,1277.0022],[30.412,-19.0835,1276.582],[30.4185,-19.0779,1281.9254],[30.4312,-19.0898,1283.9891],[30.4298,-19.0942,1280.3618],[30.4384,-19.0996,1287.24],[30.4463,-19.0988,1289.554],[30.4504,-19.0962,1293.5784],[30.4623,-19.1056,1298.7428],[30.4779,-19.1036,1301.9946],[30.4847,-19.1116,1301.8696],[30.4886,-19.0994,1309.0184],[30.5005,-19.0974,1308.9032],[30.5074,-19.1036,1317.8124],[30.5077,-19.1088,1308.6787],[30.5188,-19.109,1308.7236],[30.5177,-19.1168,1311.3291],[30.5362,-19.114,1314.0505],[30.5577,-19.1235,1310.7188],[30.5632,-19.1183,1312.0605],[30.5715,-19.1215,1316.5955],[30.5709,-19.1307,1319.0529],[30.5783,-19.1286,1315.521],[30.587,-19.1287,1318.5114],[30.5942,-19.1397,1318.0247],[30.6002,-19.1385,1318.5574],[30.6067,-19.1346,1323.0239],[30.6172,-19.1422,1323.1959],[30.6219,-19.1357,1322.676],[30.632,-19.1354,1327.0031],[30.6309,-19.1446,1327.5803],[30.6429,-19.1469,1328.9426],[30.6698,-19.1276,1363.2262],[30.7087,-19.1101,1372.4948],[30.7171,-19.1015,1379.4286],[30.7255,-19.0977,1392.8289],[30.6747,-19.0208,1345.8169],[30.6935,-18.9961,1341.1544],[30.7124,-18.9766,1355.2811],[30.6771,-18.9639,1305.4609],[30.6866,-18.9568,1304.5658],[30.6883,-18.9581,1301.8824],[30.6931,-18.9578,1298.8925],[30.6956,-18.9543,1304.9397],[30.6924,-18.9521,1314.2095],[30.6787,-18.9322,1358.1017],[30.6542,-18.8845,1424.7156],[30.6356,-18.9078,1358.4957],[30.6304,-18.9005,1488.375],[30.5953,-18.9231,1467.9182],[30.575,-18.9405,1276.8424]]]]}}