{"type":"Feature","properties":{"GID_3":"ZWE.10.1.22_2","GID_0":"ZWE","country":"Zimbabwe","GID_1":"ZWE.10_1","province":"Midlands","NL_NAME_1":"NA","GID_2":"ZWE.10.1_2","county":"Chirumhanzu","NL_NAME_2":"NA","city":"Ward6","VARNAME_3":"NA","NL_NAME_3":"NA","TYPE_3":"Ward","ENGTYPE_3":"Ward","CC_3":"NA","HASC_3":"NA","name":"Ward6.city"},
"geometry":{"type": "MultiPolygon","coordinates": [[[[30.5544,-19.5519,1336.9142],[30.5548,-19.554,1339.3641],[30.5573,-19.5549,1341.7717],[30.5571,-19.5622,1338.6443],[30.5597,-19.5704,1324.5446],[30.5639,-19.5768,1322.3988],[30.5539,-19.5768,1337.1057],[30.5446,-19.59,1354.8169],[30.5343,-19.5905,1359.7671],[30.5348,-19.5957,1357.1561],[30.5324,-19.6,1347.3225],[30.5387,-19.6026,1339.2888],[30.5436,-19.6065,1330.291],[30.5455,-19.6112,1280.6705],[30.5498,-19.614,1271.9745],[30.551,-19.6312,1282.5132],[30.5492,-19.6334,1234.886],[30.5518,-19.6343,1249.781],[30.568,-19.6563,1206.6965],[30.5744,-19.6553,1219.7616],[30.5974,-19.6444,1353.0466],[30.6093,-19.6497,1290.0945],[30.6137,-19.6446,1288.2677],[30.6188,-19.646,1288.8188],[30.6241,-19.6412,1308.3636],[30.6312,-19.64,1274.6775],[30.6362,-19.6358,1270.5977],[30.6512,-19.629,1241.5311],[30.6616,-19.6319,1220.2781],[30.6513,-19.6269,1245.7925],[30.6357,-19.6231,1247.8689],[30.6316,-19.6196,1246.6328],[30.6193,-19.6154,1261.6914],[30.6089,-19.6044,1298.9482],[30.6171,-19.6033,1292.4286],[30.6183,-19.5971,1327.7783],[30.6241,-19.5998,1308.7173],[30.6258,-19.6031,1301.7104],[30.6226,-19.6027,1304.7731],[30.6227,-19.6044,1301.8259],[30.626,-19.6067,1294.4204],[30.6262,-19.6043,1301.7104],[30.6298,-19.6026,1306.1599],[30.6282,-19.5995,1306.0045],[30.629,-19.5973,1315.6237],[30.6317,-19.6021,1302.0781],[30.6346,-19.5991,1313.2483],[30.6397,-19.6007,1296.6992],[30.6386,-19.5979,1326.1758],[30.6412,-19.5969,1315.6006],[30.6458,-19.5965,1301.5874],[30.6483,-19.5982,1290.9116],[30.6478,-19.5938,1313.6052],[30.6518,-19.5947,1349.2415],[30.6525,-19.5892,1340.0162],[30.6468,-19.58,1331.1733],[30.6439,-19.5786,1340.7778],[30.6403,-19.5689,1343.7679],[30.6371,-19.5658,1346.8842],[30.6347,-19.5547,1356.7944],[30.631,-19.5483,1366.5167],[30.6264,-19.5444,1368.7859],[30.6236,-19.538,1375.2468],[30.6226,-19.5273,1405.9408],[30.6192,-19.5209,1407.0115],[30.6163,-19.525,1390.802],[30.6178,-19.5275,1389.9368],[30.6151,-19.5291,1393.0532],[30.6119,-19.5288,1403.4636],[30.6151,-19.5332,1385.8927],[30.613,-19.5382,1388.0813],[30.608,-19.5384,1397.3296],[30.6063,-19.5345,1402.7146],[30.6023,-19.5334,1405.3591],[30.6025,-19.5364,1396.4154],[30.5987,-19.5355,1400.6945],[30.5993,-19.5394,1395.9763],[30.6033,-19.5422,1385.4576],[30.5972,-19.5438,1394.8582],[30.5967,-19.5391,1397.2185],[30.5935,-19.539,1403.4196],[30.5903,-19.5354,1396.1714],[30.5971,-19.5294,1407.8275],[30.5968,-19.5275,1408.2469],[30.5942,-19.5288,1406.4351],[30.5876,-19.5252,1400.1194],[30.5903,-19.52,1406.9575],[30.5894,-19.5191,1410.1868],[30.5826,-19.5232,1394.8226],[30.5859,-19.5163,1405.3472],[30.5842,-19.5135,1409.7341],[30.5819,-19.5138,1405.9971],[30.5817,-19.511,1414.3815],[30.5785,-19.511,1408.7642],[30.5759,-19.5071,1394.6042],[30.578,-19.5046,1405.0308],[30.5766,-19.5027,1403.5864],[30.5783,-19.503,1404.0508],[30.5798,-19.5,1411.7799],[30.5775,-19.501,1408.8247],[30.5728,-19.4982,1406.2404],[30.5716,-19.5007,1400.1464],[30.5688,-19.4971,1396.5664],[30.569,-19.4838,1410.9958],[30.5656,-19.4865,1404.2776],[30.5669,-19.4953,1397.2721],[30.5649,-19.495,1401.95],[30.5671,-19.5014,1392.1095],[30.5714,-19.5046,1387.876],[30.5711,-19.5102,1382.5499],[30.5735,-19.5151,1376.8666],[30.5686,-19.5305,1350.0352],[30.5708,-19.5355,1357.1953],[30.5693,-19.5384,1353.6357],[30.5614,-19.5429,1345.9401],[30.5594,-19.5477,1340.3099],[30.5556,-19.5485,1338.6825],[30.5544,-19.5519,1336.9142]]]]}}