{"type":"Feature","properties":{"GID_3":"ZWE.3.9.9_2","GID_0":"ZWE","country":"Zimbabwe","GID_1":"ZWE.3_1","province":"Manicaland","NL_NAME_1":"NA","GID_2":"ZWE.3.9_2","county":"Nyanga","NL_NAME_2":"NA","city":"Ward17","VARNAME_3":"NA","NL_NAME_3":"NA","TYPE_3":"Ward","ENGTYPE_3":"Ward","CC_3":"NA","HASC_3":"NA","name":"Ward17.city"},
"geometry":{"type": "MultiPolygon","coordinates": [[[[32.6057,-17.9495,998.005],[32.606,-17.9517,999.7092],[32.5993,-17.9575,1019.4986],[32.5991,-17.9612,1005.2328],[32.6109,-17.9806,1107.2917],[32.6198,-17.9863,1126.192],[32.62,-17.9991,1109.6357],[32.6231,-18.0055,1124.4192],[32.625,-18.0068,1129.749],[32.6284,-18.0061,1136.3057],[32.6341,-18.0121,1137.7036],[32.6405,-18.0158,1151.0128],[32.6416,-18.0215,1154.325],[32.6516,-18.0293,1184.1484],[32.6589,-18.0389,1193.8704],[32.658,-18.0462,1213.1584],[32.6596,-18.0486,1225.8103],[32.6675,-18.0535,1258.4156],[32.6721,-18.0595,1265.05],[32.6747,-18.0551,1251.9324],[32.7003,-18.0671,1255.0217],[32.6828,-18.0263,1204.1777],[32.6814,-17.999,1178.688],[32.6861,-17.986,1183.3131],[32.6835,-17.9612,1204.8489],[32.6839,-17.9242,1190.3649],[32.6402,-17.9174,1288.3124],[32.6418,-17.8939,1499.5432],[32.6216,-17.8752,1153.5565],[32.606,-17.8755,1088.3839],[32.5959,-17.871,1041.6525],[32.5915,-17.8706,973.2097],[32.5898,-17.8729,984.7946],[32.5942,-17.88,1142.7079],[32.5931,-17.8867,955.0938],[32.5956,-17.8915,1133.7043],[32.5964,-17.9066,981.6301],[32.5998,-17.9104,993.2207],[32.595,-17.9189,974.0713],[32.5992,-17.9259,991.748],[32.6003,-17.9344,987.0406],[32.6057,-17.9495,998.005]]]]}}