{"type": "Feature","bbox": [30.0964,-18.1274,30.1382,-18.0877],"geometry": {"type": "MultiPolygon","coordinates": [[[[30.1276,-18.1274,1179.9711],[30.13,-18.1232,1179.8434],[30.1239,-18.119,1178.4138],[30.1288,-18.1145,1177.9215],[30.1382,-18.1133,1171.7932],[30.135,-18.0986,1168.5681],[30.1203,-18.0877,1158.1603],[30.0964,-18.108,1165.5513],[30.1108,-18.1232,1171.3815],[30.118,-18.1238,1173.3894],[30.1276,-18.1274,1179.9711]]]]}
,"properties": {"GID_3": "ZWE.6.2.4_2","GID_0": "ZWE","country": "Zimbabwe","GID_1": "ZWE.6_1","province": "MashonalandWest","NL_NAME_1": "NA","GID_2": "ZWE.6.2_2","county": "ChegutuUrban","NL_NAME_2": "NA","city": "Ward12","VARNAME_3": "NA","NL_NAME_3": "NA","TYPE_3": "Ward","ENGTYPE_3": "Ward","CC_3": "NA","HASC_3": "NA","name": "Ward12.city","area_km2": 10.761245,"hist_schema_id": "Elevation0-9000","hist_area_km2": {"1150": 0.302308,"1175": 10.458937}}}