{"type": "Feature","bbox": [31.0351,-20.3173,31.2569,-20.1457],"geometry": {"type": "MultiPolygon","coordinates": [[[[31.0428,-20.2876,943.277],[31.0743,-20.2848,1002.894],[31.0817,-20.2921,989.0581],[31.0895,-20.2848,926.7574],[31.0938,-20.2831,921.2084],[31.0973,-20.2838,936.7772],[31.1062,-20.2988,897.563],[31.0979,-20.3104,869.2818],[31.1046,-20.3173,844.3619],[31.1094,-20.3146,858.6145],[31.1076,-20.3082,855.714],[31.1131,-20.3037,878.2798],[31.1141,-20.2976,875.3151],[31.1123,-20.2937,888.4125],[31.1137,-20.2867,869.4946],[31.1211,-20.2779,866.8569],[31.1238,-20.2775,887.0895],[31.1273,-20.2692,862.8578],[31.1336,-20.2665,893.6602],[31.1334,-20.2627,868.7119],[31.1358,-20.2607,876.1935],[31.1384,-20.2617,873.4197],[31.1423,-20.2545,881.9382],[31.1586,-20.2419,943.3304],[31.1636,-20.2358,900.3591],[31.1668,-20.2356,915.2583],[31.1673,-20.2329,921.3546],[31.1707,-20.2304,925.3017],[31.1736,-20.23,924.4839],[31.2054,-20.2105,1112.1549],[31.2302,-20.1927,1066.9282],[31.2569,-20.1774,1048.9058],[31.2568,-20.1673,1167.4415],[31.2287,-20.1487,1212.5094],[31.2287,-20.1457,1193.645],[31.2115,-20.157,1158.4071],[31.2181,-20.1665,1189.4698],[31.1964,-20.176,1186.9685],[31.1968,-20.1799,1209.8542],[31.1941,-20.182,1173.0652],[31.1885,-20.193,1170.8584],[31.1767,-20.1996,1128.2988],[31.1597,-20.1935,1146.5862],[31.1329,-20.2085,1020.4693],[31.1072,-20.1854,1045.0706],[31.1044,-20.186,1038.7903],[31.1037,-20.1881,1043.8883],[31.1011,-20.187,1031.7351],[31.0938,-20.1885,1032.9752],[31.0916,-20.1899,1042.5557],[31.0915,-20.192,1047.728],[31.0832,-20.1911,1029.0],[31.0782,-20.1968,1041.9413],[31.0806,-20.203,1040.7141],[31.0857,-20.2052,1063.726],[31.0796,-20.2057,1033.1942],[31.0787,-20.2087,1055.7144],[31.0754,-20.2068,1032.1449],[31.0722,-20.2074,1033.0961],[31.0724,-20.2108,1043.9833],[31.0751,-20.2119,1048.3199],[31.0757,-20.214,1044.9351],[31.0795,-20.2151,1068.2094],[31.0822,-20.2202,1043.7156],[31.0856,-20.219,1047.8218],[31.0867,-20.2224,1055.9189],[31.0828,-20.2249,1055.5588],[31.0808,-20.2215,1029.0],[31.077,-20.2202,1030.7056],[31.0756,-20.2236,1070.4133],[31.0692,-20.2158,1029.0],[31.0662,-20.2175,1043.7402],[31.07,-20.2201,1040.4734],[31.0683,-20.2301,1042.1536],[31.0645,-20.2288,1029.0],[31.0633,-20.2305,1032.9059],[31.0649,-20.2335,1040.3856],[31.0678,-20.2337,1036.9492],[31.0694,-20.232,1064.6123],[31.073,-20.2342,1136.1047],[31.0675,-20.2365,1119.1853],[31.0668,-20.2396,1113.9308],[31.0632,-20.2396,1045.2244],[31.0593,-20.2442,1055.1777],[31.0541,-20.245,1109.0492],[31.0603,-20.2398,1031.1958],[31.0599,-20.233,1029.0],[31.0559,-20.2291,1029.0],[31.0528,-20.2289,1040.2279],[31.0523,-20.2325,1107.0942],[31.0554,-20.2359,1056.8683],[31.05,-20.2358,1029.0],[31.0418,-20.2398,1064.4988],[31.0351,-20.2477,1075.887],[31.0392,-20.249,1088.1125],[31.0414,-20.2524,1057.3359],[31.0409,-20.2741,1092.9668],[31.0391,-20.2777,1004.0292],[31.0428,-20.2876,943.277]]]]}
,"properties": {"GID_3": "ZWE.7.6.6_2","GID_0": "ZWE","country": "Zimbabwe","GID_1": "ZWE.7_1","province": "Masvingo","NL_NAME_1": "NA","GID_2": "ZWE.7.6_2","county": "Masvingo","NL_NAME_2": "NA","city": "Ward14","VARNAME_3": "NA","NL_NAME_3": "NA","TYPE_3": "Ward","ENGTYPE_3": "Ward","CC_3": "NA","HASC_3": "NA","name": "Ward14.city","area_km2": 138.4458,"hist_schema_id": "Elevation0-9000","hist_area_km2": {"850": 1.2528,"875": 3.1423,"900": 2.725,"925": 6.0072,"950": 7.6188,"975": 8.275,"1000": 7.5586,"1025": 7.4002,"1050": 13.5884,"1075": 17.8265,"1100": 16.0559,"1125": 15.3397,"1150": 11.9575,"1175": 10.7448,"1200": 4.5766,"1225": 1.8901,"1250": 1.094,"1275": 0.8553,"1300": 0.5172,"1325": 0.0199}}}