{"type":"Feature","properties":{"GID_3":"ZWE.10.12.9_2","GID_0":"ZWE","country":"Zimbabwe","GID_1":"ZWE.10_1","province":"Midlands","NL_NAME_1":"NA","GID_2":"ZWE.10.12_2","county":"ShurugwiTown","NL_NAME_2":"NA","city":"Ward5","VARNAME_3":"NA","NL_NAME_3":"NA","TYPE_3":"Ward","ENGTYPE_3":"Ward","CC_3":"NA","HASC_3":"NA","name":"Ward5.city"},
"geometry":{"type": "MultiPolygon","coordinates": [[[[29.9843,-19.6627,1425.5039],[29.988,-19.6652,1415.2993],[30.0024,-19.6669,1458.5559],[30.0084,-19.6556,1484.9208],[30.0127,-19.6539,1485.3922],[30.0314,-19.6541,1442.0536],[30.0316,-19.6487,1349.5647],[30.0395,-19.6486,1179.542],[30.0394,-19.6425,1212.7228],[30.0312,-19.6435,1378.7286],[30.0314,-19.6283,1382.1304],[30.0118,-19.6279,1396.0748],[30.0107,-19.6473,1472.917],[29.9971,-19.6468,1527.255],[29.9843,-19.6627,1425.5039]]]]}}