{"type": "Feature","bbox": [30.9978,-17.1174,31.1117,-17.0311],"geometry": {"type": "MultiPolygon","coordinates": [[[[31.1049,-17.0836,1207.7557],[31.1067,-17.0835,1203.2351],[31.1064,-17.0809,1212.2372],[31.111,-17.078,1202.1398],[31.1117,-17.0736,1219.6724],[31.1117,-17.0601,1214.3833],[31.1091,-17.0554,1231.26],[31.1093,-17.0484,1249.8318],[31.1115,-17.0448,1247.3807],[31.1108,-17.0326,1233.7058],[31.1034,-17.0347,1239.3644],[31.0876,-17.0311,1265.121],[31.0864,-17.0356,1257.3456],[31.082,-17.0393,1265.606],[31.0781,-17.0482,1260.4697],[31.0726,-17.0508,1267.7522],[31.0753,-17.0603,1244.3898],[31.061,-17.064,1301.1864],[31.0563,-17.0602,1276.9171],[31.0478,-17.0594,1382.636],[31.0414,-17.0555,1422.3987],[31.0365,-17.0477,1293.594],[31.0376,-17.043,1292.6594],[31.0287,-17.0442,1319.3495],[31.0238,-17.0428,1360.5815],[31.0164,-17.0463,1330.6694],[31.0083,-17.047,1393.641],[31.0003,-17.0956,1310.9854],[30.9978,-17.1025,1276.408],[31.0009,-17.1076,1279.0933],[31.0103,-17.1069,1265.7354],[31.0118,-17.1047,1268.561],[31.0151,-17.1065,1264.5],[31.0255,-17.1062,1260.666],[31.032,-17.1091,1254.3158],[31.0308,-17.1117,1245.7008],[31.0353,-17.1124,1247.1907],[31.0395,-17.1156,1237.4534],[31.0446,-17.1152,1241.0955],[31.0459,-17.1166,1233.5021],[31.0488,-17.1161,1240.615],[31.0492,-17.1174,1236.8336],[31.0502,-17.115,1240.615],[31.0523,-17.1169,1233.4106],[31.0526,-17.1152,1233.6897],[31.0562,-17.1152,1229.9504],[31.056,-17.1132,1240.2178],[31.0611,-17.1146,1225.8271],[31.0645,-17.1095,1238.2059],[31.07,-17.1088,1218.8477],[31.0759,-17.104,1229.0881],[31.0811,-17.1031,1216.4009],[31.0823,-17.0989,1215.9143],[31.0852,-17.0987,1214.2323],[31.0849,-17.0966,1213.9028],[31.0884,-17.0924,1224.5852],[31.0947,-17.0917,1210.005],[31.0963,-17.0861,1216.693],[31.1035,-17.0827,1220.9147],[31.1049,-17.0836,1207.7557]]]]}
,"properties": {"GID_3": "ZWE.4.5.33_2","GID_0": "ZWE","country": "Zimbabwe","GID_1": "ZWE.4_1","province": "MashonalandCentral","NL_NAME_1": "NA","GID_2": "ZWE.4.5_2","county": "Mazowe","NL_NAME_2": "NA","city": "Ward8","VARNAME_3": "NA","NL_NAME_3": "NA","TYPE_3": "Ward","ENGTYPE_3": "Ward","CC_3": "NA","HASC_3": "NA","name": "Ward8.city","area_km2": 72.47664,"hist_schema_id": "Elevation0-9000","hist_area_km2": {"1200": 0.85123,"1225": 13.57911,"1250": 24.07826,"1275": 14.26766,"1300": 10.86317,"1325": 4.84411,"1350": 2.02694,"1375": 1.1351,"1400": 0.58782,"1425": 0.2027,"1450": 0.04054}}}