{"type":"Feature","properties":{"GID_3":"ZWE.8.6.8_2","GID_0":"ZWE","country":"Zimbabwe","GID_1":"ZWE.8_1","province":"MatabelelandNorth","NL_NAME_1":"NA","GID_2":"ZWE.8.6_2","county":"Nkayi","NL_NAME_2":"NA","city":"Ward16","VARNAME_3":"NA","NL_NAME_3":"NA","TYPE_3":"Ward","ENGTYPE_3":"Ward","CC_3":"NA","HASC_3":"NA","name":"Ward16.city"},
"geometry":{"type": "MultiPolygon","coordinates": [[[[28.6056,-18.8265,1054.145],[28.6103,-18.8351,1061.9426],[28.6111,-18.8421,1063.644],[28.6174,-18.8504,1073.5322],[28.6188,-18.8615,1086.041],[28.6226,-18.865,1097.3907],[28.6293,-18.868,1103.9801],[28.6298,-18.8751,1102.9833],[28.6326,-18.8796,1114.2247],[28.631,-18.8924,1127.5264],[28.6326,-18.8996,1147.593],[28.6323,-18.8968,1138.6389],[28.6664,-18.8887,1095.3108],[28.6754,-18.884,1085.5569],[28.6816,-18.8768,1072.051],[28.6846,-18.8672,1062.8894],[28.6896,-18.8591,1056.6206],[28.6909,-18.8509,1051.2549],[28.6972,-18.8426,1044.5942],[28.6985,-18.8374,1042.0146],[28.6966,-18.8346,1040.4465],[28.6963,-18.8251,1036.4028],[28.7006,-18.8161,1036.7848],[28.7035,-18.8052,1034.104],[28.7064,-18.802,1034.3658],[28.7017,-18.7844,1033.1086],[28.6894,-18.7742,1031.6261],[28.6707,-18.765,1026.4521],[28.6546,-18.7475,1024.136],[28.6477,-18.7438,1023.2061],[28.6351,-18.7457,1022.9906],[28.6306,-18.7513,1021.4558],[28.6193,-18.7574,1020.8517],[28.6146,-18.7583,1020.3256],[28.5982,-18.7566,1016.2078],[28.592,-18.7581,1014.3598],[28.5849,-18.7623,1015.1498],[28.5626,-18.7654,1014.3711],[28.5662,-18.7715,1013.4259],[28.5697,-18.7707,1016.7326],[28.5705,-18.7686,1016.8754],[28.5755,-18.7688,1015.1544],[28.5803,-18.7667,1014.7441],[28.5827,-18.7671,1014.5326],[28.5873,-18.7725,1016.6895],[28.5966,-18.7705,1017.196],[28.5967,-18.7724,1016.8658],[28.5912,-18.7767,1016.4451],[28.5915,-18.7797,1017.2407],[28.5897,-18.7824,1018.2429],[28.5888,-18.7919,1024.7417],[28.5908,-18.797,1028.5474],[28.5898,-18.8013,1031.6041],[28.5948,-18.8051,1038.8108],[28.591,-18.8179,1043.1091],[28.5929,-18.8211,1044.4288],[28.6047,-18.8237,1054.5476],[28.6056,-18.8265,1054.145]]]]}}