{"type": "Feature","bbox": [28.9662,-21.7262,29.1769,-21.4429],"geometry": {"type": "MultiPolygon","coordinates": [[[[28.97,-21.4927,719.8169],[28.9662,-21.4996,721.8054],[28.9671,-21.5322,711.1014],[28.9723,-21.5431,714.1926],[28.9749,-21.5547,709.9058],[28.9848,-21.5713,704.3586],[28.9816,-21.586,695.5811],[28.9818,-21.5958,697.5187],[28.9846,-21.6025,701.8908],[28.989,-21.604,706.3552],[28.9914,-21.6072,696.2352],[28.9994,-21.6079,697.0671],[29.0089,-21.6125,693.8049],[29.0129,-21.6163,686.6127],[29.014,-21.6203,684.9274],[29.0082,-21.6448,679.6559],[29.0098,-21.6661,678.575],[29.0066,-21.6758,672.2211],[29.0091,-21.6803,669.9651],[29.0228,-21.6911,675.0363],[29.0264,-21.6962,657.9144],[29.0293,-21.7137,637.2246],[29.0363,-21.7262,626.0901],[29.0391,-21.7225,634.43],[29.0384,-21.7162,640.7565],[29.0398,-21.7113,655.6064],[29.0453,-21.7054,660.598],[29.0539,-21.7014,669.6791],[29.0594,-21.6939,674.6819],[29.0551,-21.6867,681.5356],[29.0611,-21.6802,686.9785],[29.0634,-21.6746,691.608],[29.0569,-21.6572,697.9113],[29.0633,-21.6567,700.5927],[29.0685,-21.6513,705.7405],[29.0719,-21.6527,707.7887],[29.0723,-21.647,707.2161],[29.0774,-21.6472,708.1685],[29.0769,-21.6371,712.5574],[29.0836,-21.6364,713.9935],[29.0866,-21.633,717.1296],[29.0804,-21.6194,721.1752],[29.0796,-21.6141,724.647],[29.0815,-21.6076,729.2858],[29.0807,-21.6033,729.3549],[29.085,-21.5962,732.4149],[29.0871,-21.5967,732.4307],[29.0874,-21.5943,735.6503],[29.0914,-21.5911,738.9958],[29.1205,-21.5868,755.3357],[29.1661,-21.5731,770.7845],[29.1769,-21.5663,777.2839],[29.1744,-21.5576,786.2607],[29.1491,-21.5071,799.7155],[29.1512,-21.4989,801.8588],[29.1532,-21.4747,811.6276],[29.1515,-21.4588,802.0853],[29.1445,-21.4525,809.2448],[29.1441,-21.4429,813.962],[29.0511,-21.4525,787.7853],[29.0405,-21.4457,787.2532],[28.9912,-21.4443,763.835],[28.9723,-21.4646,733.2419],[28.9781,-21.4786,723.879],[28.9774,-21.4825,725.615],[28.97,-21.4927,719.8169]]]]}
,"properties": {"GID_3": "ZWE.9.4.9_2","GID_0": "ZWE","country": "Zimbabwe","GID_1": "ZWE.9_1","province": "MatabelelandSouth","NL_NAME_1": "NA","GID_2": "ZWE.9.4_2","county": "Gwanda","NL_NAME_2": "NA","city": "Ward17","VARNAME_3": "NA","NL_NAME_3": "NA","TYPE_3": "Ward","ENGTYPE_3": "Ward","CC_3": "NA","HASC_3": "NA","name": "Ward17.city","area_km2": 383.2724,"hist_schema_id": "Elevation0-9000","hist_area_km2": {"625": 0.3545,"650": 1.9304,"675": 9.2599,"700": 38.0561,"725": 72.6522,"750": 87.0325,"775": 99.9634,"800": 59.1451,"825": 14.7993,"850": 0.0788}}}