{"type": "Feature","bbox": [32.1534,-20.8995,32.3578,-20.7605],"geometry": {"type": "MultiPolygon","coordinates": [[[[32.2185,-20.7774,395.0201],[32.2197,-20.7807,393.6396],[32.2151,-20.7914,386.6253],[32.2108,-20.7971,384.0],[32.2045,-20.8018,384.5254],[32.1966,-20.8043,391.8588],[32.1895,-20.8208,388.8097],[32.1882,-20.8285,389.8384],[32.1833,-20.8405,380.0],[32.1659,-20.8673,386.4382],[32.1569,-20.8776,380.5212],[32.1585,-20.8819,376.0715],[32.1563,-20.8909,375.906],[32.1534,-20.8947,374.5],[32.1888,-20.898,410.8804],[32.2245,-20.8966,405.1057],[32.2498,-20.8981,400.4992],[32.2535,-20.8995,402.3264],[32.2945,-20.8945,383.586],[32.3274,-20.8622,406.3853],[32.3436,-20.8535,405.2554],[32.3505,-20.8526,399.7957],[32.3502,-20.8422,401.911],[32.3537,-20.8393,403.8223],[32.3547,-20.8361,404.8934],[32.3528,-20.8304,406.1179],[32.3576,-20.8252,408.9278],[32.3578,-20.8229,409.6024],[32.3549,-20.82,409.5123],[32.3331,-20.811,411.5428],[32.3332,-20.8088,412.4132],[32.3379,-20.8034,416.2976],[32.3321,-20.7974,416.7931],[32.331,-20.7936,417.3287],[32.3245,-20.7855,418.4259],[32.3142,-20.7787,420.9361],[32.3014,-20.7631,429.5591],[32.2919,-20.7605,432.5375],[32.2699,-20.7623,427.8336],[32.2499,-20.7695,419.1989],[32.2495,-20.7713,416.1178],[32.2407,-20.7768,410.7266],[32.2342,-20.7773,405.1041],[32.224,-20.7746,396.572],[32.2185,-20.7774,395.0201]]]]}
,"properties": {"GID_3": "ZWE.3.3.19_2","GID_0": "ZWE","country": "Zimbabwe","GID_1": "ZWE.3_1","province": "Manicaland","NL_NAME_1": "NA","GID_2": "ZWE.3.3_2","county": "Chipinge","NL_NAME_2": "NA","city": "Ward26","VARNAME_3": "NA","NL_NAME_3": "NA","TYPE_3": "Ward","ENGTYPE_3": "Ward","CC_3": "NA","HASC_3": "NA","name": "Ward26.city","area_km2": 214.5228,"hist_schema_id": "Elevation0-9000","hist_area_km2": {"375": 7.4101,"400": 120.8839,"425": 86.2288}}}