{"type":"Feature","properties":{"GID_3":"ZWE.3.3.18_2","GID_0":"ZWE","country":"Zimbabwe","GID_1":"ZWE.3_1","province":"Manicaland","NL_NAME_1":"NA","GID_2":"ZWE.3.3_2","county":"Chipinge","NL_NAME_2":"NA","city":"Ward25","VARNAME_3":"NA","NL_NAME_3":"NA","TYPE_3":"Ward","ENGTYPE_3":"Ward","CC_3":"NA","HASC_3":"NA","name":"Ward25.city"},
"geometry":{"type": "MultiPolygon","coordinates": [[[[32.4966,-20.7782,436.231],[32.4752,-20.7752,448.9653],[32.473,-20.7724,452.7469],[32.4716,-20.7639,463.9894],[32.4682,-20.7591,469.8183],[32.4655,-20.7561,475.1462],[32.4585,-20.7542,483.751],[32.4576,-20.752,487.0987],[32.4605,-20.7501,485.2297],[32.4587,-20.7488,489.9851],[32.4584,-20.7444,498.3968],[32.4601,-20.7415,506.8969],[32.4591,-20.7373,511.2288],[32.4606,-20.7314,522.9641],[32.471,-20.7189,577.1562],[32.4685,-20.7097,611.8085],[32.4664,-20.7075,630.9747],[32.4606,-20.7063,619.1458],[32.4505,-20.7082,589.5663],[32.4487,-20.7135,563.004],[32.434,-20.7213,527.8416],[32.387,-20.7191,469.9148],[32.3817,-20.7245,462.7965],[32.3777,-20.7246,461.4055],[32.3512,-20.7414,443.1104],[32.3434,-20.7631,424.1003],[32.3397,-20.7678,422.0467],[32.3329,-20.7701,421.6357],[32.31,-20.7724,422.8654],[32.3144,-20.7788,420.9361],[32.3245,-20.7855,418.4259],[32.331,-20.7936,417.3287],[32.3321,-20.7974,416.7931],[32.3379,-20.8034,416.2976],[32.3332,-20.8088,412.4132],[32.3331,-20.811,411.5428],[32.3549,-20.82,409.5123],[32.3578,-20.823,409.2566],[32.3576,-20.8252,408.9278],[32.3528,-20.8304,406.1179],[32.3547,-20.8361,404.8934],[32.3537,-20.8393,403.8223],[32.3502,-20.8422,401.911],[32.3506,-20.8527,399.7957],[32.3708,-20.8575,399.7661],[32.3994,-20.8575,408.8954],[32.415,-20.8649,417.6893],[32.4234,-20.8635,417.8498],[32.4319,-20.8643,414.5214],[32.4369,-20.8667,411.1909],[32.4426,-20.8754,399.2675],[32.4533,-20.8823,387.8444],[32.4643,-20.8747,379.8434],[32.4736,-20.8713,375.1853],[32.4777,-20.8669,373.8102],[32.4884,-20.8689,368.9655],[32.497,-20.8641,361.8976],[32.5046,-20.8626,358.837],[32.5104,-20.8574,355.8128],[32.5029,-20.8334,456.0304],[32.4978,-20.8074,461.7624],[32.4966,-20.7782,436.231]]]]}}