{"type": "Feature","bbox": [30.3424,-20.9454,30.4548,-20.825],"geometry": {"type": "MultiPolygon","coordinates": [[[[30.4548,-20.8294,717.1704],[30.4534,-20.8265,718.2686],[30.4505,-20.826,717.0609],[30.4217,-20.825,741.1503],[30.3947,-20.8347,796.0861],[30.3689,-20.8521,837.9054],[30.3424,-20.8514,842.4958],[30.3471,-20.8729,728.1217],[30.3528,-20.8805,706.4095],[30.3488,-20.8849,700.3295],[30.349,-20.8885,705.7723],[30.3521,-20.8928,697.3161],[30.3525,-20.8964,692.3881],[30.3601,-20.9009,693.124],[30.3634,-20.9062,685.4105],[30.3606,-20.9099,680.3994],[30.3685,-20.9103,681.1356],[30.3734,-20.9131,671.6641],[30.3757,-20.9171,677.904],[30.381,-20.9184,674.8137],[30.385,-20.9163,683.6276],[30.3893,-20.919,693.0038],[30.3968,-20.9308,680.4205],[30.3958,-20.9332,679.337],[30.403199999999998,-20.9454,661.3153],[30.4199,-20.9443,669.8323],[30.4241,-20.9419,671.5247],[30.4256,-20.9372,674.9704],[30.431,-20.9312,676.1979],[30.4429,-20.9346,708.0543],[30.4434,-20.9231,685.3191],[30.4477,-20.9095,697.6915],[30.4488,-20.894,719.9576],[30.4534,-20.8826,749.9575],[30.4508,-20.8692,728.527],[30.4548,-20.8294,717.1704]]]]}
,"properties": {"GID_3": "ZWE.10.9.14_2","GID_0": "ZWE","country": "Zimbabwe","GID_1": "ZWE.10_1","province": "Midlands","NL_NAME_1": "NA","GID_2": "ZWE.10.9_2","county": "Mberengwa","NL_NAME_2": "NA","city": "Ward21","VARNAME_3": "NA","NL_NAME_3": "NA","TYPE_3": "Ward","ENGTYPE_3": "Ward","CC_3": "NA","HASC_3": "NA","name": "Ward21.city","area_km2": 105.22949,"hist_schema_id": "Elevation0-9000","hist_area_km2": {"650": 0.0198,"675": 9.40677,"700": 29.47223,"725": 31.24258,"750": 22.0517,"775": 4.71531,"800": 3.36806,"825": 1.76328,"850": 0.89157,"875": 0.8123,"900": 0.53491,"925": 0.35661,"950": 0.13868,"975": 0.23774,"1000": 0.1585,"1025": 0.03963,"1050": 0.01981}}}