{"type":"Feature","properties":{"GID_3":"ZWE.5.4.22_2","GID_0":"ZWE","country":"Zimbabwe","GID_1":"ZWE.5_1","province":"MashonalandEast","NL_NAME_1":"NA","GID_2":"ZWE.5.4_2","county":"Marondera","NL_NAME_2":"NA","city":"Ward8","VARNAME_3":"NA","NL_NAME_3":"NA","TYPE_3":"Ward","ENGTYPE_3":"Ward","CC_3":"NA","HASC_3":"NA","name":"Ward8.city"},
"geometry":{"type": "MultiPolygon","coordinates": [[[[31.2212,-18.5301,1424.229],[31.2553,-18.4786,1428.1473],[31.2761,-18.4774,1394.5027],[31.3059,-18.4807,1434.2413],[31.3473,-18.4524,1468.5449],[31.3495,-18.4423,1486.8344],[31.3562,-18.4465,1494.2603],[31.3988,-18.4905,1440.1423],[31.392,-18.4804,1461.3292],[31.3926,-18.4667,1465.8044],[31.3878,-18.4573,1499.3439],[31.3882,-18.4451,1495.5646],[31.3845,-18.4304,1517.4116],[31.3803,-18.4294,1518.8511],[31.3753,-18.4145,1530.2354],[31.3574,-18.3983,1523.8623],[31.3544,-18.3806,1539.6831],[31.3508,-18.3755,1546.1162],[31.3497,-18.37,1539.7451],[31.3543,-18.3596,1548.8052],[31.3547,-18.354,1558.4922],[31.3497,-18.3409,1564.499],[31.349,-18.3332,1565.7025],[31.3413,-18.3173,1563.988],[31.335,-18.32,1563.1715],[31.3283,-18.3306,1554.6702],[31.3184,-18.3541,1534.5602],[31.2709,-18.393,1503.054],[31.2776,-18.4061,1501.5803],[31.2627,-18.4128,1492.7507],[31.25,-18.4205,1486.6958],[31.2489,-18.4229,1484.9775],[31.2097,-18.4088,1465.7554],[31.2216,-18.4181,1472.4102],[31.2191,-18.4292,1473.5968],[31.2228,-18.4359,1479.2458],[31.2007,-18.4558,1442.3496],[31.1574,-18.4466,1421.5984],[31.1328,-18.4507,1409.7677],[31.1301,-18.4846,1433.6899],[31.1656,-18.4923,1435.8057],[31.2019,-18.5119,1435.5007],[31.2212,-18.5301,1424.229]]]]}}