{"type":"Feature","properties":{"GID_3":"ZWE.3.6.10_2","GID_0":"ZWE","country":"Zimbabwe","GID_1":"ZWE.3_1","province":"Manicaland","NL_NAME_1":"NA","GID_2":"ZWE.3.6_2","county":"Mutare","NL_NAME_2":"NA","city":"Ward18","VARNAME_3":"NA","NL_NAME_3":"NA","TYPE_3":"Ward","ENGTYPE_3":"Ward","CC_3":"NA","HASC_3":"NA","name":"Ward18.city"},
"geometry":{"type": "MultiPolygon","coordinates": [[[[32.3295,-19.2685,1250.8993],[32.345,-19.268,1060.9028],[32.3476,-19.2728,1041.8524],[32.3464,-19.2769,1052.8829],[32.3474,-19.2778,1045.1561],[32.3511,-19.278,1027.7065],[32.3555,-19.2722,1006.0029],[32.3618,-19.2791,1046.6279],[32.3675,-19.2746,1040.7961],[32.371,-19.2737,1029.5345],[32.3838,-19.2772,1000.968],[32.3951,-19.2755,974.5686],[32.394,-19.2848,970.2053],[32.4024,-19.2944,926.3568],[32.4027,-19.2973,911.8076],[32.4126,-19.3098,862.1477],[32.4149,-19.3107,862.5129],[32.4192,-19.3181,834.3846],[32.4244,-19.3211,823.8542],[32.4277,-19.32,815.8557],[32.4324,-19.3213,822.0131],[32.4342,-19.318,809.3926],[32.4377,-19.3181,808.7432],[32.4456,-19.3134,788.0505],[32.4511,-19.3121,783.7624],[32.4591,-19.3148,779.1031],[32.4617,-19.3135,768.8357],[32.4648,-19.3156,762.3854],[32.4661,-19.3133,760.9215],[32.4614,-19.3036,773.2467],[32.4796,-19.2657,791.5177],[32.4754,-19.2651,804.593],[32.4725,-19.2576,812.9561],[32.4687,-19.2566,808.7628],[32.462,-19.2382,865.6147],[32.4519,-19.2327,895.7023],[32.4468,-19.2264,912.2434],[32.4425,-19.2202,943.2321],[32.4382,-19.2061,965.7391],[32.4356,-19.2048,960.7946],[32.4291,-19.2069,944.2639],[32.4288,-19.2101,934.7642],[32.4261,-19.2118,925.3242],[32.4252,-19.2148,913.6082],[32.4269,-19.2217,905.1673],[32.426,-19.2266,898.0185],[32.4272,-19.2266,908.6283],[32.4248,-19.2351,888.5343],[32.4253,-19.2449,865.0927],[32.4218,-19.2457,874.629],[32.4202,-19.2437,888.9739],[32.4129,-19.2447,888.9968],[32.4119,-19.2424,896.9022],[32.4015,-19.2385,919.6023],[32.3911,-19.2373,939.0518],[32.3846,-19.2392,943.9307],[32.3795,-19.2378,964.5029],[32.3718,-19.2384,972.7044],[32.3663,-19.2405,989.418],[32.3525,-19.2371,1028.1378],[32.3454,-19.2538,1230.1853],[32.3295,-19.2685,1250.8993]]]]}}