{"type":"Feature","properties":{"GID_3":"ZWE.6.5.11_2","GID_0":"ZWE","country":"Zimbabwe","GID_1":"ZWE.6_1","province":"MashonalandWest","NL_NAME_1":"NA","GID_2":"ZWE.6.5_2","county":"KadomaUrban","NL_NAME_2":"NA","city":"Ward3","VARNAME_3":"NA","NL_NAME_3":"NA","TYPE_3":"Ward","ENGTYPE_3":"Ward","CC_3":"NA","HASC_3":"NA","name":"Ward3.city"},
"geometry":{"type": "MultiPolygon","coordinates": [[[[29.8638,-18.3725,1126.6169],[29.8851,-18.3605,1138.7957],[29.8909,-18.354,1138.6527],[29.8846,-18.3509,1141.0028],[29.8868,-18.3461,1141.1504],[29.8813,-18.345,1134.7284],[29.8821,-18.3433,1135.9004],[29.8796,-18.3424,1134.4551],[29.8738,-18.3474,1130.7039],[29.8694,-18.3409,1129.3956],[29.8627,-18.3451,1123.6267],[29.849,-18.3282,1121.001],[29.8324,-18.3384,1107.3896],[29.8571,-18.3771,1124.9916],[29.8638,-18.3725,1126.6169]]]]}}