{"type": "Feature","bbox": [29.0154,-20.9372,29.0344,-20.9264],"geometry": {"type": "MultiPolygon","coordinates": [[[[29.0154,-20.9331,1017.3755],[29.0197,-20.9339,1021.2182],[29.0202,-20.9372,1006.1703],[29.0344,-20.9352,1001.5203],[29.0339,-20.9308,1014.5198],[29.0267,-20.9306,1038.2208],[29.0221,-20.933,1032.8313],[29.0169,-20.9264,1014.7727],[29.0154,-20.9331,1017.3755]]]]}
,"properties": {"GID_3": "ZWE.9.5.7_2","GID_0": "ZWE","country": "Zimbabwe","GID_1": "ZWE.9_1","province": "MatabelelandSouth","NL_NAME_1": "NA","GID_2": "ZWE.9.5_2","county": "GwandaUrban","NL_NAME_2": "NA","city": "Ward6","VARNAME_3": "NA","NL_NAME_3": "NA","TYPE_3": "Ward","ENGTYPE_3": "Ward","CC_3": "NA","HASC_3": "NA","name": "Ward6.city","area_km2": 1.0891556,"hist_schema_id": "Elevation0-9000","hist_area_km2": {"1000": 0.2178303,"1025": 0.6732962,"1050": 0.1782262,"1100": 0.0198029}}}