{"type": "Feature","bbox": [32.5907,-19.1291,32.6456,-19.0797],"geometry": {"type": "MultiPolygon","coordinates": [[[[32.5907,-19.0958,1588.017],[32.6134,-19.1291,1040.6722],[32.6187,-19.126,1066.9581],[32.6456,-19.119,1186.1721],[32.6322,-19.0797,1453.1487],[32.5907,-19.0958,1588.017]]]]}
,"properties": {"GID_3": "ZWE.3.6.26_2","GID_0": "ZWE","country": "Zimbabwe","GID_1": "ZWE.3_1","province": "Manicaland","NL_NAME_1": "NA","GID_2": "ZWE.3.6_2","county": "Mutare","NL_NAME_2": "NA","city": "Ward32","VARNAME_3": "NA","NL_NAME_3": "NA","TYPE_3": "Ward","ENGTYPE_3": "Ward","CC_3": "NA","HASC_3": "NA","name": "Ward32.city","area_km2": 18.0911,"hist_schema_id": "Elevation0-9000","hist_area_km2": {"1050": 1.16188,"1075": 1.54255,"1100": 1.98333,"1125": 2.76472,"1150": 2.2439,"1175": 1.52265,"1200": 1.22213,"1225": 1.00174,"1250": 0.82141,"1275": 0.26046,"1300": 0.40071,"1325": 0.46082,"1350": 0.56099,"1375": 0.68121,"1400": 0.48085,"1425": 0.38068,"1450": 0.16028,"1475": 0.10018,"1500": 0.14025,"1525": 0.06011,"1550": 0.06011,"1575": 0.08014}}}