{"type": "Feature","bbox": [30.3424,-17.466,30.5173,-17.2478],"geometry": {"type": "MultiPolygon","coordinates": [[[[30.3539,-17.3677,1234.2996],[30.3719,-17.3598,1248.7758],[30.3961,-17.3697,1269.6307],[30.3947,-17.3493,1259.0354],[30.4238,-17.3513,1227.4639],[30.4062,-17.3763,1271.1803],[30.4308,-17.381,1215.4032],[30.4185,-17.3912,1237.2229],[30.4233,-17.4062,1245.4978],[30.4037,-17.4021,1274.395],[30.4204,-17.4413,1287.7657],[30.4241,-17.4481,1292.9626],[30.4603,-17.445,1247.2075],[30.4736,-17.4633,1281.9381],[30.4862,-17.466,1267.8346],[30.4908,-17.4476,1271.0776],[30.4812,-17.4427,1249.8079],[30.4737,-17.4356,1237.7957],[30.4778,-17.4329,1226.8021],[30.4757,-17.4307,1237.8007],[30.4773,-17.4274,1225.6334],[30.4745,-17.4197,1231.5548],[30.4717,-17.4173,1231.5269],[30.473,-17.4151,1222.9047],[30.4709,-17.4063,1216.6267],[30.4643,-17.3995,1208.759],[30.4651,-17.3925,1216.6647],[30.4628,-17.3927,1205.9091],[30.4575,-17.389,1201.4336],[30.455,-17.3832,1198.7917],[30.4811,-17.3801,1270.7292],[30.4803,-17.3724,1239.8816],[30.4617,-17.3608,1211.7693],[30.4748,-17.3552,1227.8954],[30.477,-17.3311,1213.6455],[30.495,-17.317,1173.1935],[30.5173,-17.2913,1214.4635],[30.4994,-17.2823,1216.4099],[30.4819,-17.2643,1209.6337],[30.4699,-17.2763,1166.4509],[30.468,-17.2834,1164.7805],[30.4646,-17.2809,1160.0969],[30.4645,-17.2789,1157.8877],[30.4623,-17.2787,1157.5],[30.459,-17.2736,1178.6735],[30.4559,-17.2762,1159.619],[30.4527,-17.2765,1157.5],[30.4528,-17.2709,1159.4072],[30.4496,-17.2682,1157.5],[30.4515,-17.2611,1157.5],[30.4495,-17.2602,1157.5],[30.4462,-17.2616,1157.5],[30.444,-17.256,1157.5],[30.44,-17.2519,1157.5],[30.436,-17.2532,1158.1582],[30.4367,-17.2572,1157.5],[30.4318,-17.2585,1157.5],[30.4287,-17.2584,1157.5],[30.4245,-17.2532,1157.5],[30.42,-17.2526,1157.5],[30.4205,-17.2478,1157.5],[30.3929,-17.2507,1188.1737],[30.3927,-17.2655,1185.9227],[30.3491,-17.2735,1164.6844],[30.3424,-17.2815,1151.4397],[30.3508,-17.2838,1165.1652],[30.355,-17.2897,1154.1838],[30.3596,-17.2891,1163.2778],[30.3722,-17.3056,1179.6049],[30.3603,-17.3246,1204.0452],[30.3669,-17.3291,1213.838],[30.3539,-17.3677,1234.2996]]]]}
,"properties": {"GID_3": "ZWE.6.13.10_2","GID_0": "ZWE","country": "Zimbabwe","GID_1": "ZWE.6_1","province": "MashonalandWest","NL_NAME_1": "NA","GID_2": "ZWE.6.13_2","county": "Zvimba","NL_NAME_2": "NA","city": "Ward18","VARNAME_3": "NA","NL_NAME_3": "NA","TYPE_3": "Ward","ENGTYPE_3": "Ward","CC_3": "NA","HASC_3": "NA","name": "Ward18.city","area_km2": 209.8572,"hist_schema_id": "Elevation0-9000","hist_area_km2": {"1150": 11.6011,"1175": 41.3376,"1200": 60.3186,"1225": 49.6834,"1250": 32.3314,"1275": 13.8568,"1300": 0.7282}}}