{"type": "Feature","bbox": [28.4072,-20.0706,28.6915,-19.8337],"geometry": {"type": "MultiPolygon","coordinates": [[[[28.4687,-20.0706,1282.498],[28.513,-20.0592,1284.0022],[28.5126,-20.043,1273.9916],[28.5308,-20.0305,1235.5],[28.5336,-20.0315,1247.9366],[28.5365,-20.0358,1242.9062],[28.5389,-20.0358,1236.3457],[28.5416,-20.0411,1241.1643],[28.5477,-20.0444,1244.3706],[28.5485,-20.0461,1248.2338],[28.5469,-20.0493,1268.8635],[28.5537,-20.0565,1259.0367],[28.5542,-20.0443,1271.619],[28.5738,-20.0281,1275.135],[28.6072,-19.9615,1285.3733],[28.6436,-20.0042,1308.0778],[28.6712,-20.0163,1302.0187],[28.668,-20.024,1307.4633],[28.6618,-20.028,1311.979],[28.6506,-20.0491,1330.9434],[28.6498,-20.0581,1330.2488],[28.6641,-20.0486,1323.5522],[28.6855,-19.9996,1290.9496],[28.6847,-19.9972,1284.9083],[28.6915,-19.9829,1298.452],[28.6718,-19.9556,1281.1223],[28.6558,-19.9633,1266.1749],[28.65,-19.9457,1262.8479],[28.647,-19.947,1254.5776],[28.6362,-19.9348,1254.186],[28.6383,-19.9338,1252.5797],[28.6396,-19.9274,1244.7179],[28.6432,-19.9265,1243.2365],[28.6427,-19.9246,1241.7866],[28.635,-19.9231,1244.7904],[28.6266,-19.9267,1236.89],[28.6236,-19.9245,1244.4076],[28.6263,-19.9205,1236.684],[28.6248,-19.9143,1233.8235],[28.6212,-19.9134,1232.824],[28.6212,-19.9098,1234.9456],[28.6125,-19.9109,1231.22],[28.6116,-19.9072,1250.114],[28.6206,-19.9033,1228.4679],[28.6215,-19.901,1229.0779],[28.6179,-19.9016,1229.9999],[28.6176,-19.8973,1232.65],[28.6119,-19.8985,1218.98],[28.6066,-19.8928,1228.0798],[28.6111,-19.8846,1214.3821],[28.6099,-19.8807,1243.4185],[28.6,-19.8781,1207.4419],[28.597,-19.8815,1210.2194],[28.5946,-19.8747,1219.76],[28.5988,-19.8731,1205.9556],[28.5982,-19.8688,1207.974],[28.5928,-19.8691,1205.5],[28.5854,-19.8603,1199.4138],[28.5887,-19.855,1194.0013],[28.5785,-19.8479,1195.3506],[28.5742,-19.8501,1187.832],[28.5716,-19.8479,1186.1298],[28.5684,-19.8476,1185.777],[28.5673,-19.8337,1178.6547],[28.5658,-19.8337,1179.3174],[28.5536,-19.8458,1180.6279],[28.5359,-19.8739,1198.9557],[28.5117,-19.8728,1171.9572],[28.506,-19.8775,1172.5371],[28.5075,-19.8793,1170.8263],[28.5057,-19.8835,1174.1797],[28.507,-19.8884,1173.3088],[28.5154,-19.9008,1181.1005],[28.5142,-19.9049,1180.1128],[28.5182,-19.909,1181.4541],[28.5185,-19.9167,1181.2413],[28.5177,-19.9176,1181.2413],[28.5087,-19.9145,1202.4213],[28.5013,-19.9247,1276.9644],[28.4685,-19.962,1247.1965],[28.4454,-19.9836,1284.3265],[28.4301,-20.0024,1263.759],[28.4072,-20.0164,1242.4363],[28.4203,-20.026,1253.6864],[28.4312,-20.0302,1266.9521],[28.4458,-20.0406,1273.2439],[28.4589,-20.0551,1268.99],[28.4687,-20.0706,1282.498]]]]}
,"properties": {"GID_3": "ZWE.8.8.18_2","GID_0": "ZWE","country": "Zimbabwe","GID_1": "ZWE.8_1","province": "MatabelelandNorth","NL_NAME_1": "NA","GID_2": "ZWE.8.8_2","county": "Umguza","NL_NAME_2": "NA","city": "Ward8","VARNAME_3": "NA","NL_NAME_3": "NA","TYPE_3": "Ward","ENGTYPE_3": "Ward","CC_3": "NA","HASC_3": "NA","name": "Ward8.city","area_km2": 336.7805,"hist_schema_id": "Elevation0-9000","hist_area_km2": {"1175": 7.5563,"1200": 49.9148,"1225": 62.7388,"1250": 89.5319,"1275": 84.3815,"1300": 37.8367,"1325": 4.8205}}}