{"type": "Feature","bbox": [32.2089,-20.7774,32.3806,-20.6755],"geometry": {"type": "MultiPolygon","coordinates": [[[[32.2518,-20.6755,407.2959],[32.246,-20.6826,396.0],[32.2346,-20.6865,397.8203],[32.2273,-20.6933,395.8676],[32.2253,-20.7023,398.7353],[32.2277,-20.7118,393.9409],[32.2173,-20.7297,390.5],[32.2138,-20.7403,389.625],[32.2127,-20.7508,389.0],[32.2089,-20.7527,388.625],[32.2091,-20.769,395.2693],[32.2152,-20.7764,389.6581],[32.2185,-20.7774,395.0201],[32.2255,-20.7746,400.6625],[32.2342,-20.7773,405.1041],[32.2407,-20.7768,410.7266],[32.2495,-20.7713,416.1178],[32.2499,-20.7695,419.1989],[32.2618,-20.7646,423.7794],[32.2699,-20.7623,427.8336],[32.2903,-20.7605,432.3496],[32.3014,-20.7631,429.5591],[32.3066,-20.771,424.2261],[32.3093,-20.7724,423.4426],[32.3384,-20.7684,421.5054],[32.3434,-20.7631,424.1003],[32.3512,-20.7414,443.1104],[32.3777,-20.7246,461.4055],[32.3806,-20.7246,461.5142],[32.3774,-20.7162,472.4284],[32.3788,-20.7094,479.1069],[32.3711,-20.7028,482.3948],[32.3552,-20.6949,481.939],[32.3361,-20.6915,462.9443],[32.3259,-20.6931,450.8673],[32.3184,-20.6888,436.5398],[32.2816,-20.6898,422.8777],[32.2749,-20.6868,420.9837],[32.27,-20.6888,422.021],[32.2561,-20.68,416.7394],[32.2518,-20.6755,407.2959]]]]}
,"properties": {"GID_3": "ZWE.3.3.17_2","GID_0": "ZWE","country": "Zimbabwe","GID_1": "ZWE.3_1","province": "Manicaland","NL_NAME_1": "NA","GID_2": "ZWE.3.3_2","county": "Chipinge","NL_NAME_2": "NA","city": "Ward24","VARNAME_3": "NA","NL_NAME_3": "NA","TYPE_3": "Ward","ENGTYPE_3": "Ward","CC_3": "NA","HASC_3": "NA","name": "Ward24.city","area_km2": 132.5421,"hist_schema_id": "Elevation0-9000","hist_area_km2": {"400": 13.1066,"425": 81.221,"450": 24.4114,"475": 13.5651,"500": 0.238}}}