{"type": "Feature","bbox": [29.5035,-20.8416,29.5987,-20.7575],"geometry": {"type": "MultiPolygon","coordinates": [[[[29.5035,-20.839,994.3691],[29.5076,-20.8409,998.2625],[29.5177,-20.8416,1001.9095],[29.5236,-20.8388,1010.6841],[29.5295,-20.8416,1006.3591],[29.5352,-20.8388,1014.2166],[29.5365,-20.8352,1019.2721],[29.5397,-20.8355,1020.7881],[29.5412,-20.8312,1029.8723],[29.5427,-20.8326,1025.09],[29.544,-20.8301,1024.9196],[29.5499,-20.8274,1033.0508],[29.5572,-20.8277,1040.8143],[29.5587,-20.8264,1041.6779],[29.5663,-20.8264,1051.9811],[29.5804,-20.8319,1158.2241],[29.5987,-20.8296,1113.4232],[29.5847,-20.8252,1082.9647],[29.5914,-20.812,1053.4474],[29.5871,-20.7869,1089.6224],[29.5879,-20.7751,1049.5599],[29.5892,-20.7744,1043.465],[29.5874,-20.7654,1046.4558],[29.5906,-20.7598,1023.3094],[29.5136,-20.7575,1054.7859],[29.5156,-20.7629,1063.8876],[29.5152,-20.7711,1065.1418],[29.5126,-20.7807,1061.5662],[29.5145,-20.7846,1045.3843],[29.5168,-20.8101,1035.5508],[29.5136,-20.8145,1032.7983],[29.5124,-20.8219,1018.246],[29.507,-20.8294,1005.6406],[29.5035,-20.839,994.3691]]]]}
,"properties": {"GID_3": "ZWE.9.6.4_2","GID_0": "ZWE","country": "Zimbabwe","GID_1": "ZWE.9_1","province": "MatabelelandSouth","NL_NAME_1": "NA","GID_2": "ZWE.9.6_2","county": "Insiza","NL_NAME_2": "NA","city": "Ward12","VARNAME_3": "NA","NL_NAME_3": "NA","TYPE_3": "Ward","ENGTYPE_3": "Ward","CC_3": "NA","HASC_3": "NA","name": "Ward12.city","area_km2": 64.99225,"hist_schema_id": "Elevation0-9000","hist_area_km2": {"1000": 2.6355,"1025": 8.54147,"1050": 19.8604,"1075": 29.4155,"1100": 4.40068,"1125": 0.07927,"1150": 0.03963,"1175": 0.01982}}}