{"type":"Feature","properties":{"GID_3":"ZWE.7.9.18_2","GID_0":"ZWE","country":"Zimbabwe","GID_1":"ZWE.7_1","province":"Masvingo","NL_NAME_1":"NA","GID_2":"ZWE.7.9_2","county":"Zaka","NL_NAME_2":"NA","city":"Ward25","VARNAME_3":"NA","NL_NAME_3":"NA","TYPE_3":"Ward","ENGTYPE_3":"Ward","CC_3":"NA","HASC_3":"NA","name":"Ward25.city"},
"geometry":{"type": "MultiPolygon","coordinates": [[[[31.546,-20.4831,640.4585],[31.5097,-20.4928,664.6157],[31.5047,-20.4922,678.537],[31.5001,-20.4943,681.0684],[31.4904,-20.4945,707.2478],[31.48,-20.5004,697.2456],[31.4739,-20.5071,697.1583],[31.4681,-20.5073,710.8763],[31.4426,-20.5221,702.6132],[31.4264,-20.5341,683.1674],[31.4243,-20.5372,677.5978],[31.4215,-20.536,683.2621],[31.4189,-20.5397,676.2639],[31.4216,-20.5458,684.1124],[31.425,-20.5523,717.1299],[31.4347,-20.5633,691.0979],[31.4302,-20.5772,664.137],[31.4359,-20.5815,656.3811],[31.437,-20.586,655.7444],[31.4414,-20.5867,647.7106],[31.4532,-20.5834,640.1719],[31.4546,-20.5792,641.6337],[31.4579,-20.5765,633.7353],[31.4639,-20.5771,629.7847],[31.4639,-20.5738,657.149],[31.4725,-20.5714,623.0062],[31.4791,-20.572,620.5641],[31.4817,-20.5693,623.8656],[31.4934,-20.571,617.1605],[31.4959,-20.5761,610.0701],[31.5003,-20.5747,608.8807],[31.5035,-20.5703,628.0999],[31.5059,-20.5701,630.3148],[31.5112,-20.5728,604.3154],[31.5131,-20.5755,588.7055],[31.5111,-20.5979,689.54],[31.5223,-20.5947,694.5805],[31.5288,-20.6084,606.7677],[31.537,-20.6043,588.0045],[31.5491,-20.6024,554.8307],[31.5549,-20.6057,541.3898],[31.557,-20.613,535.9564],[31.5593,-20.6137,534.9706],[31.5744,-20.606,543.689],[31.602,-20.6002,529.0],[31.597,-20.5801,529.0],[31.5996,-20.5668,529.0],[31.5923,-20.5591,529.6372],[31.5882,-20.5465,540.5073],[31.5822,-20.539,541.696],[31.5794,-20.528,548.051],[31.58,-20.52,553.5482],[31.5852,-20.5118,550.2325],[31.5821,-20.5068,593.4569],[31.5725,-20.5064,603.7025],[31.5651,-20.5037,611.1952],[31.5587,-20.4979,630.051],[31.5543,-20.4829,647.5286],[31.546,-20.4831,640.4585]]]]}}