{"type": "Feature","bbox": [32.5106,-18.4131,32.6399,-18.246],"geometry": {"type": "MultiPolygon","coordinates": [[[[32.5106,-18.364,1858.5508],[32.5419,-18.3986,1775.4631],[32.5714,-18.4031,1677.2061],[32.5779,-18.4131,1731.3329],[32.583,-18.4095,1695.7369],[32.5741,-18.3982,1709.0209],[32.5706,-18.3995,1687.0602],[32.5506,-18.3736,1773.6914],[32.598,-18.3514,1911.5312],[32.6121,-18.4021,1787.412],[32.6399,-18.3868,2126.0503],[32.6327,-18.3145,1881.2064],[32.6246,-18.273,1446.8417],[32.6225,-18.2709,1456.3323],[32.6137,-18.2487,1341.5869],[32.6141,-18.246,1372.5613],[32.5868,-18.2646,1375.3148],[32.5854,-18.2672,1364.2581],[32.5748,-18.2712,1399.6873],[32.5752,-18.2735,1380.4055],[32.5691,-18.2787,1389.8521],[32.5576,-18.2833,1414.468],[32.5549,-18.2879,1412.9106],[32.5521,-18.2881,1422.2701],[32.562,-18.3193,1604.5193],[32.5212,-18.3362,1626.1598],[32.5404,-18.3601,1734.9962],[32.5106,-18.364,1858.5508]]]]}
,"properties": {"GID_3": "ZWE.3.9.17_2","GID_0": "ZWE","country": "Zimbabwe","GID_1": "ZWE.3_1","province": "Manicaland","NL_NAME_1": "NA","GID_2": "ZWE.3.9_2","county": "Nyanga","NL_NAME_2": "NA","city": "Ward24","VARNAME_3": "NA","NL_NAME_3": "NA","TYPE_3": "Ward","ENGTYPE_3": "Ward","CC_3": "NA","HASC_3": "NA","name": "Ward24.city","area_km2": 123.59492,"hist_schema_id": "Elevation0-9000","hist_area_km2": {"1350": 1.28865,"1375": 3.46304,"1400": 7.14712,"1425": 8.87802,"1450": 6.64307,"1475": 4.9719,"1500": 5.89753,"1525": 4.85077,"1550": 3.07953,"1575": 2.97883,"1600": 3.05922,"1625": 3.09945,"1650": 3.46161,"1675": 4.548,"1700": 6.82159,"1725": 9.23626,"1750": 9.86014,"1775": 8.71315,"1800": 6.11759,"1825": 3.54175,"1850": 3.78327,"1875": 4.44733,"1900": 4.76926,"1925": 1.62993,"1950": 0.68417,"1975": 0.1811,"2000": 0.06036,"2025": 0.1006,"2050": 0.1006,"2075": 0.12072,"2100": 0.04024,"2125": 0.02012}}}