{"type": "Feature","bbox": [30.1263,-17.4161,30.1887,-17.356],"geometry": {"type": "MultiPolygon","coordinates": [[[[30.1751,-17.367,1159.2605],[30.1665,-17.3584,1160.6526],[30.1472,-17.3621,1187.3865],[30.1411,-17.356,1229.9399],[30.136,-17.3705,1279.0312],[30.1263,-17.3785,1262.8688],[30.1393,-17.3917,1193.4337],[30.1495,-17.4088,1230.4264],[30.1479,-17.4161,1223.4042],[30.1529,-17.416,1223.3165],[30.1525,-17.4078,1227.2957],[30.1554,-17.4028,1221.1523],[30.1747,-17.3886,1200.1414],[30.1851,-17.3846,1202.6343],[30.1887,-17.3788,1191.979],[30.1751,-17.367,1159.2605]]]]}
,"properties": {"GID_3": "ZWE.6.3.15_2","GID_0": "ZWE","country": "Zimbabwe","GID_1": "ZWE.6_1","province": "MashonalandWest","NL_NAME_1": "NA","GID_2": "ZWE.6.3_2","county": "Chinhoyi","NL_NAME_2": "NA","city": "Ward9","VARNAME_3": "NA","NL_NAME_3": "NA","TYPE_3": "Ward","ENGTYPE_3": "Ward","CC_3": "NA","HASC_3": "NA","name": "Ward9.city","area_km2": 20.49721,"hist_schema_id": "Elevation0-9000","hist_area_km2": {"1150": 1.15341,"1175": 8.68066,"1200": 8.19474,"1225": 2.26605,"1250": 0.12141,"1275": 0.0607,"1300": 0.02023}}}