{"type": "Feature","bbox": [31.6315,-21.393,31.866,-21.1749],"geometry": {"type": "MultiPolygon","coordinates": [[[[31.6586,-21.2216,319.9912],[31.6519,-21.2493,332.0887],[31.6501,-21.2905,354.0097],[31.6315,-21.3367,377.7448],[31.6338,-21.3644,396.2921],[31.6376,-21.3694,402.215],[31.6364,-21.3769,403.917],[31.6388,-21.3929,409.7091],[31.6514,-21.393,401.5314],[31.6601,-21.3763,394.9566],[31.6807,-21.3579,386.8352],[31.7102,-21.3262,373.1327],[31.7376,-21.3034,365.0417],[31.7518,-21.2885,361.9665],[31.7595,-21.278,357.1815],[31.7687,-21.2739,351.0518],[31.7798,-21.2632,346.0859],[31.7944,-21.256,338.6202],[31.7997,-21.2455,329.3989],[31.8043,-21.2439,329.0891],[31.8156,-21.2455,325.068],[31.8231,-21.242,322.491],[31.8337,-21.2418,314.4745],[31.8413,-21.2399,311.8198],[31.8437,-21.2362,310.5515],[31.8485,-21.2371,308.5594],[31.851,-21.2342,305.3005],[31.8563,-21.2321,303.8415],[31.8631,-21.2335,293.222],[31.866,-21.2078,294.5097],[31.8611,-21.1935,297.4887],[31.8497,-21.1785,303.7158],[31.8431,-21.1749,307.1078],[31.8318,-21.175,305.0797],[31.8171,-21.1764,302.6917],[31.8,-21.1806,314.91],[31.7906,-21.1879,310.2396],[31.7598,-21.2038,312.1431],[31.7409,-21.2039,318.9413],[31.7298,-21.2066,315.4967],[31.7145,-21.2063,309.9329],[31.7083,-21.2077,325.1783],[31.7031,-21.2106,307.2695],[31.6924,-21.2235,306.7942],[31.6877,-21.2265,307.7991],[31.6786,-21.2266,315.5296],[31.6586,-21.2216,319.9912]]]]}
,"properties": {"GID_3": "ZWE.7.2.29_2","GID_0": "ZWE","country": "Zimbabwe","GID_1": "ZWE.7_1","province": "Masvingo","NL_NAME_1": "NA","GID_2": "ZWE.7.2_2","county": "Chiredzi","NL_NAME_2": "NA","city": "Ward6","VARNAME_3": "NA","NL_NAME_3": "NA","TYPE_3": "Ward","ENGTYPE_3": "Ward","CC_3": "NA","HASC_3": "NA","name": "Ward6.city","area_km2": 242.1451,"hist_schema_id": "Elevation0-9000","hist_area_km2": {"300": 18.0076,"325": 75.6988,"350": 69.8699,"375": 57.2825,"400": 21.2864}}}