{"type":"Feature","properties":{"GID_3":"ZWE.1.1.15_2","GID_0":"ZWE","country":"Zimbabwe","GID_1":"ZWE.1_1","province":"Bulawayo","NL_NAME_1":"NA","GID_2":"ZWE.1.1_2","county":"Bulawayo","NL_NAME_2":"NA","city":"Ward22","VARNAME_3":"NA","NL_NAME_3":"NA","TYPE_3":"Ward","ENGTYPE_3":"Ward","CC_3":"NA","HASC_3":"NA","name":"Ward22.city"},
"geometry":{"type": "MultiPolygon","coordinates": [[[[28.5077,-20.1782,1348.8817],[28.5173,-20.1903,1356.4623],[28.5229,-20.1932,1347.0021],[28.5256,-20.1881,1353.9857],[28.5226,-20.1867,1361.1682],[28.519,-20.1818,1358.2852],[28.5255,-20.1764,1362.0671],[28.5213,-20.1719,1377.6761],[28.5077,-20.1782,1348.8817]]]]}}