{"type":"Feature","properties":{"GID_3":"ZWE.10.14.10_2","GID_0":"ZWE","country":"Zimbabwe","GID_1":"ZWE.10_1","province":"Midlands","NL_NAME_1":"NA","GID_2":"ZWE.10.14_2","county":"ZvishavaneUrban","NL_NAME_2":"NA","city":"Ward9","VARNAME_3":"NA","NL_NAME_3":"NA","TYPE_3":"Ward","ENGTYPE_3":"Ward","CC_3":"NA","HASC_3":"NA","name":"Ward9.city"},
"geometry":{"type": "MultiPolygon","coordinates": [[[[30.0738,-20.3133,936.8243],[30.0796,-20.3264,970.6473],[30.0778,-20.3359,965.9422],[30.0582,-20.3197,960.1813],[30.0503,-20.3226,935.1851],[30.0467,-20.3335,923.0819],[30.0485,-20.3385,918.1829],[30.0528,-20.3431,915.1938],[30.051,-20.3443,913.2123],[30.0527,-20.3457,912.1609],[30.0511,-20.3516,911.3086],[30.0538,-20.3542,910.4587],[30.0627,-20.3555,921.3497],[30.0625,-20.3602,900.1998],[30.0643,-20.3621,902.0942],[30.0798,-20.3626,898.9581],[30.085,-20.3673,892.6466],[30.0866,-20.3668,888.8688],[30.0874,-20.3635,901.2081],[30.0913,-20.3673,888.0198],[30.0925,-20.3725,886.0348],[30.0984,-20.3766,881.5085],[30.098,-20.3601,911.6974],[30.1019,-20.3258,1065.8926],[30.0835,-20.3113,927.8807],[30.086,-20.3061,917.3654],[30.0684,-20.2941,926.7192],[30.0738,-20.3133,936.8243]]]]}}