{"type": "Feature","bbox": [30.5223,-19.8089,30.6069,-19.7428],"geometry": {"type": "MultiPolygon","coordinates": [[[[30.5814,-19.8085,1132.7664],[30.5859,-19.8089,1121.9773],[30.5837,-19.7962,1131.6676],[30.59,-19.7909,1148.8972],[30.5906,-19.7822,1142.8268],[30.5941,-19.7809,1135.9172],[30.5976,-19.7817,1128.192],[30.6061,-19.789,1120.679],[30.6069,-19.7821,1125.8193],[30.6045,-19.7803,1128.8751],[30.6009,-19.7706,1142.4177],[30.5986,-19.7591,1138.848],[30.6005,-19.7434,1155.4495],[30.5917,-19.7428,1140.7119],[30.5867,-19.745,1135.1951],[30.5752,-19.7433,1126.5353],[30.5735,-19.7452,1122.689],[30.5676,-19.7457,1123.8008],[30.5643,-19.7505,1110.8933],[30.5581,-19.7511,1105.5322],[30.555,-19.7593,1099.5688],[30.5558,-19.7603,1096.8447],[30.5634,-19.7589,1105.4347],[30.5747,-19.7608,1113.4972],[30.5805,-19.7665,1117.4749],[30.5756,-19.7695,1124.3091],[30.5542,-19.7742,1097.7446],[30.5401,-19.7825,1096.3585],[30.5274,-19.7862,1089.1294],[30.5223,-19.793,1082.2769],[30.5493,-19.7935,1125.4457],[30.5696,-19.7921,1139.3834],[30.5788,-19.7992,1142.6138],[30.5815,-19.8044,1133.9612],[30.5814,-19.8085,1132.7664]]]]}
,"properties": {"GID_3": "ZWE.10.1.2_2","GID_0": "ZWE","country": "Zimbabwe","GID_1": "ZWE.10_1","province": "Midlands","NL_NAME_1": "NA","GID_2": "ZWE.10.1_2","county": "Chirumhanzu","NL_NAME_2": "NA","city": "Ward10","VARNAME_3": "NA","NL_NAME_3": "NA","TYPE_3": "Ward","ENGTYPE_3": "Ward","CC_3": "NA","HASC_3": "NA","name": "Ward10.city","area_km2": 26.01753,"hist_schema_id": "Elevation0-9000","hist_area_km2": {"1075": 0.09975,"1100": 5.04771,"1125": 12.33036,"1150": 8.32021,"1175": 0.19954,"1200": 0.01995}}}