{"type":"Feature","properties":{"GID_3":"ZWE.7.2.15_2","GID_0":"ZWE","country":"Zimbabwe","GID_1":"ZWE.7_1","province":"Masvingo","NL_NAME_1":"NA","GID_2":"ZWE.7.2_2","county":"Chiredzi","NL_NAME_2":"NA","city":"Ward22","VARNAME_3":"NA","NL_NAME_3":"NA","TYPE_3":"Ward","ENGTYPE_3":"Ward","CC_3":"NA","HASC_3":"NA","name":"Ward22.city"},
"geometry":{"type": "MultiPolygon","coordinates": [[[[31.681,-22.0682,456.0549],[31.6816,-22.0697,455.5742],[31.7455,-22.0039,487.2104],[31.7578,-21.9939,483.2856],[31.8673,-21.8807,383.101],[31.8657,-21.8805,385.0516],[31.9039,-21.8397,346.625],[32.1427,-21.5929,353.4502],[32.1596,-21.5734,381.7582],[32.3998,-21.3276,193.8589],[32.4151,-21.3157,159.5915],[32.4265,-21.3115,157.3519],[32.4481,-21.3081,161.6993],[32.4463,-21.3066,166.6313],[32.4359,-21.3048,164.859],[32.4278,-21.2982,176.3092],[32.4175,-21.2933,160.5528],[32.4069,-21.2829,164.7479],[32.4025,-21.2745,164.3206],[32.3924,-21.2625,167.203],[32.3765,-21.2547,167.2559],[32.3624,-21.2524,172.0822],[32.3544,-21.2483,183.4361],[32.3379,-21.2461,212.0637],[32.3294,-21.239,199.4883],[32.322,-21.2291,242.382],[32.3132,-21.2231,238.3585],[32.3047,-21.2102,239.4368],[32.3059,-21.2022,307.7687],[32.2955,-21.1939,288.3995],[32.2901,-21.1867,268.8005],[32.2862,-21.1617,294.016],[32.2731,-21.1105,355.6743],[32.2705,-21.1042,342.6063],[32.2647,-21.099,334.6653],[32.2526,-21.0968,343.4404],[32.2265,-21.1066,380.3592],[32.2256,-21.1194,421.3459],[32.1945,-21.1338,500.502],[32.1475,-21.1484,495.7267],[32.1215,-21.1368,384.9872],[32.0814,-21.0239,410.5389],[32.0342,-20.9044,405.8828],[32.0164,-20.9101,424.9954],[31.9779,-20.952,469.0355],[32.0276,-21.0136,399.9245],[31.9809,-21.0426,372.9549],[31.9267,-21.1774,337.3035],[31.8977,-21.2188,334.5512],[31.8717,-21.2449,303.3959],[31.8818,-21.2534,293.565],[31.8942,-21.2586,300.9558],[31.9026,-21.2658,299.6569],[31.91,-21.276,290.393],[31.9113,-21.2907,288.7911],[31.9056,-21.2931,294.4615],[31.898,-21.3041,300.6213],[31.8928,-21.3048,302.129],[31.8884,-21.3078,304.536],[31.8893,-21.3111,303.4209],[31.8828,-21.3131,306.4488],[31.8808,-21.3198,309.8393],[31.8762,-21.3245,311.0654],[31.8735,-21.3301,313.4656],[31.8716,-21.3294,314.3932],[31.8697,-21.3329,314.3777],[31.863,-21.3349,318.5304],[31.863,-21.3419,319.9285],[31.8603,-21.3464,321.3456],[31.8538,-21.3523,323.6052],[31.8454,-21.3646,329.5802],[31.8403,-21.3769,334.6108],[31.8346,-21.3815,337.8743],[31.8294,-21.3883,342.3027],[31.8288,-21.3924,343.709],[31.8223,-21.399,349.3495],[31.8189,-21.4117,357.923],[31.814,-21.424,365.0633],[31.811,-21.4267,368.7867],[31.8079,-21.4373,373.8058],[31.7997,-21.4442,380.0331],[31.7857,-21.4519,392.5225],[31.779,-21.4603,401.2383],[31.7606,-21.4761,424.9553],[31.756,-21.4777,430.5117],[31.7494,-21.4855,441.5644],[31.7479,-21.4877,442.9832],[31.7492,-21.4988,454.1063],[31.7479,-21.5162,476.3327],[31.7147,-21.5243,494.972],[31.7061,-21.5249,493.9083],[31.6926,-21.5297,482.5679],[31.6614,-21.5361,472.0458],[31.6333,-21.544,489.5515],[31.575,-21.5557,495.8742],[31.5269,-21.5687,502.5123],[31.4949,-21.5739,498.642],[31.4929,-21.579,502.8224],[31.4889,-21.604,500.7105],[31.4914,-21.6141,509.5329],[31.5008,-21.636,506.8834],[31.4999,-21.6386,507.2954],[31.5386,-21.7267,461.9371],[31.5453,-21.7374,447.7119],[31.4948,-21.7425,471.7755],[31.4864,-21.7389,478.1067],[31.4799,-21.7385,466.1074],[31.4137,-21.7431,423.3877],[31.3983,-21.7352,416.8879],[31.3927,-21.7345,413.4078],[31.3585,-21.7442,427.4277],[31.3214,-21.7436,371.1903],[31.3264,-21.7476,369.7881],[31.328,-21.7584,363.4538],[31.3469,-21.775,351.3918],[31.353,-21.7866,387.1125],[31.3544,-21.8158,357.6566],[31.3291,-21.8176,381.2371],[31.3681,-21.9747,334.8705],[31.3815,-21.9989,334.4929],[31.385,-21.9976,343.5823],[31.3814,-22.0011,331.1891],[31.3978,-22.0384,287.6546],[31.3996,-22.0513,262.1698],[31.4471,-22.0434,257.4716],[31.4268,-22.145,242.4329],[31.4483,-22.2177,249.3587],[31.4599,-22.2032,266.9708],[31.5003,-22.1618,295.7847],[31.5323,-22.1161,293.6377],[31.6486,-21.9958,434.0451],[31.6615,-22.02,447.3712],[31.681,-22.0682,456.0549]]]]}}