{"type": "Feature","bbox": [32.1681,-17.3586,32.2427,-17.2242],"geometry": {"type": "MultiPolygon","coordinates": [[[[32.2258,-17.3388,1054.0208],[32.2278,-17.3237,1053.2656],[32.2316,-17.321,1060.855],[32.2341,-17.3152,1038.6069],[32.2358,-17.3026,1055.6602],[32.2427,-17.2944,1024.9871],[32.2391,-17.2936,1018.9744],[32.2327,-17.2873,997.4932],[32.2299,-17.2737,947.9151],[32.2225,-17.27,946.873],[32.2136,-17.2725,915.1425],[32.2136,-17.2556,906.2255],[32.2102,-17.2506,885.6667],[32.2117,-17.2428,888.487],[32.2015,-17.2242,851.1939],[32.1906,-17.2292,860.3445],[32.1914,-17.2328,844.3202],[32.1895,-17.238,859.8262],[32.1871,-17.2386,868.6509],[32.1852,-17.2472,875.889],[32.1833,-17.2484,882.6816],[32.1841,-17.2574,889.226],[32.1771,-17.2742,923.0217],[32.1775,-17.2812,925.4373],[32.1745,-17.2849,946.2101],[32.1737,-17.2901,951.3057],[32.1705,-17.2955,961.5016],[32.1681,-17.307,1028.4669],[32.1703,-17.3104,1040.8456],[32.175,-17.3131,1063.545],[32.1764,-17.3213,1079.8962],[32.1867,-17.333,1190.426],[32.1952,-17.346,1137.199],[32.2002,-17.3471,1145.7533],[32.2028,-17.3582,1111.8965],[32.2057,-17.3586,1114.7139],[32.2077,-17.3506,1092.5406],[32.2128,-17.3459,1102.7856],[32.2258,-17.3388,1054.0208]]]]}
,"properties": {"GID_3": "ZWE.5.8.26_2","GID_0": "ZWE","country": "Zimbabwe","GID_1": "ZWE.5_1","province": "MashonalandEast","NL_NAME_1": "NA","GID_2": "ZWE.5.8_2","county": "Mutoko","NL_NAME_2": "NA","city": "Ward6","VARNAME_3": "NA","NL_NAME_3": "NA","TYPE_3": "Ward","ENGTYPE_3": "Ward","CC_3": "NA","HASC_3": "NA","name": "Ward6.city","area_km2": 61.31798,"hist_schema_id": "Elevation0-9000","hist_area_km2": {"825": 0.14176,"850": 1.07328,"875": 1.72121,"900": 4.06989,"925": 5.9727,"950": 7.9361,"975": 4.53487,"1000": 3.74517,"1025": 3.64383,"1050": 3.50203,"1075": 3.42095,"1100": 2.93495,"1125": 3.13737,"1150": 3.01584,"1175": 4.00757,"1200": 3.23843,"1225": 2.57052,"1250": 1.21444,"1275": 0.95131,"1300": 0.38457,"1325": 0.1012}}}