{"type": "Feature","bbox": [31.0084,-17.064,31.129,-16.9658],"geometry": {"type": "MultiPolygon","coordinates": [[[[31.0084,-17.047,1393.641],[31.0164,-17.0463,1330.6694],[31.0238,-17.0428,1360.5815],[31.0287,-17.0442,1319.3495],[31.0376,-17.043,1292.6594],[31.0365,-17.0477,1293.594],[31.0385,-17.0492,1296.6428],[31.0393,-17.0536,1358.4248],[31.0478,-17.0594,1382.636],[31.0558,-17.06,1276.9171],[31.0605,-17.064,1336.309],[31.0753,-17.0603,1244.3898],[31.0726,-17.0508,1267.7522],[31.0781,-17.0482,1260.4697],[31.082,-17.0393,1265.606],[31.0864,-17.0356,1257.3456],[31.0876,-17.0311,1265.121],[31.1034,-17.0347,1239.3644],[31.114,-17.0313,1229.4944],[31.11,-17.0233,1247.6145],[31.1126,-17.017,1245.0938],[31.1121,-17.0116,1214.926],[31.1177,-17.0072,1205.7449],[31.1195,-17.0016,1199.7983],[31.1236,-16.9989,1183.3291],[31.1271,-16.9926,1172.9288],[31.1277,-16.975,1151.1748],[31.1256,-16.9716,1156.4946],[31.129,-16.9658,1157.0464],[31.1105,-16.9738,1154.5806],[31.1026,-16.9751,1164.5964],[31.094,-16.9814,1162.1495],[31.0899,-16.9815,1177.5321],[31.0868,-16.985,1170.6017],[31.0777,-16.9887,1183.7998],[31.0744,-16.9873,1233.6976],[31.0711,-16.9904,1175.2678],[31.0689,-16.9893,1188.2256],[31.0504,-16.9916,1214.9735],[31.0435,-16.996,1210.8916],[31.038,-16.9927,1228.5049],[31.0308,-16.9915,1223.8613],[31.0098,-17.0389,1425.2794],[31.0084,-17.047,1393.641]]]]}
,"properties": {"GID_3": "ZWE.4.5.31_2","GID_0": "ZWE","country": "Zimbabwe","GID_1": "ZWE.4_1","province": "MashonalandCentral","NL_NAME_1": "NA","GID_2": "ZWE.4.5_2","county": "Mazowe","NL_NAME_2": "NA","city": "Ward6","VARNAME_3": "NA","NL_NAME_3": "NA","TYPE_3": "Ward","ENGTYPE_3": "Ward","CC_3": "NA","HASC_3": "NA","name": "Ward6.city","area_km2": 71.72944,"hist_schema_id": "Elevation0-9000","hist_area_km2": {"1125": 0.04056,"1150": 2.33201,"1175": 5.33291,"1200": 7.88751,"1225": 8.35349,"1250": 15.34702,"1275": 17.55589,"1300": 6.18316,"1325": 3.38557,"1350": 1.31771,"1375": 0.99334,"1400": 1.43933,"1425": 1.01361,"1450": 0.46625,"1475": 0.04054,"1500": 0.04054}}}