{"type":"Feature","properties":{"GID_3":"ZWE.10.1.18_2","GID_0":"ZWE","country":"Zimbabwe","GID_1":"ZWE.10_1","province":"Midlands","NL_NAME_1":"NA","GID_2":"ZWE.10.1_2","county":"Chirumhanzu","NL_NAME_2":"NA","city":"Ward25","VARNAME_3":"NA","NL_NAME_3":"NA","TYPE_3":"Ward","ENGTYPE_3":"Ward","CC_3":"NA","HASC_3":"NA","name":"Ward25.city"},
"geometry":{"type": "MultiPolygon","coordinates": [[[[30.6005,-19.7434,1155.4495],[30.6169,-19.7435,1155.7571],[30.6259,-19.746,1147.1217],[30.6259,-19.7422,1148.0808],[30.6236,-19.7433,1150.4854],[30.6216,-19.7413,1154.0305],[30.6243,-19.7353,1158.5181],[30.622,-19.7333,1161.1335],[30.6221,-19.7289,1168.3835],[30.6174,-19.7269,1164.3398],[30.6195,-19.7242,1170.6395],[30.6187,-19.7223,1167.7499],[30.6207,-19.7206,1173.2007],[30.6211,-19.7168,1175.9431],[30.6234,-19.7143,1182.0577],[30.6248,-19.7028,1190.3608],[30.6322,-19.6938,1203.067],[30.6354,-19.6922,1219.7134],[30.6453,-19.6755,1256.9744],[30.6491,-19.6717,1271.0035],[30.6597,-19.6663,1240.4993],[30.6769,-19.652,1233.0538],[30.6719,-19.6414,1222.7085],[30.666,-19.6336,1238.457],[30.6512,-19.629,1241.5311],[30.6362,-19.6358,1270.5977],[30.6312,-19.64,1274.6775],[30.6241,-19.6412,1308.3636],[30.6188,-19.646,1288.8188],[30.6137,-19.6446,1288.2677],[30.6093,-19.6497,1290.0945],[30.5974,-19.6444,1353.0466],[30.5744,-19.6553,1219.7616],[30.568,-19.6563,1206.6965],[30.5518,-19.6343,1249.781],[30.5485,-19.6335,1234.886],[30.5487,-19.6348,1233.7267],[30.5419,-19.6399,1254.944],[30.5367,-19.6404,1261.2087],[30.5358,-19.6455,1197.9067],[30.5323,-19.6466,1191.5266],[30.5226,-19.656,1174.1451],[30.5244,-19.6575,1180.207],[30.521,-19.6635,1160.3296],[30.5221,-19.6663,1159.5476],[30.5173,-19.6772,1139.0715],[30.5264,-19.6703,1170.52],[30.5342,-19.6745,1200.5862],[30.5549,-19.6778,1173.5879],[30.5613,-19.6844,1155.9431],[30.5816,-19.6881,1202.4121],[30.5906,-19.6875,1212.8948],[30.5985,-19.6832,1269.1321],[30.6026,-19.6841,1248.2173],[30.6053,-19.6793,1250.2906],[30.6091,-19.6757,1264.6128],[30.6113,-19.6756,1265.8835],[30.6127,-19.6782,1261.1731],[30.6128,-19.6866,1228.8635],[30.6123,-19.6951,1207.0317],[30.6097,-19.6968,1210.3412],[30.6093,-19.7119,1188.0844],[30.606,-19.716,1184.3135],[30.6051,-19.7231,1176.1045],[30.6022,-19.7253,1166.7126],[30.6019,-19.7344,1155.8113],[30.5917,-19.7428,1140.7119],[30.6005,-19.7434,1155.4495]]]]}}