{"type": "Feature","bbox": [29.7348,-17.8594,29.9886,-17.6416],"geometry": {"type": "MultiPolygon","coordinates": [[[[29.897,-17.6467,999.922],[29.8807,-17.6501,986.0193],[29.8781,-17.6428,981.6801],[29.8762,-17.6416,986.4079],[29.8762,-17.6503,981.4019],[29.8723,-17.654,1059.8289],[29.8762,-17.6564,990.4507],[29.8759,-17.6582,982.1937],[29.8665,-17.6609,976.6006],[29.8627,-17.66,976.4998],[29.8618,-17.6558,990.0439],[29.865,-17.6521,1040.8662],[29.8617,-17.6511,993.9026],[29.8562,-17.6599,967.9642],[29.8546,-17.6594,959.3443],[29.8539,-17.6535,954.8019],[29.8509,-17.6552,954.1097],[29.8458,-17.6548,965.8849],[29.84,-17.6597,952.8704],[29.8391,-17.6631,946.845],[29.8441,-17.6698,970.4109],[29.8666,-17.6795,1059.0833],[29.8759,-17.6808,1015.8206],[29.8692,-17.6857,1060.1223],[29.8625,-17.6939,1053.5017],[29.8563,-17.697,1068.6592],[29.8497,-17.705,1043.5928],[29.8479,-17.7152,1035.3486],[29.8412,-17.72,1015.6805],[29.8384,-17.7252,1035.6677],[29.8311,-17.732,998.1935],[29.8241,-17.7321,985.6987],[29.8205,-17.7345,982.3899],[29.8191,-17.7325,995.8189],[29.8166,-17.7351,972.8168],[29.8135,-17.7352,968.449],[29.8131,-17.7336,972.5413],[29.8107,-17.7333,967.2083],[29.8109,-17.731,970.2262],[29.8052,-17.7282,956.6627],[29.7961,-17.7271,969.9298],[29.7945,-17.7304,956.5078],[29.7921,-17.7314,961.8553],[29.7919,-17.7336,953.6337],[29.7883,-17.7341,967.8467],[29.7823,-17.7382,950.7135],[29.7883,-17.7419,956.1465],[29.7904,-17.7453,954.7064],[29.7905,-17.7498,955.4948],[29.7885,-17.7501,963.0961],[29.7883,-17.7517,962.5657],[29.7925,-17.7577,972.5099],[29.7957,-17.757,975.3846],[29.7945,-17.7612,971.9938],[29.7965,-17.7631,971.4101],[29.8031,-17.7646,979.5733],[29.7846,-17.7709,996.728],[29.7681,-17.7731,980.7641],[29.7617,-17.7723,936.8486],[29.7472,-17.7861,963.7007],[29.7348,-17.8012,885.6569],[29.7384,-17.8107,893.6075],[29.7387,-17.8279,893.5354],[29.7519,-17.8382,898.2573],[29.7561,-17.8338,905.3187],[29.7626,-17.8183,919.308],[29.7666,-17.8149,1014.9877],[29.7758,-17.8186,936.0891],[29.7821,-17.8186,978.3544],[29.7875,-17.8155,1016.3172],[29.7907,-17.8173,925.2657],[29.7856,-17.8283,907.9356],[29.7852,-17.8329,901.4459],[29.7872,-17.8369,912.8799],[29.7912,-17.8401,908.7219],[29.785,-17.8545,913.8],[29.7879,-17.8586,913.735],[29.7944,-17.8594,939.4248],[29.8129,-17.8549,929.2549],[29.8203,-17.8454,937.1177],[29.8294,-17.8404,1009.6918],[29.8322,-17.8409,1029.9526],[29.8332,-17.8491,921.535],[29.8362,-17.8524,928.8241],[29.8459,-17.8525,1068.2867],[29.8633,-17.8492,1136.5271],[29.878,-17.825,1153.6373],[29.8841,-17.8184,1181.42],[29.888,-17.8154,1134.7024],[29.8998,-17.8111,1122.1562],[29.9194,-17.796,1152.7495],[29.9278,-17.7929,1139.9402],[29.9374,-17.7758,1118.9866],[29.9442,-17.7676,1231.6083],[29.9484,-17.7655,1171.9822],[29.9471,-17.754,1258.6309],[29.9518,-17.7415,1259.7727],[29.951,-17.7307,1242.3462],[29.9545,-17.7263,1289.9297],[29.9563,-17.7115,1276.1625],[29.9624,-17.7048,1257.3562],[29.9809,-17.6679,1197.5557],[29.9886,-17.6557,1096.2764],[29.9862,-17.6533,1105.2386],[29.9835,-17.6537,1158.1016],[29.9776,-17.6664,1068.3406],[29.9744,-17.6686,1067.9492],[29.9726,-17.6643,1118.1185],[29.9678,-17.6614,1105.5365],[29.9701,-17.6574,1089.6035],[29.9697,-17.6546,1118.5488],[29.9648,-17.6539,1099.1235],[29.9607,-17.6478,1159.3815],[29.9563,-17.6461,1169.9907],[29.9429,-17.6472,1095.8979],[29.9395,-17.651,1054.3513],[29.937,-17.6573,1044.6575],[29.9314,-17.6618,1025.7717],[29.9296,-17.6611,1024.36],[29.9263,-17.6503,1043.1774],[29.9092,-17.6513,1007.6467],[29.908,-17.6499,1020.7146],[29.9091,-17.6445,1042.4257],[29.9054,-17.6454,1017.8301],[29.9053,-17.6477,1002.8475],[29.897,-17.6467,999.922]]]]}
,"properties": {"GID_3": "ZWE.6.9.6_2","GID_0": "ZWE","country": "Zimbabwe","GID_1": "ZWE.6_1","province": "MashonalandWest","NL_NAME_1": "NA","GID_2": "ZWE.6.9_2","county": "Makonde","NL_NAME_2": "NA","city": "Ward14","VARNAME_3": "NA","NL_NAME_3": "NA","TYPE_3": "Ward","ENGTYPE_3": "Ward","CC_3": "NA","HASC_3": "NA","name": "Ward14.city","area_km2": 316.9628,"hist_schema_id": "Elevation0-9000","hist_area_km2": {"875": 0.1817,"900": 3.0883,"925": 7.6098,"950": 16.0899,"975": 24.7936,"1000": 27.2599,"1025": 29.8055,"1050": 38.0044,"1075": 34.7933,"1100": 31.5817,"1125": 28.896,"1150": 28.1899,"1175": 19.8101,"1200": 12.4395,"1225": 6.7651,"1250": 4.7256,"1275": 2.4034,"1300": 0.5049,"1325": 0.0202}}}