{"type":"Feature","properties":{"GID_3":"ZWE.10.3.25_2","GID_0":"ZWE","country":"Zimbabwe","GID_1":"ZWE.10_1","province":"Midlands","NL_NAME_1":"NA","GID_2":"ZWE.10.3_2","county":"GokweSouth","NL_NAME_2":"NA","city":"Ward31","VARNAME_3":"NA","NL_NAME_3":"NA","TYPE_3":"Ward","ENGTYPE_3":"Ward","CC_3":"NA","HASC_3":"NA","name":"Ward31.city"},
"geometry":{"type": "MultiPolygon","coordinates": [[[[28.5346,-18.0621,1155.7657],[28.5323,-18.0614,1106.4362],[28.5321,-18.0633,1123.0619],[28.5302,-18.0638,1114.1816],[28.5278,-18.061,1068.1174],[28.5247,-18.0625,1197.2817],[28.5251,-18.0585,1193.3417],[28.529,-18.0549,1076.8604],[28.5289,-18.0523,1024.9656],[28.5245,-18.0536,1070.9301],[28.5211,-18.052,1038.5927],[28.518,-18.0549,1099.0369],[28.5194,-18.0589,1193.6877],[28.5174,-18.0671,1204.5251],[28.5148,-18.0679,1093.4801],[28.5128,-18.0713,1159.8726],[28.517,-18.075,1194.95],[28.5133,-18.0778,1128.6852],[28.5106,-18.0778,1135.67],[28.4963,-18.0775,1148.7654],[28.4864,-18.0719,1192.3584],[28.4858,-18.0698,1206.7332],[28.4909,-18.0577,1081.8478],[28.4896,-18.0499,1062.0315],[28.4858,-18.0528,1069.5812],[28.4795,-18.0534,1069.9589],[28.482,-18.0578,1150.4713],[28.481,-18.0599,1136.4768],[28.484,-18.0635,1178.5173],[28.4801,-18.0639,1071.1034],[28.4811,-18.0657,1130.615],[28.4794,-18.0653,1122.928],[28.4796,-18.0685,1111.7617],[28.4777,-18.0687,1104.7532],[28.4772,-18.0721,1185.4485],[28.47,-18.0685,1184.2397],[28.4669,-18.072,1127.1174],[28.4635,-18.067,1070.8956],[28.4598,-18.0679,1095.4303],[28.4601,-18.0641,1091.9642],[28.4582,-18.0628,1157.1714],[28.4591,-18.0591,1119.5659],[28.4579,-18.058,1119.5659],[28.4543,-18.0622,1104.1101],[28.4501,-18.0603,1086.9042],[28.4491,-18.0657,1176.8512],[28.4437,-18.064,1159.2271],[28.4455,-18.0509,1080.1665],[28.4438,-18.0512,1077.592],[28.4422,-18.0558,1139.4661],[28.4363,-18.0588,1115.4434],[28.4289,-18.0571,1082.3489],[28.4239,-18.054,1067.5654],[28.4227,-18.0568,1172.9753],[28.4177,-18.0592,1095.191],[28.4153,-18.0578,1079.8805],[28.4095,-18.0579,1042.9487],[28.4073,-18.0602,1089.0747],[28.4037,-18.0609,1063.6553],[28.4037,-18.0634,1178.9818],[28.4076,-18.0647,1188.0167],[28.4111,-18.0637,1198.9448],[28.4114,-18.0663,1191.7239],[28.4149,-18.066,1202.3448],[28.4157,-18.0697,1197.1123],[28.4229,-18.0669,1206.9323],[28.4196,-18.072,1120.009],[28.4202,-18.0755,1175.6296],[28.4211,-18.0763,1170.7714],[28.4227,-18.0736,1195.218],[28.4246,-18.0738,1195.218],[28.4243,-18.0797,1141.5427],[28.429,-18.0793,1202.5681],[28.4279,-18.0822,1173.483],[28.4235,-18.0848,1098.3052],[28.4253,-18.0871,1168.1581],[28.4217,-18.0904,1125.6616],[28.4253,-18.0938,1184.0641],[28.4305,-18.0916,1174.0972],[28.431,-18.0894,1190.4471],[28.4337,-18.0894,1170.3329],[28.4346,-18.0829,1203.7289],[28.4364,-18.085,1191.8942],[28.4415,-18.0862,1196.354],[28.4437,-18.0857,1193.1687],[28.4452,-18.0832,1198.4889],[28.4524,-18.0894,1193.7115],[28.4554,-18.0893,1196.9382],[28.4552,-18.0969,1118.694],[28.4508,-18.0996,1084.6792],[28.4454,-18.0999,1056.3044],[28.4362,-18.1055,1047.7419],[28.4332,-18.1096,1020.3788],[28.429,-18.1108,1027.4265],[28.4262,-18.1171,1013.4063],[28.4199,-18.1235,1015.4737],[28.4203,-18.1249,1011.954],[28.4143,-18.1303,1000.417],[28.4097,-18.1295,1002.0316],[28.404,-18.1311,996.3313],[28.4017,-18.1341,960.0629],[28.4024,-18.1373,962.4309],[28.409,-18.1429,989.3466],[28.4135,-18.1588,1019.5723],[28.4189,-18.1622,1032.2634],[28.4248,-18.1727,1058.9436],[28.433,-18.1816,1094.9607],[28.4341,-18.192,1106.2859],[28.4371,-18.1978,1132.6445],[28.4491,-18.1964,1141.3583],[28.4702,-18.1996,1195.4303],[28.4762,-18.2045,1197.6808],[28.5164,-18.2029,1199.6488],[28.5166,-18.1201,1153.8181],[28.5261,-18.0968,1224.6837],[28.5346,-18.0621,1155.7657]]]]}}