{"type":"Feature","properties":{"GID_3":"ZWE.8.7.20_2","GID_0":"ZWE","country":"Zimbabwe","GID_1":"ZWE.8_1","province":"MatabelelandNorth","NL_NAME_1":"NA","GID_2":"ZWE.8.7_2","county":"Tsholotsho","NL_NAME_2":"NA","city":"Ward7","VARNAME_3":"NA","NL_NAME_3":"NA","TYPE_3":"Ward","ENGTYPE_3":"Ward","CC_3":"NA","HASC_3":"NA","name":"Ward7.city"},
"geometry":{"type": "MultiPolygon","coordinates": [[[[26.698,-19.8875,959.0144],[26.703,-19.8901,956.0336],[26.7334,-19.8833,959.5823],[26.7499,-19.8614,963.334],[26.7573,-19.8579,964.3716],[26.7815,-19.8555,968.2062],[26.7886,-19.8501,969.7269],[26.7997,-19.8463,971.494],[26.8057,-19.8416,976.6906],[26.8159,-19.8373,976.0358],[26.8402,-19.8317,979.7063],[26.8525,-19.8261,976.965],[26.8611,-19.82,979.8635],[26.8841,-19.8194,981.3467],[26.8962,-19.8156,983.2285],[26.8997,-19.8165,987.7869],[26.9044,-19.8132,985.9894],[26.9148,-19.813,992.453],[26.9238,-19.8108,987.2565],[26.9471,-19.8139,989.4219],[26.9532,-19.8102,990.5963],[26.9651,-19.8081,992.8596],[26.9761,-19.8082,993.5963],[26.9816,-19.8141,998.0289],[26.992,-19.8174,998.2343],[26.9966,-19.8174,1000.364],[27.0018,-19.8146,998.1655],[27.0236,-19.8108,1000.4582],[27.0375,-19.8111,1001.6589],[27.0469,-19.8085,1002.7374],[27.0647,-19.8143,1009.9888],[27.0753,-19.8083,1006.9938],[27.0946,-19.8048,1013.5098],[27.1081,-19.8054,1012.5304],[27.1244,-19.7978,1013.4244],[27.1447,-19.7926,1016.2302],[27.1542,-19.7876,1019.1829],[27.169,-19.7877,1021.0967],[27.1746,-19.7856,1021.1387],[27.1794,-19.7816,1022.6462],[27.1963,-19.748,1021.6027],[27.1949,-19.7249,1018.7741],[27.1905,-19.7074,1020.3555],[27.1939,-19.698,1017.7888],[27.2006,-19.6885,1015.9896],[27.2071,-19.6687,1015.2045],[27.205,-19.6596,1012.7616],[27.1874,-19.6345,1008.2624],[27.1847,-19.6252,1007.7402],[27.1768,-19.6206,1006.7539],[27.1684,-19.6068,1003.2749],[27.1632,-19.5936,1003.058],[27.1545,-19.5896,1000.7513],[27.1572,-19.5849,1004.0099],[27.1536,-19.581,1000.3751],[27.1542,-19.5639,997.9913],[27.1446,-19.5711,1001.6234],[27.1369,-19.5819,1003.7505],[27.1231,-19.5795,1002.5813],[27.0997,-19.5837,999.2378],[27.0913,-19.5879,998.2478],[27.0885,-19.5812,996.8604],[27.0876,-19.5736,996.747],[27.0887,-19.5674,995.743],[27.0749,-19.5566,993.2795],[27.0661,-19.5466,992.0627],[27.0035,-19.5462,983.3015],[26.9996,-19.5441,983.0388],[26.9926,-19.5494,980.0011],[26.985,-19.5494,978.4786],[26.9689,-19.546,975.9304],[26.97,-19.5318,975.2191],[26.9642,-19.5272,973.5933],[26.956,-19.5263,975.8151],[26.9552,-19.5242,972.5585],[26.9573,-19.5208,974.5142],[26.9573,-19.5173,972.6165],[26.9537,-19.5111,975.2245],[26.9485,-19.5086,971.9342],[26.9344,-19.5103,972.856],[26.9256,-19.5142,971.9189],[26.9077,-19.526,970.3965],[26.9019,-19.5249,970.9573],[26.8929,-19.5183,967.7942],[26.8821,-19.5139,963.8027],[26.857,-19.4995,962.53],[26.8484,-19.4973,959.6004],[26.8482,-19.5034,961.4393],[26.8235,-19.5688,960.2917],[26.8235,-19.5719,961.049],[26.8087,-19.6061,963.9071],[26.8062,-19.6248,962.325],[26.7856,-19.6715,963.3408],[26.7781,-19.6988,962.7371],[26.7583,-19.7525,962.3109],[26.7435,-19.7665,959.6077],[26.7443,-19.7696,960.6833],[26.7187,-19.8567,958.4022],[26.698,-19.8875,959.0144]]]]}}