{"type":"Feature","properties":{"GID_3":"ZWE.1.1.4_2","GID_0":"ZWE","country":"Zimbabwe","GID_1":"ZWE.1_1","province":"Bulawayo","NL_NAME_1":"NA","GID_2":"ZWE.1.1_2","county":"Bulawayo","NL_NAME_2":"NA","city":"Ward12","VARNAME_3":"NA","NL_NAME_3":"NA","TYPE_3":"Ward","ENGTYPE_3":"Ward","CC_3":"NA","HASC_3":"NA","name":"Ward12.city"},
"geometry":{"type": "MultiPolygon","coordinates": [[[[28.5307,-20.1257,1354.322],[28.5254,-20.1222,1356.3032],[28.5164,-20.1467,1391.0955],[28.5225,-20.1456,1380.4775],[28.529,-20.1392,1374.9128],[28.5365,-20.1401,1362.0205],[28.5415,-20.1354,1363.8871],[28.5422,-20.134,1370.9515],[28.5307,-20.1257,1354.322]]]]}}