{"type": "Feature","bbox": [30.4213,-20.3148,30.5851,-20.2078],"geometry": {"type": "MultiPolygon","coordinates": [[[[30.4761,-20.3148,916.6251],[30.4869,-20.3003,929.8063],[30.4946,-20.2944,940.2353],[30.501,-20.2903,927.3391],[30.5041,-20.2946,930.3391],[30.5109,-20.2891,919.9208],[30.5265,-20.2737,908.1445],[30.5293,-20.2665,897.2023],[30.5352,-20.2619,898.5417],[30.5419,-20.2616,888.8545],[30.5452,-20.2535,891.6779],[30.5519,-20.2557,878.5259],[30.556,-20.2537,878.2177],[30.5602,-20.2578,880.156],[30.563,-20.2581,871.5237],[30.5645,-20.2556,873.0842],[30.5621,-20.2528,867.4542],[30.5635,-20.2494,871.103],[30.5851,-20.237,857.9402],[30.5669,-20.2222,864.8102],[30.5571,-20.2192,868.1375],[30.5449,-20.2196,872.7634],[30.5431,-20.2131,873.4524],[30.539,-20.2084,874.7137],[30.5273,-20.215,878.1638],[30.5232,-20.2154,879.8339],[30.5135,-20.2148,881.1133],[30.509,-20.2091,889.165],[30.505,-20.2078,894.4811],[30.5009,-20.2141,888.8384],[30.4965,-20.2148,894.8668],[30.4899,-20.2215,899.9998],[30.4771,-20.2231,914.6641],[30.4714,-20.2262,927.2739],[30.4705,-20.229,923.5259],[30.4602,-20.2369,941.8584],[30.4388,-20.242,931.6851],[30.4279,-20.2557,918.2958],[30.4256,-20.2627,916.3448],[30.4213,-20.2656,912.2313],[30.4219,-20.2725,908.3945],[30.4269,-20.2778,894.2452],[30.4372,-20.2801,897.4232],[30.4434,-20.2835,889.0608],[30.4654,-20.3044,912.3717],[30.4708,-20.3075,921.5497],[30.4761,-20.3148,916.6251]]]]}
,"properties": {"GID_3": "ZWE.7.4.3_2","GID_0": "ZWE","country": "Zimbabwe","GID_1": "ZWE.7_1","province": "Masvingo","NL_NAME_1": "NA","GID_2": "ZWE.7.4_2","county": "Chivi","NL_NAME_2": "NA","city": "Ward11","VARNAME_3": "NA","NL_NAME_3": "NA","TYPE_3": "Ward","ENGTYPE_3": "Ward","CC_3": "NA","HASC_3": "NA","name": "Ward11.city","area_km2": 98.32186,"hist_schema_id": "Elevation0-9000","hist_area_km2": {"850": 1.41248,"875": 11.75751,"900": 37.87324,"925": 40.91368,"950": 6.36494}}}