{"type": "Feature","bbox": [28.1204,-20.3619,28.5131,-19.9938],"geometry": {"type": "MultiPolygon","coordinates": [[[[28.4087,-20.0182,1247.7324],[28.4072,-20.0164,1242.4363],[28.3719,-20.034,1218.8535],[28.3926,-20.0756,1249.0059],[28.3383,-20.1045,1322.0698],[28.3179,-20.0668,1267.6523],[28.31,-19.9996,1257.5245],[28.2639,-20.007,1254.1621],[28.2801,-20.0622,1315.7078],[28.2108,-20.0773,1242.0442],[28.1332,-19.9938,1209.9059],[28.1204,-20.063,1187.4822],[28.1279,-20.0685,1190.9922],[28.1313,-20.0744,1196.8759],[28.1347,-20.0862,1186.5142],[28.1372,-20.0861,1189.8062],[28.141,-20.1006,1197.4731],[28.1493,-20.1117,1195.2124],[28.1546,-20.1104,1204.0132],[28.1613,-20.1149,1211.6593],[28.1662,-20.1133,1218.6672],[28.1799,-20.1185,1222.8337],[28.1857,-20.1188,1222.7913],[28.1911,-20.1225,1223.785],[28.1923,-20.1308,1226.5533],[28.1901,-20.1399,1228.1569],[28.1992,-20.1457,1230.4343],[28.2147,-20.1761,1242.5792],[28.2214,-20.1826,1245.6436],[28.2224,-20.1876,1245.2418],[28.2353,-20.194,1253.938],[28.2371,-20.2045,1249.2317],[28.2497,-20.2146,1250.6146],[28.251,-20.2264,1253.7959],[28.271,-20.2371,1270.7642],[28.2742,-20.24,1264.4932],[28.2742,-20.2457,1267.3943],[28.2762,-20.2477,1271.808],[28.2907,-20.254,1277.752],[28.3029,-20.2718,1284.3353],[28.3066,-20.2824,1302.0074],[28.3144,-20.2726,1318.6725],[28.3316,-20.3546,1370.573],[28.3434,-20.3619,1379.1235],[28.3661,-20.3149,1363.7363],[28.3804,-20.2945,1405.688],[28.3896,-20.2897,1399.8181],[28.4131,-20.2953,1359.5303],[28.4297,-20.2931,1371.3346],[28.4384,-20.282,1361.5344],[28.4588,-20.2654,1342.9353],[28.4617,-20.2597,1348.6577],[28.4811,-20.2367,1359.7682],[28.4966,-20.2355,1369.6887],[28.5131,-20.2009,1339.6206],[28.4999,-20.1893,1339.6389],[28.4927,-20.1902,1329.6143],[28.4882,-20.1888,1327.4373],[28.4833,-20.1914,1324.7614],[28.481,-20.1908,1322.4192],[28.4914,-20.1707,1380.8931],[28.4315,-20.1577,1297.0],[28.4309,-20.1599,1297.0],[28.4325,-20.1614,1297.5121],[28.4378,-20.1625,1302.5455],[28.4369,-20.1671,1301.8812],[28.4401,-20.1704,1303.8213],[28.4425,-20.1777,1304.7701],[28.3978,-20.1702,1320.3542],[28.3874,-20.1539,1324.9474],[28.4281,-20.1536,1302.3295],[28.4154,-20.1325,1272.6268],[28.3967,-20.1346,1293.6189],[28.4041,-20.1187,1257.0261],[28.4151,-20.1185,1297.9678],[28.4087,-20.0182,1247.7324]]]]}
,"properties": {"GID_3": "ZWE.8.8.8_2","GID_0": "ZWE","country": "Zimbabwe","GID_1": "ZWE.8_1","province": "MatabelelandNorth","NL_NAME_1": "NA","GID_2": "ZWE.8.8_2","county": "Umguza","NL_NAME_2": "NA","city": "Ward16","VARNAME_3": "NA","NL_NAME_3": "NA","TYPE_3": "Ward","ENGTYPE_3": "Ward","CC_3": "NA","HASC_3": "NA","name": "Ward16.city","area_km2": 682.4459,"hist_schema_id": "Elevation0-9000","hist_area_km2": {"1175": 0.1792,"1200": 18.1029,"1225": 56.122,"1250": 72.9967,"1275": 89.659,"1300": 97.7098,"1325": 152.0417,"1350": 137.7333,"1375": 55.4751,"1400": 2.3864,"1425": 0.0398}}}