{"type":"Feature","properties":{"GID_3":"ZWE.4.6.16_2","GID_0":"ZWE","country":"Zimbabwe","GID_1":"ZWE.4_1","province":"MashonalandCentral","NL_NAME_1":"NA","GID_2":"ZWE.4.6_2","county":"Mbire","NL_NAME_2":"NA","city":"Ward8","VARNAME_3":"NA","NL_NAME_3":"NA","TYPE_3":"Ward","ENGTYPE_3":"Ward","CC_3":"NA","HASC_3":"NA","name":"Ward8.city"},
"geometry":{"type": "MultiPolygon","coordinates": [[[[30.6593,-16.3966,1020.4265],[30.6586,-16.3798,558.3118],[30.6566,-16.373,481.2082],[30.6576,-16.3611,457.1238],[30.6541,-16.3562,450.162],[30.6555,-16.3516,448.2498],[30.6525,-16.347,443.0341],[30.6537,-16.3425,440.2347],[30.6509,-16.3366,437.2804],[30.652,-16.3344,434.2493],[30.6556,-16.3346,441.3381],[30.6543,-16.3244,431.7327],[30.6582,-16.3244,428.1572],[30.6655,-16.3162,422.9106],[30.6626,-16.3137,423.3552],[30.6654,-16.3063,421.2956],[30.6631,-16.3041,421.7082],[30.6616,-16.2979,418.1245],[30.6578,-16.2937,418.1195],[30.6604,-16.2918,415.4724],[30.6622,-16.2874,413.7227],[30.661,-16.2828,414.6581],[30.6566,-16.2794,412.6849],[30.6526,-16.2835,413.7382],[30.6531,-16.2794,410.1266],[30.6515,-16.2761,411.1645],[30.6469,-16.2753,409.6566],[30.6486,-16.2712,409.5047],[30.6469,-16.2706,408.4022],[30.6451,-16.2723,406.9597],[30.6454,-16.2691,408.4587],[30.6437,-16.2678,407.9857],[30.642,-16.267,407.7987],[30.6414,-16.2695,407.3471],[30.6387,-16.2663,406.3947],[30.6361,-16.2674,405.1375],[30.6359,-16.2615,405.1377],[30.6326,-16.2635,410.1583],[30.6324,-16.2605,404.8142],[30.6312,-16.2604,404.8142],[30.6294,-16.2635,404.7721],[30.6291,-16.2591,405.0859],[30.6274,-16.2586,406.102],[30.6271,-16.2565,403.03],[30.6221,-16.2547,403.225],[30.6187,-16.2487,400.9413],[30.6226,-16.2424,399.1989],[30.6202,-16.2353,398.8123],[30.6212,-16.2321,400.3459],[30.6171,-16.2322,397.0629],[30.6188,-16.2302,399.4374],[30.6144,-16.2291,397.688],[30.6121,-16.2252,396.8346],[30.6078,-16.2269,394.4393],[30.5997,-16.2271,394.4428],[30.5859,-16.2252,388.7901],[30.5713,-16.2179,385.2717],[30.557,-16.2073,384.0904],[30.5531,-16.2079,380.8406],[30.5525,-16.21,379.3553],[30.5623,-16.2135,382.68],[30.5613,-16.2276,389.1214],[30.5592,-16.2291,381.8332],[30.5586,-16.237,385.8442],[30.5565,-16.2399,387.4651],[30.5535,-16.2389,385.1413],[30.5499,-16.2413,392.784],[30.5477,-16.2487,387.3208],[30.5451,-16.2487,383.3176],[30.5437,-16.2437,383.8239],[30.5385,-16.2491,390.9101],[30.5358,-16.255,393.0034],[30.5414,-16.2596,385.4054],[30.5383,-16.2645,392.5566],[30.5301,-16.2669,389.0609],[30.5325,-16.2753,390.5504],[30.5314,-16.2788,390.8067],[30.5273,-16.2797,394.5484],[30.5242,-16.2831,394.771],[30.5242,-16.2866,392.6825],[30.5272,-16.2921,398.1701],[30.5266,-16.2966,411.3919],[30.5199,-16.2999,403.3454],[30.5163,-16.2999,400.8777],[30.5173,-16.3044,401.3589],[30.5121,-16.3083,398.3624],[30.5104,-16.3211,400.5995],[30.5139,-16.3301,403.2169],[30.5137,-16.3405,416.2421],[30.5168,-16.3435,458.925],[30.5121,-16.3494,445.8265],[30.5131,-16.3514,548.5859],[30.5162,-16.3514,555.9327],[30.5182,-16.3495,454.3699],[30.5223,-16.3525,488.7078],[30.5202,-16.3606,553.0269],[30.5367,-16.3637,783.7916],[30.5483,-16.3694,619.9797],[30.5696,-16.3699,723.5776],[30.5823,-16.3726,807.9285],[30.594,-16.3783,775.0494],[30.6167,-16.3761,712.1644],[30.6232,-16.3773,697.2748],[30.6272,-16.3862,886.6149],[30.6399,-16.3911,1082.5554],[30.6469,-16.4005,1130.55],[30.6593,-16.3966,1020.4265]]]]}}