{"type":"Feature","properties":{"GID_3":"ZWE.8.5.26_2","GID_0":"ZWE","country":"Zimbabwe","GID_1":"ZWE.8_1","province":"MatabelelandNorth","NL_NAME_1":"NA","GID_2":"ZWE.8.5_2","county":"Lupane","NL_NAME_2":"NA","city":"Ward7","VARNAME_3":"NA","NL_NAME_3":"NA","TYPE_3":"Ward","ENGTYPE_3":"Ward","CC_3":"NA","HASC_3":"NA","name":"Ward7.city"},
"geometry":{"type": "MultiPolygon","coordinates": [[[[28.2037,-18.6253,1150.5935],[28.2234,-18.6225,1155.6329],[28.2376,-18.6188,1151.0204],[28.2698,-18.618,1152.7362],[28.28,-18.621,1156.735],[28.298,-18.6217,1171.9597],[28.2896,-18.5666,1082.5471],[28.2867,-18.5645,1091.7175],[28.2811,-18.564,1085.8057],[28.2714,-18.5657,1084.8715],[28.259,-18.5608,1089.5906],[28.2582,-18.5625,1084.8979],[28.2472,-18.5656,1080.4932],[28.2445,-18.5646,1080.9939],[28.2429,-18.5673,1076.0469],[28.236,-18.5641,1076.7156],[28.2287,-18.5659,1075.1503],[28.2266,-18.564,1085.2134],[28.2218,-18.5658,1072.3276],[28.2171,-18.5645,1074.0546],[28.2129,-18.5599,1071.6694],[28.2098,-18.5598,1067.0833],[28.207,-18.5572,1079.062],[28.2025,-18.5573,1081.3563],[28.1975,-18.5598,1067.6582],[28.1889,-18.5574,1071.701],[28.1865,-18.5543,1082.3264],[28.1796,-18.5522,1077.3252],[28.1736,-18.5533,1064.2957],[28.1637,-18.5517,1063.5173],[28.1527,-18.5581,1064.0911],[28.1485,-18.5545,1062.7505],[28.147,-18.5586,1066.6346],[28.1474,-18.5699,1088.7928],[28.1511,-18.5791,1101.3418],[28.1596,-18.5951,1143.8121],[28.1682,-18.604,1148.5081],[28.1821,-18.6249,1155.3997],[28.2037,-18.6253,1150.5935]]]]}}