{"type": "Feature","bbox": [31.0843,-18.358,31.1808,-18.2638],"geometry": {"type": "MultiPolygon","coordinates": [[[[31.1651,-18.2698,1428.1777],[31.1456,-18.2673,1419.4973],[31.1412,-18.2644,1417.5399],[31.1345,-18.2638,1412.5073],[31.1141,-18.2689,1399.0972],[31.1058,-18.2688,1391.2573],[31.0921,-18.2739,1378.1879],[31.0872,-18.274,1375.124],[31.0883,-18.2781,1382.3843],[31.0864,-18.3095,1375.5205],[31.0881,-18.3359,1374.1033],[31.0843,-18.3461,1351.6837],[31.0923,-18.3511,1349.0032],[31.097,-18.358,1355.8197],[31.1039,-18.3574,1363.396],[31.1067,-18.3556,1368.7859],[31.1101,-18.357,1362.184],[31.1127,-18.3536,1373.693],[31.1224,-18.3575,1377.7672],[31.1266,-18.3576,1381.7007],[31.1499,-18.3497,1410.9485],[31.1562,-18.35,1417.5386],[31.1808,-18.3412,1445.8496],[31.1804,-18.3261,1454.4419],[31.1735,-18.3216,1440.7571],[31.1727,-18.3071,1443.8054],[31.1684,-18.2997,1444.3182],[31.17,-18.2942,1449.7402],[31.1651,-18.2698,1428.1777]]]]}
,"properties": {"GID_3": "ZWE.5.4.4_2","GID_0": "ZWE","country": "Zimbabwe","GID_1": "ZWE.5_1","province": "MashonalandEast","NL_NAME_1": "NA","GID_2": "ZWE.5.4_2","county": "Marondera","NL_NAME_2": "NA","city": "Ward12","VARNAME_3": "NA","NL_NAME_3": "NA","TYPE_3": "Ward","ENGTYPE_3": "Ward","CC_3": "NA","HASC_3": "NA","name": "Ward12.city","area_km2": 84.74118,"hist_schema_id": "Elevation0-9000","hist_area_km2": {"1350": 1.50934,"1375": 15.03493,"1400": 26.79148,"1425": 30.35514,"1450": 11.05029}}}