{"type":"Feature","properties":{"GID_3":"ZWE.4.10.6_2","GID_0":"ZWE","country":"Zimbabwe","GID_1":"ZWE.4_1","province":"MashonalandCentral","NL_NAME_1":"NA","GID_2":"ZWE.4.10_2","county":"Shamva","NL_NAME_2":"NA","city":"Ward14","VARNAME_3":"NA","NL_NAME_3":"NA","TYPE_3":"Ward","ENGTYPE_3":"Ward","CC_3":"NA","HASC_3":"NA","name":"Ward14.city"},
"geometry":{"type": "MultiPolygon","coordinates": [[[[31.5931,-16.9087,1149.2561],[31.564,-16.9789,1118.2554],[31.5599,-17.0232,1162.163],[31.594,-17.0414,1027.152],[31.6072,-17.0096,1154.7565],[31.6499,-17.0151,1117.4351],[31.6694,-17.0256,999.8433],[31.671,-17.0241,1010.9138],[31.6716,-17.0251,1002.5965],[31.6792,-17.012,968.4028],[31.679,-16.9486,905.4191],[31.6389,-16.9449,1005.1393],[31.6427,-16.9121,912.7549],[31.62,-16.9229,943.3167],[31.5931,-16.9087,1149.2561]]]]}}