{"type":"Feature","properties":{"GID_3":"ZWE.7.5.12_2","GID_0":"ZWE","country":"Zimbabwe","GID_1":"ZWE.7_1","province":"Masvingo","NL_NAME_1":"NA","GID_2":"ZWE.7.5_2","county":"Gutu","NL_NAME_2":"NA","city":"Ward2","VARNAME_3":"NA","NL_NAME_3":"NA","TYPE_3":"Ward","ENGTYPE_3":"Ward","CC_3":"NA","HASC_3":"NA","name":"Ward2.city"},
"geometry":{"type": "MultiPolygon","coordinates": [[[[31.1885,-19.2338,1227.1112],[31.1365,-19.2396,1280.8948],[31.1347,-19.2914,1302.3511],[31.1411,-19.2947,1301.3784],[31.1463,-19.2951,1298.5603],[31.1459,-19.2964,1298.9843],[31.1519,-19.2965,1311.7412],[31.1531,-19.3041,1293.84],[31.1604,-19.308,1286.9814],[31.1791,-19.3037,1268.7955],[31.1859,-19.2994,1264.0107],[31.2132,-19.3003,1257.8798],[31.2347,-19.291,1238.9263],[31.242,-19.2929,1246.3888],[31.2533,-19.2905,1232.7323],[31.2587,-19.2912,1240.6586],[31.2605,-19.2738,1208.1611],[31.2502,-19.2673,1202.7484],[31.2414,-19.2586,1203.1479],[31.2306,-19.2548,1199.5697],[31.2182,-19.245,1212.2582],[31.2093,-19.2444,1214.6565],[31.2036,-19.2398,1206.9026],[31.194,-19.241,1217.3225],[31.1885,-19.2338,1227.1112]]]]}}