{"type": "Feature","bbox": [30.7124,-21.2422,30.7499,-21.2224],"geometry": {"type": "MultiPolygon","coordinates": [[[[30.7199,-21.2249,568.4937],[30.7126,-21.225,555.848],[30.7124,-21.2379,553.5374],[30.7496,-21.2422,543.9152],[30.7499,-21.2224,543.819],[30.7199,-21.2249,568.4937]]]]}
,"properties": {"GID_3": "ZWE.7.8.10_2","GID_0": "ZWE","country": "Zimbabwe","GID_1": "ZWE.7_1","province": "Masvingo","NL_NAME_1": "NA","GID_2": "ZWE.7.8_2","county": "Mwenezi","NL_NAME_2": "NA","city": "Ward18","VARNAME_3": "NA","NL_NAME_3": "NA","TYPE_3": "Ward","ENGTYPE_3": "Ward","CC_3": "NA","HASC_3": "NA","name": "Ward18.city","area_km2": 6.917064,"hist_schema_id": "Elevation0-9000","hist_area_km2": {"550": 5.316222,"575": 1.600842}}}