{"type": "Feature","bbox": [30.9952,-20.3968,31.1222,-20.2831],"geometry": {"type": "MultiPolygon","coordinates": [[[[31.0084,-20.3535,838.4303],[31.0126,-20.357,849.0544],[31.019,-20.3672,815.2687],[31.0332,-20.3791,864.3863],[31.0354,-20.3787,898.6619],[31.06,-20.3639,867.1367],[31.0609,-20.3663,867.802],[31.064,-20.3672,844.309],[31.0713,-20.3647,905.1095],[31.0733,-20.3602,956.9787],[31.076,-20.3603,923.2465],[31.0783,-20.3631,858.8041],[31.0784,-20.3684,838.6397],[31.0766,-20.3854,746.7285],[31.0828,-20.3952,724.1542],[31.088,-20.3968,720.8236],[31.0955,-20.3924,711.3894],[31.1061,-20.3912,714.7445],[31.1117,-20.3928,683.9997],[31.1147,-20.3896,679.6394],[31.1222,-20.3879,688.5189],[31.1188,-20.3858,683.941],[31.1214,-20.3824,680.4652],[31.1202,-20.3768,681.7549],[31.1167,-20.3734,686.3914],[31.1116,-20.3597,744.9308],[31.1054,-20.3516,747.9843],[31.1044,-20.3441,782.6597],[31.1002,-20.3391,812.4724],[31.1029,-20.3328,840.2495],[31.0976,-20.3274,852.7946],[31.101,-20.3233,840.837],[31.1005,-20.3184,849.9148],[31.1026,-20.3153,844.2189],[31.0979,-20.3104,869.2818],[31.1062,-20.2988,897.563],[31.0973,-20.2838,936.7772],[31.0938,-20.2831,921.2084],[31.0895,-20.2848,926.7574],[31.0817,-20.2921,989.0581],[31.0743,-20.2848,1002.894],[31.0428,-20.2876,943.277],[31.0431,-20.2961,950.9536],[31.0476,-20.3025,940.4357],[31.0486,-20.3081,925.5625],[31.025,-20.3157,876.4113],[31.0183,-20.3148,867.8221],[31.0053,-20.3221,862.6345],[31.0015,-20.322,870.2057],[30.9969,-20.3267,862.9792],[30.9952,-20.3341,865.9274],[30.9973,-20.3385,868.0127],[31.001,-20.3409,871.9122],[31.0096,-20.340699999999998,872.6543],[31.0141,-20.3433,858.0746],[31.0084,-20.3535,838.4303]]]]}
,"properties": {"GID_3": "ZWE.7.6.7_2","GID_0": "ZWE","country": "Zimbabwe","GID_1": "ZWE.7_1","province": "Masvingo","NL_NAME_1": "NA","GID_2": "ZWE.7.6_2","county": "Masvingo","NL_NAME_2": "NA","city": "Ward15","VARNAME_3": "NA","NL_NAME_3": "NA","TYPE_3": "Ward","ENGTYPE_3": "Ward","CC_3": "NA","HASC_3": "NA","name": "Ward15.city","area_km2": 92.14561,"hist_schema_id": "Elevation0-9000","hist_area_km2": {"675": 0.45712,"700": 1.31172,"725": 1.3912,"750": 2.02728,"775": 2.22608,"800": 2.20627,"825": 2.78276,"850": 7.2955,"875": 15.52657,"900": 16.42164,"925": 13.20096,"950": 11.01434,"975": 6.32233,"1000": 5.58726,"1025": 2.74401,"1050": 0.77549,"1075": 0.2585,"1100": 0.29829,"1125": 0.15909,"1150": 0.09943,"1175": 0.03977}}}