{"type":"Feature","properties":{"GID_3":"ZWE.5.4.6_2","GID_0":"ZWE","country":"Zimbabwe","GID_1":"ZWE.5_1","province":"MashonalandEast","NL_NAME_1":"NA","GID_2":"ZWE.5.4_2","county":"Marondera","NL_NAME_2":"NA","city":"Ward14","VARNAME_3":"NA","NL_NAME_3":"NA","TYPE_3":"Ward","ENGTYPE_3":"Ward","CC_3":"NA","HASC_3":"NA","name":"Ward14.city"},
"geometry":{"type": "MultiPolygon","coordinates": [[[[31.0881,-18.2592,1374.67],[31.0941,-18.2562,1377.9939],[31.0962,-18.2498,1382.0399],[31.107,-18.2461,1394.7937],[31.1158,-18.2358,1404.5111],[31.1309,-18.2246,1413.5818],[31.1443,-18.2226,1425.9362],[31.1521,-18.2148,1434.2495],[31.159,-18.212,1436.1608],[31.1662,-18.212,1441.4243],[31.1711,-18.2047,1452.495],[31.1811,-18.1952,1466.3701],[31.1955,-18.188,1447.9001],[31.1966,-18.1831,1449.6401],[31.1874,-18.1829,1453.098],[31.1682,-18.1748,1434.1309],[31.1637,-18.1693,1426.9319],[31.1628,-18.1592,1418.8287],[31.1554,-18.1502,1425.4971],[31.0896,-18.1589,1393.7175],[31.0946,-18.1804,1400.0962],[31.0837,-18.2034,1402.1702],[31.0747,-18.2318,1393.2871],[31.0676,-18.2614,1359.7618],[31.0778,-18.2573,1367.392],[31.0881,-18.2592,1374.67]]]]}}