{"type":"Feature","properties":{"GID_3":"ZWE.7.2.9_2","GID_0":"ZWE","country":"Zimbabwe","GID_1":"ZWE.7_1","province":"Masvingo","NL_NAME_1":"NA","GID_2":"ZWE.7.2_2","county":"Chiredzi","NL_NAME_2":"NA","city":"Ward17","VARNAME_3":"NA","NL_NAME_3":"NA","TYPE_3":"Ward","ENGTYPE_3":"Ward","CC_3":"NA","HASC_3":"NA","name":"Ward17.city"},
"geometry":{"type": "MultiPolygon","coordinates": [[[[31.3131,-20.9053,422.5876],[31.3855,-20.853,492.9138],[31.4932,-20.9498,491.3672],[31.5338,-20.9395,471.6006],[31.6089,-20.9243,416.7161],[31.6117,-20.9209,408.7235],[31.6154,-20.9234,404.687],[31.6187,-20.9196,402.3677],[31.6219,-20.9196,400.2371],[31.6251,-20.9168,402.0591],[31.6327,-20.9168,392.6826],[31.6351,-20.914,393.6197],[31.6424,-20.9164,379.043],[31.6347,-20.8888,389.8933],[31.634,-20.8789,395.9138],[31.6305,-20.8746,400.7169],[31.6309,-20.8634,416.5227],[31.6272,-20.8585,400.0196],[31.6288,-20.8532,399.309],[31.6384,-20.8408,408.8333],[31.6233,-20.8305,452.4851],[31.5077,-20.8555,484.4391],[31.4603,-20.7114,677.3099],[31.4581,-20.6791,559.9583],[31.4068,-20.6479,603.5432],[31.3828,-20.6444,675.2584],[31.328,-20.6634,717.4842],[31.2884,-20.6896,843.7843],[31.2495,-20.7499,486.074],[31.2497,-20.7589,468.9131],[31.2478,-20.7601,467.7068],[31.2424,-20.7734,462.1082],[31.2388,-20.7922,457.9849],[31.2427,-20.8089,453.3782],[31.2606,-20.8202,458.0386],[31.2679,-20.8269,455.4459],[31.2701,-20.8315,451.0],[31.2762,-20.8321,462.0889],[31.2808,-20.835,453.8612],[31.286,-20.8502,439.0092],[31.2914,-20.8567,450.5402],[31.307,-20.8853,437.3683],[31.3131,-20.9053,422.5876]]]]}}