{"type":"Feature","properties":{"GID_3":"ZWE.10.11.16_2","GID_0":"ZWE","country":"Zimbabwe","GID_1":"ZWE.10_1","province":"Midlands","NL_NAME_1":"NA","GID_2":"ZWE.10.11_2","county":"Shurugwi","NL_NAME_2":"NA","city":"Ward23","VARNAME_3":"NA","NL_NAME_3":"NA","TYPE_3":"Ward","ENGTYPE_3":"Ward","CC_3":"NA","HASC_3":"NA","name":"Ward23.city"},
"geometry":{"type": "MultiPolygon","coordinates": [[[[30.4597,-19.8398,1022.5723],[30.4548,-19.8354,1022.4293],[30.4562,-19.8321,1029.4448],[30.4603,-19.8319,1036.9486],[30.4676,-19.8352,1031.6326],[30.4712,-19.8322,1028.0703],[30.4705,-19.8289,1037.9124],[30.4673,-19.8255,1031.7704],[30.4705,-19.8198,1033.9523],[30.4775,-19.8153,1037.5347],[30.48,-19.8067,1038.4554],[30.4799,-19.8028,1039.9934],[30.4766,-19.7973,1040.9037],[30.4782,-19.7825,1049.0177],[30.4812,-19.7751,1046.1301],[30.4885,-19.7673,1051.6062],[30.4844,-19.7654,1049.8662],[30.478,-19.7541,1056.2419],[30.4758,-19.7543,1064.2305],[30.4791,-19.7494,1057.7554],[30.4787,-19.745,1067.2733],[30.4705,-19.7416,1074.129],[30.4664,-19.742,1071.0778],[30.4648,-19.7377,1069.3645],[30.4669,-19.7338,1076.0905],[30.4633,-19.7299,1071.1587],[30.4507,-19.741,1084.8002],[30.4277,-19.7576,1091.2834],[30.3462,-19.7547,1061.5034],[30.3418,-19.7624,1060.4175],[30.3436,-19.7672,1059.8069],[30.3394,-19.772,1054.8304],[30.3404,-19.7759,1057.845],[30.3392,-19.7783,1047.4652],[30.3451,-19.7923,1050.8386],[30.3466,-19.8022,1043.3108],[30.3451,-19.8118,1035.3186],[30.3384,-19.8188,1039.2286],[30.3403,-19.8235,1029.6787],[30.3376,-19.8325,1026.63],[30.3396,-19.8357,1029.6108],[30.3492,-19.8358,1037.7295],[30.3513,-19.8378,1041.755],[30.4047,-19.8226,1072.4568],[30.4199,-19.8406,1061.0404],[30.4181,-19.8755,1046.2971],[30.4482,-19.8694,1013.1063],[30.4575,-19.8656,1019.9572],[30.459,-19.8629,1019.2807],[30.4554,-19.8579,1018.327],[30.4559,-19.8541,1029.9736],[30.4539,-19.8499,1022.8843],[30.459,-19.8457,1022.4234],[30.4597,-19.8398,1022.5723]]]]}}