{"type": "Feature","bbox": [31.4612,-20.6705,31.6116,-20.6002],"geometry": {"type": "MultiPolygon","coordinates": [[[[31.6116,-20.6214,529.0],[31.6052,-20.6128,529.0],[31.602,-20.6002,529.0],[31.5744,-20.606,543.689],[31.5593,-20.6137,534.9706],[31.557,-20.613,535.9564],[31.5552,-20.6061,541.3898],[31.553,-20.6041,548.5145],[31.545,-20.6023,561.7922],[31.537,-20.6043,588.0045],[31.5256,-20.6106,622.882],[31.4944,-20.6228,617.6948],[31.4783,-20.6254,638.7993],[31.4629,-20.6227,600.5864],[31.4612,-20.6257,604.7089],[31.4644,-20.6359,658.4417],[31.4644,-20.6404,548.591],[31.4675,-20.6418,561.8477],[31.4706,-20.6496,531.6232],[31.4777,-20.6535,524.8402],[31.4816,-20.6576,514.3684],[31.4817,-20.663,528.6069],[31.4777,-20.6705,525.1768],[31.5149,-20.6534,557.0135],[31.6042,-20.6272,546.1198],[31.6021,-20.6255,529.0],[31.6116,-20.6214,529.0]]]]}
,"properties": {"GID_3": "ZWE.7.9.26_2","GID_0": "ZWE","country": "Zimbabwe","GID_1": "ZWE.7_1","province": "Masvingo","NL_NAME_1": "NA","GID_2": "ZWE.7.9_2","county": "Zaka","NL_NAME_2": "NA","city": "Ward32","VARNAME_3": "NA","NL_NAME_3": "NA","TYPE_3": "Ward","ENGTYPE_3": "Ward","CC_3": "NA","HASC_3": "NA","name": "Ward32.city","area_km2": 56.45229,"hist_schema_id": "Elevation0-9000","hist_area_km2": {"500": 0.13889,"525": 17.69916,"550": 17.6203,"575": 7.81806,"600": 3.909,"625": 2.95659,"650": 1.98432,"675": 1.38904,"700": 1.05172,"725": 0.77392,"750": 0.41673,"775": 0.3572,"800": 0.11907,"825": 0.11907,"850": 0.09922}}}