{"type": "Feature","bbox": [30.5141,-19.289,30.5413,-19.264],"geometry": {"type": "MultiPolygon","coordinates": [[[[30.5306,-19.2691,1364.9719],[30.522,-19.2727,1369.778],[30.5141,-19.264,1357.9534],[30.5189,-19.2833,1375.4099],[30.5275,-19.2881,1405.4907],[30.5331,-19.289,1417.8312],[30.5411,-19.279,1375.4861],[30.5413,-19.2703,1370.2312],[30.5395,-19.2728,1372.6018],[30.5369,-19.2712,1371.1543],[30.5348,-19.272,1368.521],[30.536,-19.274,1373.3379],[30.5335,-19.2753,1372.093],[30.5306,-19.2691,1364.9719]]]]}
,"properties": {"GID_3": "ZWE.10.1.5_2","GID_0": "ZWE","country": "Zimbabwe","GID_1": "ZWE.10_1","province": "Midlands","NL_NAME_1": "NA","GID_2": "ZWE.10.1_2","county": "Chirumhanzu","NL_NAME_2": "NA","city": "Ward13","VARNAME_3": "NA","NL_NAME_3": "NA","TYPE_3": "Ward","ENGTYPE_3": "Ward","CC_3": "NA","HASC_3": "NA","name": "Ward13.city","area_km2": 4.162774,"hist_schema_id": "Elevation0-9000","hist_area_km2": {"1350": 0.020015,"1375": 3.062078,"1400": 0.780497,"1425": 0.300185}}}