{"type": "Feature","bbox": [30.2211,-18.3524,30.4469,-18.1726],"geometry": {"type": "MultiPolygon","coordinates": [[[[30.3784,-18.1969,1183.6943],[30.3754,-18.1943,1196.1643],[30.3686,-18.1928,1192.8726],[30.3646,-18.1894,1177.04],[30.3601,-18.1802,1186.5911],[30.3554,-18.1757,1182.7191],[30.3508,-18.1768,1184.5887],[30.3488,-18.183,1181.1724],[30.3457,-18.1832,1182.4497],[30.3257,-18.1726,1185.5491],[30.3208,-18.1862,1182.5039],[30.3257,-18.2012,1198.6715],[30.314,-18.2062,1186.1042],[30.3057,-18.2186,1197.2788],[30.3106,-18.2238,1204.53],[30.3072,-18.227,1236.1162],[30.3066,-18.2235,1205.3673],[30.271,-18.2262,1210.2769],[30.2738,-18.2538,1220.2314],[30.2495,-18.2591,1211.0969],[30.2211,-18.268,1193.7062],[30.2359,-18.2846,1232.3079],[30.2289,-18.299,1198.6111],[30.2374,-18.3158,1201.457],[30.2545,-18.3333,1186.4423],[30.2341,-18.3421,1185.8694],[30.294,-18.3524,1212.3137],[30.2995,-18.3518,1187.9559],[30.2935,-18.3182,1213.5564],[30.3106,-18.3146,1210.9099],[30.3986,-18.3116,1231.5273],[30.3946,-18.3037,1228.3202],[30.3982,-18.2914,1221.3501],[30.3983,-18.2835,1221.0105],[30.4128,-18.2961,1241.0253],[30.4469,-18.2538,1196.9391],[30.4452,-18.2521,1199.276],[30.4464,-18.2495,1200.4122],[30.4372,-18.2426,1194.7849],[30.438,-18.2408,1197.2507],[30.4353,-18.2391,1192.8468],[30.4372,-18.2341,1202.0331],[30.4335,-18.2303,1195.6346],[30.4293,-18.2315,1190.2258],[30.4231,-18.2271,1198.2179],[30.4141,-18.2302,1190.3369],[30.4103,-18.2294,1187.4845],[30.4092,-18.226,1194.0217],[30.404,-18.2248,1192.3984],[30.3862,-18.2152,1188.8181],[30.382,-18.21,1189.9326],[30.3784,-18.1969,1183.6943]]]]}
,"properties": {"GID_3": "ZWE.6.1.22_2","GID_0": "ZWE","country": "Zimbabwe","GID_1": "ZWE.6_1","province": "MashonalandWest","NL_NAME_1": "NA","GID_2": "ZWE.6.1_2","county": "Chegutu","NL_NAME_2": "NA","city": "Ward29","VARNAME_3": "NA","NL_NAME_3": "NA","TYPE_3": "Ward","ENGTYPE_3": "Ward","CC_3": "NA","HASC_3": "NA","name": "Ward29.city","area_km2": 238.9283,"hist_schema_id": "Elevation0-9000","hist_area_km2": {"1175": 10.8122,"1200": 100.5538,"1225": 124.0999,"1250": 3.4422,"1275": 0.0201}}}