{"type":"Feature","properties":{"GID_3":"ZWE.9.4.14_2","GID_0":"ZWE","country":"Zimbabwe","GID_1":"ZWE.9_1","province":"MatabelelandSouth","NL_NAME_1":"NA","GID_2":"ZWE.9.4_2","county":"Gwanda","NL_NAME_2":"NA","city":"Ward21","VARNAME_3":"NA","NL_NAME_3":"NA","TYPE_3":"Ward","ENGTYPE_3":"Ward","CC_3":"NA","HASC_3":"NA","name":"Ward21.city"},
"geometry":{"type": "MultiPolygon","coordinates": [[[[28.9886,-20.9433,986.8875],[28.9737,-20.9396,1050.3042],[28.9501,-20.9272,1009.9007],[28.9497,-20.9198,1018.5842],[28.9922,-20.9306,966.9409],[28.9885,-20.9238,969.5401],[28.9896,-20.9158,1004.0902],[28.995,-20.9173,1008.2389],[28.9963,-20.9102,1027.4922],[29.0056,-20.9124,1009.4464],[29.0044,-20.9162,1013.488],[29.0375,-20.9251,1028.3085],[29.0653,-20.938,1028.5836],[29.0712,-20.8841,1062.8235],[29.0443,-20.7884,1032.6594],[29.0418,-20.7309,1044.7429],[29.0003,-20.7374,1070.6904],[29.0024,-20.7493,1060.842],[29.0005,-20.759,1059.183],[28.9514,-20.7599,1041.0154],[28.9399,-20.7652,1018.8791],[28.9426,-20.78,1016.0504],[28.8883,-20.8227,1026.0477],[28.8698,-20.7752,1071.2015],[28.8021,-20.8951,970.5098],[28.7937,-20.9595,1000.4672],[28.7625,-20.9945,928.1674],[28.8167,-21.0099,947.4105],[28.8324,-21.0611,896.9691],[28.8294,-21.0766,846.5362],[28.8382,-21.0987,832.1834],[28.8375,-21.1027,837.5663],[28.8411,-21.1068,880.6673],[28.8427,-21.113,849.3518],[28.861,-21.1254,1009.7744],[28.861,-21.1272,1011.6624],[28.9183,-21.1103,980.6033],[28.955,-21.0972,1088.5507],[28.9628,-21.0586,946.4127],[28.9445,-21.0517,965.2875],[28.9986,-21.0221,970.1304],[29.0214,-21.0367,975.5536],[29.037,-21.0153,993.4318],[29.007,-20.9896,993.9963],[29.0222,-20.9649,1008.4076],[29.0016,-20.9589,1084.8638],[28.9997,-20.9505,960.7173],[28.9946,-20.9507,957.9623],[28.9946,-20.9477,960.0476],[28.99,-20.9465,980.738],[28.9886,-20.9433,986.8875]]]]}}