{"type":"Feature","properties":{"GID_3":"ZWE.3.7.12_2","GID_0":"ZWE","country":"Zimbabwe","GID_1":"ZWE.3_1","province":"Manicaland","NL_NAME_1":"NA","GID_2":"ZWE.3.7_2","county":"MutareUrban","NL_NAME_2":"NA","city":"Ward2","VARNAME_3":"NA","NL_NAME_3":"NA","TYPE_3":"Ward","ENGTYPE_3":"Ward","CC_3":"NA","HASC_3":"NA","name":"Ward2.city"},
"geometry":{"type": "MultiPolygon","coordinates": [[[[32.6475,-18.9854,1061.5781],[32.646,-18.9883,1107.9346],[32.644,-18.9885,1098.9739],[32.6455,-18.9935,1080.1448],[32.6477,-18.9923,1093.229],[32.6488,-18.9942,1097.5579],[32.6511,-18.9888,1086.2944],[32.6475,-18.9854,1061.5781]]]]}}