{"type":"Feature","properties":{"GID_3":"ZWE.5.2.14_2","GID_0":"ZWE","country":"Zimbabwe","GID_1":"ZWE.5_1","province":"MashonalandEast","NL_NAME_1":"NA","GID_2":"ZWE.5.2_2","county":"Goromonzi","NL_NAME_2":"NA","city":"Ward21","VARNAME_3":"NA","NL_NAME_3":"NA","TYPE_3":"Ward","ENGTYPE_3":"Ward","CC_3":"NA","HASC_3":"NA","name":"Ward21.city"},
"geometry":{"type": "MultiPolygon","coordinates": [[[[31.3288,-18.0304,1529.3435],[31.3405,-18.0655,1565.3879],[31.3509,-18.0827,1553.5789],[31.3701,-18.0981,1589.7251],[31.3838,-18.1063,1593.0629],[31.3935,-18.1219,1586.8804],[31.4005,-18.1282,1597.6641],[31.4078,-18.132,1607.493],[31.4226,-18.1044,1564.088],[31.4427,-18.0994,1558.986],[31.479,-18.0649,1520.0785],[31.4632,-18.0432,1502.8474],[31.4815,-18.0232,1497.4656],[31.4894,-17.9985,1479.834],[31.5091,-18.0137,1432.8534],[31.5124,-18.0098,1425.6637],[31.5126,-18.0029,1438.0477],[31.5185,-18.001,1419.7347],[31.5221,-17.9955,1420.2134],[31.5277,-17.9922,1408.9783],[31.5207,-17.9882,1441.9407],[31.5031,-17.985,1450.6705],[31.4995,-17.9731,1402.9668],[31.4953,-17.9719,1411.7274],[31.493,-17.9759,1398.6215],[31.489,-17.9746,1405.365],[31.4737,-17.9772,1425.6516],[31.474,-17.9812,1405.4347],[31.4713,-17.9821,1425.6277],[31.4714,-17.9845,1418.2014],[31.4656,-17.9931,1418.6602],[31.4521,-17.9892,1469.3145],[31.4417,-18.0227,1493.5135],[31.4351,-18.018,1472.3118],[31.4293,-18.0219,1481.4701],[31.4222,-18.0196,1497.6279],[31.4139,-18.0203,1518.2268],[31.4019,-18.0143,1545.271],[31.3999,-18.0347,1560.8344],[31.3738,-18.0174,1551.4346],[31.3698,-18.0418,1538.4127],[31.3525,-18.0211,1515.3197],[31.3336,-18.0236,1512.8047],[31.3288,-18.0304,1529.3435]]]]}}