{"type":"Feature","properties":{"GID_2":"ZWE.8.1_2","GID_0":"ZWE","country":"Zimbabwe","GID_1":"ZWE.8_1","province":"MatabelelandNorth","NL_NAME_1":"NA","county":"Binga","VARNAME_2":"NA","NL_NAME_2":"NA","TYPE_2":"District","ENGTYPE_2":"District","CC_2":"NA","HASC_2":"NA","name":"Binga.county"},
"geometry":{"type": "MultiPolygon","coordinates": [[[[27.342,-18.433,979.3141],[27.3329,-18.4106,1035.5774],[27.5177,-18.3664,1001.372],[27.5401,-18.3871,1001.9316],[27.5752,-18.4267,982.4121],[27.8541,-18.3859,1063.3323],[27.8578,-18.3369,1111.9739],[27.8621,-18.3275,1094.0624],[27.877,-18.3133,1069.5782],[27.8766,-18.3023,1051.2185],[27.8799,-18.299,1052.183],[27.8885,-18.2954,1038.4752],[27.8976,-18.2863,1025.7095],[27.9023,-18.2726,1014.0103],[27.9053,-18.2707,1015.2719],[27.9071,-18.2739,1007.2534],[27.9072,-18.271,1011.6036],[27.909,-18.2722,1009.0095],[27.9129,-18.2704,1007.8132],[27.919,-18.2735,1000.164],[27.924,-18.2689,1006.7546],[27.9277,-18.2692,998.4192],[27.931,-18.2652,996.4556],[27.9382,-18.262,988.0411],[27.9441,-18.2558,1002.8599],[27.9511,-18.2543,985.0008],[27.9537,-18.2448,981.0114],[27.9577,-18.2423,987.2431],[27.9738,-18.2398,974.7303],[27.9803,-18.242,975.1771],[27.9867,-18.2369,978.7269],[27.9956,-18.2387,967.9749],[27.9975,-18.2372,967.412],[28.002,-18.2232,966.7093],[28.0273,-18.2056,931.8806],[28.0599,-18.2024,899.9952],[28.0901,-18.2068,884.7086],[28.0981,-18.2052,882.5989],[28.1068,-18.1961,879.2777],[28.1099,-18.19,889.9689],[28.1067,-18.19,932.2376],[28.1019,-18.1862,972.3267],[28.0733,-18.1818,1021.7828],[28.051,-18.1804,985.5585],[28.0541,-18.1682,992.1597],[28.0469,-18.1607,997.1407],[28.0492,-18.15,1035.3534],[28.0698,-18.1377,938.491],[28.0688,-18.1088,918.3192],[28.072,-18.1043,916.7032],[28.0687,-18.0944,894.641],[28.0678,-18.0716,879.5601],[28.0709,-18.0594,881.1494],[28.0502,-18.0527,868.4146],[28.0376,-18.0634,896.9026],[28.0304,-18.0611,907.843],[28.0256,-18.049,894.6829],[28.0176,-18.0407,878.8906],[28.0083,-18.0181,856.3679],[28.0127,-17.9995,860.1293],[28.023,-17.9832,848.8243],[28.0433,-17.9604,817.6885],[28.0499,-17.9405,839.9169],[28.0522,-17.9389,846.4115],[28.0685,-17.9366,869.1144],[28.0659,-17.9285,869.0097],[28.0687,-17.9197,862.7625],[28.0693,-17.9107,858.2776],[28.0735,-17.9038,852.7446],[28.0735,-17.8997,850.5297],[28.0796,-17.8912,843.3837],[28.0768,-17.8724,837.2389],[28.0809,-17.8692,832.0408],[28.0817,-17.863,826.0666],[28.0864,-17.8576,814.8807],[28.0862,-17.8537,810.8262],[28.0886,-17.8505,811.9691],[28.0912,-17.8383,791.8809],[28.0888,-17.8342,790.6124],[28.085,-17.8319,788.2323],[28.0808,-17.8244,774.8561],[28.0743,-17.7922,784.6484],[28.0699,-17.7895,830.3671],[28.0935,-17.758,883.0444],[28.0971,-17.7503,857.5182],[28.0962,-17.7462,924.9669],[28.0937,-17.7444,909.014],[28.0967,-17.7426,955.4124],[28.1016,-17.7336,938.2526],[28.1047,-17.732,987.364],[28.1088,-17.7326,973.1248],[28.1167,-17.7272,932.5191],[28.1292,-17.7301,852.8036],[28.1388,-17.7377,819.1509],[28.1433,-17.7374,820.1244],[28.1652,-17.7144,840.6327],[28.1717,-17.7006,847.4236],[28.1823,-17.6946,829.0479],[28.1843,-17.6855,793.1779],[28.181,-17.6794,859.8269],[28.1901,-17.6736,837.8755],[28.1914,-17.6689,848.5793],[28.1948,-17.6665,843.4404],[28.1931,-17.6628,795.9727],[28.197,-17.6577,917.4206],[28.1957,-17.6474,940.7989],[28.1979,-17.6158,808.0564],[28.2016,-17.6106,779.541],[28.2039,-17.6102,771.2034],[28.2089,-17.6026,747.4155],[28.2127,-17.5911,748.9234],[28.2167,-17.5867,760.5839],[28.2188,-17.5803,686.7585],[28.2185,-17.5763,683.7911],[28.2163,-17.5748,729.478],[28.2133,-17.5758,799.1984],[28.2072,-17.5746,925.6043],[28.2022,-17.5765,726.382],[28.2098,-17.5615,756.4573],[28.2078,-17.5578,733.8046],[28.2087,-17.5531,831.5574],[28.2046,-17.5443,841.323],[28.2094,-17.5407,790.9825],[28.2078,-17.534,710.855],[28.2087,-17.5259,654.8854],[28.2144,-17.5193,711.0123],[28.2166,-17.5122,863.5511],[28.2269,-17.504,647.6955],[28.2227,-17.4881,707.8395],[28.2277,-17.4693,621.2375],[28.2512,-17.4462,605.664],[28.2512,-17.4391,604.1327],[28.2435,-17.4251,609.8649],[28.245,-17.4222,608.5803],[28.2474,-17.4036,622.1276],[28.2504,-17.401,655.7626],[28.2484,-17.3993,657.5092],[28.2427,-17.3997,600.3094],[28.2419,-17.3949,603.3367],[28.2394,-17.392,604.4968],[28.2392,-17.3844,610.6554],[28.2424,-17.3729,585.0483],[28.2408,-17.367,584.7405],[28.2338,-17.3551,632.7209],[28.2211,-17.35,635.67],[28.2099,-17.3504,654.4973],[28.2046,-17.3422,626.4729],[28.1963,-17.3418,605.5527],[28.1933,-17.336,576.6921],[28.1979,-17.3291,597.251],[28.1896,-17.3241,584.0601],[28.182,-17.3158,644.175],[28.1798,-17.3157,629.0749],[28.1758,-17.3199,571.0454],[28.1748,-17.3238,567.7424],[28.1731,-17.3234,584.2704],[28.1718,-17.308,608.9294],[28.1635,-17.3071,568.2822],[28.1654,-17.2966,581.3114],[28.1715,-17.2893,589.9056],[28.1721,-17.2858,560.5254],[28.1721,-17.2822,633.3228],[28.1696,-17.283,562.4517],[28.168,-17.2804,609.5745],[28.1645,-17.279,581.7123],[28.166,-17.2737,573.4503],[28.172,-17.2727,565.8413],[28.1706,-17.2677,630.3015],[28.1656,-17.2653,622.4149],[28.153,-17.2659,564.2849],[28.15,-17.2623,621.647],[28.1454,-17.2626,594.9727],[28.1421,-17.2608,565.6112],[28.1422,-17.2527,614.5248],[28.1472,-17.2496,600.263],[28.1496,-17.2504,610.0469],[28.1475,-17.2549,573.2401],[28.1508,-17.2579,584.823],[28.1541,-17.2579,572.3433],[28.1566,-17.2544,630.3732],[28.1601,-17.2564,579.0465],[28.1647,-17.2544,600.1326],[28.1641,-17.2496,563.4091],[28.1437,-17.2425,542.6713],[28.1436,-17.2404,566.132],[28.15,-17.2341,638.5414],[28.1505,-17.2318,655.562],[28.1384,-17.2283,535.9651],[28.136,-17.2214,550.0432],[28.1376,-17.2181,580.4281],[28.1525,-17.2182,524.5336],[28.156,-17.2129,519.6329],[28.1539,-17.2019,534.7755],[28.1458,-17.2046,521.4441],[28.138,-17.1997,516.0823],[28.1355,-17.1953,517.6418],[28.1362,-17.1835,498.7914],[28.131,-17.1676,499.8356],[28.1402,-17.1604,494.2378],[28.1434,-17.1547,494.837],[28.1447,-17.1485,495.2368],[28.143,-17.1453,499.2588],[28.1347,-17.1398,503.2479],[28.118,-17.1364,508.4818],[28.1082,-17.139,500.5828],[28.0991,-17.1475,493.6196],[28.0951,-17.1479,487.5961],[28.0918,-17.145,485.2983],[28.0905,-17.1364,485.8663],[28.0874,-17.1341,485.2515],[28.0879,-17.1308,489.51],[28.0926,-17.1264,485.7462],[28.0929,-17.124,506.7353],[28.0709,-17.101,483.5],[28.0673,-17.0988,483.5],[28.0627,-17.0991,490.4143],[28.0457,-17.1114,483.5],[28.0319,-17.1013,483.5],[28.0325,-17.0975,483.5],[28.0477,-17.090699999999998,488.6334],[28.0523,-17.0844,487.0641],[28.0527,-17.0613,487.3823],[28.0468,-17.0494,483.5],[28.0469,-17.0453,483.5],[28.0639,-17.0318,483.5],[28.0677,-17.0263,483.5],[28.0653,-17.0229,483.5],[28.0476,-17.023,483.5],[28.0326,-17.0193,483.5],[28.0401,-17.0079,483.5],[28.0316,-17.0008,483.5],[28.0212,-16.9848,483.5],[28.0204,-16.9805,483.5],[28.024,-16.9694,483.5],[28.0271,-16.9656,483.5],[28.033,-16.9489,483.5],[28.0331,-16.9387,483.5],[28.0309,-16.9365,483.5],[28.0288,-16.9259,483.5],[28.0298,-16.8962,483.5],[28.026,-16.89,483.5],[27.9271,-16.9234,483.5],[27.8376,-16.9634,483.5],[27.6298,-17.2476,483.5],[27.6203,-17.3344,483.5],[27.602,-17.3532,487.3804],[27.597,-17.3622,483.5],[27.5847,-17.3766,483.5],[27.5617,-17.4017,483.5],[27.5415,-17.4201,483.5],[27.4256,-17.5097,483.5],[27.4141,-17.5219,483.5],[27.3982,-17.5354,483.5],[27.3541,-17.5668,483.5],[27.3315,-17.5879,483.5],[27.3035,-17.6198,483.5],[27.1317,-17.8019,483.5],[27.1461,-17.8415,483.5],[27.1126,-17.8714,483.5],[27.0799,-17.897,483.5],[27.0633,-17.9186,483.5],[27.0347,-17.9622,483.5],[27.0054,-17.9536,518.9875],[26.9984,-17.9562,575.0449],[26.9883,-17.963,607.3636],[26.9769,-17.9654,570.5618],[26.9544,-17.9654,634.3114],[26.9473,-17.9721,483.5],[26.9403,-17.9735,483.5],[26.9298,-17.9729,567.9158],[26.9236,-17.9748,536.2179],[26.9274,-17.9816,501.3788],[26.924,-17.9873,514.309],[26.9236,-17.9927,485.8282],[26.921,-17.9952,533.7073],[26.9124,-17.9961,514.2567],[26.9065,-18.0007,488.9768],[26.8817,-18.0091,515.9441],[26.882,-18.0123,507.2735],[26.8865,-18.0191,587.049],[26.8866,-18.0311,523.2791],[26.8913,-18.0354,526.4701],[26.8841,-18.0403,579.2594],[26.8881,-18.0458,659.0483],[26.8872,-18.0569,532.4971],[26.8902,-18.0628,621.4637],[26.8901,-18.07,505.6201],[26.8873,-18.0739,517.842],[26.871,-18.0826,564.1306],[26.8668,-18.0881,522.0549],[26.8676,-18.0983,513.8256],[26.8636,-18.1057,513.4794],[26.8643,-18.1201,512.1661],[26.8624,-18.1264,513.4924],[26.8522,-18.1429,592.0237],[26.8531,-18.1463,522.4501],[26.8643,-18.1501,602.5314],[26.869,-18.1605,576.1531],[26.9711,-18.1585,704.5271],[26.9722,-18.1698,700.5763],[26.9576,-18.1863,705.0508],[26.965,-18.206,726.5721],[26.9842,-18.2137,799.496],[26.9882,-18.2194,821.9397],[27.0001,-18.217,886.8334],[27.0194,-18.2187,932.343],[27.0419,-18.2152,933.8469],[27.0437,-18.2259,934.6774],[27.0528,-18.2242,938.3781],[27.0571,-18.2337,986.0912],[27.0631,-18.2314,988.9515],[27.0742,-18.2334,980.9548],[27.0841,-18.2316,1002.6685],[27.1104,-18.2356,1021.436],[27.1193,-18.2347,1011.7673],[27.1221,-18.2449,933.9035],[27.1251,-18.2483,927.0772],[27.1209,-18.2629,939.71],[27.1245,-18.275,939.821],[27.1177,-18.2849,946.3918],[27.1169,-18.2993,953.7757],[27.1215,-18.3025,962.9089],[27.1266,-18.3014,972.9973],[27.1295,-18.303,979.4287],[27.131,-18.3009,965.6113],[27.1478,-18.2996,962.183],[27.1562,-18.3229,987.2654],[27.1594,-18.3243,990.3578],[27.1666,-18.3225,985.2618],[27.1701,-18.3277,994.6675],[27.1886,-18.3343,989.1319],[27.2004,-18.3516,987.5437],[27.2092,-18.3534,985.5984],[27.2179,-18.3504,986.7391],[27.2334,-18.3499,1003.3863],[27.2413,-18.3464,1007.8962],[27.2463,-18.349,1023.0945],[27.2511,-18.346,1023.9166],[27.2691,-18.3419,948.5262],[27.2697,-18.3626,970.4871],[27.2622,-18.3755,985.533],[27.2703,-18.378,988.9445],[27.2766,-18.3824,996.1744],[27.2877,-18.3829,1013.0308],[27.2936,-18.3847,1015.1559],[27.2945,-18.392,1031.2627],[27.2921,-18.3988,1031.1265],[27.2922,-18.4091,1019.1021],[27.2969,-18.4242,999.39],[27.2962,-18.4278,992.4094],[27.2982,-18.4339,999.706],[27.2774,-18.4338,967.2922],[27.2704,-18.4376,965.3896],[27.2527,-18.4421,972.0203],[27.2391,-18.4516,971.9117],[27.2376,-18.474,943.2312],[27.2355,-18.4835,923.8591],[27.2219,-18.499,898.0225],[27.2231,-18.5011,890.3914],[27.2473,-18.4941,891.7671],[27.2588,-18.5016,891.565],[27.2605,-18.5055,892.2779],[27.2651,-18.5078,893.551],[27.2775,-18.5076,896.2766],[27.2793,-18.5011,893.244],[27.2831,-18.4988,897.7467],[27.2976,-18.4976,897.0834],[27.2966,-18.4903,900.5685],[27.2985,-18.4899,904.4228],[27.3106,-18.5005,900.1844],[27.3523,-18.4974,914.8413],[27.3892,-18.4973,917.9317],[27.4655,-18.4387,951.9542],[27.3434,-18.4367,976.9251],[27.342,-18.433,979.3141]]]]}}