{"type": "Feature","bbox": [32.3278,-19.6358,32.5068,-19.4837],"geometry": {"type": "MultiPolygon","coordinates": [[[[32.5068,-19.523,587.6821],[32.5002,-19.523,618.6517],[32.4978,-19.5207,608.6935],[32.496,-19.5216,628.8063],[32.4842,-19.5162,644.114],[32.4754,-19.5169,656.0877],[32.4731,-19.5154,656.6343],[32.4657,-19.5172,669.0991],[32.4645,-19.52,679.9886],[32.4518,-19.5206,683.2429],[32.4468,-19.5223,693.2233],[32.4363,-19.5194,705.0469],[32.4304,-19.5218,714.4416],[32.4211,-19.5195,714.2104],[32.4205,-19.5178,725.673],[32.4135,-19.5161,728.6788],[32.4124,-19.5105,750.3384],[32.4088,-19.5084,737.9371],[32.406,-19.5043,746.5395],[32.4033,-19.5042,748.2401],[32.3958,-19.4918,762.8551],[32.3951,-19.4871,770.5339],[32.3898,-19.485,807.6004],[32.377,-19.486,785.7125],[32.3739,-19.488,787.2428],[32.3388,-19.4837,849.3698],[32.3325,-19.4858,830.5861],[32.3281,-19.4907,823.2612],[32.3278,-19.4941,811.0967],[32.3318,-19.508,789.1008],[32.3318,-19.5154,779.1493],[32.3299,-19.5203,769.4717],[32.3326,-19.5244,770.0795],[32.3333,-19.5294,760.7263],[32.331,-19.5483,730.1161],[32.3322,-19.5535,719.6467],[32.3426,-19.5521,751.9653],[32.3512,-19.5534,770.9434],[32.3644,-19.5638,724.1032],[32.3722,-19.565,711.9279],[32.3737,-19.5667,709.7577],[32.3731,-19.575,697.1791],[32.3773,-19.5784,692.5347],[32.3776,-19.5809,689.4775],[32.3816,-19.5832,685.6751],[32.3831,-19.5898,681.3085],[32.386,-19.5926,698.1998],[32.3864,-19.5968,689.878],[32.3946,-19.6056,657.4116],[32.3931,-19.6125,654.2635],[32.3942,-19.619,644.8193],[32.3929,-19.6216,639.4195],[32.3958,-19.633,625.0192],[32.4033,-19.6236,656.0454],[32.4184,-19.6135,948.6915],[32.4388,-19.6237,645.5635],[32.4415,-19.6237,643.6919],[32.4504,-19.6358,597.381],[32.4574,-19.6334,580.437],[32.4647,-19.6355,557.4828],[32.4741,-19.6238,560.3151],[32.4764,-19.6072,569.916],[32.4835,-19.6002,566.059],[32.4854,-19.5914,572.3419],[32.4898,-19.5824,572.5493],[32.4918,-19.5684,582.0898],[32.4969,-19.5631,578.7893],[32.4989,-19.5522,582.5513],[32.5015,-19.5506,590.3206],[32.5068,-19.523,587.6821]]]]}
,"properties": {"GID_3": "ZWE.3.6.22_2","GID_0": "ZWE","country": "Zimbabwe","GID_1": "ZWE.3_1","province": "Manicaland","NL_NAME_1": "NA","GID_2": "ZWE.3.6_2","county": "Mutare","NL_NAME_2": "NA","city": "Ward29","VARNAME_3": "NA","NL_NAME_3": "NA","TYPE_3": "Ward","ENGTYPE_3": "Ward","CC_3": "NA","HASC_3": "NA","name": "Ward29.city","area_km2": 184.529,"hist_schema_id": "Elevation0-9000","hist_area_km2": {"550": 0.0999,"575": 4.8337,"600": 14.4222,"625": 12.4265,"650": 13.6249,"675": 17.9995,"700": 22.9945,"725": 16.8819,"750": 13.0667,"775": 17.3036,"800": 15.6263,"825": 11.87,"850": 10.8508,"875": 5.3155,"900": 2.7574,"925": 1.4786,"950": 1.3187,"975": 0.5794,"1000": 0.4995,"1025": 0.2198,"1050": 0.1199,"1075": 0.0799,"1100": 0.0599,"1125": 0.0599,"1150": 0.02,"1175": 0.02}}}