{"type":"Feature","properties":{"GID_3":"ZWE.10.1.11_2","GID_0":"ZWE","country":"Zimbabwe","GID_1":"ZWE.10_1","province":"Midlands","NL_NAME_1":"NA","GID_2":"ZWE.10.1_2","county":"Chirumhanzu","NL_NAME_2":"NA","city":"Ward19","VARNAME_3":"NA","NL_NAME_3":"NA","TYPE_3":"Ward","ENGTYPE_3":"Ward","CC_3":"NA","HASC_3":"NA","name":"Ward19.city"},
"geometry":{"type": "MultiPolygon","coordinates": [[[[30.5575,-18.8768,1328.5795],[30.544,-18.8958,1296.277],[30.5303,-18.9095,1270.6423],[30.5045,-18.9112,1264.0812],[30.4909,-18.9006,1261.6472],[30.4853,-18.8996,1261.5293],[30.4761,-18.9022,1257.9083],[30.4635,-18.8986,1255.2318],[30.4568,-18.8933,1256.9923],[30.4469,-18.892,1255.6909],[30.4397,-18.8775,1254.6624],[30.4291,-18.8705,1252.9399],[30.4209,-18.8603,1250.0183],[30.4188,-18.8596,1251.0203],[30.4151,-18.8644,1253.0544],[30.4119,-18.8649,1247.4664],[30.4115,-18.8617,1251.0198],[30.4081,-18.8581,1250.5999],[30.4048,-18.857,1249.5696],[30.4021,-18.8597,1248.045],[30.3951,-18.8555,1246.5192],[30.3931,-18.8525,1244.4105],[30.3906,-18.8406,1248.2468],[30.3877,-18.8429,1253.7466],[30.3849,-18.8488,1244.2451],[30.3769,-18.8498,1247.1176],[30.3742,-18.8517,1244.4994],[30.3826,-18.9015,1270.0383],[30.3815,-18.9564,1283.782],[30.3677,-18.9567,1299.4779],[30.3481,-18.9546,1286.8781],[30.3406,-19.0351,1279.9102],[30.3491,-19.0648,1269.7793],[30.3568,-19.0676,1268.5481],[30.3661,-19.0669,1273.8763],[30.3698,-19.0685,1272.7014],[30.3713,-19.0723,1274.3998],[30.3734,-19.073,1273.7141],[30.3877,-19.0732,1277.0022],[30.5878,-18.9469,1275.0309],[30.5657,-18.9369,1275.1555],[30.5548,-18.9293,1271.3409],[30.5549,-18.9256,1271.0773],[30.5814,-18.9056,1378.6403],[30.5575,-18.8768,1328.5795]]]]}}