{"type":"Feature","properties":{"GID_3":"ZWE.10.11.11_2","GID_0":"ZWE","country":"Zimbabwe","GID_1":"ZWE.10_1","province":"Midlands","NL_NAME_1":"NA","GID_2":"ZWE.10.11_2","county":"Shurugwi","NL_NAME_2":"NA","city":"Ward19","VARNAME_3":"NA","NL_NAME_3":"NA","TYPE_3":"Ward","ENGTYPE_3":"Ward","CC_3":"NA","HASC_3":"NA","name":"Ward19.city"},
"geometry":{"type": "MultiPolygon","coordinates": [[[[30.0249,-19.7506,1100.8704],[30.0539,-19.7504,1110.954],[30.0486,-19.7607,1098.1899],[30.0529,-19.7624,1099.149],[30.054,-19.7655,1094.1338],[30.0509,-19.774,1091.1814],[30.0458,-19.7768,1104.0735],[30.0421,-19.7886,1085.8507],[30.0415,-19.7978,1082.9774],[30.0954,-19.8139,1121.2286],[30.0887,-19.7748,1197.1531],[30.1243,-19.7655,1218.6567],[30.1283,-19.7489,1214.5613],[30.1353,-19.7067,1197.5288],[30.1499,-19.5747,1252.7815],[30.133,-19.5961,1234.22],[30.063,-19.6021,1166.7859],[30.0597,-19.6069,1164.8599],[30.0317,-19.6013,1418.5607],[30.0312,-19.6435,1378.7286],[30.0394,-19.6425,1212.7228],[30.0395,-19.6486,1179.542],[30.0316,-19.6487,1349.5647],[30.031,-19.672,1391.3721],[30.016,-19.6809,1399.1442],[30.03,-19.6836,1374.9531],[30.0344,-19.694,1311.3633],[30.0481,-19.7016,1137.3898],[30.0572,-19.6946,1123.6133],[30.0525,-19.7085,1117.9769],[30.0468,-19.7111,1121.8853],[30.0457,-19.7163,1115.9011],[30.0397,-19.7244,1112.406],[30.0353,-19.7266,1109.5479],[30.0304,-19.7431,1099.8865],[30.0249,-19.7506,1100.8704]]]]}}