{"type":"Feature","properties":{"GID_3":"ZWE.1.1.20_2","GID_0":"ZWE","country":"Zimbabwe","GID_1":"ZWE.1_1","province":"Bulawayo","NL_NAME_1":"NA","GID_2":"ZWE.1.1_2","county":"Bulawayo","NL_NAME_2":"NA","city":"Ward27","VARNAME_3":"NA","NL_NAME_3":"NA","TYPE_3":"Ward","ENGTYPE_3":"Ward","CC_3":"NA","HASC_3":"NA","name":"Ward27.city"},
"geometry":{"type": "MultiPolygon","coordinates": [[[[28.5164,-20.1467,1391.0955],[28.5077,-20.1464,1381.7668],[28.5017,-20.1428,1370.8569],[28.4991,-20.1522,1373.1558],[28.4814,-20.1507,1342.374],[28.4755,-20.1476,1350.1237],[28.4656,-20.1471,1349.0632],[28.4654,-20.1518,1347.5054],[28.4626,-20.1517,1345.8833],[28.457,-20.1571,1336.9287],[28.4568,-20.1632,1326.9014],[28.4914,-20.1707,1380.8931],[28.4906,-20.1723,1373.3411],[28.4918,-20.1721,1373.3411],[28.5005,-20.1676,1385.1949],[28.5076,-20.1664,1394.6116],[28.516,-20.1596,1391.0879],[28.5164,-20.1467,1391.0955]]]]}}