{"type": "Feature","bbox": [29.7306,-16.8259,30.0329,-16.6074],"geometry": {"type": "MultiPolygon","coordinates": [[[[29.7306,-16.7027,1314.5828],[29.7766,-16.7811,1191.3823],[29.7826,-16.7818,1169.2013],[29.7827,-16.786,1160.9712],[29.7862,-16.7886,1164.2556],[29.7982,-16.7837,1172.7308],[29.7986,-16.7811,1231.5381],[29.8069,-16.7804,1220.9219],[29.8194,-16.7747,1130.6152],[29.8229,-16.769,1121.386],[29.8353,-16.7634,1116.9551],[29.8373,-16.7572,1153.5168],[29.8438,-16.7544,1105.6486],[29.8523,-16.743,1118.5332],[29.8541,-16.7435,1106.5032],[29.853,-16.746,1093.578],[29.8568,-16.7464,1105.0551],[29.8673,-16.7407,1100.1082],[29.867,-16.7371,1082.337],[29.8592,-16.7295,1072.1345],[29.8631,-16.7277,1097.101],[29.8671,-16.73,1077.7289],[29.8733,-16.7265,1065.1853],[29.8777,-16.7265,1074.9684],[29.8935,-16.7181,1120.6637],[29.8987,-16.718,1060.5471],[29.9007,-16.7135,1105.4253],[29.9126,-16.7082,1071.3881],[29.9197,-16.749,1190.2571],[29.9213,-16.7509,1182.0126],[29.9588,-16.7552,1107.7515],[29.9499,-16.8139,1146.1315],[29.9974,-16.8151,1071.4102],[29.9957,-16.8193,1074.342],[29.9983,-16.8229,1059.8386],[30.0073,-16.8259,1042.9739],[30.0075,-16.8234,1057.0845],[30.0104,-16.8228,1074.2479],[30.011,-16.8245,1057.5574],[30.0129,-16.8233,1067.3704],[30.0153,-16.8257,1036.3215],[30.0159,-16.8238,1052.7188],[30.0182,-16.8238,1034.1167],[30.0194,-16.8183,1100.7739],[30.0237,-16.82,1006.6812],[30.0251,-16.8193,1014.2607],[30.0252,-16.8161,1070.0649],[30.0326,-16.8124,1049.2941],[30.0294,-16.8076,1001.1448],[30.0293,-16.8043,1010.4578],[30.0326,-16.7918,1011.1622],[30.0324,-16.7829,985.8766],[30.0304,-16.7768,1037.6045],[30.0329,-16.773,1007.4138],[30.028,-16.7709,989.1416],[30.0274,-16.7629,1087.42],[30.0216,-16.7636,1019.1833],[30.0209,-16.7624,967.2756],[30.0201,-16.7502,1059.7742],[30.0166,-16.7497,1025.0991],[30.0159,-16.7464,1073.2673],[30.0102,-16.7432,1000.0951],[30.0141,-16.7391,958.8554],[30.0118,-16.7317,937.0127],[30.0139,-16.728,953.5068],[30.011,-16.7245,922.2601],[30.005,-16.7078,895.7482],[30.0045,-16.7051,944.763],[30.0075,-16.7004,952.508],[30.0071,-16.6987,1041.8712],[30.0033,-16.6977,979.7107],[29.9982,-16.7036,895.6879],[29.9946,-16.7045,883.2144],[29.9938,-16.6963,941.243],[29.9849,-16.6845,860.5089],[29.9862,-16.6818,847.4619],[29.9852,-16.6779,964.842],[29.9776,-16.6725,878.09],[29.973,-16.667,861.9916],[29.9766,-16.6641,846.4598],[29.9763,-16.6573,915.7515],[29.9675,-16.6496,833.6984],[29.9677,-16.6448,864.113],[29.9712,-16.6425,857.6072],[29.9762,-16.6332,864.9436],[29.9753,-16.6273,876.4852],[29.9789,-16.6262,808.0787],[29.9772,-16.6236,835.6992],[29.9792,-16.6189,830.3064],[29.9736,-16.6117,811.7646],[29.9724,-16.6074,824.1088],[29.9419,-16.6152,1050.165],[29.9436,-16.6217,1087.7592],[29.9212,-16.6201,1125.819],[29.9107,-16.6129,1125.1169],[29.8795,-16.6303,1161.4333],[29.8786,-16.6549,1137.3213],[29.8444,-16.6581,1203.4291],[29.8334,-16.6436,1123.2911],[29.8191,-16.642,1131.447],[29.8217,-16.6541,1186.0227],[29.8055,-16.6645,1187.6888],[29.8064,-16.6697,1183.498],[29.8021,-16.6668,1203.4669],[29.7995,-16.6695,1194.7991],[29.7937,-16.6707,1216.9072],[29.7894,-16.6701,1210.8713],[29.7808,-16.6729,1234.6785],[29.7764,-16.6703,1241.9314],[29.7692,-16.6734,1253.8761],[29.774,-16.6672,1238.9418],[29.768,-16.6547,1232.7726],[29.7606,-16.6699,1252.7556],[29.7306,-16.7027,1314.5828]]]]}
,"properties": {"GID_3": "ZWE.6.4.15_2","GID_0": "ZWE","country": "Zimbabwe","GID_1": "ZWE.6_1","province": "MashonalandWest","NL_NAME_1": "NA","GID_2": "ZWE.6.4_2","county": "Hurungwe","NL_NAME_2": "NA","city": "Ward22","VARNAME_3": "NA","NL_NAME_3": "NA","TYPE_3": "Ward","ENGTYPE_3": "Ward","CC_3": "NA","HASC_3": "NA","name": "Ward22.city","area_km2": 381.6228,"hist_schema_id": "Elevation0-9000","hist_area_km2": {"800": 0.1422,"825": 0.5485,"850": 1.5844,"875": 2.0515,"900": 2.9858,"925": 4.1842,"950": 5.4638,"975": 6.7633,"1000": 8.1646,"1025": 12.6528,"1050": 19.4347,"1075": 35.3542,"1100": 55.7009,"1125": 56.7946,"1150": 46.8648,"1175": 36.4284,"1200": 26.2967,"1225": 20.8956,"1250": 21.7885,"1275": 14.1527,"1300": 2.8428,"1325": 0.5279}}}