{"type":"Feature","properties":{"GID_3":"ZWE.8.9.3_2","GID_0":"ZWE","country":"Zimbabwe","GID_1":"ZWE.8_1","province":"MatabelelandNorth","NL_NAME_1":"NA","GID_2":"ZWE.8.9_2","county":"VictoriaFalls","NL_NAME_2":"NA","city":"Ward11","VARNAME_3":"NA","NL_NAME_3":"NA","TYPE_3":"Ward","ENGTYPE_3":"Ward","CC_3":"NA","HASC_3":"NA","name":"Ward11.city"},
"geometry":{"type": "MultiPolygon","coordinates": [[[[25.8223,-17.964,906.3355],[25.8186,-17.9575,941.1951],[25.8181,-17.9528,968.7079],[25.8255,-17.934,976.8016],[25.8237,-17.9327,974.8097],[25.8096,-17.9349,991.2286],[25.81,-17.9737,914.434],[25.8134,-17.9688,906.0785],[25.8223,-17.964,906.3355]]]]}}