{"type": "Feature","bbox": [31.143,-17.8928,31.1591,-17.8719],"geometry": {"type": "MultiPolygon","coordinates": [[[[31.143,-17.8831,1505.7897],[31.1551,-17.8928,1512.952],[31.1577,-17.8891,1521.3549],[31.1546,-17.8799,1534.2725],[31.1591,-17.8765,1538.1021],[31.1582,-17.8727,1542.2509],[31.1548,-17.8719,1531.1798],[31.1519,-17.8736,1526.4152],[31.143,-17.8831,1505.7897]]]]}
,"properties": {"GID_3": "ZWE.2.2.7_2","GID_0": "ZWE","country": "Zimbabwe","GID_1": "ZWE.2_1","province": "Harare","NL_NAME_1": "NA","GID_2": "ZWE.2.2_2","county": "Epworth","NL_NAME_2": "NA","city": "Ward7","VARNAME_3": "NA","NL_NAME_3": "NA","TYPE_3": "Ward","ENGTYPE_3": "Ward","CC_3": "NA","HASC_3": "NA","name": "Ward7.city","area_km2": 2.037975,"hist_schema_id": "Elevation0-9000","hist_area_km2": {"1500": 0.10089,"1525": 1.715119,"1550": 0.221966}}}