{"type":"Feature","properties":{"GID_3":"ZWE.6.9.19_2","GID_0":"ZWE","country":"Zimbabwe","GID_1":"ZWE.6_1","province":"MashonalandWest","NL_NAME_1":"NA","GID_2":"ZWE.6.9_2","county":"Makonde","NL_NAME_2":"NA","city":"Ward9","VARNAME_3":"NA","NL_NAME_3":"NA","TYPE_3":"Ward","ENGTYPE_3":"Ward","CC_3":"NA","HASC_3":"NA","name":"Ward9.city"},
"geometry":{"type": "MultiPolygon","coordinates": [[[[30.0376,-17.3568,1145.6819],[30.0291,-17.3481,1142.3167],[30.0249,-17.3479,1140.624],[30.0229,-17.3502,1140.2627],[30.0233,-17.3248,1140.0137],[30.0197,-17.318,1138.5],[30.0127,-17.3107,1138.5],[30.0069,-17.3093,1134.9254],[29.9778,-17.3167,1297.6714],[29.977,-17.3504,1284.7971],[29.9641,-17.3541,1234.506],[29.958,-17.3826,1202.4547],[29.9758,-17.3955,1263.113],[29.9738,-17.422,1246.0745],[29.9884,-17.4575,1215.7134],[29.9821,-17.4668,1187.5273],[30.0177,-17.4683,1211.1182],[30.0099,-17.4786,1223.4088],[30.0019,-17.501,1141.6626],[30.0225,-17.5019,1185.1674],[30.0152,-17.533,1145.9171],[30.1058,-17.5164,1250.7815],[30.2288,-17.5188,1175.1373],[30.2259,-17.511,1174.0],[30.2184,-17.5065,1174.0],[30.2165,-17.5037,1174.0],[30.2154,-17.4854,1174.0],[30.2111,-17.4774,1174.0],[30.2106,-17.4709,1174.0],[30.2079,-17.4673,1174.0],[30.2045,-17.4673,1174.0],[30.2009,-17.4651,1166.0887],[30.1976,-17.4522,1150.0194],[30.1973,-17.4452,1149.9216],[30.2059,-17.4435,1148.049],[30.2047,-17.4345,1147.7197],[30.2099,-17.4245,1147.2859],[30.2085,-17.4183,1143.7341],[30.1822,-17.4156,1173.3992],[30.1479,-17.4161,1223.4042],[30.1495,-17.4088,1230.4264],[30.1393,-17.3917,1193.4337],[30.1265,-17.3784,1294.3308],[30.0922,-17.3933,1232.1213],[30.0825,-17.3893,1193.6317],[30.0771,-17.4002,1210.1938],[30.08,-17.4044,1191.6835],[30.076,-17.4107,1176.5157],[30.0734,-17.4075,1174.9987],[30.0683,-17.41,1171.5095],[30.0653,-17.4046,1169.7456],[30.0617,-17.4036,1168.1946],[30.0594,-17.3989,1167.917],[30.053,-17.3965,1166.8215],[30.0482,-17.3865,1160.4458],[30.0497,-17.3809,1156.8569],[30.0396,-17.3724,1150.8953],[30.0362,-17.3613,1148.2854],[30.038,-17.3594,1148.4587],[30.0376,-17.3568,1145.6819]]]]}}