{"type": "Feature","bbox": [31.0532,-19.977,31.1507,-19.773],"geometry": {"type": "MultiPolygon","coordinates": [[[[31.1347,-19.773,1274.0513],[31.1164,-19.784,1258.3187],[31.1033,-19.7873,1250.7705],[31.101,-19.7911,1248.3445],[31.0965,-19.7915,1247.7209],[31.0786,-19.7998,1236.7281],[31.0792,-19.8144,1238.7222],[31.0743,-19.8161,1226.5433],[31.0772,-19.8382,1229.4197],[31.0667,-19.8462,1203.9092],[31.0671,-19.8564,1236.6804],[31.0645,-19.8659,1205.3372],[31.0691,-19.8728,1205.9297],[31.0743,-19.886,1193.4762],[31.076,-19.8958,1163.3134],[31.0741,-19.906,1145.4463],[31.061,-19.9092,1143.1418],[31.0532,-19.9227,1138.7251],[31.062,-19.9377,1129.4402],[31.07,-19.9433,1127.8367],[31.077,-19.96,1108.7715],[31.08,-19.9724,1118.5098],[31.0781,-19.977,1111.3013],[31.1204,-19.9739,1127.7544],[31.1227,-19.9709,1136.9247],[31.1223,-19.9665,1139.7177],[31.134,-19.9107,1199.4155],[31.1343,-19.9011,1172.2567],[31.1371,-19.8964,1205.77],[31.134,-19.8909,1166.9215],[31.1339,-19.8793,1177.8357],[31.1384,-19.8793,1179.1862],[31.1382,-19.8759,1181.3093],[31.1423,-19.8717,1203.5386],[31.1426,-19.85,1208.3013],[31.1448,-19.841,1221.2358],[31.1429,-19.8376,1224.9634],[31.1471,-19.8211,1264.1848],[31.1464,-19.8083,1252.5391],[31.1501,-19.7964,1286.4727],[31.1507,-19.7857,1294.691],[31.1359,-19.7847,1296.8599],[31.1347,-19.773,1274.0513]]]]}
,"properties": {"GID_3": "ZWE.7.5.21_2","GID_0": "ZWE","country": "Zimbabwe","GID_1": "ZWE.7_1","province": "Masvingo","NL_NAME_1": "NA","GID_2": "ZWE.7.5_2","county": "Gutu","NL_NAME_2": "NA","city": "Ward28","VARNAME_3": "NA","NL_NAME_3": "NA","TYPE_3": "Ward","ENGTYPE_3": "Ward","CC_3": "NA","HASC_3": "NA","name": "Ward28.city","area_km2": 145.2971,"hist_schema_id": "Elevation0-9000","hist_area_km2": {"1100": 0.1793,"1125": 9.3863,"1150": 18.9748,"1175": 15.6882,"1200": 23.1465,"1225": 21.5357,"1250": 26.2263,"1275": 22.3601,"1300": 7.68,"1325": 0.1197}}}