{"type":"Feature","properties":{"GID_3":"ZWE.3.1.21_2","GID_0":"ZWE","country":"Zimbabwe","GID_1":"ZWE.3_1","province":"Manicaland","NL_NAME_1":"NA","GID_2":"ZWE.3.1_2","county":"Buhera","NL_NAME_2":"NA","city":"Ward29","VARNAME_3":"NA","NL_NAME_3":"NA","TYPE_3":"Ward","ENGTYPE_3":"Ward","CC_3":"NA","HASC_3":"NA","name":"Ward29.city"},
"geometry":{"type": "MultiPolygon","coordinates": [[[[32.0569,-19.863,641.013],[32.0774,-19.8714,631.6118],[32.0829,-19.8874,618.7339],[32.086,-19.8912,629.0911],[32.09,-19.893,609.2296],[32.0931,-19.9019,594.0585],[32.0956,-19.9045,605.3428],[32.1421,-19.9015,587.2191],[32.1662,-19.9037,576.6688],[32.1901,-19.9026,586.4283],[32.1966,-19.9038,561.5341],[32.2022,-19.9094,562.213],[32.2092,-19.9304,534.8849],[32.2336,-19.9414,533.8249],[32.2454,-19.9512,521.4281],[32.2484,-19.945,534.8805],[32.2475,-19.9421,542.7218],[32.2444,-19.9405,542.3235],[32.2472,-19.9346,550.4609],[32.2552,-19.926,565.0909],[32.2654,-19.9063,576.7491],[32.2601,-19.8957,593.8325],[32.2396,-19.8728,610.3522],[32.2476,-19.8723,595.775],[32.2512,-19.8683,591.3445],[32.2578,-19.8688,582.3574],[32.269,-19.8772,569.1022],[32.2723,-19.8788,565.4046],[32.2744,-19.878,564.3519],[32.2738,-19.8736,571.1177],[32.271,-19.873,569.3849],[32.2729,-19.8619,583.3817],[32.2694,-19.8607,580.9269],[32.2645,-19.8508,598.4258],[32.2609,-19.8471,597.1813],[32.2577,-19.8468,597.1224],[32.2561,-19.8436,600.7694],[32.2577,-19.840699999999998,603.2173],[32.2555,-19.8362,609.2401],[32.2584,-19.8353,608.5464],[32.2578,-19.8324,610.7087],[32.2608,-19.8274,628.7011],[32.2574,-19.8237,621.9742],[32.2601,-19.8169,626.0004],[32.2593,-19.8134,628.2581],[32.262,-19.805,638.2543],[32.262,-19.8,642.3379],[32.2573,-19.7935,653.9523],[32.2653,-19.7882,649.0202],[32.2704,-19.7818,636.9376],[32.2738,-19.7691,622.6617],[32.2797,-19.7617,617.1923],[32.2842,-19.7513,598.4362],[32.2872,-19.7504,595.0208],[32.2896,-19.7474,595.1042],[32.29,-19.7432,585.7599],[32.2946,-19.7395,577.2085],[32.2946,-19.7348,571.6733],[32.2982,-19.732,563.3201],[32.3016,-19.7321,565.5412],[32.3004,-19.729,554.6883],[32.3025,-19.7221,558.5604],[32.2931,-19.7161,552.4613],[32.2845,-19.7039,566.6658],[32.2776,-19.7087,561.3595],[32.2639,-19.7055,584.7123],[32.2569,-19.708,594.146],[32.2475,-19.7037,602.9315],[32.2264,-19.7129,619.8048],[32.2199,-19.7215,624.8267],[32.214,-19.7222,636.5527],[32.2073,-19.7268,641.1608],[32.2033,-19.7278,645.1984],[32.1952,-19.7255,657.2842],[32.1904,-19.7288,655.3298],[32.1767,-19.7283,671.4539],[32.171,-19.7318,683.4177],[32.1606,-19.7326,717.8808],[32.1568,-19.7347,693.1105],[32.1582,-19.7398,712.4825],[32.1548,-19.7431,721.3252],[32.1521,-19.7507,732.8793],[32.1596,-19.759,708.1472],[32.1586,-19.7625,706.837],[32.1613,-19.7685,719.5142],[32.1611,-19.7737,712.6693],[32.1495,-19.7853,695.0129],[32.1492,-19.7916,689.4983],[32.1453,-19.7957,683.6091],[32.1477,-19.8071,673.6202],[32.1466,-19.8076,674.3037],[32.1467,-19.8164,659.1745],[32.1452,-19.8176,659.1745],[32.1475,-19.823,658.5345],[32.1459,-19.8246,649.0698],[32.144,-19.8233,650.0616],[32.1434,-19.8249,651.3537],[32.1412,-19.8241,653.2429],[32.1393,-19.8193,657.4729],[32.1413,-19.8193,659.3041],[32.1418,-19.8179,660.6893],[32.1385,-19.81,668.4529],[32.1358,-19.8098,670.3826],[32.1355,-19.8065,671.1516],[32.1313,-19.804,677.7073],[32.1313,-19.7998,679.745],[32.1249,-19.7966,685.3589],[32.119,-19.7879,694.8395],[32.115,-19.7875,697.1006],[32.1119,-19.7853,703.1489],[32.1055,-19.7872,707.9307],[32.0854,-19.7865,740.5418],[32.0873,-19.7922,740.1372],[32.0867,-19.8023,720.7272],[32.0825,-19.8126,709.0327],[32.0753,-19.8208,685.3021],[32.0762,-19.8325,675.1704],[32.0691,-19.8384,669.0693],[32.0691,-19.8489,663.0903],[32.0582,-19.8588,656.0707],[32.0569,-19.863,641.013]]]]}}