{"type":"Feature","properties":{"GID_3":"ZWE.7.4.11_2","GID_0":"ZWE","country":"Zimbabwe","GID_1":"ZWE.7_1","province":"Masvingo","NL_NAME_1":"NA","GID_2":"ZWE.7.4_2","county":"Chivi","NL_NAME_2":"NA","city":"Ward19","VARNAME_3":"NA","NL_NAME_3":"NA","TYPE_3":"Ward","ENGTYPE_3":"Ward","CC_3":"NA","HASC_3":"NA","name":"Ward19.city"},
"geometry":{"type": "MultiPolygon","coordinates": [[[[30.4491,-20.5824,719.9373],[30.4512,-20.5963,713.3337],[30.4495,-20.6092,714.5807],[30.4538,-20.6175,727.4454],[30.4514,-20.6237,707.4584],[30.449,-20.6249,710.7682],[30.4504,-20.6268,703.6412],[30.4506,-20.6329,702.7563],[30.4534,-20.6373,699.1931],[30.4623,-20.631,717.6663],[30.4686,-20.6307,731.6104],[30.4778,-20.6185,754.3248],[30.4855,-20.6148,773.6741],[30.4909,-20.617,769.7768],[30.5029,-20.6295,742.7518],[30.534,-20.6325,730.0068],[30.5357,-20.6368,720.8829],[30.5402,-20.6411,724.4756],[30.5419,-20.6466,712.7004],[30.5468,-20.6501,710.9158],[30.5567,-20.6507,704.2386],[30.5743,-20.6509,701.0203],[30.5784,-20.6493,700.9316],[30.5704,-20.6419,707.2323],[30.5696,-20.6343,714.058],[30.5734,-20.622,710.132],[30.5775,-20.6199,714.3738],[30.5849,-20.6086,716.0078],[30.6268,-20.6083,759.9882],[30.6502,-20.6163,746.7712],[30.6601,-20.613,743.198],[30.6684,-20.6067,751.5065],[30.6758,-20.590699999999998,764.1699],[30.6656,-20.5877,766.4943],[30.6648,-20.5776,779.1653],[30.6599,-20.5724,921.7469],[30.6578,-20.5618,805.0898],[30.6244,-20.5583,766.3093],[30.6054,-20.5683,749.5776],[30.6023,-20.5623,758.6533],[30.5925,-20.5536,763.3959],[30.5948,-20.549,770.9218],[30.5917,-20.5451,771.0785],[30.5912,-20.5372,777.2034],[30.5562,-20.5564,859.8584],[30.5254,-20.5687,928.6365],[30.5146,-20.5768,1044.7327],[30.4984,-20.583,1218.146],[30.4968,-20.5851,1287.2876],[30.4784,-20.5878,1269.8435],[30.4666,-20.5826,962.8445],[30.4582,-20.5812,920.9563],[30.4491,-20.5824,719.9373]]]]}}