{"type": "Feature","bbox": [31.2768,-17.6434,31.3549,-17.5384],"geometry": {"type": "MultiPolygon","coordinates": [[[[31.2927,-17.5384,1199.5052],[31.2847,-17.5694,1246.0845],[31.2859,-17.5727,1213.3542],[31.2835,-17.5732,1219.6034],[31.2828,-17.5752,1228.4075],[31.2842,-17.5774,1225.8384],[31.2828,-17.5814,1228.8312],[31.2768,-17.5901,1235.1678],[31.2799,-17.6006,1268.5826],[31.2805,-17.6095,1273.7192],[31.2852,-17.6177,1309.8262],[31.2852,-17.6217,1305.3943],[31.2821,-17.6269,1329.1538],[31.2843,-17.6299,1338.1121],[31.2803,-17.6355,1327.5752],[31.2798,-17.6434,1311.144],[31.2904,-17.6414,1416.8356],[31.3086,-17.6434,1479.9636],[31.3352,-17.6083,1383.9525],[31.3549,-17.618,1324.7605],[31.3519,-17.6097,1327.5315],[31.3487,-17.584,1354.0645],[31.3393,-17.5831,1379.129],[31.3375,-17.578,1379.1045],[31.3382,-17.5738,1385.5012],[31.3435,-17.5676,1407.7798],[31.3435,-17.5568,1399.7974],[31.337,-17.5556,1336.3448],[31.3359,-17.5592,1344.0841],[31.3292,-17.5595,1380.0292],[31.3149,-17.5545,1286.479],[31.2927,-17.5384,1199.5052]]]]}
,"properties": {"GID_3": "ZWE.4.1.9_2","GID_0": "ZWE","country": "Zimbabwe","GID_1": "ZWE.4_1","province": "MashonalandCentral","NL_NAME_1": "NA","GID_2": "ZWE.4.1_2","county": "Bindura","NL_NAME_2": "NA","city": "Ward17","VARNAME_3": "NA","NL_NAME_3": "NA","TYPE_3": "Ward","ENGTYPE_3": "Ward","CC_3": "NA","HASC_3": "NA","name": "Ward17.city","area_km2": 58.1455,"hist_schema_id": "Elevation0-9000","hist_area_km2": {"1175": 0.48518,"1200": 0.32343,"1225": 1.77871,"1250": 2.66797,"1275": 2.02113,"1300": 2.34452,"1325": 4.46654,"1350": 11.29741,"1375": 15.82445,"1400": 12.85379,"1425": 2.84962,"1450": 0.97004,"1475": 0.2627}}}