{"type": "Feature","bbox": [31.0564,-18.0565,31.2163,-17.9781],"geometry": {"type": "MultiPolygon","coordinates": [[[[31.0585,-17.9856,1429.6096],[31.0659,-17.9892,1425.4661],[31.0736,-17.9998,1447.3816],[31.0965,-18.0035,1455.6249],[31.1271,-18.0197,1458.2223],[31.1262,-18.0207,1457.3174],[31.1549,-18.0237,1478.0972],[31.163,-18.0296,1477.8158],[31.1768,-18.0336,1481.9342],[31.1897,-18.044,1476.7476],[31.1971,-18.0454,1481.6699],[31.2046,-18.0565,1490.8479],[31.2116,-18.0397,1468.9714],[31.2163,-18.037,1463.1565],[31.2091,-18.0312,1465.881],[31.2088,-18.0269,1469.7769],[31.2068,-18.0266,1462.4607],[31.2065,-18.0236,1468.8552],[31.1965,-18.0262,1458.3552],[31.1967,-18.0212,1470.0508],[31.1913,-18.017,1468.9489],[31.1874,-18.016,1458.3481],[31.1835,-18.0117,1457.9486],[31.1825,-18.0075,1468.1371],[31.178,-18.0089,1462.7012],[31.1719,-18.0044,1458.085],[31.165,-18.0074,1456.0765],[31.1595,-18.0045,1456.6926],[31.1565,-18.0013,1451.489],[31.1578,-17.9974,1457.9341],[31.1567,-17.9958,1459.5487],[31.1405,-17.9958,1447.6304],[31.1272,-17.9917,1438.1558],[31.1229,-17.9929,1440.6467],[31.1156,-17.9915,1434.6121],[31.1135,-17.9945,1431.5],[31.1032,-17.9867,1421.4355],[31.0838,-17.9838,1423.6499],[31.068,-17.9834,1415.0869],[31.0649,-17.9801,1416.235],[31.0564,-17.9781,1410.542],[31.0564,-17.9827,1420.899],[31.0585,-17.9856,1429.6096]]]]}
,"properties": {"GID_3": "ZWE.5.10.1_2","GID_0": "ZWE","country": "Zimbabwe","GID_1": "ZWE.5_1","province": "MashonalandEast","NL_NAME_1": "NA","GID_2": "ZWE.5.10_2","county": "Seke","NL_NAME_2": "NA","city": "Ward1","VARNAME_3": "NA","NL_NAME_3": "NA","TYPE_3": "Ward","ENGTYPE_3": "Ward","CC_3": "NA","HASC_3": "NA","name": "Ward1.city","area_km2": 40.14483,"hist_schema_id": "Elevation0-9000","hist_area_km2": {"1400": 0.02017,"1425": 6.19087,"1450": 15.66738,"1475": 18.08498,"1500": 0.18143}}}