{"type":"Feature","properties":{"GID_3":"ZWE.7.8.7_2","GID_0":"ZWE","country":"Zimbabwe","GID_1":"ZWE.7_1","province":"Masvingo","NL_NAME_1":"NA","GID_2":"ZWE.7.8_2","county":"Mwenezi","NL_NAME_2":"NA","city":"Ward15","VARNAME_3":"NA","NL_NAME_3":"NA","TYPE_3":"Ward","ENGTYPE_3":"Ward","CC_3":"NA","HASC_3":"NA","name":"Ward15.city"},
"geometry":{"type": "MultiPolygon","coordinates": [[[[31.2833,-21.4779,471.0655],[31.2655,-21.4734,482.614],[31.2519,-21.4725,486.8806],[31.1655,-21.4361,502.4597],[31.1385,-21.4279,504.3069],[31.0925,-21.4238,515.2065],[31.0596,-21.4097,497.4322],[31.0397,-21.405,490.4288],[31.0224,-21.3938,491.4795],[31.0003,-21.3865,484.3554],[30.8859,-21.3373,512.5394],[30.8488,-21.3858,501.9464],[30.8303,-21.4243,480.1556],[30.7419,-21.4216,486.3812],[30.7272,-21.4321,461.6339],[30.7095,-21.4212,461.675],[30.7056,-21.4052,461.9327],[30.7063,-21.4094,460.7405],[30.698,-21.4141,475.0755],[30.6591,-21.4651,514.3534],[30.6253,-21.5196,507.0411],[30.6172,-21.5351,512.1362],[30.5947,-21.5955,538.9872],[30.5897,-21.6057,531.7182],[30.5524,-21.6491,526.0412],[30.5306,-21.672,510.2506],[30.5184,-21.7114,493.9332],[30.5218,-21.7142,493.576],[30.5243,-21.7198,491.0255],[30.5334,-21.7193,489.0772],[30.5346,-21.7206,490.3643],[30.5353,-21.7283,489.4556],[30.5431,-21.736,494.5742],[30.5408,-21.745,483.8105],[30.5443,-21.7479,485.5596],[30.554,-21.7453,486.6118],[30.5577,-21.7384,482.9023],[30.5592,-21.7319,481.8009],[30.5622,-21.7298,484.2962],[30.5712,-21.7374,483.284],[30.5767,-21.7351,480.9299],[30.5821,-21.736,479.2809],[30.5877,-21.7449,481.6649],[30.5881,-21.752,478.5994],[30.5902,-21.754,481.7107],[30.5965,-21.7519,473.0078],[30.5995,-21.7431,473.459],[30.6071,-21.7458,481.3874],[30.6195,-21.7632,470.7612],[30.6316,-21.7594,470.7257],[30.6396,-21.7509,470.0327],[30.6445,-21.7481,470.2876],[30.649,-21.7489,466.2927],[30.6501,-21.7503,466.0621],[30.6488,-21.7531,467.4094],[30.6435,-21.7567,465.2521],[30.6376,-21.764,464.3093],[30.6348,-21.7689,460.2401],[30.6354,-21.7713,464.0589],[30.6532,-21.7814,459.6545],[30.6586,-21.7799,460.7481],[30.6652,-21.7816,455.2271],[30.669,-21.7972,452.272],[30.6649,-21.8082,455.5318],[30.6651,-21.8112,456.6256],[30.6742,-21.8174,452.0131],[30.6698,-21.8237,450.0959],[30.6702,-21.8295,449.1387],[30.6724,-21.8315,447.1499],[30.6828,-21.8305,449.4421],[30.6852,-21.8316,447.2896],[30.7029,-21.8473,446.6239],[30.7108,-21.8503,443.6633],[30.7151,-21.856,444.9252],[30.7143,-21.8587,440.9111],[30.7101,-21.8618,436.8996],[30.7128,-21.8721,438.0593],[30.7167,-21.8753,440.8138],[30.7305,-21.8751,435.6021],[30.7276,-21.8903,434.7212],[30.7381,-21.8913,431.3839],[30.7503,-21.9035,429.1996],[30.7614,-21.907,426.4923],[30.7602,-21.9135,422.257],[30.7689,-21.9188,426.4034],[30.7713,-21.9222,423.1198],[30.7561,-21.9296,419.4059],[30.7542,-21.9326,421.853],[30.7569,-21.9414,420.4991],[30.7616,-21.9492,414.8164],[30.7672,-21.9548,417.4863],[30.7727,-21.9566,421.0409],[30.7833,-21.9646,416.0278],[30.7981,-21.9642,414.461],[30.8068,-21.9698,412.2967],[30.8087,-21.9748,408.3665],[30.8011,-21.9753,408.3822],[30.7966,-21.9808,407.8276],[30.7978,-21.9855,407.0057],[30.8029,-21.9915,400.7057],[30.8017,-21.9966,401.1761],[30.8037,-21.9991,410.6641],[30.833,-21.9975,406.0897],[30.8574,-22.0167,392.0186],[30.8595,-22.0343,393.4016],[30.8734,-22.0418,410.3226],[30.8869,-22.0811,377.7776],[30.8895,-22.0843,381.3188],[30.8997,-22.0835,366.024],[30.9171,-22.0736,383.7561],[30.9276,-22.0725,354.7548],[30.9313,-22.0738,370.26],[30.9353,-22.0862,354.8098],[30.9312,-22.1053,335.8452],[30.944,-22.1128,315.2913],[30.9479,-22.1072,330.1451],[30.9593,-22.1019,342.1964],[30.9761,-22.0966,408.5005],[30.9878,-22.09,363.0109],[30.9993,-22.09,441.7846],[31.0661,-22.0616,528.3391],[31.2463,-21.7494,471.158],[31.2488,-21.7424,440.6051],[31.257,-21.7296,432.856],[31.2777,-21.7168,375.2929],[31.2689,-21.7141,383.9922],[31.2619,-21.7094,376.8588],[31.2481,-21.6923,387.3532],[31.2465,-21.6879,388.5881],[31.2298,-21.68,390.1736],[31.2292,-21.6755,391.4412],[31.2308,-21.6696,395.6533],[31.2371,-21.6657,396.8064],[31.2397,-21.6592,392.226],[31.252,-21.6524,396.8185],[31.2552,-21.6472,397.3935],[31.2529,-21.6443,400.1869],[31.2546,-21.6411,411.5824],[31.2491,-21.6411,400.9034],[31.2476,-21.6365,403.0294],[31.239,-21.6274,409.6801],[31.2439,-21.5987,425.8083],[31.2496,-21.593,424.5289],[31.2528,-21.5871,429.6635],[31.2512,-21.5805,431.5776],[31.2527,-21.5781,433.8762],[31.2513,-21.5751,433.6396],[31.252,-21.5658,440.857],[31.247,-21.5606,439.5498],[31.2432,-21.5483,449.2614],[31.2501,-21.5369,459.4842],[31.2628,-21.5044,479.5408],[31.267,-21.498,482.3108],[31.2675,-21.4914,481.8368],[31.2833,-21.4779,471.0655]]]]}}