{"type":"Feature","properties":{"GID_3":"ZWE.8.6.2_2","GID_0":"ZWE","country":"Zimbabwe","GID_1":"ZWE.8_1","province":"MatabelelandNorth","NL_NAME_1":"NA","GID_2":"ZWE.8.6_2","county":"Nkayi","NL_NAME_2":"NA","city":"Ward10","VARNAME_3":"NA","NL_NAME_3":"NA","TYPE_3":"Ward","ENGTYPE_3":"Ward","CC_3":"NA","HASC_3":"NA","name":"Ward10.city"},
"geometry":{"type": "MultiPolygon","coordinates": [[[[28.5314,-18.6458,1132.4137],[28.5119,-18.6475,1143.7061],[28.5048,-18.65,1150.7705],[28.4632,-18.6482,1143.6361],[28.451,-18.643,1180.563],[28.4472,-18.6398,1199.2327],[28.4454,-18.6359,1198.4749],[28.4339,-18.6396,1197.8839],[28.3948,-18.6445,1200.4425],[28.3516,-18.6536,1188.6384],[28.3522,-18.6622,1172.8723],[28.3498,-18.6691,1144.4609],[28.3541,-18.6731,1148.5745],[28.357,-18.6826,1137.1941],[28.3614,-18.6874,1134.2321],[28.3615,-18.6915,1113.0641],[28.3702,-18.6944,1116.1465],[28.3866,-18.6932,1070.8594],[28.3997,-18.6949,1063.5742],[28.411,-18.6869,1080.4902],[28.4316,-18.6831,1123.4806],[28.4567,-18.6846,1113.2051],[28.4844,-18.6832,1115.6394],[28.5014,-18.6779,1091.0259],[28.5055,-18.6782,1086.0112],[28.505,-18.6886,1071.519],[28.5236,-18.6817,1094.2556],[28.5341,-18.6805,1098.3557],[28.5508,-18.6748,1086.7703],[28.5478,-18.6724,1087.8995],[28.5465,-18.6622,1105.2534],[28.5415,-18.656,1113.1647],[28.532,-18.6516,1123.6511],[28.5314,-18.6458,1132.4137]]]]}}