{"type":"Feature","properties":{"GID_3":"ZWE.10.2.5_2","GID_0":"ZWE","country":"Zimbabwe","GID_1":"ZWE.10_1","province":"Midlands","NL_NAME_1":"NA","GID_2":"ZWE.10.2_2","county":"GokweNorth","NL_NAME_2":"NA","city":"Ward13","VARNAME_3":"NA","NL_NAME_3":"NA","TYPE_3":"Ward","ENGTYPE_3":"Ward","CC_3":"NA","HASC_3":"NA","name":"Ward13.city"},
"geometry":{"type": "MultiPolygon","coordinates": [[[[29.0583,-17.6788,855.399],[29.0575,-17.672,847.18],[29.0533,-17.6632,845.6194],[29.0536,-17.6579,843.6514],[29.051,-17.6573,843.3469],[29.0528,-17.6535,842.278],[29.0501,-17.648,841.9796],[29.049,-17.6393,835.7269],[29.0509,-17.6326,833.9976],[29.0483,-17.6321,835.3333],[29.0471,-17.6303,834.7327],[29.0485,-17.6278,833.8101],[29.0468,-17.6287,833.1608],[29.0459,-17.626,831.407],[29.0441,-17.6263,831.8604],[29.0433,-17.6223,831.5731],[29.0421,-17.6221,831.5731],[29.0434,-17.62,831.545],[29.0426,-17.6165,830.2554],[29.0441,-17.6155,828.806],[29.0426,-17.6111,826.9626],[29.0446,-17.6092,826.4126],[29.0433,-17.6086,827.0414],[29.0456,-17.608,826.4126],[29.0441,-17.6061,826.3585],[29.047,-17.6043,826.164],[29.047,-17.6016,825.6121],[29.0448,-17.6013,824.9478],[29.0404,-17.591,822.9734],[29.033,-17.5893,828.5417],[29.028,-17.5899,829.9066],[29.0167,-17.6012,841.8293],[29.0121,-17.611,842.3124],[29.0,-17.619,849.0461],[29.0088,-17.6494,859.6415],[29.015,-17.6578,865.5388],[29.016,-17.6642,864.5344],[29.0196,-17.6675,855.9122],[29.022,-17.6853,869.089],[29.0172,-17.6934,869.9182],[29.0106,-17.6985,878.5571],[29.0085,-17.7095,882.4532],[28.991,-17.7182,891.9924],[28.9792,-17.7336,902.9625],[28.9744,-17.7357,907.8242],[28.9565,-17.7545,944.2755],[28.9353,-17.7577,949.0558],[28.9498,-17.7602,950.3264],[28.9521,-17.7722,1028.1975],[28.9595,-17.7902,1164.6658],[28.9606,-17.8004,988.5154],[28.9646,-17.804,953.9323],[28.9673,-17.8045,954.5371],[28.9687,-17.8005,955.5079],[28.9721,-17.8021,951.7861],[28.9757,-17.8013,952.4819],[28.9791,-17.794,943.257],[28.9869,-17.79,929.8997],[28.9952,-17.7753,915.378],[29.0079,-17.7683,904.6083],[29.0176,-17.7584,898.1709],[29.0215,-17.7593,896.0157],[29.03,-17.7544,888.9214],[29.0384,-17.7551,885.097],[29.0437,-17.7527,885.248],[29.0447,-17.7503,882.2101],[29.0425,-17.7431,879.1294],[29.0448,-17.7358,876.0108],[29.042,-17.7326,874.3323],[29.0417,-17.7294,877.3881],[29.0448,-17.7243,870.5759],[29.0442,-17.7189,868.5885],[29.0475,-17.7121,866.3267],[29.0469,-17.7047,865.3317],[29.0484,-17.7032,863.7716],[29.0518,-17.7034,862.437],[29.0522,-17.7008,862.413],[29.0561,-17.6993,860.1036],[29.0583,-17.6788,855.399]]]]}}