{"type":"Feature","properties":{"GID_3":"ZWE.5.4.9_2","GID_0":"ZWE","country":"Zimbabwe","GID_1":"ZWE.5_1","province":"MashonalandEast","NL_NAME_1":"NA","GID_2":"ZWE.5.4_2","county":"Marondera","NL_NAME_2":"NA","city":"Ward17","VARNAME_3":"NA","NL_NAME_3":"NA","TYPE_3":"Ward","ENGTYPE_3":"Ward","CC_3":"NA","HASC_3":"NA","name":"Ward17.city"},
"geometry":{"type": "MultiPolygon","coordinates": [[[[31.337,-18.3018,1545.8969],[31.3243,-18.2608,1544.0499],[31.347,-18.2429,1530.8438],[31.3362,-18.2418,1527.4928],[31.3263,-18.2365,1527.5221],[31.315,-18.2339,1523.13],[31.3117,-18.228,1518.3728],[31.2997,-18.2191,1513.7966],[31.2954,-18.2131,1510.2939],[31.2891,-18.2112,1506.6508],[31.2871,-18.2077,1509.7466],[31.2796,-18.2068,1502.1389],[31.2719,-18.2009,1505.7668],[31.2612,-18.2005,1487.7167],[31.2549,-18.1946,1486.9661],[31.2498,-18.1928,1486.6454],[31.2434,-18.1924,1480.5798],[31.2337,-18.1982,1478.4354],[31.2204,-18.1994,1469.9391],[31.2253,-18.2132,1479.4822],[31.2305,-18.2148,1479.3268],[31.2323,-18.218,1478.5538],[31.2394,-18.2219,1482.4377],[31.2431,-18.2285,1480.1935],[31.246,-18.2286,1491.5856],[31.2486,-18.2323,1488.0524],[31.2517,-18.2325,1491.3201],[31.2553,-18.2378,1490.4956],[31.2584,-18.2389,1492.8428],[31.2617,-18.243,1487.8539],[31.2656,-18.251,1492.0847],[31.2655,-18.2561,1491.7897],[31.2725,-18.2686,1499.7706],[31.291,-18.2779,1518.4514],[31.296,-18.2832,1513.5409],[31.3131,-18.2928,1524.882],[31.337,-18.3018,1545.8969]]]]}}