{"type":"Feature","properties":{"GID_3":"ZWE.4.7.40_2","GID_0":"ZWE","country":"Zimbabwe","GID_1":"ZWE.4_1","province":"MashonalandCentral","NL_NAME_1":"NA","GID_2":"ZWE.4.7_2","county":"MountDarwin","NL_NAME_2":"NA","city":"Ward9","VARNAME_3":"NA","NL_NAME_3":"NA","TYPE_3":"Ward","ENGTYPE_3":"Ward","CC_3":"NA","HASC_3":"NA","name":"Ward9.city"},
"geometry":{"type": "MultiPolygon","coordinates": [[[[31.5945,-16.5968,979.0436],[31.5951,-16.5908,986.8395],[31.5917,-16.5899,974.7456],[31.5927,-16.5876,981.3995],[31.5965,-16.5867,979.3421],[31.597,-16.5849,982.0428],[31.5946,-16.583,978.8219],[31.5985,-16.5807,983.6982],[31.5989,-16.5746,985.1198],[31.5914,-16.5691,989.3363],[31.588,-16.5737,994.5751],[31.5837,-16.5737,994.24],[31.5852,-16.5677,1003.6039],[31.5848,-16.5603,1006.1169],[31.5867,-16.5571,1010.5368],[31.5829,-16.5585,1017.3137],[31.5829,-16.5562,1012.3975],[31.5781,-16.5538,1011.2107],[31.5772,-16.5488,1028.2417],[31.5686,-16.5482,1031.625],[31.5619,-16.5514,1048.6987],[31.5571,-16.5601,1094.2264],[31.5546,-16.5698,1095.2524],[31.556,-16.5735,1092.2388],[31.5598,-16.5749,1047.2767],[31.5626,-16.5785,1044.6763],[31.5648,-16.5773,1026.1285],[31.5673,-16.5786,1018.272],[31.5721,-16.5781,1010.7596],[31.5733,-16.5807,1009.2169],[31.5885,-16.5875,989.1072],[31.5893,-16.5914,980.2737],[31.5945,-16.5968,979.0436]]]]}}