{"type":"Feature","properties":{"GID_3":"ZWE.6.1.12_2","GID_0":"ZWE","country":"Zimbabwe","GID_1":"ZWE.6_1","province":"MashonalandWest","NL_NAME_1":"NA","GID_2":"ZWE.6.1_2","county":"Chegutu","NL_NAME_2":"NA","city":"Ward2","VARNAME_3":"NA","NL_NAME_3":"NA","TYPE_3":"Ward","ENGTYPE_3":"Ward","CC_3":"NA","HASC_3":"NA","name":"Ward2.city"},
"geometry":{"type": "MultiPolygon","coordinates": [[[[30.6267,-18.4962,1334.8538],[30.6119,-18.4783,1301.8416],[30.6097,-18.472,1295.7335],[30.6031,-18.4786,1315.1379],[30.598,-18.4812,1326.8918],[30.5911,-18.476,1308.5549],[30.5857,-18.4676,1308.4365],[30.5823,-18.4558,1305.4926],[30.5785,-18.4543,1308.472],[30.5711,-18.4545,1304.7919],[30.5703,-18.4468,1298.0399],[30.5644,-18.4496,1293.1729],[30.5611,-18.4485,1289.8798],[30.5591,-18.4392,1284.0959],[30.5554,-18.4338,1275.6552],[30.5559,-18.4293,1279.7849],[30.544,-18.4193,1265.4739],[30.5471,-18.4085,1259.885],[30.5454,-18.4027,1259.651],[30.5415,-18.4018,1258.6644],[30.5429,-18.3981,1261.2075],[30.5378,-18.3942,1255.0448],[30.5368,-18.3873,1258.934],[30.5323,-18.3844,1253.7786],[30.531,-18.3817,1252.3577],[30.5322,-18.379,1260.7432],[30.5284,-18.3754,1253.5692],[30.5275,-18.3703,1251.2816],[30.5193,-18.3587,1249.5178],[30.5094,-18.3546,1248.2971],[30.5066,-18.3511,1250.5724],[30.5,-18.3524,1246.6501],[30.4942,-18.3489,1246.2603],[30.4893,-18.3494,1238.637],[30.4823,-18.3447,1233.217],[30.4776,-18.353,1237.3752],[30.4782,-18.3584,1235.8618],[30.475,-18.3621,1243.1273],[30.4791,-18.3636,1242.7109],[30.4797,-18.3656,1240.2642],[30.4746,-18.3707,1248.0654],[30.4751,-18.3729,1245.54],[30.4783,-18.3749,1252.0503],[30.4824,-18.3859,1255.142],[30.4782,-18.3906,1256.7727],[30.4754,-18.3905,1258.2014],[30.4712,-18.3965,1260.3936],[30.4669,-18.399,1262.3032],[30.4761,-18.4423,1278.9178],[30.4465,-18.5037,1236.3223],[30.4558,-18.5115,1238.6519],[30.4642,-18.5126,1247.2036],[30.4661,-18.5186,1241.6417],[30.4717,-18.5186,1245.5619],[30.4761,-18.5216,1242.6954],[30.4839,-18.5179,1246.8783],[30.4892,-18.5131,1249.8582],[30.4905,-18.5221,1250.9062],[30.4941,-18.5257,1246.1038],[30.4969,-18.5219,1247.3574],[30.5002,-18.5215,1247.1548],[30.5105,-18.5248,1247.5869],[30.5202,-18.5319,1250.5603],[30.5244,-18.531,1254.5774],[30.5302,-18.534,1252.5129],[30.5326,-18.531,1251.2758],[30.5409,-18.5406,1254.5559],[30.542,-18.5454,1254.9696],[30.5528,-18.5498,1256.4541],[30.5556,-18.547,1262.8895],[30.5674,-18.548,1260.6879],[30.5683,-18.5458,1261.9019],[30.5701,-18.5459,1261.6146],[30.5688,-18.5423,1261.6686],[30.5721,-18.5353,1266.4033],[30.5812,-18.537,1264.5688],[30.5844,-18.533,1264.7096],[30.5866,-18.5345,1264.8607],[30.5918,-18.533,1266.4066],[30.5991,-18.5379,1268.1492],[30.6017,-18.5361,1268.2378],[30.6019,-18.5332,1268.6367],[30.6035,-18.5329,1269.9797],[30.6077,-18.5356,1269.8052],[30.6122,-18.5358,1271.3025],[30.6168,-18.5091,1299.1953],[30.6267,-18.4962,1334.8538]]]]}}