{"type":"Feature","properties":{"GID_3":"ZWE.7.2.28_2","GID_0":"ZWE","country":"Zimbabwe","GID_1":"ZWE.7_1","province":"Masvingo","NL_NAME_1":"NA","GID_2":"ZWE.7.2_2","county":"Chiredzi","NL_NAME_2":"NA","city":"Ward5","VARNAME_3":"NA","NL_NAME_3":"NA","TYPE_3":"Ward","ENGTYPE_3":"Ward","CC_3":"NA","HASC_3":"NA","name":"Ward5.city"},
"geometry":{"type": "MultiPolygon","coordinates": [[[[32.1861,-21.0467,356.6234],[32.1794,-21.0502,368.2602],[32.1778,-21.0549,368.8896],[32.1752,-21.0537,369.7206],[32.1739,-21.0588,372.1327],[32.1679,-21.0624,372.9427],[32.1306,-21.0789,387.4436],[32.1085,-21.099,401.7718],[32.1216,-21.1368,384.9872],[32.1475,-21.1484,495.7267],[32.1945,-21.1338,500.502],[32.2256,-21.1194,421.3459],[32.2265,-21.1066,380.3592],[32.2463,-21.0984,336.3186],[32.2399,-21.0971,345.1285],[32.2366,-21.0843,354.7073],[32.2338,-21.0795,342.8304],[32.2247,-21.077,344.3237],[32.2165,-21.0686,349.1416],[32.1999,-21.0669,352.3182],[32.1953,-21.0649,352.5552],[32.1861,-21.0467,356.6234]]]]}}