{"type": "Feature","bbox": [32.1118,-18.5431,32.1202,-18.5379],"geometry": {"type": "MultiPolygon","coordinates": [[[[32.1118,-18.5402,1377.2837],[32.1187,-18.5431,1401.781],[32.1202,-18.5396,1394.1476],[32.1189,-18.5414,1399.0748],[32.1125,-18.5379,1376.8708],[32.1118,-18.5402,1377.2837]]]]}
,"properties": {"GID_3": "ZWE.3.10.4_2","GID_0": "ZWE","country": "Zimbabwe","GID_1": "ZWE.3_1","province": "Manicaland","NL_NAME_1": "NA","GID_2": "ZWE.3.10_2","county": "Rusape","NL_NAME_2": "NA","city": "Ward3","VARNAME_3": "NA","NL_NAME_3": "NA","TYPE_3": "Ward","ENGTYPE_3": "Ward","CC_3": "NA","HASC_3": "NA","name": "Ward3.city","area_km2": 0.1608146,"hist_schema_id": "Elevation0-9000","hist_area_km2": {"1375": 0.1005095,"1400": 0.0603052}}}