{"type":"Feature","properties":{"GID_3":"ZWE.10.11.22_2","GID_0":"ZWE","country":"Zimbabwe","GID_1":"ZWE.10_1","province":"Midlands","NL_NAME_1":"NA","GID_2":"ZWE.10.11_2","county":"Shurugwi","NL_NAME_2":"NA","city":"Ward7","VARNAME_3":"NA","NL_NAME_3":"NA","TYPE_3":"Ward","ENGTYPE_3":"Ward","CC_3":"NA","HASC_3":"NA","name":"Ward7.city"},
"geometry":{"type": "MultiPolygon","coordinates": [[[[30.2837,-19.8029,1076.7009],[30.2944,-19.8184,1077.3878],[30.2883,-19.8488,1105.8373],[30.3161,-19.8476,1211.7556],[30.3513,-19.8378,1041.755],[30.3492,-19.8358,1037.7295],[30.3401,-19.8361,1029.6108],[30.3376,-19.8325,1026.63],[30.3403,-19.8235,1029.6787],[30.3384,-19.8188,1039.2286],[30.3451,-19.8118,1035.3186],[30.3466,-19.8022,1043.3108],[30.3451,-19.7923,1050.8386],[30.3392,-19.7783,1047.4652],[30.3404,-19.7759,1057.845],[30.3395,-19.7716,1054.8304],[30.3436,-19.7672,1059.8069],[30.3418,-19.7625,1060.4175],[30.3094,-19.7754,1104.1151],[30.3039,-19.7612,1124.2354],[30.2768,-19.7631,1121.8192],[30.2791,-19.77,1118.6001],[30.2771,-19.7718,1111.1405],[30.2748,-19.7807,1104.5671],[30.2829,-19.7862,1096.2344],[30.2852,-19.7908,1096.3773],[30.2837,-19.8029,1076.7009]]]]}}