{"type": "Feature","bbox": [31.5559,-18.1755,31.5622,-18.1682],"geometry": {"type": "MultiPolygon","coordinates": [[[[31.5622,-18.1697,1645.8188],[31.5589,-18.1699,1649.7781],[31.5588,-18.1682,1645.714],[31.5576,-18.1683,1638.7701],[31.5559,-18.1733,1650.2158],[31.5601,-18.1755,1656.856],[31.5622,-18.1697,1645.8188]]]]}
,"properties": {"GID_3": "ZWE.5.5.8_2","GID_0": "ZWE","country": "Zimbabwe","GID_1": "ZWE.5_1","province": "MashonalandEast","NL_NAME_1": "NA","GID_2": "ZWE.5.5_2","county": "MaronderaUrban","NL_NAME_2": "NA","city": "Ward5","VARNAME_3": "NA","NL_NAME_3": "NA","TYPE_3": "Ward","ENGTYPE_3": "Ward","CC_3": "NA","HASC_3": "NA","name": "Ward5.city","area_km2": 0.3021715,"hist_schema_id": "Elevation0-9000","hist_area_km2": {"1650": 0.3021715}}}