{"type": "Feature","bbox": [30.1884,-17.8653,30.2749,-17.7248],"geometry": {"type": "MultiPolygon","coordinates": [[[[30.2085,-17.8572,1181.6614],[30.2144,-17.861,1185.1984],[30.224,-17.8616,1203.3522],[30.228,-17.8653,1202.8372],[30.2348,-17.8629,1205.1807],[30.2344,-17.8603,1209.3158],[30.2363,-17.8586,1204.9144],[30.2364,-17.8554,1209.562],[30.241,-17.8458,1232.1288],[30.2432,-17.8339,1261.2925],[30.2473,-17.8267,1243.5181],[30.244,-17.8127,1284.2838],[30.2473,-17.8059,1303.2252],[30.2418,-17.8043,1284.1625],[30.2419,-17.8028,1291.0273],[30.2478,-17.7923,1305.4207],[30.2517,-17.7884,1307.3279],[30.2563,-17.7876,1321.1387],[30.2639,-17.7805,1335.472],[30.2651,-17.7771,1334.2821],[30.2664,-17.7775,1336.6497],[30.2714,-17.7937,1324.1309],[30.2735,-17.7912,1329.191],[30.2749,-17.7673,1324.9059],[30.2651,-17.7528,1307.6917],[30.2641,-17.7463,1303.8784],[30.2658,-17.7372,1298.1881],[30.2597,-17.7248,1286.3368],[30.253,-17.73,1291.5751],[30.2461,-17.7317,1300.7698],[30.2449,-17.7345,1299.3945],[30.2426,-17.7348,1302.9647],[30.2393,-17.7469,1315.589],[30.2304,-17.7462,1328.3638],[30.2237,-17.7479,1333.9674],[30.2161,-17.745,1326.2288],[30.2129,-17.7471,1323.3409],[30.2132,-17.7493,1320.1531],[30.2113,-17.7511,1319.0715],[30.2055,-17.7549,1306.4376],[30.2057,-17.7781,1290.1322],[30.2076,-17.7809,1297.5775],[30.2069,-17.7872,1293.4502],[30.2092,-17.8007,1281.7107],[30.2245,-17.7978,1275.7495],[30.225,-17.8079,1262.1465],[30.221,-17.8173,1250.1589],[30.2219,-17.8258,1239.5966],[30.2193,-17.8285,1235.2677],[30.2198,-17.8337,1232.9076],[30.2112,-17.8369,1216.9097],[30.2099,-17.8397,1211.1204],[30.2054,-17.8396,1207.3936],[30.198,-17.8471,1189.1682],[30.1958,-17.8477,1186.1049],[30.1936,-17.8431,1179.5978],[30.1892,-17.8421,1183.1908],[30.1884,-17.854,1155.6433],[30.2023,-17.8548,1177.2255],[30.2022,-17.8569,1169.9756],[30.2085,-17.8572,1181.6614]]]]}
,"properties": {"GID_3": "ZWE.6.13.31_2","GID_0": "ZWE","country": "Zimbabwe","GID_1": "ZWE.6_1","province": "MashonalandWest","NL_NAME_1": "NA","GID_2": "ZWE.6.13_2","county": "Zvimba","NL_NAME_2": "NA","city": "Ward5","VARNAME_3": "NA","NL_NAME_3": "NA","TYPE_3": "Ward","ENGTYPE_3": "Ward","CC_3": "NA","HASC_3": "NA","name": "Ward5.city","area_km2": 62.62379,"hist_schema_id": "Elevation0-9000","hist_area_km2": {"1150": 0.10091,"1175": 0.84762,"1200": 3.24918,"1225": 5.22708,"1250": 6.17619,"1275": 6.8229,"1300": 12.21514,"1325": 27.07622,"1350": 0.90854}}}