{"type":"Feature","properties":{"ISO3166-1-Alpha-3":"ZWE","country":"Zimbabwe","fill":"#F0F","id":"531","name":"Bulawayo"},
"geometry":{"type": "Polygon","coordinates": [[[28.49757,-20.0627,1269.1565],[28.48785,-20.06007,1269.5776],[28.43122,-20.03123,1266.9521],[28.42367,-20.02942,1261.4148],[28.41923,-20.02958,1258.6782],[28.41623,-20.03206,1253.8639],[28.41489,-20.03697,1249.0504],[28.41582,-20.04901,1243.6354],[28.42543,-20.08529,1265.8413],[28.42522,-20.09428,1281.528],[28.42367,-20.09991,1284.8274],[28.41964,-20.10937,1290.1942],[28.41768,-20.11634,1298.7463],[28.41716,-20.12394,1286.71],[28.41747,-20.13427,1260.6426],[28.41375,-20.14053,1251.5842],[28.40755,-20.14518,1273.9868],[28.39453,-20.15267,1310.8951],[28.39111,-20.15706,1317.1746],[28.39205,-20.16166,1313.46],[28.39659,-20.16637,1312.5498],[28.4091,-20.17003,1323.7219],[28.41685,-20.17096,1317.7234],[28.42977,-20.1704,1310.6063],[28.43721,-20.17112,1300.9972],[28.45426,-20.17536,1307.2081],[28.46067,-20.17551,1311.6255],[28.46605,-20.17458,1322.3092],[28.47803,-20.16972,1339.9487],[28.4863,-20.1691,1350.6918],[28.49374,-20.17143,1369.5352],[28.50098,-20.1829,1356.1704],[28.51049,-20.19267,1340.1213],[28.51245,-20.20228,1342.4277],[28.49974,-20.22977,1365.7471],[28.51741,-20.249,1409.3748],[28.52165,-20.24946,1409.0775],[28.52723,-20.24931,1408.8628],[28.55968,-20.22404,1404.5267],[28.5634,-20.22357,1411.9457],[28.56837,-20.2245,1412.1577],[28.57529,-20.22776,1419.5581],[28.58728,-20.23055,1434.1848],[28.59989,-20.2367,1456.8916],[28.66676,-20.22269,1392.592],[28.6835,-20.21582,1402.1313],[28.69032,-20.2107,1373.4415],[28.6957,-20.20492,1367.4951],[28.69931,-20.19918,1372.2445],[28.70128,-20.19339,1391.3021],[28.70148,-20.18843,1388.0591],[28.69942,-20.18399,1376.6437],[28.69528,-20.17996,1369.7146],[28.67575,-20.16755,1344.8042],[28.67234,-20.16445,1350.593],[28.66934,-20.15996,1344.9438],[28.66903,-20.15582,1342.063],[28.66955,-20.15169,1334.9563],[28.67058,-20.14843,1329.4171],[28.67699,-20.13681,1338.502],[28.67988,-20.12968,1331.4186],[28.68174,-20.12306,1327.9111],[28.68133,-20.1182,1325.199],[28.67802,-20.11484,1330.5303],[28.6712,-20.11283,1327.7123],[28.66469,-20.11019,1317.4037],[28.66087,-20.10678,1319.3872],[28.65942,-20.10275,1326.5397],[28.65818,-20.09102,1329.6223],[28.65384,-20.0873,1327.6641],[28.64743,-20.08761,1321.9069],[28.63379,-20.09381,1302.3524],[28.62666,-20.09562,1293.9141],[28.61911,-20.09536,1303.4395],[28.61239,-20.09221,1295.4172],[28.60175,-20.0842,1290.8391],[28.5971,-20.08187,1294.2897],[28.59172,-20.08089,1294.2339],[28.58614,-20.08043,1285.0408],[28.58201,-20.07924,1286.7349],[28.57953,-20.07769,1288.2773],[28.57705,-20.0749,1289.3762],[28.57622,-20.07211,1286.7729],[28.57612,-20.06927,1284.6411],[28.57715,-20.0658,1280.1248],[28.57767,-20.0535,1270.3728],[28.57891,-20.04901,1271.1713],[28.58211,-20.04084,1281.6257],[28.58139,-20.0381,1283.2255],[28.57798,-20.03655,1280.4958],[28.57209,-20.03671,1272.1887],[28.55255,-20.04317,1271.619],[28.53043,-20.04627,1279.8832],[28.52444,-20.04875,1281.8363],[28.51214,-20.05898,1284.0022],[28.50532,-20.06239,1280.281],[28.49757,-20.0627,1269.1565]]]}}