{"type": "Feature","bbox": [28.516,-20.1596,28.5365,-20.1392],"geometry": {"type": "MultiPolygon","coordinates": [[[[28.5164,-20.1467,1391.0955],[28.516,-20.1596,1391.0879],[28.5213,-20.1568,1387.968],[28.5321,-20.1558,1378.8948],[28.532,-20.1501,1381.5234],[28.5365,-20.1401,1362.0205],[28.529,-20.1392,1374.9128],[28.5225,-20.1456,1380.4775],[28.5164,-20.1467,1391.0955]]]]}
,"properties": {"GID_3": "ZWE.1.1.5_2","GID_0": "ZWE","country": "Zimbabwe","GID_1": "ZWE.1_1","province": "Bulawayo","NL_NAME_1": "NA","GID_2": "ZWE.1.1_2","county": "Bulawayo","NL_NAME_2": "NA","city": "Ward13","VARNAME_3": "NA","NL_NAME_3": "NA","TYPE_3": "Ward","ENGTYPE_3": "Ward","CC_3": "NA","HASC_3": "NA","name": "Ward13.city","area_km2": 2.766737,"hist_schema_id": "Elevation0-9000","hist_area_km2": {"1375": 2.28904,"1400": 0.477697}}}