{"type":"Feature","properties":{"GID_3":"ZWE.9.3.8_2","GID_0":"ZWE","country":"Zimbabwe","GID_1":"ZWE.9_1","province":"MatabelelandSouth","NL_NAME_1":"NA","GID_2":"ZWE.9.3_2","county":"Bulilima","NL_NAME_2":"NA","city":"Ward16","VARNAME_3":"NA","NL_NAME_3":"NA","TYPE_3":"Ward","ENGTYPE_3":"Ward","CC_3":"NA","HASC_3":"NA","name":"Ward16.city"},
"geometry":{"type": "MultiPolygon","coordinates": [[[[27.3628,-20.4667,1310.0249],[27.3775,-20.4763,1316.6562],[27.434,-20.4807,1282.3018],[27.4719,-20.466,1294.7152],[27.5531,-20.4838,1320.8044],[27.5775,-20.4925,1330.104],[27.6043,-20.4779,1337.1099],[27.6223,-20.4771,1337.1536],[27.6474,-20.4976,1350.8615],[27.6756,-20.4923,1362.1047],[27.6836,-20.4851,1365.473],[27.6955,-20.4888,1364.6265],[27.7207,-20.5088,1373.0239],[27.7238,-20.5128,1377.3765],[27.7275,-20.5121,1380.67],[27.737,-20.4083,1306.0465],[27.759,-20.3767,1286.9124],[27.7603,-20.3768,1289.8405],[27.7571,-20.3751,1290.321],[27.7541,-20.3761,1287.6755],[27.7445,-20.3721,1282.8301],[27.7383,-20.3672,1278.4221],[27.7285,-20.3669,1274.7876],[27.7242,-20.3644,1270.5388],[27.713,-20.3662,1268.3026],[27.7093,-20.3629,1268.3186],[27.7034,-20.3615,1264.0386],[27.6879,-20.3634,1256.2043],[27.686,-20.3592,1260.8967],[27.6791,-20.3574,1247.7472],[27.6684,-20.3491,1246.5912],[27.6573,-20.3471,1241.9257],[27.655,-20.3445,1240.1366],[27.6702,-20.392,1277.6862],[27.6872,-20.3971,1286.5066],[27.6855,-20.4455,1318.8881],[27.6202,-20.4342,1299.4247],[27.588,-20.3936,1260.2125],[27.5545,-20.3782,1278.4531],[27.5504,-20.3811,1284.1836],[27.519,-20.4172,1287.03],[27.5106,-20.4208,1280.8199],[27.4711,-20.4164,1248.4421],[27.4423,-20.4012,1228.0583],[27.3871,-20.3928,1227.7454],[27.3734,-20.4046,1218.6016],[27.3628,-20.4667,1310.0249]]]]}}