{"type": "Feature","bbox": [29.3376,-16.839,29.4566,-16.6588],"geometry": {"type": "MultiPolygon","coordinates": [[[[29.4481,-16.7702,1193.0458],[29.4373,-16.7495,1217.484],[29.4566,-16.7385,1218.6816],[29.449,-16.7028,1088.376],[29.4344,-16.6612,1004.6962],[29.4303,-16.6634,1003.8248],[29.4243,-16.6633,1014.777],[29.4225,-16.665,991.3178],[29.4187,-16.6653,991.1646],[29.4169,-16.6594,1012.4832],[29.4067,-16.661,985.9707],[29.4035,-16.6588,974.9824],[29.4026,-16.661,969.3146],[29.3972,-16.6626,983.8024],[29.3973,-16.6645,981.5215],[29.4013,-16.6648,972.2598],[29.4019,-16.6675,966.8472],[29.3954,-16.6728,957.4418],[29.3919,-16.6712,960.7499],[29.3913,-16.6731,960.3851],[29.3859,-16.6742,971.7866],[29.3734,-16.6742,968.8336],[29.3871,-16.6825,975.9631],[29.3812,-16.6876,1007.1352],[29.3782,-16.6966,991.8611],[29.3752,-16.6994,1026.7692],[29.3724,-16.7149,1019.8007],[29.3745,-16.7194,1056.4026],[29.3701,-16.7184,1047.4904],[29.366,-16.7122,1033.853],[29.3611,-16.7156,1034.047],[29.3617,-16.7332,1123.7976],[29.3585,-16.7402,1151.5428],[29.3514,-16.7482,1150.4302],[29.3456,-16.7585,1114.1608],[29.3454,-16.762,1104.4674],[29.3383,-16.7724,1085.8531],[29.3376,-16.7821,1078.1266],[29.3404,-16.7934,1074.6274],[29.3476,-16.7937,1083.2164],[29.3495,-16.7983,1089.9507],[29.3486,-16.8019,1093.7827],[29.3507,-16.8043,1098.3036],[29.3525,-16.805,1092.7877],[29.3562,-16.8027,1095.8041],[29.3581,-16.8073,1094.8318],[29.3636,-16.8071,1101.998],[29.3628,-16.8099,1108.0424],[29.3642,-16.8118,1110.5273],[29.3677,-16.8111,1111.5056],[29.3693,-16.8164,1111.9675],[29.3756,-16.8219,1113.1628],[29.376,-16.8269,1116.4633],[29.3778,-16.8291,1115.1747],[29.3867,-16.8313,1130.4878],[29.3936,-16.839,1128.6693],[29.4014,-16.8368,1145.2136],[29.4044,-16.838,1146.8694],[29.405,-16.8342,1157.394],[29.4093,-16.8348,1150.7968],[29.4063,-16.8304,1165.541],[29.4121,-16.8243,1179.5098],[29.4133,-16.8167,1181.7981],[29.4208,-16.8116,1195.5101],[29.4247,-16.8059,1203.259],[29.4243,-16.8021,1207.5782],[29.4177,-16.8028,1193.1617],[29.4144,-16.8015,1192.136],[29.4206,-16.7977,1211.6128],[29.418,-16.7968,1182.6753],[29.414,-16.7914,1173.9501],[29.4234,-16.7888,1202.6997],[29.4299,-16.7834,1231.3018],[29.4319,-16.7862,1236.5931],[29.4336,-16.7855,1228.9297],[29.4375,-16.7826,1206.8881],[29.4361,-16.7814,1210.8024],[29.4361,-16.7763,1193.3391],[29.4377,-16.7719,1189.5214],[29.4481,-16.7702,1193.0458]]]]}
,"properties": {"GID_3": "ZWE.6.4.16_2","GID_0": "ZWE","country": "Zimbabwe","GID_1": "ZWE.6_1","province": "MashonalandWest","NL_NAME_1": "NA","GID_2": "ZWE.6.4_2","county": "Hurungwe","NL_NAME_2": "NA","city": "Ward23","VARNAME_3": "NA","NL_NAME_3": "NA","TYPE_3": "Ward","ENGTYPE_3": "Ward","CC_3": "NA","HASC_3": "NA","name": "Ward23.city","area_km2": 150.0384,"hist_schema_id": "Elevation0-9000","hist_area_km2": {"950": 0.7109,"975": 3.0669,"1000": 5.3009,"1025": 5.524,"1050": 6.986,"1075": 10.7624,"1100": 18.9229,"1125": 32.2994,"1150": 29.2529,"1175": 22.1479,"1200": 12.6482,"1225": 2.3956,"1250": 0.0203}}}