{"type": "Feature","bbox": [29.0043,-17.662,29.1925,-17.4983],"geometry": {"type": "MultiPolygon","coordinates": [[[[29.0532,-17.662,846.4187],[29.0637,-17.6586,848.6455],[29.0961,-17.6259,852.2751],[29.1149,-17.6249,861.0897],[29.1317,-17.6215,866.4476],[29.1751,-17.6028,847.0272],[29.1851,-17.593,848.9274],[29.1921,-17.5777,848.5638],[29.1925,-17.5694,845.2839],[29.1905,-17.5627,840.1111],[29.1925,-17.5555,840.2785],[29.1881,-17.5457,831.316],[29.1896,-17.5369,826.816],[29.1655,-17.5385,834.0872],[29.0899,-17.5388,855.7811],[29.0508,-17.506,817.5256],[29.0358,-17.4983,811.951],[29.0345,-17.5058,820.074],[29.0318,-17.509,821.7993],[29.0254,-17.5124,822.1642],[29.0236,-17.5155,825.3927],[29.0106,-17.5225,819.5659],[29.0048,-17.5336,809.6697],[29.006,-17.5362,809.1814],[29.0043,-17.5379,806.3164],[29.0065,-17.544,811.1447],[29.0094,-17.5455,818.0739],[29.0093,-17.5498,814.9374],[29.0107,-17.5512,814.9374],[29.0083,-17.5552,811.9893],[29.0142,-17.5566,821.3256],[29.0177,-17.5663,816.7944],[29.0202,-17.5652,819.2379],[29.0201,-17.5697,814.5979],[29.0216,-17.5688,817.3856],[29.0226,-17.57,815.1838],[29.0236,-17.5684,817.5542],[29.0263,-17.5762,818.1942],[29.0278,-17.5764,816.8214],[29.0304,-17.5733,824.4275],[29.0323,-17.5782,819.0327],[29.0343,-17.5759,822.5384],[29.0335,-17.5785,819.0327],[29.0364,-17.5816,818.756],[29.0397,-17.5805,826.1505],[29.0395,-17.5828,822.2806],[29.0379,-17.5827,822.2806],[29.0394,-17.5839,818.6576],[29.0387,-17.5859,820.4328],[29.0407,-17.5862,821.4576],[29.0411,-17.5883,821.6168],[29.043,-17.588,822.4504],[29.0452,-17.595,823.196],[29.0477,-17.5961,824.468],[29.0465,-17.5966,824.8964],[29.0469,-17.5986,825.0104],[29.0491,-17.6,825.4833],[29.0471,-17.6015,825.6121],[29.047,-17.6043,826.164],[29.0441,-17.6061,826.3585],[29.0457,-17.6079,826.4998],[29.0433,-17.6086,827.0414],[29.0446,-17.6092,826.4126],[29.0426,-17.6111,826.9626],[29.0441,-17.6155,828.806],[29.0426,-17.6165,830.2554],[29.0434,-17.62,831.545],[29.0421,-17.6221,831.5731],[29.0433,-17.6223,831.5731],[29.0441,-17.6263,831.8604],[29.0459,-17.626,831.407],[29.0468,-17.6287,833.1608],[29.0485,-17.6278,833.8101],[29.0471,-17.6303,834.7327],[29.0483,-17.6321,835.3333],[29.0509,-17.6326,833.9976],[29.0491,-17.6404,836.5514],[29.0501,-17.648,841.9796],[29.0528,-17.6535,842.278],[29.051,-17.6573,843.3469],[29.0536,-17.6579,843.6514],[29.0532,-17.662,846.4187]]]]}
,"properties": {"GID_3": "ZWE.10.2.16_2","GID_0": "ZWE","country": "Zimbabwe","GID_1": "ZWE.10_1","province": "Midlands","NL_NAME_1": "NA","GID_2": "ZWE.10.2_2","county": "GokweNorth","NL_NAME_2": "NA","city": "Ward23","VARNAME_3": "NA","NL_NAME_3": "NA","TYPE_3": "Ward","ENGTYPE_3": "Ward","CC_3": "NA","HASC_3": "NA","name": "Ward23.city","area_km2": 184.9652,"hist_schema_id": "Elevation0-9000","hist_area_km2": {"800": 0.5459,"825": 39.1558,"850": 96.2693,"875": 48.9942}}}