{"type": "Feature","bbox": [31.7542,-20.2089,31.9013,-20.108],"geometry": {"type": "MultiPolygon","coordinates": [[[[31.7847,-20.1536,805.6496],[31.7868,-20.1644,823.9756],[31.7963,-20.1618,822.9862],[31.8088,-20.1619,804.6865],[31.8131,-20.163,775.3591],[31.8192,-20.1678,767.4704],[31.8272,-20.1692,752.4004],[31.8318,-20.1739,738.2319],[31.8438,-20.1788,729.6148],[31.8462,-20.1832,713.6315],[31.8493,-20.1845,717.1156],[31.8613,-20.2072,972.5438],[31.8724,-20.2089,1068.9644],[31.9013,-20.1479,679.3943],[31.8988,-20.1471,672.0199],[31.8974,-20.1444,695.0155],[31.8915,-20.1452,678.8417],[31.8849,-20.1397,686.9204],[31.879,-20.1399,687.6791],[31.8734,-20.1345,702.4009],[31.8617,-20.1311,705.2427],[31.8466,-20.129,705.4304],[31.8304,-20.1217,720.7985],[31.8269,-20.1231,710.8353],[31.82,-20.1218,720.4354],[31.8156,-20.1161,743.9022],[31.8071,-20.1181,722.3837],[31.8001,-20.11,754.4709],[31.789,-20.108,764.9329],[31.7796,-20.1109,754.374],[31.7695,-20.1102,767.4274],[31.7684,-20.113,767.0853],[31.7652,-20.1132,765.4656],[31.7644,-20.1182,779.6607],[31.7589,-20.1204,791.5475],[31.7575,-20.1266,796.8902],[31.7542,-20.1314,805.5632],[31.7719,-20.1434,801.4791],[31.7715,-20.1514,841.9181],[31.7847,-20.1536,805.6496]]]]}
,"properties": {"GID_3": "ZWE.7.1.31_2","GID_0": "ZWE","country": "Zimbabwe","GID_1": "ZWE.7_1","province": "Masvingo","NL_NAME_1": "NA","GID_2": "ZWE.7.1_2","county": "Bikita","NL_NAME_2": "NA","city": "Ward8","VARNAME_3": "NA","NL_NAME_3": "NA","TYPE_3": "Ward","ENGTYPE_3": "Ward","CC_3": "NA","HASC_3": "NA","name": "Ward8.city","area_km2": 78.82157,"hist_schema_id": "Elevation0-9000","hist_area_km2": {"675": 3.08506,"700": 12.5792,"725": 16.89861,"750": 16.81957,"775": 15.46641,"800": 9.65397,"825": 2.36855,"850": 0.57712,"875": 0.33832,"900": 0.41792,"925": 0.17911,"950": 0.15918,"975": 0.09949,"1000": 0.09949,"1025": 0.05969,"1050": 0.0199}}}