{"type": "Feature","bbox": [30.3072,-17.8692,30.4279,-17.7673],"geometry": {"type": "MultiPolygon","coordinates": [[[[30.4279,-17.8321,1324.2106],[30.4259,-17.8031,1306.2263],[30.4206,-17.8017,1309.1573],[30.4172,-17.8032,1305.3424],[30.3891,-17.7855,1297.4897],[30.3811,-17.7852,1292.989],[30.3772,-17.7813,1285.011],[30.3783,-17.7768,1292.2261],[30.3773,-17.7752,1291.2295],[30.3636,-17.7673,1292.9456],[30.3603,-17.7725,1287.7828],[30.3517,-17.7787,1298.9967],[30.3479,-17.7902,1310.7548],[30.3453,-17.8068,1341.6475],[30.3433,-17.8081,1344.3914],[30.3401,-17.8056,1342.9647],[30.3275,-17.8039,1347.5374],[30.3218,-17.806,1345.8262],[30.3198,-17.8115,1341.7346],[30.3125,-17.818,1323.4705],[30.3093,-17.8233,1308.1128],[30.3113,-17.8286,1300.6263],[30.3074,-17.8361,1293.3311],[30.3072,-17.8443,1290.3809],[30.3097,-17.8506,1280.6383],[30.3218,-17.854,1261.5046],[30.3268,-17.8535,1270.2705],[30.334,-17.8599,1264.4535],[30.3355,-17.8665,1257.5662],[30.3438,-17.8692,1261.6384],[30.3517,-17.8618,1267.3892],[30.3621,-17.8584,1272.1743],[30.3913,-17.8404,1303.8385],[30.409,-17.8224,1322.8893],[30.4198,-17.8472,1334.6711],[30.4279,-17.8321,1324.2106]]]]}
,"properties": {"GID_3": "ZWE.6.13.32_2","GID_0": "ZWE","country": "Zimbabwe","GID_1": "ZWE.6_1","province": "MashonalandWest","NL_NAME_1": "NA","GID_2": "ZWE.6.13_2","county": "Zvimba","NL_NAME_2": "NA","city": "Ward6","VARNAME_3": "NA","NL_NAME_3": "NA","TYPE_3": "Ward","ENGTYPE_3": "Ward","CC_3": "NA","HASC_3": "NA","name": "Ward6.city","area_km2": 77.42916,"hist_schema_id": "Elevation0-9000","hist_area_km2": {"1250": 0.46415,"1275": 11.18091,"1300": 26.70543,"1325": 35.84887,"1350": 3.22978}}}