{"type": "Feature","bbox": [31.0613,-18.0146,31.0749,-17.9944],"geometry": {"type": "MultiPolygon","coordinates": [[[[31.0632,-18.0041,1433.4331],[31.0613,-18.0073,1430.0105],[31.0724,-18.0146,1425.2576],[31.0749,-18.0,1447.3816],[31.0696,-17.9944,1435.9529],[31.0632,-18.0041,1433.4331]]]]}
,"properties": {"GID_3": "ZWE.2.1.6_2","GID_0": "ZWE","country": "Zimbabwe","GID_1": "ZWE.2_1","province": "Harare","NL_NAME_1": "NA","GID_2": "ZWE.2.1_2","county": "Chitungwiza","NL_NAME_2": "NA","city": "Ward14","VARNAME_3": "NA","NL_NAME_3": "NA","TYPE_3": "Ward","ENGTYPE_3": "Ward","CC_3": "NA","HASC_3": "NA","name": "Ward14.city","area_km2": 1.754265,"hist_schema_id": "Elevation0-9000","hist_area_km2": {"1425": 0.867036,"1450": 0.887229}}}