{"type":"Feature","properties":{"GID_3":"ZWE.6.7.1_2","GID_0":"ZWE","country":"Zimbabwe","GID_1":"ZWE.6_1","province":"MashonalandWest","NL_NAME_1":"NA","GID_2":"ZWE.6.7_2","county":"KaribaUrban","NL_NAME_2":"NA","city":"Ward1","VARNAME_3":"NA","NL_NAME_3":"NA","TYPE_3":"Ward","ENGTYPE_3":"Ward","CC_3":"NA","HASC_3":"NA","name":"Ward1.city"},
"geometry":{"type": "MultiPolygon","coordinates": [[[[28.8543,-16.5181,504.1303],[28.8483,-16.5177,511.3583],[28.8484,-16.5098,515.1733],[28.8434,-16.5097,514.5562],[28.8444,-16.5152,504.4172],[28.8479,-16.5178,511.3583],[28.8463,-16.5211,496.5722],[28.8516,-16.5226,495.536],[28.8543,-16.5181,504.1303]]]]}}