{"type": "Feature","bbox": [30.0038,-17.4183,30.234,-17.2838],"geometry": {"type": "MultiPolygon","coordinates": [[[[30.2104,-17.3964,1132.1848],[30.2079,-17.392,1129.7439],[30.2089,-17.3876,1128.6808],[30.2118,-17.3846,1129.0969],[30.2122,-17.3803,1122.6941],[30.2164,-17.374,1125.3389],[30.2225,-17.3687,1122.355],[30.2181,-17.3558,1110.9001],[30.2137,-17.3497,1106.2473],[30.217,-17.3451,1114.3313],[30.2158,-17.3394,1109.4761],[30.2207,-17.3262,1132.2117],[30.2265,-17.3238,1117.5164],[30.234,-17.3115,1111.0544],[30.1929,-17.3049,1286.356],[30.1768,-17.3225,1280.0715],[30.1657,-17.3251,1250.627],[30.1493,-17.3431,1251.3492],[30.1608,-17.3541,1174.8441],[30.1472,-17.3621,1187.3865],[30.1326,-17.3476,1299.6306],[30.1258,-17.3545,1264.1208],[30.0987,-17.358,1261.0802],[30.0927,-17.3716,1221.0443],[30.0699,-17.358,1178.1046],[30.0466,-17.2838,1153.9719],[30.0039,-17.3054,1131.5493],[30.0038,-17.3073,1133.4557],[30.0066,-17.3094,1134.9254],[30.01,-17.3096,1138.5],[30.0152,-17.3127,1138.5],[30.0222,-17.3214,1138.5],[30.0236,-17.3263,1138.5],[30.0229,-17.3502,1140.2627],[30.0249,-17.3479,1140.624],[30.0291,-17.3481,1142.3167],[30.0306,-17.3508,1143.7563],[30.0357,-17.3541,1145.5602],[30.0376,-17.3567,1145.6819],[30.038,-17.3594,1148.4587],[30.0362,-17.3613,1148.2854],[30.0396,-17.3724,1150.8953],[30.0497,-17.3809,1156.8569],[30.0482,-17.3865,1160.4458],[30.053,-17.3965,1166.8215],[30.0594,-17.3989,1167.917],[30.0617,-17.4036,1168.1946],[30.0653,-17.4046,1169.7456],[30.0683,-17.41,1171.5095],[30.0734,-17.4075,1174.9987],[30.076,-17.4107,1176.5157],[30.08,-17.4044,1191.6835],[30.0771,-17.4002,1210.1938],[30.0825,-17.3893,1193.6317],[30.0922,-17.3933,1232.1213],[30.1265,-17.3784,1294.3308],[30.1393,-17.3917,1193.4337],[30.1495,-17.4088,1230.4264],[30.1479,-17.4161,1223.4042],[30.1822,-17.4156,1173.3992],[30.2085,-17.4183,1143.7341],[30.205,-17.4098,1142.0533],[30.207,-17.3995,1137.5728],[30.2104,-17.3964,1132.1848]]]]}
,"properties": {"GID_2": "ZWE.6.3_2","GID_0": "ZWE","country": "Zimbabwe","GID_1": "ZWE.6_1","province": "MashonalandWest","NL_NAME_1": "NA","county": "Chinhoyi","VARNAME_2": "NA","NL_NAME_2": "NA","TYPE_2": "District","ENGTYPE_2": "District","CC_2": "NA","HASC_2": "NA","name": "Chinhoyi.county","area_km2": 150.317,"hist_schema_id": "Elevation0-9000","hist_area_km2": {"1100": 0.7286,"1125": 8.1963,"1150": 50.5158,"1175": 45.8733,"1200": 24.3219,"1225": 11.1291,"1250": 6.1923,"1275": 1.9428,"1300": 1.0929,"1325": 0.3239}}}