{"type":"Feature","properties":{"GID_3":"ZWE.5.8.8_2","GID_0":"ZWE","country":"Zimbabwe","GID_1":"ZWE.5_1","province":"MashonalandEast","NL_NAME_1":"NA","GID_2":"ZWE.5.8_2","county":"Mutoko","NL_NAME_2":"NA","city":"Ward16","VARNAME_3":"NA","NL_NAME_3":"NA","TYPE_3":"Ward","ENGTYPE_3":"Ward","CC_3":"NA","HASC_3":"NA","name":"Ward16.city"},
"geometry":{"type": "MultiPolygon","coordinates": [[[[32.2805,-17.406,1163.3591],[32.326,-17.4275,1180.2585],[32.372,-17.4136,1152.2485],[32.376,-17.409,1135.6689],[32.3812,-17.3889,1088.8352],[32.388,-17.3852,1068.2231],[32.3925,-17.3735,1050.0306],[32.4111,-17.3661,1041.4062],[32.4157,-17.3493,1004.0568],[32.4205,-17.3422,994.7323],[32.4193,-17.3366,1000.7397],[32.4167,-17.335,986.5981],[32.415,-17.3271,1020.4886],[32.4128,-17.3266,985.0605],[32.4107,-17.3222,994.5477],[32.4096,-17.3227,972.1985],[32.4093,-17.3209,983.2383],[32.4066,-17.3195,976.0481],[32.4011,-17.2983,945.9681],[32.384,-17.3132,962.2833],[32.3702,-17.3213,992.3013],[32.363,-17.3229,1003.9028],[32.3405,-17.3425,1023.4446],[32.3294,-17.3641,1047.134],[32.3296,-17.3742,1047.4352],[32.3327,-17.3826,1119.4797],[32.3231,-17.3861,1138.7653],[32.3096,-17.3851,1135.4893],[32.2937,-17.3863,1184.5376],[32.289,-17.3894,1156.6505],[32.2865,-17.4011,1151.8834],[32.2805,-17.406,1163.3591]]]]}}