{"type":"Feature","properties":{"GID_3":"ZWE.3.1.25_2","GID_0":"ZWE","country":"Zimbabwe","GID_1":"ZWE.3_1","province":"Manicaland","NL_NAME_1":"NA","GID_2":"ZWE.3.1_2","county":"Buhera","NL_NAME_2":"NA","city":"Ward32","VARNAME_3":"NA","NL_NAME_3":"NA","TYPE_3":"Ward","ENGTYPE_3":"Ward","CC_3":"NA","HASC_3":"NA","name":"Ward32.city"},
"geometry":{"type": "MultiPolygon","coordinates": [[[[31.7509,-19.4445,1009.3848],[31.7509,-19.4501,1023.0765],[31.76,-19.4564,1007.1344],[31.7619,-19.4602,1002.5709],[31.7705,-19.4653,994.2812],[31.772,-19.4691,989.5261],[31.7765,-19.4695,987.7746],[31.7843,-19.4633,980.8394],[31.7889,-19.463,978.8073],[31.7894,-19.4647,977.7154],[31.7928,-19.4652,975.5876],[31.7928,-19.4681,976.9243],[31.795,-19.4707,972.9274],[31.7934,-19.4707,972.9274],[31.7978,-19.475,973.2784],[31.7982,-19.4883,962.0469],[31.7993,-19.4911,962.6414],[31.8025,-19.4917,958.2691],[31.8021,-19.5001,954.8121],[31.8045,-19.5053,953.995],[31.8106,-19.4905,965.0297],[31.8162,-19.4888,971.1815],[31.8185,-19.4862,975.3541],[31.8221,-19.4786,982.5414],[31.8235,-19.4701,988.6],[31.8327,-19.4656,1001.1132],[31.8351,-19.4602,1010.1645],[31.8586,-19.4578,967.5444],[31.8644,-19.4558,959.671],[31.8671,-19.4577,957.5878],[31.874,-19.4584,941.0898],[31.8764,-19.4575,936.4314],[31.8775,-19.4549,936.9276],[31.8861,-19.455,924.743],[31.8943,-19.4504,914.0135],[31.9018,-19.442,907.0507],[31.9019,-19.4397,904.0743],[31.918,-19.4416,884.7679],[31.919,-19.4395,883.2444],[31.9228,-19.4393,881.1133],[31.9264,-19.4366,880.1069],[31.9426,-19.4343,862.836],[31.9422,-19.4315,868.3253],[31.9499,-19.4303,852.265],[31.9501,-19.4282,852.1108],[31.9597,-19.4257,847.416],[31.9574,-19.4227,853.9675],[31.9499,-19.4191,865.9388],[31.9478,-19.4111,881.9207],[31.9432,-19.4074,901.1565],[31.9425,-19.4019,903.6058],[31.9198,-19.3948,897.4718],[31.9075,-19.3856,890.5779],[31.9013,-19.3775,866.9117],[31.8933,-19.3748,856.3561],[31.8889,-19.3771,857.7953],[31.885,-19.3769,860.6924],[31.8686,-19.3873,873.3004],[31.864,-19.3855,878.1611],[31.8637,-19.389,875.7712],[31.8473,-19.3959,894.1544],[31.8455,-19.4002,891.121],[31.843,-19.4016,892.1149],[31.8366,-19.3995,895.1096],[31.8364,-19.3973,901.741],[31.8336,-19.3975,901.42],[31.8332,-19.3999,904.0888],[31.8244,-19.403,908.5431],[31.8226,-19.4097,918.5068],[31.8098,-19.4137,922.1112],[31.8087,-19.4157,923.8086],[31.8075,-19.4142,925.4633],[31.8053,-19.4146,928.6212],[31.7971,-19.4177,935.263],[31.7945,-19.4202,938.1753],[31.7908,-19.4197,941.1964],[31.7853,-19.4237,947.1855],[31.7837,-19.427,951.3265],[31.7737,-19.4283,962.5826],[31.7641,-19.4338,983.8784],[31.7556,-19.4426,1002.4471],[31.7509,-19.4445,1009.3848]]]]}}