{"type": "Feature","bbox": [31.1972,-19.1808,31.3296,-19.0497],"geometry": {"type": "MultiPolygon","coordinates": [[[[31.3152,-19.0891,1251.3099],[31.3142,-19.0847,1288.3267],[31.3046,-19.0845,1255.0035],[31.3011,-19.079,1263.7955],[31.293,-19.0747,1266.4163],[31.2807,-19.0738,1281.4583],[31.2749,-19.0666,1285.7112],[31.2646,-19.0649,1295.9279],[31.2588,-19.0589,1308.4926],[31.2522,-19.0595,1305.0122],[31.2494,-19.0521,1423.9335],[31.2448,-19.0497,1360.1741],[31.2342,-19.0515,1338.0465],[31.2302,-19.0623,1336.7374],[31.2037,-19.0704,1366.9464],[31.2068,-19.075,1353.0381],[31.2172,-19.082,1352.9995],[31.2194,-19.0865,1353.9987],[31.2155,-19.0978,1339.0219],[31.2087,-19.1015,1355.4006],[31.2004,-19.1104,1377.2666],[31.1972,-19.1164,1357.6028],[31.2976,-19.0834,1269.6692],[31.2988,-19.0876,1277.6993],[31.2812,-19.1022,1283.4021],[31.2798,-19.1068,1288.2135],[31.2696,-19.1139,1317.7502],[31.2656,-19.1192,1319.7263],[31.256,-19.125,1329.8496],[31.2528,-19.1352,1344.858],[31.2701,-19.1404,1328.6809],[31.269,-19.1455,1332.624],[31.2747,-19.1478,1322.4548],[31.2731,-19.1415,1329.4213],[31.2819,-19.142,1339.0676],[31.3008,-19.1808,1345.7527],[31.2975,-19.1574,1332.7885],[31.3296,-19.1501,1289.0613],[31.3189,-19.1277,1286.3909],[31.3152,-19.0891,1251.3099]]]]}
,"properties": {"GID_3": "ZWE.5.1.11_2","GID_0": "ZWE","country": "Zimbabwe","GID_1": "ZWE.5_1","province": "MashonalandEast","NL_NAME_1": "NA","GID_2": "ZWE.5.1_2","county": "Chikomba","NL_NAME_2": "NA","city": "Ward19","VARNAME_3": "NA","NL_NAME_3": "NA","TYPE_3": "Ward","ENGTYPE_3": "Ward","CC_3": "NA","HASC_3": "NA","name": "Ward19.city","area_km2": 72.7252,"hist_schema_id": "Elevation0-9000","hist_area_km2": {"1250": 1.76321,"1275": 7.93404,"1300": 22.33783,"1325": 27.08605,"1350": 12.78261,"1375": 0.68118,"1400": 0.08016,"1425": 0.04008,"1450": 0.02004}}}