{"type":"Feature","properties":{"GID_3":"ZWE.10.9.15_2","GID_0":"ZWE","country":"Zimbabwe","GID_1":"ZWE.10_1","province":"Midlands","NL_NAME_1":"NA","GID_2":"ZWE.10.9_2","county":"Mberengwa","NL_NAME_2":"NA","city":"Ward22","VARNAME_3":"NA","NL_NAME_3":"NA","TYPE_3":"Ward","ENGTYPE_3":"Ward","CC_3":"NA","HASC_3":"NA","name":"Ward22.city"},
"geometry":{"type": "MultiPolygon","coordinates": [[[[30.3568,-21.0399,618.0],[30.3572,-21.0379,693.4104],[30.3637,-21.0354,618.0],[30.3719,-21.0256,633.1238],[30.3783,-21.0204,626.9316],[30.3813,-21.019,624.8575],[30.3934,-21.0195,618.0],[30.3965,-21.0146,618.8436],[30.3958,-21.0097,621.1896],[30.4011,-21.0061,618.8618],[30.4027,-20.9998,620.7665],[30.4093,-20.9993,632.5626],[30.4175,-20.9865,646.2275],[30.4452,-20.9625,711.3664],[30.4429,-20.9346,708.0543],[30.431,-20.9312,676.1979],[30.4256,-20.9372,674.9704],[30.4241,-20.9419,671.5247],[30.4199,-20.9443,669.8323],[30.4035,-20.9455,661.3153],[30.3958,-20.9332,679.337],[30.3968,-20.9308,680.4205],[30.3893,-20.919,693.0038],[30.385,-20.9163,683.6276],[30.381,-20.9184,674.8137],[30.3755,-20.917,677.904],[30.3733,-20.913,672.4908],[30.368,-20.9101,681.1356],[30.3583,-20.9099,700.5843],[30.3455,-20.9141,714.4935],[30.2874,-20.925,696.8653],[30.2842,-20.9389,683.8125],[30.2905,-20.937,685.4548],[30.2931,-20.9378,688.4686],[30.2918,-20.9403,681.4269],[30.2943,-20.9415,676.9652],[30.2969,-20.9472,673.6807],[30.2925,-20.951,678.674],[30.2922,-20.9569,669.8745],[30.2961,-20.9575,670.6251],[30.2946,-20.9617,665.5029],[30.2992,-20.9679,664.4622],[30.29,-20.9746,654.3183],[30.3037,-20.9826,648.8032],[30.3226,-20.9887,632.8489],[30.3315,-20.9946,625.5377],[30.3541,-20.9988,618.85],[30.3526,-21.0075,618.0],[30.339,-21.0358,618.0],[30.3373,-21.0429,618.0],[30.3426,-21.0434,618.0],[30.3568,-21.0399,618.0]]]]}}