{"type": "Feature","bbox": [32.117,-18.5562,32.133,-18.536],"geometry": {"type": "MultiPolygon","coordinates": [[[[32.1313,-18.5497,1398.5662],[32.133,-18.5483,1401.5928],[32.1268,-18.5437,1411.2977],[32.1244,-18.536,1408.2964],[32.1212,-18.5367,1400.8466],[32.117,-18.5458,1398.9194],[32.1243,-18.5495,1405.4657],[32.1225,-18.5562,1384.7991],[32.128,-18.5537,1388.9943],[32.1294,-18.5497,1399.2817],[32.1313,-18.5497,1398.5662]]]]}
,"properties": {"GID_3": "ZWE.3.10.1_2","GID_0": "ZWE","country": "Zimbabwe","GID_1": "ZWE.3_1","province": "Manicaland","NL_NAME_1": "NA","GID_2": "ZWE.3.10_2","county": "Rusape","NL_NAME_2": "NA","city": "Ward1","VARNAME_3": "NA","NL_NAME_3": "NA","TYPE_3": "Ward","ENGTYPE_3": "Ward","CC_3": "NA","HASC_3": "NA","name": "Ward1.city","area_km2": 1.567893,"hist_schema_id": "Elevation0-9000","hist_area_km2": {"1375": 0.0201,"1400": 1.507591,"1425": 0.040202}}}