{"type":"Feature","properties":{"GID_3":"ZWE.5.6.8_2","GID_0":"ZWE","country":"Zimbabwe","GID_1":"ZWE.5_1","province":"MashonalandEast","NL_NAME_1":"NA","GID_2":"ZWE.5.6_2","county":"Mudzi","NL_NAME_2":"NA","city":"Ward16","VARNAME_3":"NA","NL_NAME_3":"NA","TYPE_3":"Ward","ENGTYPE_3":"Ward","CC_3":"NA","HASC_3":"NA","name":"Ward16.city"},
"geometry":{"type": "MultiPolygon","coordinates": [[[[32.9115,-17.0313,545.6789],[32.8916,-17.0444,563.122],[32.8889,-17.049,559.2405],[32.8896,-17.0607,562.3622],[32.8884,-17.0629,562.2679],[32.8807,-17.063,567.444],[32.8691,-17.0582,579.9225],[32.8603,-17.0592,586.334],[32.8532,-17.0702,602.213],[32.8463,-17.074,614.76],[32.8501,-17.0806,618.0379],[32.8504,-17.0867,605.5445],[32.8443,-17.0949,619.2236],[32.8406,-17.0968,627.5964],[32.8369,-17.1031,620.6685],[32.8342,-17.1023,634.5026],[32.8301,-17.1049,629.0746],[32.8265,-17.103,635.8574],[32.8178,-17.1029,648.6273],[32.8085,-17.1127,635.1451],[32.801,-17.1164,653.6216],[32.7944,-17.1233,651.3417],[32.7937,-17.1268,648.8212],[32.7889,-17.1328,661.4942],[32.7887,-17.1359,663.4455],[32.7839,-17.1406,670.3711],[32.782,-17.146,676.3058],[32.7793,-17.1463,677.3177],[32.7782,-17.1556,686.4486],[32.7761,-17.1582,696.1824],[32.7776,-17.1637,695.4498],[32.7873,-17.1707,719.2727],[32.7906,-17.1826,728.2367],[32.7979,-17.185,721.2936],[32.7984,-17.1876,728.8296],[32.7954,-17.188,733.7415],[32.7981,-17.1931,715.2303],[32.8059,-17.2002,706.7225],[32.8255,-17.2133,685.5427],[32.8343,-17.2253,666.1638],[32.8395,-17.2253,662.8693],[32.8405,-17.2284,655.5303],[32.8468,-17.2317,648.5015],[32.8461,-17.2361,647.285],[32.8506,-17.2428,639.217],[32.8585,-17.2457,630.1118],[32.859,-17.2495,619.2663],[32.8556,-17.2511,625.5609],[32.8583,-17.2534,629.1324],[32.8579,-17.2564,611.634],[32.8653,-17.2564,618.6162],[32.8632,-17.2636,604.6921],[32.8659,-17.2677,631.8771],[32.872,-17.2719,581.3946],[32.8726,-17.2784,550.2136],[32.8799,-17.2786,557.2693],[32.8849,-17.2757,567.4508],[32.8896,-17.2758,572.9731],[32.8917,-17.2777,560.2262],[32.8975,-17.2751,556.2874],[32.9075,-17.2766,550.7507],[32.9139,-17.2744,540.9859],[32.9158,-17.2709,541.8776],[32.9197,-17.2699,524.9747],[32.9248,-17.2632,548.6204],[32.9628,-17.2596,523.6587],[32.9938,-17.2457,518.8011],[32.99,-17.1972,701.3484],[32.9865,-17.1793,662.7838],[32.938,-17.0686,693.5824],[32.9278,-17.054,580.1952],[32.9219,-17.0496,565.4792],[32.9115,-17.0313,545.6789]]]]}}