{"type": "Feature","bbox": [29.9881,-18.1077,30.2853,-17.9163],"geometry": {"type": "MultiPolygon","coordinates": [[[[30.1635,-18.1067,1164.1481],[30.1637,-18.1037,1161.8213],[30.1714,-18.0905,1178.6538],[30.1558,-18.0424,1158.853],[30.1684,-18.0365,1167.1827],[30.1788,-18.0348,1168.0431],[30.211,-18.0136,1188.5209],[30.2214,-18.0097,1193.6375],[30.2291,-18.0102,1193.9965],[30.2477,-18.0201,1203.0835],[30.2559,-18.0204,1211.078],[30.2596,-18.0183,1212.8844],[30.2853,-18.0212,1230.8318],[30.2765,-17.9848,1196.7157],[30.2706,-17.9681,1199.7114],[30.2591,-17.9793,1198.1858],[30.1826,-17.9726,1183.1277],[30.1669,-17.9308,1182.183],[30.0994,-17.9316,1148.9613],[30.0943,-17.9437,1128.8638],[30.0877,-17.9354,1130.9766],[30.074,-17.9246,1088.8812],[30.0721,-17.9173,1092.505],[30.0683,-17.9173,1092.8792],[30.065,-17.9196,1079.7616],[30.0544,-17.917,1085.9019],[30.0521,-17.9199,1079.2629],[30.0491,-17.9184,1080.7202],[30.042,-17.9215,1076.0057],[30.0381,-17.9182,1076.364],[30.0364,-17.9279,1064.4243],[30.0345,-17.9288,1067.2224],[30.0336,-17.9223,1064.26],[30.0302,-17.9208,1063.7531],[30.0267,-17.9163,1061.2559],[30.0222,-17.9251,1052.3613],[30.0174,-17.9301,1047.8967],[30.0131,-17.9292,1031.5289],[30.0096,-17.9216,1032.5098],[30.0055,-17.9183,1026.2805],[30.0035,-17.9203,1025.4313],[30.0034,-17.9295,1016.1319],[29.9974,-17.9293,1021.7829],[29.9917,-17.9325,1012.5101],[29.9882,-17.9322,1032.1421],[29.99,-17.9384,1011.2155],[29.9881,-17.9428,1000.4873],[29.991,-17.9437,1009.4824],[29.9948,-17.9489,1001.396],[29.9978,-17.9574,990.4006],[29.9921,-17.968,996.8342],[29.9916,-17.9721,997.3474],[29.9953,-17.9762,1012.9427],[29.9965,-17.985,1002.6608],[30.0058,-18.0026,1026.9958],[30.0125,-18.007,1055.5988],[30.0173,-18.0074,1062.6467],[30.0227,-18.0181,1057.9585],[30.0334,-18.0234,1100.8518],[30.0386,-18.0321,1117.2983],[30.0452,-18.0334,1125.9994],[30.0516,-18.0378,1122.4705],[30.0551,-18.0371,1129.7092],[30.0615,-18.0448,1134.5256],[30.0626,-18.053,1129.2804],[30.0665,-18.056,1133.496],[30.0826,-18.0564,1131.5],[30.0879,-18.058,1134.7672],[30.1059,-18.0519,1137.0233],[30.1109,-18.0513,1139.6846],[30.1159,-18.0532,1147.9437],[30.1155,-18.0649,1136.8318],[30.1204,-18.0676,1141.6052],[30.12,-18.0733,1144.7627],[30.1226,-18.0767,1141.469],[30.1303,-18.0776,1152.1171],[30.1283,-18.0809,1152.5645],[30.1309,-18.0854,1157.5508],[30.1326,-18.0869,1166.912],[30.1381,-18.0856,1164.3611],[30.1445,-18.0799,1159.5955],[30.1462,-18.0804,1162.5452],[30.1482,-18.0946,1161.8442],[30.139,-18.0979,1162.0139],[30.1402,-18.104,1159.5967],[30.157,-18.1077,1163.0225],[30.1635,-18.1067,1164.1481]]]]}
,"properties": {"GID_3": "ZWE.6.1.15_2","GID_0": "ZWE","country": "Zimbabwe","GID_1": "ZWE.6_1","province": "MashonalandWest","NL_NAME_1": "NA","GID_2": "ZWE.6.1_2","county": "Chegutu","NL_NAME_2": "NA","city": "Ward22","VARNAME_3": "NA","NL_NAME_3": "NA","TYPE_3": "Ward","ENGTYPE_3": "Ward","CC_3": "NA","HASC_3": "NA","name": "Ward22.city","area_km2": 313.932,"hist_schema_id": "Elevation0-9000","hist_area_km2": {"975": 0.0202,"1000": 3.0053,"1025": 7.2611,"1050": 14.1178,"1075": 22.0651,"1100": 18.838,"1125": 22.7471,"1150": 72.4075,"1175": 114.5323,"1200": 32.7877,"1225": 5.666,"1250": 0.3226,"1275": 0.1613}}}