{"type":"Feature","properties":{"GID_3":"ZWE.8.3.10_2","GID_0":"ZWE","country":"Zimbabwe","GID_1":"ZWE.8_1","province":"MatabelelandNorth","NL_NAME_1":"NA","GID_2":"ZWE.8.3_2","county":"Hwange","NL_NAME_2":"NA","city":"Ward18","VARNAME_3":"NA","NL_NAME_3":"NA","TYPE_3":"Ward","ENGTYPE_3":"Ward","CC_3":"NA","HASC_3":"NA","name":"Ward18.city"},
"geometry":{"type": "MultiPolygon","coordinates": [[[[26.8667,-18.6038,1107.9688],[26.8429,-18.5928,1119.1128],[26.8335,-18.6042,1071.4398],[26.8335,-18.6066,1083.4309],[26.8348,-18.6094,1084.0696],[26.8418,-18.6133,1100.6377],[26.8487,-18.6197,1098.921],[26.8539,-18.62,1100.642],[26.8444,-18.6308,1103.0687],[26.8789,-18.6573,1092.4567],[26.8903,-18.6435,1092.8208],[26.8728,-18.6305,1096.068],[26.8795,-18.6214,1098.3269],[26.8632,-18.6083,1105.95],[26.8667,-18.6038,1107.9688]]]]}}