{"type": "Feature","id": "526","bbox": [25.21937,-20.33705,29.22393,-16.86539],"geometry": {"type": "Polygon","coordinates": [[[28.09863,-17.13957,518.924],[28.09139,-17.13751,495.7769],[28.08695,-17.13213,545.8105],[28.08343,-17.12495,519.2124],[28.0792,-17.11312,484.6255],[28.07506,-17.10707,483.5],[28.06989,-17.10299,483.5],[28.05584,-17.09787,523.7679],[28.04747,-17.09265,483.5],[28.04406,-17.08847,491.543],[28.04261,-17.08464,502.4594],[28.04282,-17.07994,500.2988],[28.04571,-17.06221,483.5],[28.05842,-17.02754,483.5],[28.05811,-17.01839,483.5],[28.05212,-17.01229,483.5],[28.0363,-17.00403,483.5],[28.03238,-17.00025,483.5],[28.03217,-16.99938,483.5],[28.03238,-16.99762,483.5],[28.0331,-16.9924,483.5],[28.03641,-16.98325,483.5],[28.04261,-16.94599,483.5],[28.02587,-16.87292,483.5],[28.02299,-16.86539,483.5],[27.86856,-16.92966,483.5],[27.81689,-16.95964,483.5],[27.7773,-17.00118,483.5],[27.64119,-17.19848,483.5],[27.62486,-17.23331,483.5],[27.6045,-17.31279,483.5],[27.57731,-17.36313,483.5],[27.52429,-17.41511,504.4458],[27.42208,-17.50482,483.5],[27.15708,-17.7693,483.5],[27.14695,-17.78387,483.5],[27.1453,-17.79411,483.5],[27.14654,-17.81891,483.5],[27.14902,-17.84248,483.5],[27.11543,-17.88216,483.5],[27.07817,-17.91699,483.5],[27.04846,-17.94428,483.5],[27.02128,-17.95854,502.5271],[27.00629,-17.96268,536.7661],[26.95916,-17.96474,610.4359],[26.94867,-17.96888,571.6615],[26.91203,-17.99203,595.7705],[26.88826,-17.98459,653.8704],[26.794,-18.02624,484.0],[26.76971,-18.02903,571.2167],[26.75359,-18.03296,568.9564],[26.74057,-18.0405,544.9766],[26.71194,-18.06582,544.238],[26.7,-18.06923,495.8069],[26.68569,-18.06675,513.0854],[26.62884,-18.04918,530.384],[26.61272,-18.04122,565.4839],[26.59887,-18.02996,497.0509],[26.58337,-18.01321,652.2271],[26.57024,-18.00288,608.8245],[26.5536,-17.99647,633.0542],[26.52715,-17.99203,633.4374],[26.48549,-17.97931,703.2478],[26.4086,-17.93901,549.4357],[26.36271,-17.93064,641.9869],[26.3255,-17.93601,584.837],[26.31827,-17.93436,547.9016],[26.31196,-17.92836,845.9471],[26.3038,-17.92278,752.6029],[26.29429,-17.91854,704.2268],[26.2483,-17.91338,623.4645],[26.2392,-17.91017,560.7477],[26.23393,-17.90397,563.5419],[26.22825,-17.89467,719.5102],[26.22112,-17.8863,576.6797],[26.21192,-17.88278,594.0437],[26.20303,-17.88723,736.2463],[26.16748,-17.91358,698.4375],[26.15859,-17.91834,684.9604],[26.13544,-17.92257,577.25],[26.11859,-17.93157,829.4764],[26.10123,-17.9358,844.0121],[26.09523,-17.93808,785.902],[26.0942,-17.9419,816.7178],[26.09616,-17.95461,835.4603],[26.09523,-17.95854,740.485],[26.08118,-17.96237,847.6322],[26.06247,-17.96288,888.3372],[26.04655,-17.96629,884.5317],[26.04056,-17.97849,829.159],[26.03374,-17.97156,848.1905],[25.97855,-17.99895,679.6593],[25.96697,-18.0005,724.7079],[25.92449,-17.99895,888.9014],[25.86362,-17.97156,784.7031],[25.85349,-17.95999,877.2194],[25.84615,-17.94366,831.3901],[25.8475,-17.9294,850.4499],[25.86362,-17.92381,887.7892],[25.84967,-17.90666,883.0],[25.8044,-17.88816,898.0319],[25.79468,-17.87265,886.0],[25.786,-17.86222,886.5],[25.76595,-17.84981,888.5],[25.74383,-17.83938,898.9071],[25.70642,-17.82987,901.694],[25.69422,-17.81943,904.0403],[25.68141,-17.81147,895.873],[25.65702,-17.81395,905.1047],[25.604,-17.83617,905.4262],[25.53682,-17.84868,906.0],[25.53093,-17.85095,914.0857],[25.52214,-17.86015,914.6885],[25.51646,-17.86232,908.1506],[25.51015,-17.86118,915.0754],[25.50075,-17.85601,910.4015],[25.49558,-17.85488,911.6188],[25.42029,-17.85488,920.9059],[25.40954,-17.85302,916.9817],[25.37647,-17.84124,915.875],[25.34525,-17.84258,921.9491],[25.33554,-17.84124,920.5],[25.3159,-17.83214,923.3182],[25.28541,-17.8093,924.2516],[25.26671,-17.80093,923.3832],[25.25978,-17.79411,921.0],[25.21937,-17.87979,999.7941],[25.21937,-17.908,1042.635],[25.22609,-17.93188,1041.3303],[25.25503,-18.00112,1050.042],[25.29637,-18.06861,1053.5425],[25.32345,-18.09662,1057.9976],[25.35745,-18.11584,1059.0314],[25.38752,-18.139,1059.9969],[25.40882,-18.176,1075.2856],[25.44085,-18.2532,1067.8138],[25.4732,-18.30343,1068.1294],[25.48116,-18.32338,1067.062],[25.49052,-18.36554,1063.8394],[25.49558,-18.37888,1063.7841],[25.5085,-18.39913,1067.7368],[25.57444,-18.46569,1065.1301],[25.60844,-18.48771,1073.1669],[25.62208,-18.50114,1046.4552],[25.66952,-18.56605,1072.2845],[25.69826,-18.59023,1093.8864],[25.73691,-18.60873,1106.1134],[25.76192,-18.63033,1091.7111],[25.77339,-18.66558,1072.1501],[25.77949,-18.73875,1080.0405],[25.81525,-18.81399,1069.1565],[25.94072,-18.92127,1066.6947],[25.96745,-18.99993,1045.8746],[25.9678,-19.00096,1045.9249],[25.96439,-19.02163,1042.5929],[25.94806,-19.05873,1037.7822],[25.94486,-19.0792,1036.4275],[25.94858,-19.10328,1036.7212],[25.95653,-19.12209,1032.4856],[25.98113,-19.16178,1029.2301],[26.01141,-19.19981,1007.7943],[26.03436,-19.24373,984.8795],[26.13027,-19.50108,991.2765],[26.15549,-19.53715,968.4712],[26.19445,-19.5602,967.1189],[26.2391,-19.57147,962.4131],[26.29264,-19.5725,969.0352],[26.30349,-19.57725,970.0018],[26.3132,-19.58418,970.2877],[26.32106,-19.59203,967.6125],[26.33098,-19.60495,967.3423],[26.33346,-19.61301,966.3314],[26.32633,-19.63389,964.6698],[26.3191,-19.64629,961.3954],[26.31248,-19.6496,961.5234],[26.31217,-19.65136,961.329],[26.32437,-19.65911,954.1945],[26.33233,-19.66242,958.3728],[26.36271,-19.66758,970.8698],[26.38524,-19.67906,971.4056],[26.41284,-19.71957,959.9731],[26.43185,-19.73652,955.9896],[26.45025,-19.74334,957.2995],[26.48973,-19.75192,954.9923],[26.50885,-19.75926,943.2526],[26.54926,-19.78406,938.9225],[26.56632,-19.80081,942.3595],[26.57479,-19.81951,940.8469],[26.58192,-19.84215,943.0726],[26.59556,-19.85558,945.7674],[26.61406,-19.86344,948.8033],[26.65944,-19.87574,950.6625],[26.6738,-19.88338,953.838],[26.67717,-19.88682,953.7144],[26.69478,-19.87708,955.2312],[26.72703,-19.86039,961.65],[26.74284,-19.85471,962.8662],[26.93839,-19.81016,989.9562],[26.95689,-19.80923,991.0669],[26.97425,-19.81057,995.3492],[26.99626,-19.81491,997.1469],[27.13558,-19.79884,1016.7047],[27.16029,-19.80256,1020.808],[27.16711,-19.80298,1021.8604],[27.1732,-19.80391,1020.8589],[27.17848,-19.80582,1022.3671],[27.18375,-19.80907,1022.6922],[27.19005,-19.81202,1023.8618],[27.20142,-19.81435,1025.1644],[27.21248,-19.81202,1025.8043],[27.22798,-19.81187,1028.8503],[27.24545,-19.81502,1030.2795],[27.26209,-19.81641,1033.2981],[27.27108,-19.81522,1034.4117],[27.2779,-19.81305,1036.5869],[27.29175,-19.80189,1040.907],[27.30043,-19.79693,1040.0198],[27.30787,-19.79528,1038.9434],[27.31531,-19.79466,1041.5381],[27.36916,-19.80117,1048.1639],[27.3889,-19.80582,1051.6808],[27.40813,-19.81564,1055.0286],[27.44244,-19.83827,1060.5327],[27.4567,-19.84556,1062.6752],[27.47903,-19.85067,1066.2733],[27.50559,-19.85403,1071.1829],[27.51778,-19.85703,1073.7723],[27.52605,-19.86054,1076.3008],[27.53246,-19.86861,1076.1772],[27.53525,-19.87305,1076.4073],[27.54186,-19.8807,1081.0735],[27.55489,-19.88917,1084.0677],[27.5583,-19.89295,1081.707],[27.56109,-19.89754,1080.8511],[27.56285,-19.90297,1083.8257],[27.56378,-19.90897,1083.498],[27.5645,-19.92152,1087.547],[27.56729,-19.93976,1091.6104],[27.56936,-19.94478,1092.3181],[27.57163,-19.94938,1091.6782],[27.57866,-19.9563,1093.9224],[27.58496,-19.961,1094.5793],[27.59065,-19.96638,1097.1169],[27.61059,-19.99516,1104.2766],[27.64542,-20.03201,1117.6169],[27.65318,-20.03841,1116.5542],[27.67126,-20.0487,1120.0144],[27.6877,-20.06064,1123.4778],[27.7619,-20.12854,1174.4139],[27.77834,-20.14048,1177.2778],[27.80149,-20.15283,1190.0762],[27.80552,-20.15598,1190.9116],[27.80903,-20.15949,1196.0228],[27.81265,-20.1643,1196.7126],[27.8172,-20.16931,1208.6445],[27.82867,-20.17655,1202.2524],[27.84241,-20.18058,1245.407],[27.88293,-20.18704,1236.8459],[27.91445,-20.18735,1262.705],[27.91941,-20.18228,1263.4928],[27.92189,-20.17205,1280.0105],[27.92406,-20.14358,1304.1279],[27.93016,-20.11236,1272.2728],[27.94422,-20.07226,1216.525],[27.94794,-20.06451,1217.5522],[27.95197,-20.06115,1218.9113],[27.95755,-20.06694,1223.0912],[27.99248,-20.11898,1277.0825],[27.99806,-20.1213,1280.2137],[28.00209,-20.12136,1275.8823],[28.0391,-20.10379,1238.6368],[28.04819,-20.10074,1236.4838],[28.09067,-20.09944,1217.7571],[28.10111,-20.0981,1218.5876],[28.1348,-20.08467,1186.5142],[28.13955,-20.08353,1193.8459],[28.14234,-20.08384,1196.4508],[28.14483,-20.08622,1197.693],[28.14741,-20.08963,1205.7783],[28.15154,-20.09965,1218.6965],[28.15392,-20.1041,1219.0862],[28.15774,-20.10756,1211.9861],[28.16302,-20.11045,1219.4054],[28.17717,-20.11593,1221.0291],[28.18255,-20.11867,1222.5103],[28.18648,-20.12213,1224.5527],[28.18906,-20.12657,1226.162],[28.19051,-20.13138,1227.9475],[28.19175,-20.13696,1225.8662],[28.1934,-20.14223,1230.8013],[28.1995,-20.15029,1231.1483],[28.20208,-20.15458,1233.5691],[28.20343,-20.15949,1230.4849],[28.20477,-20.17143,1238.3506],[28.20756,-20.17562,1247.3499],[28.22864,-20.19711,1249.4218],[28.2488,-20.21318,1257.1804],[28.25097,-20.21691,1259.4202],[28.25314,-20.22357,1257.7366],[28.25521,-20.22729,1272.2256],[28.25862,-20.23091,1263.1377],[28.26265,-20.23411,1262.8577],[28.2673,-20.2369,1258.7303],[28.27216,-20.23938,1266.3882],[28.27619,-20.24264,1266.2683],[28.27867,-20.24714,1275.2341],[28.28032,-20.25272,1270.9312],[28.28249,-20.25685,1287.8606],[28.29355,-20.26734,1289.7246],[28.30564,-20.283,1297.6095],[28.30823,-20.28734,1297.8521],[28.31226,-20.29695,1303.1956],[28.31701,-20.31245,1319.7501],[28.32693,-20.33209,1346.9717],[28.33231,-20.33705,1354.394],[28.33903,-20.33561,1364.4425],[28.474,-20.23995,1351.1379],[28.49974,-20.22977,1365.7471],[28.51245,-20.20228,1342.4277],[28.51049,-20.19267,1340.1213],[28.50098,-20.1829,1356.1704],[28.49374,-20.17143,1369.5352],[28.4863,-20.1691,1350.6918],[28.47803,-20.16972,1339.9487],[28.46605,-20.17458,1322.3092],[28.46067,-20.17551,1311.6255],[28.45426,-20.17536,1307.2081],[28.43721,-20.17112,1300.9972],[28.42977,-20.1704,1310.6063],[28.41685,-20.17096,1317.7234],[28.4091,-20.17003,1323.7219],[28.39659,-20.16637,1312.5498],[28.39205,-20.16166,1313.46],[28.39111,-20.15706,1317.1746],[28.39453,-20.15267,1310.8951],[28.40755,-20.14518,1273.9868],[28.41375,-20.14053,1251.5842],[28.41747,-20.13427,1260.6426],[28.41716,-20.12394,1286.71],[28.41768,-20.11634,1298.7463],[28.41964,-20.10937,1290.1942],[28.42367,-20.09991,1284.8274],[28.42522,-20.09428,1281.528],[28.42543,-20.08529,1265.8413],[28.41582,-20.04901,1243.6354],[28.41489,-20.03697,1249.0504],[28.41623,-20.03206,1253.8639],[28.41923,-20.02958,1258.6782],[28.42367,-20.02942,1261.4148],[28.43122,-20.03123,1266.9521],[28.48785,-20.06007,1269.5776],[28.49757,-20.0627,1269.1565],[28.50532,-20.06239,1280.281],[28.51214,-20.05898,1284.0022],[28.52444,-20.04875,1281.8363],[28.53043,-20.04627,1279.8832],[28.55255,-20.04317,1271.619],[28.57209,-20.03671,1272.1887],[28.57798,-20.03655,1280.4958],[28.58139,-20.0381,1283.2255],[28.58211,-20.04084,1281.6257],[28.57891,-20.04901,1271.1713],[28.57767,-20.0535,1270.3728],[28.57715,-20.0658,1280.1248],[28.57612,-20.06927,1284.6411],[28.57622,-20.07211,1286.7729],[28.57705,-20.0749,1289.3762],[28.57953,-20.07769,1288.2773],[28.58201,-20.07924,1286.7349],[28.58614,-20.08043,1285.0408],[28.59172,-20.08089,1294.2339],[28.5971,-20.08187,1294.2897],[28.60175,-20.0842,1290.8391],[28.61239,-20.09221,1295.4172],[28.61911,-20.09536,1303.4395],[28.62666,-20.09562,1293.9141],[28.63379,-20.09381,1302.3524],[28.64743,-20.08761,1321.9069],[28.65384,-20.0873,1327.6641],[28.65818,-20.09102,1329.6223],[28.65942,-20.10275,1326.5397],[28.66087,-20.10678,1319.3872],[28.66469,-20.11019,1317.4037],[28.6712,-20.11283,1327.7123],[28.67802,-20.11484,1330.5303],[28.68133,-20.1182,1325.199],[28.68174,-20.12306,1327.9111],[28.67988,-20.12968,1331.4186],[28.67699,-20.13681,1338.502],[28.67058,-20.14843,1329.4171],[28.66955,-20.15169,1334.9563],[28.66903,-20.15582,1342.063],[28.66934,-20.15996,1344.9438],[28.67234,-20.16445,1350.593],[28.67575,-20.16755,1344.8042],[28.69528,-20.17996,1369.7146],[28.69942,-20.18399,1376.6437],[28.70148,-20.18843,1388.0591],[28.70128,-20.19339,1391.3021],[28.69931,-20.19918,1372.2445],[28.6957,-20.20492,1367.4951],[28.69032,-20.2107,1373.4415],[28.6835,-20.21582,1402.1313],[28.66676,-20.22269,1392.592],[28.59989,-20.2367,1456.8916],[28.65146,-20.27638,1406.5842],[28.65901,-20.27778,1398.3857],[28.67265,-20.27623,1412.854],[28.699,-20.24941,1415.9276],[28.70562,-20.23417,1437.1791],[28.72195,-20.22264,1420.7095],[28.74076,-20.20538,1418.2538],[28.83894,-20.0935,1345.7679],[28.84194,-20.0873,1348.0234],[28.84194,-20.08182,1355.6561],[28.83574,-20.06203,1361.4454],[28.83481,-20.05619,1364.9591],[28.83491,-20.04984,1365.3125],[28.83801,-20.04193,1377.8353],[28.84111,-20.03774,1389.674],[28.84576,-20.03516,1396.207],[28.88928,-20.01805,1377.6991],[28.95935,-19.98018,1362.1963],[28.97113,-19.97118,1367.7642],[28.98808,-19.94478,1371.0142],[28.99046,-19.93992,1366.4441],[28.99118,-19.93542,1374.3062],[28.99087,-19.93253,1373.7286],[28.98126,-19.91026,1360.2346],[28.96731,-19.85812,1339.3955],[28.96328,-19.84819,1340.7784],[28.962039999999998,-19.84266,1350.3955],[28.96214,-19.83579,1341.5161],[28.96576,-19.83285,1343.4172],[28.97103,-19.83238,1349.7554],[29.03087,-19.84323,1394.746],[29.04203,-19.84106,1392.0859],[29.05526,-19.83579,1399.2373],[29.07851,-19.81988,1373.8416],[29.08503,-19.81181,1389.4521],[29.08802,-19.80422,1384.3346],[29.08844,-19.79776,1396.5215],[29.09588,-19.77921,1390.363],[29.10043,-19.76412,1381.3501],[29.10187,-19.7558,1370.0393],[29.10291,-19.71621,1360.6189],[29.10198,-19.705,1340.9211],[29.09898,-19.69766,1355.8474],[29.09278,-19.69223,1336.3612],[29.08503,-19.68784,1347.2915],[29.0781,-19.68273,1346.2441],[29.06456,-19.67027,1337.0814],[29.06012,-19.66469,1344.601],[29.05764,-19.65704,1333.946],[29.06043,-19.65162,1323.0526],[29.06446,-19.64702,1318.7958],[29.10869,-19.61017,1321.0059],[29.11717,-19.59932,1330.1338],[29.12244,-19.59064,1335.2214],[29.12585,-19.57519,1320.2103],[29.12637,-19.56682,1320.5583],[29.12513,-19.55896,1313.8107],[29.1212,-19.55157,1302.4891],[29.115,-19.54397,1302.5505],[29.09991,-19.53085,1300.0692],[29.09453,-19.52413,1277.8474],[29.09123,-19.51674,1272.139],[29.09154,-19.50563,1249.9934],[29.09453,-19.50015,1254.4218],[29.09981,-19.49643,1248.123],[29.10652,-19.49473,1261.085],[29.11345,-19.49385,1260.4034],[29.11955,-19.49431,1271.6575],[29.15221,-19.50015,1288.6139],[29.16285,-19.50331,1268.0532],[29.17195,-19.50883,1266.7622],[29.17722,-19.51297,1282.4308],[29.18424,-19.5169,1290.2158],[29.19231,-19.51829,1277.8872],[29.20016,-19.51705,1269.9615],[29.2106,-19.51007,1255.8208],[29.21556,-19.5048,1250.9719],[29.22393,-19.48744,1237.3694],[29.09836,-19.37339,1209.734],[29.09371,-19.3661,1207.9387],[29.11562,-19.33246,1238.6851],[29.11841,-19.32518,1251.9325],[29.1181,-19.31334,1278.3513],[29.11552,-19.30611,1288.4908],[29.10931,-19.29696,1268.7058],[29.01909,-19.20394,1167.3186],[29.0073,-19.19552,1175.5907],[28.99821,-19.18374,1173.062],[28.99707,-19.17971,1174.827],[28.99697,-19.17707,1172.1919],[28.99707,-19.14906,1157.9368],[28.998,-19.14395,1160.1219],[28.99986,-19.13945,1153.3907],[29.00482,-19.13465,1154.0643],[29.01092,-19.12695,1156.4133],[29.01371,-19.12198,1159.1414],[29.01526,-19.11542,1155.3485],[29.0163,-19.10819,1148.1467],[29.0163,-19.09935,1146.5171],[29.01278,-19.09072,1146.1841],[28.99149,-19.0562,1138.2004],[28.98353,-19.04556,1137.3894],[28.9764,-19.03884,1137.0486],[28.96431,-19.0345,1144.2756],[28.95739,-19.03067,1138.0247],[28.94932,-19.02328,1131.3666],[28.94385,-19.01212,1129.0771],[28.93971,-19.00003,1137.0303],[28.88121,-18.74738,1082.0645],[28.88183,-18.72904,1075.8032],[28.88866,-18.72015,1084.8857],[28.89858,-18.71581,1090.0677],[28.95273,-18.70335,1167.1189],[29.12823,-18.63282,1164.028],[29.13722,-18.6262,1171.2439],[29.14187,-18.61514,1176.3237],[29.14125,-18.60605,1178.9473],[29.13701,-18.59458,1189.1049],[29.12368,-18.57091,1204.5347],[29.11686,-18.56672,1218.7871],[29.10725,-18.56522,1219.8586],[28.73332,-18.5692,1206.2166],[28.71885,-18.56739,1200.3972],[28.70066,-18.56243,1181.334],[28.69042,-18.55789,1171.6178],[28.68474,-18.55592,1170.004],[28.67833,-18.55515,1170.342],[28.67203,-18.55515,1167.3406],[28.66614,-18.55633,1177.5568],[28.64547,-18.56269,1158.0126],[28.63379,-18.56491,1166.3712],[28.6157,-18.56615,1154.8418],[28.61084,-18.56708,1157.9044],[28.54759,-18.56662,1147.5269],[28.5418,-18.5677,1145.2971],[28.51059,-18.57732,1153.6008],[28.5016,-18.57866,1147.6215],[28.46046,-18.58047,1136.6986],[28.44703,-18.5798,1135.9304],[28.4276,-18.57639,1138.3362],[28.37582,-18.57623,1109.7031],[28.35298,-18.58067,1110.4768],[28.34068,-18.58124,1109.5834],[28.33448,-18.58062,1108.0618],[28.32177,-18.57809,1102.6626],[28.22182,-18.57514,1078.3328],[28.20374,-18.57003,1102.9895],[28.1903,-18.56786,1086.6453],[28.14968,-18.56553,1088.8605],[28.13728,-18.56259,1102.1306],[28.12157,-18.55577,1093.4165],[28.11568,-18.55447,1096.6384],[28.10979,-18.55453,1113.9329],[28.05656,-18.5613,1070.3463],[28.04375,-18.56104,1068.3531],[28.03703,-18.55995,1062.2349],[28.02959,-18.55757,1046.9425],[28.02184,-18.55282,1038.1904],[28.01067,-18.54342,1059.6213],[28.00675,-18.52941,1079.6681],[28.0052,-18.5152,1132.4695],[28.00923,-18.2223,939.6051],[28.01346,-18.21682,942.9957],[28.01853,-18.21413,930.5302],[28.04633,-18.20824,915.2668],[28.10007,-18.20214,885.8969],[28.10483,-18.20028,890.5946],[28.10689,-18.19708,878.1914],[28.10441,-18.18964,936.3744],[28.09945,-18.18576,966.5156],[28.09387,-18.18282,989.3037],[28.0732,-18.17868,1020.5886],[28.06524,-18.17574,1024.6688],[28.0547,-18.16871,999.0998],[28.05067,-18.16282,995.3512],[28.04943,-18.15636,1011.1099],[28.05119,-18.15155,1027.751],[28.05408,-18.14752,1022.9233],[28.0578,-18.14427,960.5757],[28.06607,-18.13869,943.2666],[28.06979,-18.13528,932.928],[28.07258,-18.13083,929.5627],[28.07444,-18.12572,923.8212],[28.07486,-18.12019,916.3088],[28.07382,-18.11491,918.6861],[28.06803,-18.10055,902.3875],[28.06638,-18.08908,890.6658],[28.067,-18.06897,875.13],[28.06514,-18.06153,864.5443],[28.06121,-18.05781,871.9639],[28.05584,-18.05673,858.7529],[28.05067,-18.05797,868.997],[28.04592,-18.05967,881.0571],[28.04003,-18.06076,891.0547],[28.03362,-18.05998,907.8844],[28.02401,-18.05425,891.67],[28.01966,-18.04898,884.9656],[28.01749,-18.04277,878.8635],[28.01512,-18.02898,866.8174],[28.00974,-18.01275,866.538],[28.00861,-18.00691,862.5024],[28.00892,-18.00273,854.2354],[28.00943,-18.00071,854.3438],[28.00954,-17.99993,854.3438],[28.01284,-17.9957,858.9722],[28.01594,-17.99265,855.848],[28.03207,-17.98061,833.8242],[28.03579,-17.9773,830.0921],[28.03889,-17.97358,827.9393],[28.04158,-17.96893,822.1639],[28.04354,-17.96381,818.188],[28.04592,-17.95193,827.8627],[28.04778,-17.94666,840.973],[28.05057,-17.94263,840.4497],[28.0546,-17.93952,848.3295],[28.05904,-17.93741,851.5122],[28.06359,-17.93477,860.6929],[28.06648,-17.93048,871.4855],[28.06772,-17.92423,866.2601],[28.06576,-17.91482,851.2057],[28.06555,-17.90769,846.8373],[28.06607,-17.9018,837.0928],[28.07413,-17.88139,843.6071],[28.08684,-17.85788,814.8807],[28.08808,-17.8509,811.9691],[28.08819,-17.84196,798.7171],[28.07692,-17.79499,777.504],[28.07661,-17.7876,796.8442],[28.07785,-17.78171,846.9609],[28.0823,-17.77121,864.5159],[28.08498,-17.75943,865.9333],[28.08715,-17.75452,889.9083],[28.11341,-17.73194,946.7095],[28.11754,-17.72931,931.8888],[28.12209,-17.72775,910.2151],[28.12684,-17.72832,865.3628],[28.13139,-17.73039,838.3655],[28.13511,-17.7338,823.7892],[28.13883,-17.73664,819.1509],[28.14317,-17.73799,817.0034],[28.1472,-17.73638,803.0308],[28.15082,-17.73365,793.3448],[28.15774,-17.72636,759.3961],[28.17345,-17.71375,737.3471],[28.20105,-17.68512,716.2831],[28.2026,-17.67882,719.4374],[28.20208,-17.67081,748.1743],[28.19588,-17.64802,955.376],[28.19578,-17.64063,883.1884],[28.20146,-17.62466,890.416],[28.20663,-17.60079,747.3447],[28.2088,-17.59619,731.9518],[28.21428,-17.58782,782.8948],[28.21614,-17.58353,727.8116],[28.21645,-17.57655,681.8702],[28.21593,-17.56807,1008.4055],[28.21252,-17.55562,932.939],[28.2118,-17.54715,957.8325],[28.21221,-17.54001,918.1907],[28.21376,-17.53428,861.0817],[28.22079,-17.51831,911.7408],[28.22585,-17.50059,640.0361],[28.22616,-17.50007,640.0361],[28.22668,-17.49976,640.0361],[28.22988,-17.4964,811.3434],[28.23236,-17.49283,765.9543],[28.23392,-17.48834,722.7709],[28.23474,-17.47547,616.7485],[28.2426,-17.45521,610.5096],[28.24497,-17.44638,608.6832],[28.24756,-17.40958,652.3458],[28.23547,-17.36561,587.4895],[28.23102,-17.35992,603.6654],[28.22461,-17.3532,591.5645],[28.21717,-17.3514,609.918],[28.2088,-17.34767,662.004],[28.19764,-17.34091,603.8475],[28.18803,-17.32943,631.1539],[28.16849,-17.31517,594.975],[28.16457,-17.30943,567.239],[28.16177,-17.3008,601.8204],[28.16074,-17.29114,649.4522],[28.15547,-17.27404,661.238],[28.15557,-17.25683,554.8973],[28.15485,-17.24877,569.0782],[28.15144,-17.24256,648.8644],[28.14503,-17.23481,598.2363],[28.14224,-17.22903,571.5142],[28.14193,-17.22339,598.1389],[28.14669,-17.21223,591.9797],[28.147,-17.2021,634.2051],[28.14389,-17.19513,746.6472],[28.138,-17.1867,532.7921],[28.13542,-17.1804,499.3553],[28.13418,-17.17404,502.5873],[28.1349,-17.16789,504.0666],[28.13821,-17.1558,503.8359],[28.13862,-17.14929,493.263],[28.13604,-17.14526,492.5312],[28.1317,-17.14231,489.2413],[28.12054,-17.13859,490.1],[28.11496,-17.13782,510.0581],[28.11,-17.13833,501.6092],[28.10472,-17.13952,509.394],[28.09863,-17.13957,518.924]]]}
,"properties": {"ISO3166-1-Alpha-3": "ZWE","country": "Zimbabwe","fill": "#FF0","name": "Matabeleland North","area_km2": 76370.15,"hist_schema_id": "Elevation0-9000","hist_area_km2": {"475": 1220.3,"500": 448.11,"525": 521.27,"550": 602.87,"575": 743.88,"600": 828.7,"625": 803.74,"650": 761.75,"675": 655.53,"700": 646.81,"725": 617.18,"750": 697.23,"775": 727.2,"800": 764.44,"825": 816.18,"850": 967.69,"875": 1216.35,"900": 1507.79,"925": 1761.53,"950": 3103.08,"975": 5766.29,"1000": 7077.1,"1025": 10423.44,"1050": 8063.81,"1075": 5718.29,"1100": 3579.28,"1125": 2601.89,"1150": 2460.9,"1175": 2161.37,"1200": 2028.09,"1225": 1664.56,"1250": 1321.93,"1275": 1131.76,"1300": 773.02,"1325": 792.02,"1350": 746.97,"1375": 491.32,"1400": 117.58,"1425": 25.39,"1450": 12.29,"1475": 1.21}}}