{"type":"Feature","properties":{"GID_3":"ZWE.6.13.29_2","GID_0":"ZWE","country":"Zimbabwe","GID_1":"ZWE.6_1","province":"MashonalandWest","NL_NAME_1":"NA","GID_2":"ZWE.6.13_2","county":"Zvimba","NL_NAME_2":"NA","city":"Ward35","VARNAME_3":"NA","NL_NAME_3":"NA","TYPE_3":"Ward","ENGTYPE_3":"Ward","CC_3":"NA","HASC_3":"NA","name":"Ward35.city"},
"geometry":{"type": "MultiPolygon","coordinates": [[[[30.9259,-17.917,1418.4714],[30.9366,-17.9119,1406.1007],[30.8774,-17.8755,1409.6858],[30.8811,-17.8741,1412.4705],[30.8858,-17.8677,1399.7283],[30.8968,-17.8691,1391.6072],[30.8991,-17.8657,1392.3118],[30.8901,-17.8264,1422.5654],[30.8832,-17.8111,1471.0311],[30.8959,-17.8011,1452.3113],[30.8893,-17.796,1454.1406],[30.8902,-17.7805,1441.804],[30.9052,-17.7772,1441.7084],[30.9185,-17.7794,1447.329],[30.9086,-17.7643,1457.8438],[30.9486,-17.7571,1469.4561],[30.9485,-17.7486,1472.2753],[30.918,-17.7375,1476.9447],[30.9063,-17.7307,1469.9669],[30.8755,-17.7035,1455.4736],[30.8706,-17.7102,1475.4092],[30.8624,-17.7092,1444.1031],[30.8658,-17.7187,1450.0951],[30.8435,-17.754,1413.1377],[30.8565,-17.7794,1448.8135],[30.8453,-17.8033,1415.0364],[30.8427,-17.8043,1415.4247],[30.8382,-17.8107,1439.3633],[30.8359,-17.8199,1415.2526],[30.827,-17.8265,1401.6002],[30.8046,-17.8325,1386.5945],[30.8003,-17.8438,1387.1377],[30.7967,-17.8486,1380.5676],[30.7641,-17.8718,1347.0723],[30.7678,-17.8783,1348.3053],[30.7374,-17.9047,1386.5676],[30.7514,-17.9212,1404.0287],[30.7513,-17.9237,1407.0437],[30.8014,-17.9434,1391.436],[30.8178,-17.9197,1383.9863],[30.8225,-17.9194,1371.0205],[30.8309,-17.9201,1376.3821],[30.8374,-17.9297,1373.988],[30.8411,-17.9451,1374.5566],[30.8442,-17.9445,1383.8352],[30.8439,-17.932,1378.0579],[30.8472,-17.929,1380.3495],[30.8447,-17.9244,1363.9434],[30.858,-17.9268,1375.6814],[30.8618,-17.9238,1363.0],[30.8637,-17.9253,1367.0057],[30.8628,-17.9277,1377.2863],[30.8707,-17.9347,1369.114],[30.8733,-17.9316,1375.785],[30.882,-17.9353,1364.0276],[30.8945,-17.949,1369.7489],[30.8869,-17.9364,1365.9988],[30.9259,-17.917,1418.4714]]]]}}