{"type": "Feature","bbox": [31.8308,-18.5288,32.0347,-18.142],"geometry": {"type": "MultiPolygon","coordinates": [[[[32.0118,-18.4602,1547.5327],[32.0234,-18.4208,1527.7478],[32.0207,-18.3899,1619.4647],[32.0001,-18.4036,1520.0659],[31.9626,-18.3909,1459.8876],[31.9781,-18.3768,1488.1011],[31.9643,-18.352,1481.8865],[31.9575,-18.3273,1538.1772],[32.0347,-18.2987,1578.4557],[32.0252,-18.203,1600.6647],[31.9995,-18.1991,1617.2449],[31.9837,-18.1949,1608.2927],[31.9931,-18.234,1637.0548],[31.981,-18.2438,1622.2478],[31.9831,-18.2466,1613.0121],[31.9759,-18.2532,1591.3223],[31.9676,-18.2527,1565.8363],[31.9669,-18.2506,1574.5363],[31.955,-18.2506,1605.3799],[31.9551,-18.2552,1594.3503],[31.9683,-18.256,1567.488],[31.9706,-18.2622,1576.009],[31.9525,-18.2611,1574.0143],[31.9368,-18.284,1516.114],[31.9094,-18.2807,1567.5201],[31.9308,-18.2481,1630.5737],[31.9486,-18.2163,1722.2279],[31.9092,-18.2034,1469.4363],[31.9273,-18.1849,1536.1938],[31.9186,-18.1705,1608.5383],[31.8969,-18.1695,1552.8469],[31.8907,-18.1551,1503.031],[31.8978,-18.1426,1538.5242],[31.8684,-18.142,1485.0999],[31.8692,-18.1484,1481.4965],[31.8723,-18.1518,1487.6425],[31.8749,-18.1733,1472.2413],[31.8656,-18.1862,1472.1819],[31.8686,-18.1931,1456.0],[31.8649,-18.2015,1456.9066],[31.866,-18.2043,1447.2123],[31.8634,-18.2206,1440.0597],[31.8647,-18.2247,1436.1832],[31.8607,-18.2332,1434.6438],[31.8606,-18.2371,1431.0256],[31.8554,-18.2402,1431.8151],[31.8545,-18.2476,1439.8582],[31.8577,-18.2553,1427.1812],[31.855,-18.2592,1424.1042],[31.8568,-18.2622,1423.4417],[31.8568,-18.273,1424.6074],[31.8533,-18.2762,1424.902],[31.8598,-18.2845,1419.4312],[31.8569,-18.289,1424.6814],[31.8594,-18.2964,1420.5652],[31.8588,-18.3172,1400.8629],[31.8642,-18.3295,1401.6052],[31.8563,-18.347,1404.2385],[31.8545,-18.3639,1393.7324],[31.8502,-18.3672,1392.9186],[31.8445,-18.3784,1390.9955],[31.8416,-18.3804,1391.2161],[31.8451,-18.3876,1394.2357],[31.8408,-18.3882,1394.9709],[31.8322,-18.3931,1388.4529],[31.8308,-18.3974,1371.671],[31.8313,-18.3999,1367.9006],[31.8364,-18.4029,1372.3412],[31.845,-18.4149,1348.7029],[31.8444,-18.4262,1330.5851],[31.8468,-18.4288,1387.7985],[31.8491,-18.4419,1325.3834],[31.8641,-18.4567,1310.202],[31.8672,-18.4619,1303.2729],[31.8667,-18.4644,1302.9557],[31.8749,-18.4738,1300.9645],[31.8752,-18.4789,1302.6576],[31.8782,-18.4859,1311.9139],[31.8805,-18.4819,1323.2701],[31.9183,-18.4683,1433.1097],[31.9214,-18.4992,1362.4518],[31.9207,-18.5211,1398.3557],[31.9483,-18.5288,1483.7876],[31.9418,-18.5049,1459.3801],[31.968,-18.4846,1462.6595],[31.9969,-18.4579,1505.6761],[32.0118,-18.4602,1547.5327]]]]}
,"properties": {"GID_3": "ZWE.3.5.31_2","GID_0": "ZWE","country": "Zimbabwe","GID_1": "ZWE.3_1","province": "Manicaland","NL_NAME_1": "NA","GID_2": "ZWE.3.5_2","county": "Makoni","NL_NAME_2": "NA","city": "Ward37","VARNAME_3": "NA","NL_NAME_3": "NA","TYPE_3": "Ward","ENGTYPE_3": "Ward","CC_3": "NA","HASC_3": "NA","name": "Ward37.city","area_km2": 487.3497,"hist_schema_id": "Elevation0-9000","hist_area_km2": {"1300": 0.5832,"1325": 4.907,"1350": 16.7317,"1375": 26.9705,"1400": 41.639,"1425": 67.5007,"1450": 77.2515,"1475": 50.354,"1500": 40.8219,"1525": 31.9074,"1550": 26.816,"1575": 33.12,"1600": 28.996,"1625": 21.8285,"1650": 11.7197,"1675": 3.1617,"1700": 1.732,"1725": 0.6243,"1750": 0.4833,"1775": 0.2014}}}