{"type":"Feature","properties":{"GID_3":"ZWE.5.7.1_2","GID_0":"ZWE","country":"Zimbabwe","GID_1":"ZWE.5_1","province":"MashonalandEast","NL_NAME_1":"NA","GID_2":"ZWE.5.7_2","county":"Murehwa","NL_NAME_2":"NA","city":"Ward1","VARNAME_3":"NA","NL_NAME_3":"NA","TYPE_3":"Ward","ENGTYPE_3":"Ward","CC_3":"NA","HASC_3":"NA","name":"Ward1.city"},
"geometry":{"type": "MultiPolygon","coordinates": [[[[31.6107,-17.4413,1085.7693],[31.612,-17.4487,1081.6572],[31.6108,-17.4522,1084.8489],[31.6132,-17.4541,1098.6073],[31.6132,-17.4581,1084.3503],[31.6099,-17.4629,1101.377],[31.6137,-17.467,1099.8093],[31.6228,-17.4674,1115.1138],[31.6261,-17.4716,1100.2169],[31.6257,-17.4742,1097.9434],[31.6288,-17.4784,1107.4741],[31.6299,-17.4837,1106.6968],[31.6368,-17.4862,1122.0563],[31.6389,-17.4919,1119.8684],[31.6583,-17.5002,1133.5103],[31.6676,-17.4884,1161.8768],[31.6588,-17.4868,1156.9915],[31.6557,-17.4768,1142.3118],[31.6501,-17.4733,1133.3269],[31.6486,-17.466,1135.7219],[31.6574,-17.4642,1108.8416],[31.6658,-17.4486,1084.3923],[31.6747,-17.4423,1082.4279],[31.6793,-17.4353,1078.0663],[31.685,-17.4333,1067.999],[31.6958,-17.4246,1070.3097],[31.6956,-17.4233,1071.3997],[31.691,-17.4224,1051.8062],[31.6944,-17.4188,1061.8374],[31.6926,-17.4154,1040.6193],[31.6966,-17.411,1046.0182],[31.6927,-17.4067,1044.7012],[31.6843,-17.4014,1037.6074],[31.6725,-17.3879,1022.8551],[31.6659,-17.3833,1016.438],[31.6727,-17.3688,991.4799],[31.667,-17.3688,1018.3361],[31.6624,-17.3734,989.0735],[31.6565,-17.3744,1017.5933],[31.6493,-17.386,1026.6676],[31.6443,-17.3852,1039.3296],[31.6409,-17.3865,1034.5065],[31.6356,-17.3921,1043.694],[31.6338,-17.4005,1039.7798],[31.6267,-17.4056,1051.3127],[31.6228,-17.4113,1050.5524],[31.6139,-17.4165,1068.8043],[31.623,-17.433,1083.7836],[31.6178,-17.434,1090.1195],[31.6133,-17.4324,1092.1893],[31.6107,-17.4413,1085.7693]]]]}}