{"type": "Feature","bbox": [29.749,-19.4635,29.7616,-19.4527],"geometry": {"type": "MultiPolygon","coordinates": [[[[29.7616,-19.4582,1418.1545],[29.7583,-19.4527,1410.8406],[29.749,-19.4542,1420.73],[29.7518,-19.4635,1430.2231],[29.7616,-19.4582,1418.1545]]]]}
,"properties": {"GID_3": "ZWE.10.6.5_2","GID_0": "ZWE","country": "Zimbabwe","GID_1": "ZWE.10_1","province": "Midlands","NL_NAME_1": "NA","GID_2": "ZWE.10.6_2","county": "GweruUrban","NL_NAME_2": "NA","city": "Ward13","VARNAME_3": "NA","NL_NAME_3": "NA","TYPE_3": "Ward","ENGTYPE_3": "Ward","CC_3": "NA","HASC_3": "NA","name": "Ward13.city","area_km2": 0.9595844,"hist_schema_id": "Elevation0-9000","hist_area_km2": {"1425": 0.9595844}}}