{"type":"Feature","properties":{"GID_3":"ZWE.10.11.5_2","GID_0":"ZWE","country":"Zimbabwe","GID_1":"ZWE.10_1","province":"Midlands","NL_NAME_1":"NA","GID_2":"ZWE.10.11_2","county":"Shurugwi","NL_NAME_2":"NA","city":"Ward13","VARNAME_3":"NA","NL_NAME_3":"NA","TYPE_3":"Ward","ENGTYPE_3":"Ward","CC_3":"NA","HASC_3":"NA","name":"Ward13.city"},
"geometry":{"type": "MultiPolygon","coordinates": [[[[30.1739,-19.705,1182.1055],[30.1764,-19.694,1194.688],[30.1798,-19.6913,1207.0603],[30.1817,-19.6872,1231.1698],[30.1877,-19.6851,1242.1892],[30.1953,-19.6869,1238.6058],[30.1996,-19.6907,1232.996],[30.2185,-19.6984,1185.0366],[30.224,-19.6955,1181.0547],[30.2374,-19.6975,1165.9845],[30.2482,-19.7049,1150.1365],[30.2509,-19.7104,1140.5995],[30.2589,-19.7091,1133.0981],[30.2639,-19.7123,1133.77],[30.2751,-19.7131,1123.0879],[30.275,-19.682,1129.177],[30.2695,-19.6791,1124.3789],[30.2704,-19.6663,1134.8181],[30.2634,-19.6666,1135.735],[30.2578,-19.6638,1141.7594],[30.2591,-19.6599,1147.5364],[30.254,-19.6572,1149.6997],[30.2507,-19.6575,1151.3746],[30.2486,-19.6512,1155.4653],[30.2428,-19.6489,1154.1201],[30.2281,-19.6383,1160.4661],[30.229,-19.6342,1170.1047],[30.2263,-19.63,1171.7728],[30.2296,-19.6243,1172.6428],[30.227,-19.6176,1172.7917],[30.2224,-19.6128,1188.0067],[30.2188,-19.6122,1186.09],[30.2061,-19.6235,1199.7775],[30.1936,-19.631,1212.2329],[30.1853,-19.6396,1253.8156],[30.1809,-19.6375,1293.9615],[30.1702,-19.6371,1285.9084],[30.1652,-19.6328,1274.4863],[30.1588,-19.6358,1306.3838],[30.1548,-19.6313,1281.054],[30.152,-19.6328,1275.957],[30.1435,-19.6323,1263.2831],[30.1354,-19.703,1194.9427],[30.1486,-19.7,1220.6479],[30.1574,-19.7042,1214.1716],[30.1638,-19.7024,1194.0482],[30.1739,-19.705,1182.1055]]]]}}