{"type": "Feature","bbox": [32.1726,-17.0711,32.3418,-16.9331],"geometry": {"type": "MultiPolygon","coordinates": [[[[32.3169,-16.9331,614.1221],[32.3007,-16.9362,616.6202],[32.2978,-16.9444,596.9373],[32.296,-16.9458,611.0908],[32.2897,-16.9467,617.8049],[32.2672,-16.9549,621.694],[32.2619,-16.9551,641.0273],[32.259,-16.9574,628.0229],[32.2581,-16.9633,615.248],[32.2548,-16.9649,618.889],[32.253,-16.9695,622.1595],[32.2472,-16.9694,647.0072],[32.243,-16.9728,652.8383],[32.2392,-16.9736,647.3914],[32.2381,-16.9778,631.1934],[32.2238,-16.9854,644.6683],[32.2221,-16.9909,644.1365],[32.2121,-16.9986,658.975],[32.1891,-17.0246,676.7937],[32.1796,-17.0286,692.9218],[32.1729,-17.0338,678.4575],[32.1726,-17.0419,675.4855],[32.1773,-17.0532,681.0008],[32.1906,-17.0487,746.7255],[32.2,-17.0591,753.6774],[32.2021,-17.0592,768.1354],[32.2024,-17.0547,764.6867],[32.2061,-17.0524,749.8151],[32.2073,-17.0484,747.1105],[32.2215,-17.0392,744.3941],[32.2357,-17.0435,743.1944],[32.2381,-17.0428,748.9387],[32.2394,-17.0453,751.6463],[32.243,-17.0459,762.4603],[32.2478,-17.0495,756.9654],[32.2584,-17.0461,740.9816],[32.2656,-17.0469,735.2973],[32.2622,-17.0626,790.3557],[32.2577,-17.0668,844.2727],[32.2607,-17.071,787.2778],[32.2634,-17.0711,786.933],[32.2674,-17.0662,775.729],[32.2773,-17.0627,764.984],[32.2963,-17.0645,836.663],[32.3009,-17.0675,779.2518],[32.3101,-17.0634,740.4803],[32.3192,-17.0527,731.6382],[32.3211,-17.0456,725.6815],[32.3269,-17.0432,700.0798],[32.327,-17.0345,699.5625],[32.3248,-17.0312,684.2401],[32.3263,-17.0288,697.9031],[32.3264,-17.0202,673.7738],[32.3246,-17.018,681.1766],[32.3274,-17.0172,679.2598],[32.3285,-17.0142,675.9096],[32.3311,-17.0148,666.3768],[32.3305,-17.0119,661.5322],[32.3322,-17.0076,683.8213],[32.336,-17.0063,666.375],[32.3418,-16.9959,662.8512],[32.3321,-16.9927,653.3223],[32.3232,-16.9853,633.5666],[32.323,-16.9817,639.6901],[32.3251,-16.9807,633.1213],[32.3286,-16.9747,642.3981],[32.326,-16.9731,626.7087],[32.3253,-16.9659,642.3237],[32.3203,-16.9638,620.085],[32.3226,-16.954,607.1331],[32.3213,-16.9513,615.8323],[32.3233,-16.9509,619.5265],[32.3236,-16.9471,618.3312],[32.3169,-16.9331,614.1221]]]]}
,"properties": {"GID_3": "ZWE.5.6.14_2","GID_0": "ZWE","country": "Zimbabwe","GID_1": "ZWE.5_1","province": "MashonalandEast","NL_NAME_1": "NA","GID_2": "ZWE.5.6_2","county": "Mudzi","NL_NAME_2": "NA","city": "Ward5","VARNAME_3": "NA","NL_NAME_3": "NA","TYPE_3": "Ward","ENGTYPE_3": "Ward","CC_3": "NA","HASC_3": "NA","name": "Ward5.city","area_km2": 145.1273,"hist_schema_id": "Elevation0-9000","hist_area_km2": {"600": 2.3729,"625": 10.2618,"650": 21.8801,"675": 32.7052,"700": 30.695,"725": 17.5963,"750": 14.0885,"775": 7.5001,"800": 3.0001,"825": 1.5608,"850": 1.0744,"875": 0.6892,"900": 0.4257,"925": 0.2838,"950": 0.4257,"975": 0.1622,"1000": 0.1622,"1025": 0.0811,"1050": 0.1216,"1075": 0.0405}}}