{"type": "Feature","bbox": [30.2046,-22.1053,30.9353,-21.7057],"geometry": {"type": "MultiPolygon","coordinates": [[[[30.5184,-21.7114,493.9332],[30.5073,-21.7113,498.2623],[30.5007,-21.7087,498.2333],[30.4986,-21.7057,497.0284],[30.2513,-21.7507,597.8162],[30.2046,-21.7619,610.2717],[30.2512,-21.8335,606.9648],[30.2522,-21.8429,609.6051],[30.2927,-21.9095,631.3211],[30.3169,-21.8937,611.8484],[30.3278,-21.9035,613.5249],[30.4194,-22.0001,604.2341],[30.4193,-22.0016,603.9293],[30.4213,-22.0017,608.7325],[30.5547,-21.874,519.4047],[30.6225,-21.9962,526.9473],[30.6778,-22.0758,566.7049],[30.7963,-22.0912,423.7694],[30.9313,-22.1053,335.8452],[30.9353,-22.0862,354.8098],[30.9313,-22.0738,370.26],[30.9276,-22.0725,354.7548],[30.9171,-22.0736,383.7561],[30.8997,-22.0835,366.024],[30.8895,-22.0843,381.3188],[30.8869,-22.0811,377.7776],[30.8734,-22.0418,410.3226],[30.8595,-22.0343,393.4016],[30.8574,-22.0167,392.0186],[30.833,-21.9975,406.0897],[30.8037,-21.9991,410.6641],[30.8017,-21.9966,401.1761],[30.8029,-21.9915,400.7057],[30.7978,-21.9855,407.0057],[30.7966,-21.9808,407.8276],[30.8011,-21.9753,408.3822],[30.8087,-21.9748,408.3665],[30.8068,-21.9698,412.2967],[30.7981,-21.9642,414.461],[30.7833,-21.9646,416.0278],[30.7727,-21.9566,421.0409],[30.7672,-21.9548,417.4863],[30.7616,-21.9492,414.8164],[30.7569,-21.9414,420.4991],[30.7542,-21.9326,421.853],[30.7561,-21.9296,419.4059],[30.7713,-21.9222,423.1198],[30.7689,-21.9188,426.4034],[30.7602,-21.9135,422.257],[30.7614,-21.907,426.4923],[30.7503,-21.9035,429.1996],[30.7381,-21.8913,431.3839],[30.7276,-21.8903,434.7212],[30.7305,-21.8751,435.6021],[30.7167,-21.8753,440.8138],[30.7128,-21.8721,438.0593],[30.7101,-21.8618,436.8996],[30.7143,-21.8587,440.9111],[30.7151,-21.856,444.9252],[30.7108,-21.8503,443.6633],[30.7029,-21.8473,446.6239],[30.6852,-21.8316,447.2896],[30.6828,-21.8305,449.4421],[30.6724,-21.8315,447.1499],[30.6702,-21.8295,449.1387],[30.6698,-21.8237,450.0959],[30.6742,-21.8174,452.0131],[30.6651,-21.8112,456.6256],[30.6649,-21.8082,455.5318],[30.669,-21.7972,452.272],[30.6652,-21.7816,455.2271],[30.6586,-21.7799,460.7481],[30.6532,-21.7814,459.6545],[30.6354,-21.7713,464.0589],[30.6348,-21.7689,460.2401],[30.6376,-21.764,464.3093],[30.6435,-21.7567,465.2521],[30.6488,-21.7531,467.4094],[30.6501,-21.7503,466.0621],[30.649,-21.7489,466.2927],[30.6445,-21.7481,470.2876],[30.6396,-21.7509,470.0327],[30.6316,-21.7594,470.7257],[30.6195,-21.7632,470.7612],[30.6071,-21.7458,481.3874],[30.5995,-21.7431,473.459],[30.5965,-21.7519,473.0078],[30.5902,-21.754,481.7107],[30.5881,-21.752,478.5994],[30.5877,-21.7449,481.6649],[30.5821,-21.736,479.2809],[30.5767,-21.7351,480.9299],[30.5712,-21.7374,483.284],[30.5622,-21.7298,484.2962],[30.5592,-21.7319,481.8009],[30.5577,-21.7384,482.9023],[30.554,-21.7453,486.6118],[30.5443,-21.7479,485.5596],[30.5408,-21.745,483.8105],[30.5431,-21.736,494.5742],[30.5353,-21.7283,489.4556],[30.5346,-21.7206,490.3643],[30.5334,-21.7193,489.0772],[30.5243,-21.7198,491.0255],[30.5218,-21.7142,493.576],[30.5184,-21.7114,493.9332]]]]}
,"properties": {"GID_3": "ZWE.9.1.5_2","GID_0": "ZWE","country": "Zimbabwe","GID_1": "ZWE.9_1","province": "MatabelelandSouth","NL_NAME_1": "NA","GID_2": "ZWE.9.1_2","county": "Beitbridge","NL_NAME_2": "NA","city": "Ward13","VARNAME_3": "NA","NL_NAME_3": "NA","TYPE_3": "Ward","ENGTYPE_3": "Ward","CC_3": "NA","HASC_3": "NA","name": "Ward13.city","area_km2": 1388.509,"hist_schema_id": "Elevation0-9000","hist_area_km2": {"325": 1.611,"350": 10.393,"375": 17.468,"400": 29.008,"425": 73.048,"450": 135.685,"475": 177.788,"500": 222.416,"525": 160.579,"550": 164.169,"575": 172.971,"600": 139.628,"625": 65.514,"650": 13.512,"675": 3.029,"700": 0.983,"725": 0.511,"750": 0.177,"775": 0.02}}}