{"type": "Feature","bbox": [30.9891,-19.2579,31.3048,-19.0834],"geometry": {"type": "MultiPolygon","coordinates": [[[[31.3008,-19.1808,1345.7527],[31.2819,-19.142,1339.0676],[31.2731,-19.1415,1329.4213],[31.2747,-19.1478,1322.4548],[31.269,-19.1455,1332.624],[31.2701,-19.1404,1328.6809],[31.2528,-19.1352,1344.858],[31.256,-19.125,1329.8496],[31.2656,-19.1192,1319.7263],[31.2696,-19.1139,1317.7502],[31.2798,-19.1068,1288.2135],[31.2812,-19.1022,1283.4021],[31.2988,-19.0876,1277.6993],[31.2976,-19.0834,1269.6692],[31.1321,-19.1368,1355.0248],[31.1285,-19.1681,1322.193],[31.1296,-19.173,1322.3605],[31.1213,-19.172,1344.9414],[31.0997,-19.1815,1269.853],[31.0977,-19.1808,1276.1162],[31.0947,-19.1665,1275.9624],[31.0912,-19.166,1287.7225],[31.0875,-19.159,1298.6917],[31.0784,-19.1529,1319.0587],[31.0536,-19.1602,1384.135],[30.9991,-19.1555,1437.0137],[30.9895,-19.1953,1393.0067],[30.9891,-19.225,1421.5295],[31.0001,-19.2487,1418.6279],[30.996,-19.2538,1406.5051],[30.996,-19.2579,1409.5562],[31.0149,-19.2562,1394.85],[31.0821,-19.244,1338.2987],[31.145,-19.2389,1280.959],[31.3048,-19.2205,1333.1698],[31.3008,-19.1808,1345.7527]]]]}
,"properties": {"GID_3": "ZWE.5.1.6_2","GID_0": "ZWE","country": "Zimbabwe","GID_1": "ZWE.5_1","province": "MashonalandEast","NL_NAME_1": "NA","GID_2": "ZWE.5.1_2","county": "Chikomba","NL_NAME_2": "NA","city": "Ward14","VARNAME_3": "NA","NL_NAME_3": "NA","TYPE_3": "Ward","ENGTYPE_3": "Ward","CC_3": "NA","HASC_3": "NA","name": "Ward14.city","area_km2": 356.7776,"hist_schema_id": "Elevation0-9000","hist_area_km2": {"1225": 7.6679,"1250": 33.6564,"1275": 60.1521,"1300": 76.2201,"1325": 77.7448,"1350": 49.6198,"1375": 27.21,"1400": 17.3986,"1425": 6.5271,"1450": 0.5808}}}