{"type":"Feature","properties":{"GID_3":"ZWE.10.11.12_2","GID_0":"ZWE","country":"Zimbabwe","GID_1":"ZWE.10_1","province":"Midlands","NL_NAME_1":"NA","GID_2":"ZWE.10.11_2","county":"Shurugwi","NL_NAME_2":"NA","city":"Ward2","VARNAME_3":"NA","NL_NAME_3":"NA","TYPE_3":"Ward","ENGTYPE_3":"Ward","CC_3":"NA","HASC_3":"NA","name":"Ward2.city"},
"geometry":{"type": "MultiPolygon","coordinates": [[[[30.4402,-19.615,1128.3171],[30.4029,-19.6181,1167.6304],[30.3759,-19.6235,1184.2169],[30.3768,-19.5777,1221.5662],[30.3485,-19.5786,1233.3542],[30.3579,-19.6288,1196.5388],[30.3495,-19.6582,1161.5608],[30.3072,-19.6554,1116.5232],[30.3083,-19.6598,1119.7274],[30.304,-19.6672,1114.255],[30.3034,-19.6839,1111.0242],[30.298,-19.6913,1107.6383],[30.3009,-19.6985,1105.0203],[30.3003,-19.703,1102.4095],[30.3071,-19.7114,1106.7147],[30.3054,-19.721,1096.6902],[30.3087,-19.7295,1088.6448],[30.3148,-19.7323,1098.8567],[30.317,-19.736,1089.7297],[30.3228,-19.7398,1083.7812],[30.3305,-19.7407,1089.3552],[30.3365,-19.7361,1084.5934],[30.3404,-19.7365,1076.613],[30.3447,-19.7397,1073.7649],[30.3465,-19.7432,1064.2235],[30.3462,-19.7547,1061.5034],[30.3547,-19.7553,1074.198],[30.4277,-19.7576,1091.2834],[30.4542,-19.7382,1099.1973],[30.4635,-19.7289,1068.8806],[30.4563,-19.7251,1081.0493],[30.4533,-19.7209,1075.1802],[30.4531,-19.7178,1083.4425],[30.4565,-19.7113,1076.5129],[30.4556,-19.7043,1082.562],[30.4567,-19.6997,1082.3467],[30.447,-19.6967,1082.7112],[30.4444,-19.6909,1090.6711],[30.4453,-19.6886,1087.5133],[30.4432,-19.682,1094.1523],[30.4386,-19.6784,1098.7133],[30.4437,-19.6716,1102.0934],[30.4419,-19.6685,1102.054],[30.4436,-19.6612,1107.5251],[30.441,-19.6544,1105.5076],[30.441,-19.6438,1114.0559],[30.4378,-19.6405,1115.8539],[30.4402,-19.615,1128.3171]]]]}}