{"type":"Feature","properties":{"GID_3":"ZWE.9.6.20_2","GID_0":"ZWE","country":"Zimbabwe","GID_1":"ZWE.9_1","province":"MatabelelandSouth","NL_NAME_1":"NA","GID_2":"ZWE.9.6_2","county":"Insiza","NL_NAME_2":"NA","city":"Ward6","VARNAME_3":"NA","NL_NAME_3":"NA","TYPE_3":"Ward","ENGTYPE_3":"Ward","CC_3":"NA","HASC_3":"NA","name":"Ward6.city"},
"geometry":{"type": "MultiPolygon","coordinates": [[[[29.3573,-21.0307,842.8397],[29.4395,-21.0563,906.7021],[29.4986,-21.028199999999998,996.2617],[29.4578,-21.0156,884.9686],[29.4894,-20.9953,888.1127],[29.4892,-20.987,891.631],[29.4876,-20.9845,897.8716],[29.4909,-20.981,898.1131],[29.491,-20.9771,904.4148],[29.4998,-20.977,903.4631],[29.4997,-20.9731,904.4707],[29.5044,-20.966,914.1911],[29.5071,-20.9624,915.4687],[29.5113,-20.9611,916.3697],[29.5131,-20.9574,918.8341],[29.5125,-20.9539,925.1513],[29.509,-20.9542,921.2874],[29.506,-20.9453,925.8428],[29.5019,-20.9412,929.2493],[29.5031,-20.9334,935.3745],[29.5008,-20.9325,935.5837],[29.5037,-20.9318,934.3112],[29.5044,-20.9301,941.2623],[29.4988,-20.9289,937.3082],[29.4968,-20.9248,938.6368],[29.4975,-20.921,945.9756],[29.4999,-20.919,945.7266],[29.507,-20.9183,949.3997],[29.5103,-20.9113,953.5464],[29.5081,-20.9084,957.0053],[29.5094,-20.9045,966.8098],[29.5077,-20.9002,963.9447],[29.5035,-20.8949,965.5532],[29.5055,-20.8924,968.92],[29.5037,-20.8881,969.6083],[29.5074,-20.8801,983.6741],[29.5083,-20.8668,1001.4905],[29.5058,-20.8559,1007.1671],[29.5064,-20.848,999.1328],[29.5032,-20.8401,988.504],[29.4969,-20.8394,992.0603],[29.493,-20.8456,988.0],[29.4879,-20.8461,981.3577],[29.4824,-20.8493,979.7412],[29.4786,-20.8538,970.9458],[29.4735,-20.8531,969.2295],[29.4654,-20.855,969.2485],[29.4639,-20.857,964.6359],[29.4655,-20.858,964.423],[29.4633,-20.8612,965.2625],[29.4684,-20.8657,964.5322],[29.4683,-20.8727,959.2409],[29.4641,-20.8754,954.3036],[29.4614,-20.8738,957.0229],[29.4562,-20.8752,950.7263],[29.4568,-20.8788,950.4752],[29.4541,-20.8816,946.0602],[29.4323,-20.8829,944.5465],[29.4227,-20.8795,937.5822],[29.4214,-20.8816,931.7754],[29.4109,-20.8827,933.3621],[29.4069,-20.8848,927.7268],[29.3931,-20.882,921.0228],[29.3848,-20.8844,913.4576],[29.3813,-20.881,915.8875],[29.3732,-20.8836,905.1486],[29.3664,-20.883,907.6613],[29.3642,-20.8844,907.4838],[29.3588,-20.895,903.0663],[29.3583,-20.902,894.7676],[29.3005,-20.9059,888.6965],[29.3122,-20.9063,877.4005],[29.3248,-20.9109,884.3878],[29.3374,-20.923,874.006],[29.3492,-20.9311,869.1133],[29.3532,-20.9377,865.2761],[29.3561,-20.945,859.6779],[29.3557,-20.9525,860.6365],[29.3526,-20.9613,854.538],[29.3472,-20.9678,860.5698],[29.3458,-20.9731,849.8867],[29.3499,-21.0007,849.545],[29.3467,-21.0072,845.85],[29.3579,-21.0185,844.3365],[29.3573,-21.0307,842.8397]]]]}}