{"type":"Feature","properties":{"GID_3":"ZWE.7.1.12_2","GID_0":"ZWE","country":"Zimbabwe","GID_1":"ZWE.7_1","province":"Masvingo","NL_NAME_1":"NA","GID_2":"ZWE.7.1_2","county":"Bikita","NL_NAME_2":"NA","city":"Ward2","VARNAME_3":"NA","NL_NAME_3":"NA","TYPE_3":"Ward","ENGTYPE_3":"Ward","CC_3":"NA","HASC_3":"NA","name":"Ward2.city"},
"geometry":{"type": "MultiPolygon","coordinates": [[[[31.8214,-20.4894,586.9617],[31.8087,-20.4814,614.101],[31.8086,-20.4767,615.2283],[31.8062,-20.474,609.8351],[31.8059,-20.4702,609.7699],[31.8118,-20.4656,606.5608],[31.8175,-20.465,603.6288],[31.8232,-20.4668,597.9432],[31.8255,-20.4642,598.6694],[31.8278,-20.4641,596.5448],[31.8311,-20.4573,593.0699],[31.8405,-20.4539,587.6006],[31.8406,-20.4515,585.6871],[31.8432,-20.45,586.1341],[31.8445,-20.4429,585.8925],[31.8422,-20.4227,591.4307],[31.8345,-20.4224,598.6292],[31.8315,-20.4184,604.8331],[31.8275,-20.4175,608.7224],[31.8227,-20.4233,616.0552],[31.8168,-20.4258,620.295],[31.8119,-20.4246,623.3811],[31.8017,-20.4264,632.3893],[31.7947,-20.4251,639.1232],[31.7825,-20.4295,666.9655],[31.7704,-20.4261,674.102],[31.759,-20.4276,679.7021],[31.763,-20.4198,682.4091],[31.781,-20.3971,642.0497],[31.782,-20.3931,633.2203],[31.795,-20.3837,609.2554],[31.7964,-20.3733,593.2621],[31.7875,-20.3751,588.4086],[31.7748,-20.3724,604.6735],[31.7492,-20.3714,611.732],[31.7425,-20.3756,610.8187],[31.7316,-20.3707,626.4435],[31.7285,-20.3727,629.0311],[31.7218,-20.3709,630.2706],[31.7154,-20.3723,628.1069],[31.7071,-20.3816,636.8502],[31.7035,-20.3828,641.8],[31.6994,-20.3906,648.4335],[31.7025,-20.3961,655.3512],[31.7017,-20.3995,657.7053],[31.6943,-20.4049,674.8008],[31.6916,-20.4172,697.4299],[31.6783,-20.4318,794.4148],[31.681,-20.4322,826.2128],[31.6832,-20.4351,804.7377],[31.6969,-20.4656,841.9617],[31.6949,-20.473,801.864],[31.6979,-20.4772,788.1273],[31.6943,-20.4803,786.8286],[31.6915,-20.4901,745.0904],[31.7135,-20.4906,726.5028],[31.7323,-20.4972,760.827],[31.7484,-20.4975,704.3164],[31.7548,-20.4962,670.17],[31.7618,-20.4991,694.1753],[31.7682,-20.4946,652.2609],[31.7769,-20.4935,640.6271],[31.7828,-20.4981,621.5792],[31.8061,-20.504,590.1453],[31.8184,-20.5004,584.3328],[31.8223,-20.4923,640.2435],[31.8214,-20.4894,586.9617]]]]}}