{"type":"Feature","properties":{"GID_3":"ZWE.10.10.8_2","GID_0":"ZWE","country":"Zimbabwe","GID_1":"ZWE.10_1","province":"Midlands","NL_NAME_1":"NA","GID_2":"ZWE.10.10_2","county":"Redcliff","NL_NAME_2":"NA","city":"Ward8","VARNAME_3":"NA","NL_NAME_3":"NA","TYPE_3":"Ward","ENGTYPE_3":"Ward","CC_3":"NA","HASC_3":"NA","name":"Ward8.city"},
"geometry":{"type": "MultiPolygon","coordinates": [[[[29.6993,-19.0604,1245.9424],[29.7459,-19.0542,1228.3049],[29.7505,-19.0753,1245.3821],[29.7805,-19.0632,1326.0757],[29.7835,-19.0486,1222.0779],[29.7908,-19.0514,1203.0],[29.789,-19.0316,1214.069],[29.782,-19.03,1219.2748],[29.7836,-19.0275,1213.3905],[29.7813,-19.025,1213.6503],[29.7779,-19.0256,1208.7899],[29.7761,-19.0233,1207.9587],[29.7766,-19.0214,1203.7197],[29.7725,-19.0201,1206.0303],[29.7701,-19.023,1258.9733],[29.7671,-19.0232,1251.2179],[29.7548,-19.0176,1196.791],[29.7445,-19.0212,1181.7065],[29.7346,-19.019,1191.8761],[29.7321,-19.0162,1196.9397],[29.7005,-19.0177,1195.087],[29.7031,-19.0341,1209.0483],[29.6952,-19.0358,1210.9843],[29.6993,-19.0604,1245.9424]]]]}}