{"type":"Feature","properties":{"GID_3":"ZWE.4.9.14_2","GID_0":"ZWE","country":"Zimbabwe","GID_1":"ZWE.4_1","province":"MashonalandCentral","NL_NAME_1":"NA","GID_2":"ZWE.4.9_2","county":"Rushinga","NL_NAME_2":"NA","city":"Ward21","VARNAME_3":"NA","NL_NAME_3":"NA","TYPE_3":"Ward","ENGTYPE_3":"Ward","CC_3":"NA","HASC_3":"NA","name":"Ward21.city"},
"geometry":{"type": "MultiPolygon","coordinates": [[[[32.4617,-16.4892,559.2042],[32.4623,-16.4944,564.5295],[32.4587,-16.5012,563.6459],[32.4556,-16.5018,575.4758],[32.4497,-16.5087,589.5881],[32.4448,-16.5111,601.0395],[32.4393,-16.517,609.9373],[32.4395,-16.5188,604.7891],[32.4434,-16.5202,619.5576],[32.4435,-16.5218,626.5566],[32.4334,-16.5318,629.7307],[32.4276,-16.5468,654.9307],[32.4236,-16.5525,670.5294],[32.4251,-16.5611,692.3359],[32.423,-16.5662,711.3549],[32.402,-16.5854,777.093],[32.3898,-16.5826,757.861],[32.3847,-16.5879,730.5178],[32.3791,-16.5908,724.305],[32.3841,-16.595,730.3587],[32.3844,-16.6005,710.0851],[32.3889,-16.6006,715.5032],[32.3902,-16.6025,712.3051],[32.3897,-16.6057,699.0015],[32.3855,-16.6104,693.8615],[32.3938,-16.6196,690.7657],[32.3984,-16.6201,669.5441],[32.402,-16.6177,676.7647],[32.3994,-16.6265,681.7593],[32.4019,-16.627,654.6146],[32.4024,-16.6383,639.2762],[32.4146,-16.6369,629.4379],[32.4156,-16.6403,622.859],[32.4192,-16.6418,631.9287],[32.4242,-16.6501,614.6337],[32.4318,-16.657,601.5052],[32.4369,-16.6585,601.9667],[32.4413,-16.6584,608.9944],[32.4455,-16.6463,640.3011],[32.4542,-16.6371,660.9153],[32.463,-16.6332,640.6542],[32.4747,-16.6238,627.6636],[32.4758,-16.6201,647.8384],[32.4707,-16.6125,641.7762],[32.4726,-16.6039,673.7686],[32.4702,-16.5946,684.1681],[32.47,-16.5857,703.6691],[32.4739,-16.5768,744.6542],[32.4879,-16.5653,737.1241],[32.4976,-16.5645,700.326],[32.509,-16.5609,663.1938],[32.5223,-16.5517,645.3115],[32.5292,-16.5484,624.2385],[32.5349,-16.5477,602.8113],[32.5391,-16.5404,587.633],[32.5402,-16.5312,571.3878],[32.5429,-16.5268,561.8195],[32.5492,-16.5255,557.2162],[32.4617,-16.4892,559.2042]]]]}}