{"type":"Feature","properties":{"GID_3":"ZWE.9.8.15_2","GID_0":"ZWE","country":"Zimbabwe","GID_1":"ZWE.9_1","province":"MatabelelandSouth","NL_NAME_1":"NA","GID_2":"ZWE.9.8_2","county":"Matobo","NL_NAME_2":"NA","city":"Ward22","VARNAME_3":"NA","NL_NAME_3":"NA","TYPE_3":"Ward","ENGTYPE_3":"Ward","CC_3":"NA","HASC_3":"NA","name":"Ward22.city"},
"geometry":{"type": "MultiPolygon","coordinates": [[[[28.6991,-20.9487,1047.1411],[28.6519,-20.9519,1100.1036],[28.62,-20.9921,957.5579],[28.582,-21.0174,948.1075],[28.5468,-20.9866,977.049],[28.569,-20.9685,965.512],[28.5527,-20.9557,972.529],[28.5459,-20.9529,974.789],[28.5385,-20.9529,979.3028],[28.5073,-20.976,993.5176],[28.4799,-20.9613,1028.3553],[28.4229,-20.9894,1003.1765],[28.3928,-21.0162,986.2239],[28.4016,-21.014,982.4488],[28.4015,-21.02,977.7887],[28.4096,-21.0211,985.6644],[28.4238,-21.0272,975.6089],[28.4411,-21.0457,975.3744],[28.4495,-21.0592,978.0988],[28.4535,-21.0601,984.7032],[28.468,-21.0594,991.5602],[28.4831,-21.0479,1012.3333],[28.5029,-21.0608,1019.9086],[28.5272,-21.064,993.7449],[28.5597,-21.0721,1023.4079],[28.564,-21.0331,967.5707],[28.5664,-21.0306,971.0161],[28.6544,-21.0702,933.7211],[28.7,-21.0361,925.8772],[28.7199,-21.07,916.032],[28.7629,-21.0516,971.5242],[28.7426,-21.0155,952.0535],[28.7623,-20.9945,928.1674],[28.6991,-20.9487,1047.1411]]]]}}