{"type":"Feature","properties":{"GID_3":"ZWE.8.3.17_2","GID_0":"ZWE","country":"Zimbabwe","GID_1":"ZWE.8_1","province":"MatabelelandNorth","NL_NAME_1":"NA","GID_2":"ZWE.8.3_2","county":"Hwange","NL_NAME_2":"NA","city":"Ward6","VARNAME_3":"NA","NL_NAME_3":"NA","TYPE_3":"Ward","ENGTYPE_3":"Ward","CC_3":"NA","HASC_3":"NA","name":"Ward6.city"},
"geometry":{"type": "MultiPolygon","coordinates": [[[[26.232,-18.1778,750.5843],[26.2347,-18.175,763.066],[26.2456,-18.1766,715.1165],[26.2503,-18.1738,744.0397],[26.2651,-18.1775,695.5836],[26.273,-18.1655,708.5898],[26.2835,-18.163,687.5025],[26.2884,-18.123,797.8506],[26.2818,-18.0965,825.3669],[26.2528,-18.1038,923.5962],[26.235,-18.1153,920.1422],[26.2287,-18.0967,949.1807],[26.2249,-18.0791,917.6185],[26.2107,-18.0834,915.9281],[26.2097,-18.0794,916.79],[26.2113,-18.0713,915.8631],[26.204,-18.0682,904.8355],[26.1938,-18.0709,948.4301],[26.1744,-18.0812,926.2187],[26.1348,-18.1083,909.2567],[26.1407,-18.1197,896.3976],[26.1543,-18.1197,880.1995],[26.1747,-18.1558,906.2184],[26.1644,-18.1911,845.2873],[26.163,-18.202,818.6365],[26.1662,-18.1983,821.0439],[26.1734,-18.1983,817.4088],[26.1851,-18.1919,790.9194],[26.2062,-18.1977,757.6737],[26.2069,-18.191,779.0723],[26.201,-18.1859,748.9211],[26.2017,-18.1796,793.6066],[26.2041,-18.1756,792.136],[26.2065,-18.1754,804.8334],[26.2114,-18.1797,729.6584],[26.2188,-18.176,787.6912],[26.2252,-18.1816,777.1379],[26.229,-18.1809,770.3101],[26.232,-18.1778,750.5843]]]]}}