{"type":"Feature","properties":{"GID_3":"ZWE.7.9.22_2","GID_0":"ZWE","country":"Zimbabwe","GID_1":"ZWE.7_1","province":"Masvingo","NL_NAME_1":"NA","GID_2":"ZWE.7.9_2","county":"Zaka","NL_NAME_2":"NA","city":"Ward29","VARNAME_3":"NA","NL_NAME_3":"NA","TYPE_3":"Ward","ENGTYPE_3":"Ward","CC_3":"NA","HASC_3":"NA","name":"Ward29.city"},
"geometry":{"type": "MultiPolygon","coordinates": [[[[31.3729,-20.6481,595.1876],[31.3716,-20.6443,587.8701],[31.3918,-20.6351,633.2346],[31.3914,-20.6318,631.1741],[31.384,-20.6201,682.202],[31.3801,-20.6077,671.8419],[31.3617,-20.596,638.4767],[31.3568,-20.5905,607.1198],[31.3496,-20.5874,605.0187],[31.341,-20.5878,602.3207],[31.3352,-20.5918,574.0095],[31.3357,-20.5946,571.045],[31.3331,-20.5977,574.1833],[31.3297,-20.631,544.3298],[31.3097,-20.6355,541.1498],[31.2902,-20.6442,529.2212],[31.2829,-20.651,521.3951],[31.2783,-20.6616,512.1346],[31.274,-20.6777,517.4205],[31.269,-20.6832,503.2117],[31.2716,-20.6883,515.4563],[31.2706,-20.6985,516.5486],[31.262,-20.7039,500.371],[31.2533,-20.744,475.4681],[31.2884,-20.6896,843.7843],[31.328,-20.6634,717.4842],[31.3729,-20.6481,595.1876]]]]}}