{"type": "Feature","bbox": [29.6984,-16.8394,29.7148,-16.8144],"geometry": {"type": "MultiPolygon","coordinates": [[[[29.7146,-16.8257,1266.0293],[29.7078,-16.8232,1269.9358],[29.7022,-16.8144,1226.369],[29.6984,-16.8178,1230.8755],[29.7064,-16.8282,1249.1334],[29.7051,-16.8304,1242.781],[29.7148,-16.8394,1262.731],[29.7146,-16.8257,1266.0293]]]]}
,"properties": {"GID_3": "ZWE.6.8.10_2","GID_0": "ZWE","country": "Zimbabwe","GID_1": "ZWE.6_1","province": "MashonalandWest","NL_NAME_1": "NA","GID_2": "ZWE.6.8_2","county": "Karoi","NL_NAME_2": "NA","city": "Ward9","VARNAME_3": "NA","NL_NAME_3": "NA","TYPE_3": "Ward","ENGTYPE_3": "Ward","CC_3": "NA","HASC_3": "NA","name": "Ward9.city","area_km2": 1.745319,"hist_schema_id": "Elevation0-9000","hist_area_km2": {"1225": 0.101477,"1250": 0.690012,"1275": 0.95383}}}