{"type":"Feature","properties":{"GID_3":"ZWE.6.12.9_2","GID_0":"ZWE","country":"Zimbabwe","GID_1":"ZWE.6_1","province":"MashonalandWest","NL_NAME_1":"NA","GID_2":"ZWE.6.12_2","county":"Sanyati","NL_NAME_2":"NA","city":"Ward17","VARNAME_3":"NA","NL_NAME_3":"NA","TYPE_3":"Ward","ENGTYPE_3":"Ward","CC_3":"NA","HASC_3":"NA","name":"Ward17.city"},
"geometry":{"type": "MultiPolygon","coordinates": [[[[29.4281,-17.809,884.1052],[29.4315,-17.8112,885.7854],[29.4345,-17.8074,890.0454],[29.4083,-17.7926,871.5254],[29.4183,-17.7833,903.8222],[29.4482,-17.7819,877.1228],[29.4495,-17.7773,882.3176],[29.4511,-17.7766,882.3176],[29.4537,-17.7642,908.4131],[29.4553,-17.7638,908.4131],[29.4596,-17.7561,923.0555],[29.4527,-17.7446,911.1859],[29.4449,-17.7382,887.0692],[29.4405,-17.7367,876.787],[29.4376,-17.7322,878.3392],[29.4379,-17.7245,861.2053],[29.4282,-17.7161,876.1263],[29.4234,-17.7143,888.1266],[29.4229,-17.7104,888.5502],[29.4271,-17.6904,871.3879],[29.4233,-17.6808,876.8234],[29.4224,-17.6716,863.908],[29.4239,-17.6651,876.4882],[29.4226,-17.6589,879.324],[29.4253,-17.6504,871.9532],[29.418,-17.6432,877.756],[29.4191,-17.6375,888.9036],[29.412,-17.6291,883.4042],[29.4135,-17.6229,879.4733],[29.4125,-17.6079,880.7432],[29.3974,-17.6123,861.1385],[29.3949,-17.6062,831.313],[29.3888,-17.6036,825.9738],[29.3966,-17.5858,844.8502],[29.4089,-17.5757,849.2612],[29.4073,-17.573,851.9242],[29.3996,-17.5704,847.3447],[29.3907,-17.559,843.5372],[29.3887,-17.5594,853.5151],[29.387,-17.5537,882.3449],[29.3933,-17.5459,890.7299],[29.3876,-17.541,875.5858],[29.3868,-17.5364,880.2015],[29.3899,-17.5306,871.1104],[29.3889,-17.5191,837.3055],[29.3869,-17.5129,804.187],[29.39,-17.5098,791.9001],[29.3888,-17.5046,774.7985],[29.3777,-17.5134,780.7733],[29.3674,-17.5181,778.7467],[29.3672,-17.5218,786.1293],[29.3699,-17.5271,795.143],[29.3673,-17.5322,780.7263],[29.3449,-17.552,790.7784],[29.3334,-17.5676,796.3445],[29.3295,-17.5696,797.1221],[29.3244,-17.5697,791.1199],[29.3161,-17.574,795.4308],[29.3143,-17.5767,784.9557],[29.315,-17.5835,789.3081],[29.3208,-17.5993,791.0068],[29.3221,-17.6006,807.3658],[29.3299,-17.5993,804.8668],[29.3443,-17.6165,802.6907],[29.3404,-17.6258,800.4971],[29.3425,-17.6394,810.8434],[29.3402,-17.6446,803.2714],[29.3474,-17.6517,801.3594],[29.3447,-17.6585,813.4487],[29.3356,-17.6643,829.9476],[29.3352,-17.6671,801.2568],[29.3386,-17.6795,817.5257],[29.3462,-17.6861,819.8903],[29.344,-17.6925,815.3015],[29.3339,-17.704,819.4597],[29.3054,-17.7164,811.8096],[29.3041,-17.7192,817.0259],[29.3067,-17.7316,811.5083],[29.2988,-17.7417,819.094],[29.3006,-17.7482,816.9831],[29.3072,-17.754,823.5208],[29.3135,-17.7545,826.4791],[29.3199,-17.7522,823.0957],[29.3269,-17.7548,831.3851],[29.3287,-17.7604,815.4484],[29.3273,-17.7656,818.1742],[29.3201,-17.7731,821.5902],[29.3303,-17.7869,842.3656],[29.3298,-17.7989,850.3751],[29.3219,-17.8096,852.602],[29.3056,-17.8202,843.505],[29.3102,-17.8252,857.3442],[29.3133,-17.8336,870.7438],[29.3271,-17.8195,866.3569],[29.3527,-17.8039,856.37],[29.3619,-17.812,859.5991],[29.3628,-17.8216,869.1739],[29.3677,-17.8098,869.0423],[29.396,-17.8038,880.5636],[29.3727,-17.8046,879.7083],[29.3653,-17.79,875.8834],[29.3803,-17.7784,857.394],[29.4281,-17.809,884.1052]]]]}}