{"type": "Feature","bbox": [30.8762,-18.2921,31.1483,-18.0128],"geometry": {"type": "MultiPolygon","coordinates": [[[[31.034,-18.0203,1389.3256],[31.0253,-18.0181,1389.2844],[31.0184,-18.0129,1384.3337],[31.0118,-18.0155,1389.3639],[31.0096,-18.0128,1383.1799],[30.9892,-18.0211,1405.0204],[30.9922,-18.0242,1407.3833],[30.9562,-18.0461,1385.9338],[30.9618,-18.0747,1368.4006],[30.9626,-18.076,1368.7782],[30.9656,-18.0754,1368.8484],[30.9659,-18.0817,1357.9006],[30.9693,-18.0882,1357.1995],[30.9653,-18.0943,1359.3162],[30.9624,-18.1027,1348.8109],[30.9574,-18.1092,1353.9219],[30.962,-18.1098,1352.3755],[30.9627,-18.1114,1346.0271],[30.9602,-18.1265,1334.7815],[30.9481,-18.1431,1332.074],[30.9441,-18.1465,1331.6938],[30.9412,-18.1569,1330.0],[30.9397,-18.1653,1322.6875],[30.9418,-18.1687,1326.6316],[30.94,-18.1784,1320.0786],[30.9418,-18.1816,1319.958],[30.9421,-18.1975,1316.4062],[30.9383,-18.2031,1312.9385],[30.9273,-18.2092,1311.8965],[30.9272,-18.214,1307.6934],[30.9147,-18.2197,1306.0852],[30.9088,-18.2192,1311.0725],[30.9022,-18.2268,1302.733],[30.8957,-18.2263,1305.5615],[30.8945,-18.2316,1301.6597],[30.8858,-18.2381,1299.283],[30.8832,-18.2513,1294.118],[30.8842,-18.2562,1294.771],[30.8787,-18.2571,1289.4468],[30.8762,-18.2593,1286.8611],[30.8833,-18.2607,1288.4551],[30.892,-18.2658,1290.4109],[30.8947,-18.2695,1290.6046],[30.896,-18.2751,1290.0939],[30.8995,-18.2746,1289.3495],[30.901,-18.2708,1295.4495],[30.9036,-18.27,1290.4446],[30.9105,-18.2765,1295.0272],[30.9145,-18.2774,1295.2457],[30.927,-18.2754,1292.0181],[30.9314,-18.2773,1296.8149],[30.9386,-18.2742,1293.672],[30.9434,-18.2768,1295.2972],[30.9443,-18.282,1293.384],[30.9471,-18.2861,1296.8525],[30.9511,-18.284,1298.3119],[30.9598,-18.2848,1298.1769],[30.9653,-18.2873,1304.892],[30.967,-18.2905,1305.5374],[30.9693,-18.2913,1296.9146],[30.9719,-18.29,1307.381],[30.9741,-18.2921,1308.8851],[30.9931,-18.2831,1315.903],[31.001,-18.2841,1319.4797],[30.9947,-18.2731,1334.9259],[31.002,-18.2643,1329.7158],[31.0279,-18.2432,1344.6663],[31.0376,-18.2388,1357.4817],[31.0415,-18.2284,1373.6335],[31.055,-18.2193,1389.4382],[31.0345,-18.1967,1352.538],[31.0363,-18.1925,1360.4385],[31.0425,-18.1894,1363.4778],[31.0475,-18.1906,1369.0619],[31.0509,-18.1935,1369.7581],[31.0563,-18.1932,1366.3799],[31.0624,-18.1888,1368.261],[31.0712,-18.1886,1379.6537],[31.0768,-18.1842,1385.3871],[31.0882,-18.1842,1395.0575],[31.0946,-18.1804,1400.0962],[31.0896,-18.1589,1393.7175],[31.1145,-18.1556,1420.8639],[31.1102,-18.1479,1418.2175],[31.1483,-18.1326,1421.5427],[31.1414,-18.1246,1413.1577],[31.1417,-18.1205,1412.5634],[31.1402,-18.1184,1420.7717],[31.1251,-18.1095,1410.0251],[31.1243,-18.1007,1411.6365],[31.1209,-18.1001,1410.5765],[31.1187,-18.0964,1413.6201],[31.1148,-18.0979,1408.21],[31.1126,-18.0916,1410.3823],[31.1066,-18.09,1404.9871],[31.1026,-18.0816,1412.8585],[31.1002,-18.0818,1410.9314],[31.0969,-18.0872,1403.2146],[31.0875,-18.0873,1405.9922],[31.085,-18.0851,1398.5824],[31.0848,-18.0826,1410.6273],[31.0803,-18.0847,1399.9972],[31.0767,-18.0814,1401.9293],[31.0736,-18.081,1397.3259],[31.0728,-18.0747,1403.2335],[31.0692,-18.074,1403.0829],[31.0589,-18.0671,1396.431],[31.0531,-18.0572,1393.9847],[31.0567,-18.0531,1389.7338],[31.0551,-18.05,1394.5729],[31.0567,-18.0447,1388.6855],[31.0501,-18.0393,1388.6536],[31.0498,-18.0331,1387.267],[31.0422,-18.0314,1387.5206],[31.0398,-18.0266,1386.274],[31.0357,-18.0254,1385.3123],[31.034,-18.0203,1389.3256]]]]}
,"properties": {"GID_3": "ZWE.5.10.21_2","GID_0": "ZWE","country": "Zimbabwe","GID_1": "ZWE.5_1","province": "MashonalandEast","NL_NAME_1": "NA","GID_2": "ZWE.5.10_2","county": "Seke","NL_NAME_2": "NA","city": "Ward9","VARNAME_3": "NA","NL_NAME_3": "NA","TYPE_3": "Ward","ENGTYPE_3": "Ward","CC_3": "NA","HASC_3": "NA","name": "Ward9.city","area_km2": 402.1064,"hist_schema_id": "Elevation0-9000","hist_area_km2": {"1275": 0.2416,"1300": 21.7251,"1325": 76.4424,"1350": 62.9276,"1375": 82.2653,"1400": 111.3284,"1425": 45.4028,"1450": 1.7731}}}