{"type": "Feature","bbox": [31.7586,-18.9422,31.8462,-18.8103],"geometry": {"type": "MultiPolygon","coordinates": [[[[31.8056,-18.8243,1018.6124],[31.7999,-18.8189,1029.4814],[31.7956,-18.8103,1053.6499],[31.7838,-18.8142,1060.7018],[31.7773,-18.82,1107.4641],[31.7756,-18.8272,1098.8716],[31.778,-18.8404,1065.1813],[31.7846,-18.8479,1055.6738],[31.7847,-18.853,1053.4855],[31.7752,-18.8542,1073.2134],[31.7698,-18.8577,1079.4792],[31.7685,-18.866,1098.4694],[31.7724,-18.8737,1126.6219],[31.7727,-18.8838,1147.7655],[31.7689,-18.8921,1088.4027],[31.762,-18.931,997.9324],[31.7586,-18.9389,978.3605],[31.7592,-18.9422,972.9479],[31.7858,-18.9413,997.8474],[31.8005,-18.9387,984.0089],[31.8456,-18.9347,914.5252],[31.8415,-18.9292,927.759],[31.8406,-18.9193,946.5045],[31.8367,-18.9074,944.8933],[31.8326,-18.9026,948.4667],[31.8215,-18.8995,965.7791],[31.8352,-18.8938,962.7032],[31.8396,-18.8895,971.9064],[31.8368,-18.8673,1045.6522],[31.8404,-18.8612,1096.6205],[31.8394,-18.8535,1062.5458],[31.8455,-18.8462,1054.5613],[31.8462,-18.8363,1037.5365],[31.8185,-18.8328,1058.2084],[31.811,-18.8349,1021.3206],[31.8056,-18.8243,1018.6124]]]]}
,"properties": {"GID_3": "ZWE.5.3.3_2","GID_0": "ZWE","country": "Zimbabwe","GID_1": "ZWE.5_1","province": "MashonalandEast","NL_NAME_1": "NA","GID_2": "ZWE.5.3_2","county": "Hwedza","NL_NAME_2": "NA","city": "Ward11","VARNAME_3": "NA","NL_NAME_3": "NA","TYPE_3": "Ward","ENGTYPE_3": "Ward","CC_3": "NA","HASC_3": "NA","name": "Ward11.city","area_km2": 91.43807,"hist_schema_id": "Elevation0-9000","hist_area_km2": {"925": 0.94261,"950": 6.87947,"975": 12.33552,"1000": 11.93539,"1025": 15.68865,"1050": 16.65289,"1075": 8.28595,"1100": 4.8352,"1125": 4.49404,"1150": 2.46761,"1175": 2.98903,"1200": 3.45029,"1225": 0.48142}}}