{"type":"Feature","properties":{"GID_3":"ZWE.6.4.7_2","GID_0":"ZWE","country":"Zimbabwe","GID_1":"ZWE.6_1","province":"MashonalandWest","NL_NAME_1":"NA","GID_2":"ZWE.6.4_2","county":"Hurungwe","NL_NAME_2":"NA","city":"Ward15","VARNAME_3":"NA","NL_NAME_3":"NA","TYPE_3":"Ward","ENGTYPE_3":"Ward","CC_3":"NA","HASC_3":"NA","name":"Ward15.city"},
"geometry":{"type": "MultiPolygon","coordinates": [[[[29.1643,-17.1653,821.4366],[29.1595,-17.1692,829.8786],[29.1515,-17.1704,846.4348],[29.1464,-17.1747,863.7494],[29.1376,-17.1736,940.4929],[29.1316,-17.1795,878.2938],[29.1225,-17.1846,833.6771],[29.1202,-17.1896,821.4866],[29.1122,-17.1923,832.2994],[29.0954,-17.191,807.6942],[29.0869,-17.1876,780.3639],[29.0813,-17.1831,776.8181],[29.0904,-17.1714,785.7715],[29.0903,-17.1661,781.2209],[29.0875,-17.1649,777.494],[29.0819,-17.1665,768.8929],[29.0759,-17.1654,757.2566],[29.0762,-17.1558,771.1201],[29.0781,-17.1508,782.9984],[29.076,-17.1366,790.9947],[29.0687,-17.1328,806.7839],[29.0642,-17.1213,834.4319],[29.057,-17.1206,856.2913],[29.0668,-17.1048,850.3177],[29.0784,-17.105,857.9381],[29.0805,-17.1085,864.2438],[29.0972,-17.1006,875.0528],[29.0995,-17.0944,869.6794],[29.1031,-17.0913,871.4718],[29.1049,-17.0813,891.4496],[29.1132,-17.0732,888.2469],[29.1204,-17.0727,905.7287],[29.1191,-17.0585,886.1686],[29.1226,-17.0554,891.2344],[29.1206,-17.0543,888.9332],[29.1171,-17.057,883.0176],[29.1163,-17.0597,884.5021],[29.1115,-17.0578,892.693],[29.1099,-17.0586,881.3768],[29.1111,-17.0617,874.9811],[29.1095,-17.0632,872.7373],[29.1095,-17.0613,872.5966],[29.1075,-17.0609,877.2169],[29.1067,-17.0632,870.3925],[29.1047,-17.0633,868.5623],[29.1051,-17.059,880.6091],[29.0995,-17.0583,872.0865],[29.0983,-17.0599,864.2989],[29.0995,-17.061,864.2989],[29.0971,-17.063,859.6289],[29.087,-17.0627,858.4865],[29.0826,-17.0639,845.9067],[29.0826,-17.065,848.2778],[29.081,-17.0627,852.5107],[29.0742,-17.0655,832.4197],[29.073,-17.0617,829.9661],[29.0741,-17.0597,830.2824],[29.0689,-17.0556,836.6372],[29.0641,-17.0541,830.0131],[29.0597,-17.0606,813.4558],[29.0569,-17.0595,812.305],[29.0548,-17.0561,815.694],[29.0496,-17.055,806.7182],[29.046,-17.0519,817.9439],[29.0456,-17.0535,805.7988],[29.0436,-17.0527,808.0834],[29.0424,-17.0504,808.0378],[29.0408,-17.0505,817.2479],[29.0388,-17.0516,814.9285],[29.038,-17.0563,801.2354],[29.0329,-17.059,791.3647],[29.0273,-17.0571,791.7129],[29.0273,-17.0587,784.4784],[29.0229,-17.0622,791.0293],[29.0226,-17.0714,778.2703],[29.0171,-17.0772,791.1531],[29.0179,-17.0811,770.2632],[29.0123,-17.0815,762.6377],[29.0087,-17.0781,774.8057],[29.0035,-17.0777,754.3971],[29.0035,-17.0747,766.7163],[29.0003,-17.0743,778.4242],[29.0011,-17.0758,767.6282],[28.9987,-17.0778,761.2106],[28.9967,-17.0763,761.2106],[28.9959,-17.0797,749.734],[28.9884,-17.0798,739.7725],[28.9832,-17.0868,731.8671],[28.9701,-17.0923,724.5729],[28.9721,-17.0969,736.9052],[28.969,-17.1008,720.3567],[28.9642,-17.0985,718.0892],[28.963,-17.0993,728.7031],[28.9634,-17.102,722.8936],[28.9618,-17.1039,721.9575],[28.957,-17.1016,697.1591],[28.9538,-17.1036,685.205],[28.9539,-17.1055,689.1226],[28.9511,-17.1059,716.1963],[28.9526,-17.1024,697.9111],[28.9486,-17.104,675.3489],[28.9466,-17.101,688.8594],[28.9406,-17.1041,652.3256],[28.9407,-17.1068,627.3112],[28.9312,-17.1142,605.1664],[28.93,-17.1142,600.0989],[28.9287,-17.1084,619.2306],[28.9307,-17.1034,610.2941],[28.9298,-17.1015,610.449],[28.927,-17.1019,601.8701],[28.9259,-17.105,596.4013],[28.9217,-17.1075,591.243],[28.9322,-17.132,621.2151],[28.9315,-17.1389,608.9619],[28.9365,-17.1513,603.2507],[28.9378,-17.16,632.7589],[28.9418,-17.1641,615.8366],[28.948,-17.1655,676.476],[28.9503,-17.1737,606.866],[28.9561,-17.1807,620.7457],[28.9618,-17.2035,633.8071],[28.9682,-17.2108,680.9685],[28.9728,-17.213,690.756],[28.9768,-17.2204,633.1404],[28.9817,-17.2239,675.6533],[28.9866,-17.2249,676.4183],[29.0002,-17.2234,708.5056],[29.0177,-17.2246,663.647],[29.0216,-17.2276,689.6223],[29.0274,-17.2362,654.9266],[29.0443,-17.2385,771.8287],[29.0488,-17.2401,673.0137],[29.0578,-17.2483,685.5046],[29.0667,-17.249,707.4316],[29.0703,-17.2563,673.5891],[29.0706,-17.2682,660.8092],[29.0732,-17.2714,693.3026],[29.0975,-17.2712,678.4398],[29.1003,-17.2695,680.2608],[29.1018,-17.2612,703.6638],[29.1047,-17.2602,764.1481],[29.1033,-17.2564,717.9949],[29.1137,-17.2563,714.5308],[29.1146,-17.2522,740.9651],[29.1118,-17.2432,737.8735],[29.116,-17.24,760.5295],[29.1128,-17.2343,737.0157],[29.1165,-17.2274,749.6044],[29.1221,-17.2302,737.3617],[29.1243,-17.2239,770.3335],[29.1283,-17.2274,743.5561],[29.1329,-17.222,783.9283],[29.1387,-17.224,771.0886],[29.1398,-17.2194,781.74],[29.1457,-17.2231,760.3483],[29.1508,-17.2211,767.1238],[29.1497,-17.2142,856.8731],[29.147,-17.2145,815.0864],[29.144,-17.2097,785.6319],[29.1494,-17.203,796.8317],[29.1461,-17.1991,797.781],[29.1523,-17.1999,785.1935],[29.1568,-17.1964,791.9286],[29.1612,-17.1982,785.0167],[29.1667,-17.1952,801.4956],[29.1625,-17.1809,852.8568],[29.1651,-17.1816,804.1727],[29.1662,-17.1787,853.8992],[29.1675,-17.1727,854.4734],[29.1651,-17.17,830.5075],[29.1694,-17.1692,827.2926],[29.1704,-17.1663,863.0205],[29.1667,-17.1641,833.7223],[29.1643,-17.1653,821.4366]]]]}}