{"type":"Feature","properties":{"GID_3":"ZWE.8.5.15_2","GID_0":"ZWE","country":"Zimbabwe","GID_1":"ZWE.8_1","province":"MatabelelandNorth","NL_NAME_1":"NA","GID_2":"ZWE.8.5_2","county":"Lupane","NL_NAME_2":"NA","city":"Ward22","VARNAME_3":"NA","NL_NAME_3":"NA","TYPE_3":"Ward","ENGTYPE_3":"Ward","CC_3":"NA","HASC_3":"NA","name":"Ward22.city"},
"geometry":{"type": "MultiPolygon","coordinates": [[[[27.7441,-18.9262,965.989],[27.7422,-18.9465,959.3643],[27.7435,-18.9509,956.8138],[27.7509,-18.9561,972.1747],[27.7552,-18.9613,969.3272],[27.757,-18.9794,961.8643],[27.7507,-18.9884,958.8341],[27.7509,-18.9935,967.6329],[27.7479,-19.0022,982.8258],[27.7455,-19.0057,962.3213],[27.7405,-19.0088,961.1996],[27.7367,-19.0157,961.2279],[27.7367,-19.0196,967.7898],[27.7339,-19.0204,960.4449],[27.728,-19.0184,968.035],[27.7171,-19.0209,965.1516],[27.7128,-19.0196,971.2948],[27.7067,-19.0228,967.2812],[27.7063,-19.0265,966.5312],[27.6946,-19.0304,968.8009],[27.6969,-19.0427,971.3986],[27.7015,-19.0469,968.6862],[27.7023,-19.0506,968.9716],[27.6956,-19.0535,968.5594],[27.7028,-19.0781,968.6358],[27.6975,-19.0796,966.6459],[27.6976,-19.0812,966.6459],[27.7066,-19.0871,971.0126],[27.7088,-19.0924,971.0024],[27.703,-19.0933,973.2491],[27.7033,-19.0985,971.8752],[27.7014,-19.0997,973.0496],[27.6988,-19.0978,971.6389],[27.6962,-19.1055,974.4991],[27.6941,-19.1066,972.0475],[27.6922,-19.1007,974.5315],[27.6862,-19.0994,973.3315],[27.6831,-19.1015,977.6177],[27.6833,-19.1042,980.6273],[27.6964,-19.1175,977.3299],[27.6974,-19.124,977.0891],[27.6963,-19.1264,978.8477],[27.7041,-19.1301,981.1373],[27.7048,-19.1516,976.1522],[27.6966,-19.1594,977.6337],[27.6966,-19.1613,977.9189],[27.7022,-19.1635,977.3235],[27.7029,-19.1669,978.6871],[27.6992,-19.1708,975.7485],[27.7032,-19.1789,978.5728],[27.7029,-19.1863,977.5112],[27.7061,-19.2015,981.0709],[27.7134,-19.2064,980.4283],[27.7156,-19.2114,978.8854],[27.713,-19.2177,980.2136],[27.7141,-19.2207,981.3272],[27.7231,-19.2236,980.6584],[27.7248,-19.2332,985.3837],[27.7324,-19.2401,987.0582],[27.7346,-19.2494,987.4056],[27.7416,-19.2517,988.6533],[27.741,-19.2569,1000.932],[27.7385,-19.2605,1004.3095],[27.7282,-19.2556,984.3322],[27.7223,-19.2545,993.5698],[27.7103,-19.2566,986.8705],[27.7077,-19.2508,1004.9274],[27.7036,-19.2511,995.054],[27.6978,-19.2553,989.8934],[27.6975,-19.2599,994.1971],[27.702,-19.2695,1000.5675],[27.7003,-19.2786,986.8583],[27.7086,-19.2829,1011.6462],[27.8968,-19.1583,995.59],[27.8932,-19.1545,994.8019],[27.8919,-19.1437,1024.1384],[27.8867,-19.148,991.961],[27.8814,-19.1445,991.8995],[27.885,-19.1403,1018.0133],[27.8758,-19.1381,1010.0553],[27.8709,-19.1385,1005.045],[27.8689,-19.1435,992.845],[27.8593,-19.145,989.8633],[27.8576,-19.1393,994.3177],[27.8524,-19.1397,986.9175],[27.8479,-19.1355,986.8635],[27.8475,-19.1309,1003.7706],[27.8418,-19.1317,985.9631],[27.8378,-19.1363,992.7048],[27.8362,-19.1344,987.777],[27.8394,-19.126,1001.3394],[27.8374,-19.1237,1004.9355],[27.835,-19.1279,988.8805],[27.833,-19.1275,990.8453],[27.8301,-19.1229,1005.6966],[27.8277,-19.1233,998.611],[27.8293,-19.1272,989.9749],[27.8205,-19.128,984.7263],[27.8092,-19.1242,985.5812],[27.8002,-19.1143,983.9071],[27.7922,-19.1154,981.0551],[27.7893,-19.1139,978.6606],[27.7909,-19.1097,980.3671],[27.7881,-19.1032,979.748],[27.7728,-19.101,978.6535],[27.7772,-19.0952,977.0406],[27.7767,-19.0914,977.6577],[27.7703,-19.0922,977.9165],[27.7658,-19.0853,976.2791],[27.7674,-19.0799,975.9897],[27.763,-19.0788,974.7706],[27.763,-19.0765,974.056],[27.7602,-19.078,977.9913],[27.7585,-19.0761,977.9739],[27.7649,-19.0688,973.4236],[27.7625,-19.0627,975.6691],[27.7581,-19.0635,975.9376],[27.7589,-19.0596,972.7443],[27.7544,-19.0558,976.385],[27.7592,-19.0546,972.561],[27.754,-19.0478,969.1328],[27.7512,-19.0501,970.0225],[27.7511,-19.0424,969.2675],[27.7467,-19.0428,967.4687],[27.7455,-19.0443,969.1625],[27.7427,-19.0417,970.9688],[27.737,-19.0417,968.6799],[27.7362,-19.039,969.4294],[27.7422,-19.0375,969.5557],[27.7426,-19.0283,966.7507],[27.7393,-19.0221,966.3591],[27.7557,-19.0001,989.1752],[27.7763,-18.9567,962.7203],[27.7679,-18.937,962.2469],[27.7639,-18.9366,957.7839],[27.7662,-18.9496,973.3224],[27.7503,-18.9505,974.0299],[27.7547,-18.9378,954.9656],[27.7518,-18.9292,965.4489],[27.7441,-18.9262,965.989]]]]}}