{"type": "Feature","bbox": [31.5777,-18.7061,31.8029,-18.5974],"geometry": {"type": "MultiPolygon","coordinates": [[[[31.7583,-18.625,1280.7274],[31.734,-18.6452,1430.4412],[31.7038,-18.623,1375.9807],[31.6639,-18.6169,1346.8416],[31.6082,-18.5974,1429.2825],[31.5893,-18.6202,1413.3381],[31.5927,-18.622,1407.2415],[31.5886,-18.6246,1402.2638],[31.5846,-18.6223,1407.3409],[31.5839,-18.6299,1375.0792],[31.5814,-18.6361,1364.0929],[31.578,-18.6356,1375.2361],[31.5777,-18.6419,1350.8971],[31.5952,-18.6611,1376.928],[31.5991,-18.6743,1336.8011],[31.6051,-18.6808,1314.7649],[31.6149,-18.6815,1299.678],[31.6267,-18.6851,1272.517],[31.6344,-18.6822,1256.7578],[31.6403,-18.6834,1252.6442],[31.6401,-18.6768,1267.9667],[31.6465,-18.6767,1265.9674],[31.6481,-18.6717,1268.9301],[31.6505,-18.67,1277.8832],[31.6608,-18.67,1281.6011],[31.6652,-18.6661,1298.2327],[31.6675,-18.6666,1288.9054],[31.6754,-18.6631,1300.5725],[31.6782,-18.6606,1307.2839],[31.6811,-18.6529,1335.0564],[31.6885,-18.6504,1350.1178],[31.696,-18.6536,1339.666],[31.7116,-18.6642,1357.1272],[31.7387,-18.6686,1406.7574],[31.7591,-18.7044,1254.6394],[31.7609,-18.7057,1256.7006],[31.7678,-18.7049,1245.3513],[31.774,-18.7061,1164.6875],[31.7745,-18.6989,1202.0732],[31.7781,-18.6943,1252.1478],[31.7837,-18.6903,1235.6844],[31.8029,-18.684,1156.9113],[31.7956,-18.6761,1155.2621],[31.7924,-18.6677,1165.5061],[31.7859,-18.669,1160.3052],[31.7857,-18.6631,1164.2488],[31.7817,-18.658,1173.048],[31.7814,-18.6543,1185.2971],[31.7738,-18.6493,1252.4097],[31.7723,-18.6466,1229.4373],[31.7725,-18.6395,1263.821],[31.7632,-18.636,1274.4789],[31.7583,-18.625,1280.7274]]]]}
,"properties": {"GID_3": "ZWE.5.3.11_2","GID_0": "ZWE","country": "Zimbabwe","GID_1": "ZWE.5_1","province": "MashonalandEast","NL_NAME_1": "NA","GID_2": "ZWE.5.3_2","county": "Hwedza","NL_NAME_2": "NA","city": "Ward5","VARNAME_3": "NA","NL_NAME_3": "NA","TYPE_3": "Ward","ENGTYPE_3": "Ward","CC_3": "NA","HASC_3": "NA","name": "Ward5.city","area_km2": 124.97351,"hist_schema_id": "Elevation0-9000","hist_area_km2": {"1150": 1.20514,"1175": 3.23385,"1200": 2.26971,"1225": 1.78758,"1250": 4.57934,"1275": 6.94968,"1300": 8.65748,"1325": 12.49495,"1350": 23.32445,"1375": 26.39858,"1400": 20.51237,"1425": 7.81513,"1450": 2.8325,"1475": 2.91276}}}