{"type":"Feature","properties":{"GID_3":"ZWE.2.2.3_2","GID_0":"ZWE","country":"Zimbabwe","GID_1":"ZWE.2_1","province":"Harare","NL_NAME_1":"NA","GID_2":"ZWE.2.2_2","county":"Epworth","NL_NAME_2":"NA","city":"Ward3","VARNAME_3":"NA","NL_NAME_3":"NA","TYPE_3":"Ward","ENGTYPE_3":"Ward","CC_3":"NA","HASC_3":"NA","name":"Ward3.city"},
"geometry":{"type": "MultiPolygon","coordinates": [[[[31.1426,-17.9034,1501.9333],[31.1361,-17.9289,1481.927],[31.1507,-17.9285,1454.3416],[31.1536,-17.9196,1462.501],[31.1511,-17.9077,1476.5283],[31.1487,-17.9043,1482.1086],[31.1426,-17.9034,1501.9333]]]]}}