{"type": "Feature","bbox": [30.9861,-17.8528,31.0403,-17.798],"geometry": {"type": "MultiPolygon","coordinates": [[[[31.0365,-17.8416,1497.849],[31.0403,-17.8278,1481.5916],[31.0348,-17.8073,1474.3569],[31.0274,-17.8078,1469.2825],[31.0261,-17.8062,1473.8777],[31.0268,-17.8013,1479.9973],[31.0138,-17.798,1463.1824],[31.0085,-17.8011,1460.4237],[31.0061,-17.8106,1452.2153],[31.0022,-17.8158,1451.7344],[31.0005,-17.8273,1444.8815],[30.9966,-17.8299,1442.9854],[30.9963,-17.8343,1440.0807],[30.9941,-17.8355,1439.7843],[30.9901,-17.8439,1435.3785],[30.9861,-17.845,1438.4783],[30.9864,-17.8499,1439.7352],[30.9949,-17.851,1439.2365],[30.9959,-17.8528,1441.1699],[31.0113,-17.8472,1446.1705],[31.0365,-17.8416,1497.849]]]]}
,"properties": {"GID_3": "ZWE.2.3.41_2","GID_0": "ZWE","country": "Zimbabwe","GID_1": "ZWE.2_1","province": "Harare","NL_NAME_1": "NA","GID_2": "ZWE.2.3_2","county": "Harare","NL_NAME_2": "NA","city": "Ward5","VARNAME_3": "NA","NL_NAME_3": "NA","TYPE_3": "Ward","ENGTYPE_3": "Ward","CC_3": "NA","HASC_3": "NA","name": "Ward5.city","area_km2": 20.30528,"hist_schema_id": "Elevation0-9000","hist_area_km2": {"1425": 0.64583,"1450": 9.68821,"1475": 9.68867,"1500": 0.28258}}}