{"type":"Feature","properties":{"GID_3":"ZWE.1.1.27_2","GID_0":"ZWE","country":"Zimbabwe","GID_1":"ZWE.1_1","province":"Bulawayo","NL_NAME_1":"NA","GID_2":"ZWE.1.1_2","county":"Bulawayo","NL_NAME_2":"NA","city":"Ward7","VARNAME_3":"NA","NL_NAME_3":"NA","TYPE_3":"Ward","ENGTYPE_3":"Ward","CC_3":"NA","HASC_3":"NA","name":"Ward7.city"},
"geometry":{"type": "MultiPolygon","coordinates": [[[[28.5819,-20.1398,1334.1558],[28.5786,-20.1382,1324.4258],[28.5775,-20.1359,1320.4274],[28.5728,-20.1386,1324.1379],[28.5688,-20.1452,1332.4036],[28.5629,-20.1483,1331.4819],[28.5534,-20.15,1340.4177],[28.5469,-20.1537,1353.6633],[28.5442,-20.1635,1350.5585],[28.5466,-20.1696,1364.5306],[28.551,-20.1714,1371.9276],[28.5552,-20.1695,1371.5593],[28.565,-20.1753,1370.354],[28.5716,-20.1672,1359.5082],[28.5777,-20.163,1357.4979],[28.576,-20.1604,1362.6735],[28.5729,-20.1595,1360.678],[28.5819,-20.1398,1334.1558]]]]}}