{"type": "Feature","bbox": [32.6723,-18.178,32.7677,-18.0675],"geometry": {"type": "MultiPolygon","coordinates": [[[[32.6743,-18.1726,1318.5526],[32.7026,-18.1688,1351.376],[32.7099,-18.1726,1362.1567],[32.7186,-18.1734,1379.6157],[32.7234,-18.1767,1409.2394],[32.7331,-18.178,1452.9401],[32.7461,-18.1753,1541.889],[32.7546,-18.1683,1673.6837],[32.7599,-18.1676,1757.8577],[32.7656,-18.1635,1911.0314],[32.7677,-18.0928,2300.7085],[32.7621,-18.0715,1753.1641],[32.7251,-18.0708,1303.9561],[32.7018,-18.0675,1259.7051],[32.7154,-18.1009,1375.4082],[32.7356,-18.112,1417.853],[32.7195,-18.1282,1412.0181],[32.711,-18.1544,1463.6948],[32.6723,-18.1693,1311.7983],[32.6743,-18.1726,1318.5526]]]]}
,"properties": {"GID_3": "ZWE.3.9.11_2","GID_0": "ZWE","country": "Zimbabwe","GID_1": "ZWE.3_1","province": "Manicaland","NL_NAME_1": "NA","GID_2": "ZWE.3.9_2","county": "Nyanga","NL_NAME_2": "NA","city": "Ward19","VARNAME_3": "NA","NL_NAME_3": "NA","TYPE_3": "Ward","ENGTYPE_3": "Ward","CC_3": "NA","HASC_3": "NA","name": "Ward19.city","area_km2": 65.02465,"hist_schema_id": "Elevation0-9000","hist_area_km2": {"1275": 0.74579,"1300": 1.59229,"1325": 4.11141,"1350": 4.39308,"1375": 4.65448,"1400": 4.87606,"1425": 6.10508,"1450": 6.58846,"1475": 6.28635,"1500": 4.09021,"1525": 3.04255,"1550": 2.39787,"1575": 1.83358,"1600": 2.05533,"1625": 1.47099,"1650": 1.18885,"1675": 1.0277,"1700": 0.7859,"1725": 0.90682,"1750": 0.4635,"1775": 0.72547,"1800": 0.56423,"1825": 0.66501,"1850": 0.26197,"1875": 0.36271,"1900": 0.30229,"1925": 0.28211,"1950": 0.40301,"1975": 0.26195,"2000": 0.18137,"2025": 0.22169,"2050": 0.14107,"2075": 0.18138,"2100": 0.14107,"2125": 0.06046,"2150": 0.08061,"2175": 0.24184,"2200": 0.10076,"2225": 0.06046,"2250": 0.10077,"2275": 0.16123,"2300": 0.22169,"2325": 0.18138,"2350": 0.3426,"2375": 0.10077,"2400": 0.06046}}}