{"type":"Feature","properties":{"GID_3":"ZWE.4.9.19_2","GID_0":"ZWE","country":"Zimbabwe","GID_1":"ZWE.4_1","province":"MashonalandCentral","NL_NAME_1":"NA","GID_2":"ZWE.4.9_2","county":"Rushinga","NL_NAME_2":"NA","city":"Ward3","VARNAME_3":"NA","NL_NAME_3":"NA","TYPE_3":"Ward","ENGTYPE_3":"Ward","CC_3":"NA","HASC_3":"NA","name":"Ward3.city"},
"geometry":{"type": "MultiPolygon","coordinates": [[[[32.5611,-16.6055,694.4036],[32.5465,-16.6033,654.0281],[32.5434,-16.6062,646.53],[32.5404,-16.6067,654.2864],[32.5395,-16.6101,644.9948],[32.5338,-16.6072,653.7079],[32.5089,-16.6091,654.0081],[32.5038,-16.6022,664.1815],[32.5038,-16.5963,673.1945],[32.5033,-16.5988,670.9675],[32.5003,-16.5924,684.4566],[32.4911,-16.5899,703.7779],[32.4774,-16.5801,727.4455],[32.4734,-16.5791,737.6245],[32.47,-16.5857,703.6691],[32.4702,-16.5959,684.1681],[32.4726,-16.6039,673.7686],[32.4707,-16.6125,641.7762],[32.4758,-16.6211,647.8384],[32.4746,-16.624,627.6636],[32.463,-16.6332,640.6542],[32.4563,-16.6353,657.3167],[32.4455,-16.6463,640.3011],[32.4414,-16.6571,613.7285],[32.4419,-16.6664,584.9569],[32.4394,-16.6707,583.6746],[32.4428,-16.675,578.3596],[32.4428,-16.6782,572.7296],[32.4398,-16.6806,572.019],[32.4393,-16.6851,570.7299],[32.4366,-16.6856,564.3977],[32.4358,-16.6884,556.6008],[32.4413,-16.6915,565.4304],[32.4419,-16.6944,557.2491],[32.4505,-16.7012,530.9094],[32.4618,-16.6969,528.5235],[32.4711,-16.7023,542.959],[32.4742,-16.7024,520.3618],[32.4819,-16.6989,531.5837],[32.4873,-16.7038,520.836],[32.5025,-16.7022,513.9285],[32.5156,-16.7077,505.196],[32.5275,-16.719,500.6365],[32.5469,-16.7229,494.1562],[32.552,-16.7129,511.725],[32.5501,-16.7081,520.3489],[32.5478,-16.7089,524.0964],[32.5474,-16.7056,524.1816],[32.5509,-16.7004,530.7751],[32.5509,-16.6942,538.4084],[32.5558,-16.6829,564.2033],[32.5539,-16.6803,571.8306],[32.5597,-16.6803,570.4164],[32.5631,-16.6689,593.3616],[32.57,-16.6613,595.4636],[32.57,-16.6547,606.2282],[32.5761,-16.6411,627.121],[32.5773,-16.633,639.1112],[32.5799,-16.6294,650.9915],[32.5774,-16.6229,669.0923],[32.5611,-16.6055,694.4036]]]]}}