{"type":"Feature","properties":{"GID_3":"ZWE.7.5.41_2","GID_0":"ZWE","country":"Zimbabwe","GID_1":"ZWE.7_1","province":"Masvingo","NL_NAME_1":"NA","GID_2":"ZWE.7.5_2","county":"Gutu","NL_NAME_2":"NA","city":"Ward8","VARNAME_3":"NA","NL_NAME_3":"NA","TYPE_3":"Ward","ENGTYPE_3":"Ward","CC_3":"NA","HASC_3":"NA","name":"Ward8.city"},
"geometry":{"type": "MultiPolygon","coordinates": [[[[31.1386,-19.5259,1294.2585],[31.1154,-19.5874,1425.7953],[31.1408,-19.6367,1367.925],[31.1531,-19.6241,1387.3828],[31.1586,-19.6277,1375.3835],[31.1872,-19.6219,1326.7697],[31.211,-19.6255,1265.4409],[31.2336,-19.6211,1245.7628],[31.2371,-19.6237,1234.4269],[31.2433,-19.6233,1222.7878],[31.2481,-19.6321,1210.6387],[31.2605,-19.6294,1189.491],[31.2658,-19.6222,1168.506],[31.2767,-19.6218,1159.2712],[31.2812,-19.6189,1150.1033],[31.286,-19.6182,1154.5411],[31.2897,-19.6146,1158.2581],[31.2971,-19.6176,1132.6285],[31.2978,-19.6155,1130.9263],[31.3004,-19.6153,1130.6624],[31.2962,-19.6075,1141.0975],[31.2979,-19.6049,1156.7209],[31.2916,-19.6019,1144.0745],[31.2901,-19.597,1160.3931],[31.2875,-19.5946,1158.3276],[31.2881,-19.5916,1161.2266],[31.291,-19.5897,1158.9944],[31.289,-19.5878,1162.7683],[31.2871,-19.574,1193.141],[31.2847,-19.5713,1182.4634],[31.2852,-19.5617,1198.3756],[31.2806,-19.559,1186.6222],[31.2847,-19.5566,1199.7633],[31.2824,-19.5468,1201.0527],[31.2488,-19.5687,1267.3929],[31.2431,-19.5691,1194.5876],[31.2415,-19.5713,1192.6633],[31.2346,-19.5686,1197.3508],[31.2264,-19.5573,1214.1155],[31.2199,-19.5518,1219.3961],[31.2168,-19.5516,1200.9269],[31.2095,-19.5456,1224.3459],[31.1981,-19.5411,1211.1361],[31.191,-19.535,1229.7339],[31.1849,-19.5325,1230.1716],[31.1777,-19.5271,1225.8706],[31.1651,-19.5421,1298.9309],[31.1386,-19.5259,1294.2585]]]]}}