{"type": "Feature","bbox": [29.7635,-20.6846,30.0531,-20.5026],"geometry": {"type": "MultiPolygon","coordinates": [[[[29.7635,-20.6802,983.8274],[29.8104,-20.6695,1014.788],[29.8535,-20.6621,981.984],[29.8654,-20.6617,987.062],[29.9147,-20.6846,974.022],[30.0205,-20.6347,1049.72],[30.0531,-20.5853,1054.9614],[30.0389,-20.5885,1122.318],[30.0128,-20.5724,1123.1444],[29.9823,-20.5805,1432.7939],[29.9718,-20.5602,1053.3281],[29.9752,-20.5388,1018.8251],[29.9408,-20.5026,1050.8521],[29.9312,-20.5586,1135.501],[29.8841,-20.5653,1115.2645],[29.8566,-20.5441,1092.8986],[29.8378,-20.5547,1064.4591],[29.845,-20.5891,1070.9929],[29.7987,-20.6209,1033.4985],[29.7635,-20.6802,983.8274]]]]}
,"properties": {"GID_3": "ZWE.10.9.29_2","GID_0": "ZWE","country": "Zimbabwe","GID_1": "ZWE.10_1","province": "Midlands","NL_NAME_1": "NA","GID_2": "ZWE.10.9_2","county": "Mberengwa","NL_NAME_2": "NA","city": "Ward35","VARNAME_3": "NA","NL_NAME_3": "NA","TYPE_3": "Ward","ENGTYPE_3": "Ward","CC_3": "NA","HASC_3": "NA","name": "Ward35.city","area_km2": 278.2851,"hist_schema_id": "Elevation0-9000","hist_area_km2": {"925": 1.0912,"950": 7.7775,"975": 16.8833,"1000": 39.3035,"1025": 41.6101,"1050": 33.7568,"1075": 34.1573,"1100": 32.7698,"1125": 22.9449,"1150": 14.5489,"1175": 7.8004,"1200": 5.0212,"1225": 3.9495,"1250": 3.1158,"1275": 2.8578,"1300": 2.1235,"1325": 1.7465,"1350": 1.5281,"1375": 1.5282,"1400": 1.2503,"1425": 0.9328,"1450": 0.7938,"1475": 0.4961,"1500": 0.1786,"1525": 0.0198,"1550": 0.0397,"1575": 0.0397,"1625": 0.0198}}}