{"type": "Feature","bbox": [31.2712,-19.0148,31.4062,-18.9021],"geometry": {"type": "MultiPolygon","coordinates": [[[[31.2764,-18.9479,1445.1794],[31.2712,-18.9539,1429.0869],[31.2756,-18.9688,1412.9153],[31.2752,-18.9759,1407.4155],[31.2722,-18.9832,1399.6895],[31.279,-19.0006,1469.2292],[31.2899,-19.0148,1334.8008],[31.3192,-19.0084,1383.7197],[31.3313,-19.0026,1409.8162],[31.3589,-18.9944,1368.2828],[31.3589,-18.9932,1368.2828],[31.3756,-18.9868,1362.6125],[31.3905,-18.9836,1245.2434],[31.3914,-18.9796,1242.5396],[31.3944,-18.9769,1240.3887],[31.3976,-18.9789,1238.2322],[31.3965,-18.9848,1227.2997],[31.3991,-18.9912,1236.9485],[31.4009,-18.9919,1202.1337],[31.4062,-18.9786,1204.9049],[31.4053,-18.9729,1208.5724],[31.403,-18.9714,1220.2556],[31.4019,-18.968,1242.0443],[31.3975,-18.9681,1224.5024],[31.3937,-18.9649,1225.1782],[31.3848,-18.9497,1299.9128],[31.3836,-18.9436,1302.5173],[31.3803,-18.9401,1282.7384],[31.3782,-18.9243,1314.1769],[31.3719,-18.9157,1296.0732],[31.373,-18.9116,1300.4825],[31.368,-18.9031,1303.8494],[31.3613,-18.9041,1332.2473],[31.3569,-18.9021,1366.1935],[31.3467,-18.9053,1348.6696],[31.3437,-18.9049,1357.0823],[31.3396,-18.9262,1419.7817],[31.2958,-18.9368,1475.8523],[31.2943,-18.9324,1482.3997],[31.2912,-18.9378,1469.2625],[31.2764,-18.9479,1445.1794]]]]}
,"properties": {"GID_3": "ZWE.5.1.14_2","GID_0": "ZWE","country": "Zimbabwe","GID_1": "ZWE.5_1","province": "MashonalandEast","NL_NAME_1": "NA","GID_2": "ZWE.5.1_2","county": "Chikomba","NL_NAME_2": "NA","city": "Ward21","VARNAME_3": "NA","NL_NAME_3": "NA","TYPE_3": "Ward","ENGTYPE_3": "Ward","CC_3": "NA","HASC_3": "NA","name": "Ward21.city","area_km2": 102.70388,"hist_schema_id": "Elevation0-9000","hist_area_km2": {"1200": 0.50123,"1225": 1.2832,"1250": 3.5088,"1275": 1.40367,"1300": 2.96792,"1325": 4.47192,"1350": 6.29658,"1375": 8.44144,"1400": 10.1457,"1425": 18.00551,"1450": 28.05179,"1475": 17.44567,"1500": 0.18045}}}