{"type": "Feature","bbox": [30.9234,-17.8666,30.9522,-17.8487],"geometry": {"type": "MultiPolygon","coordinates": [[[[30.9465,-17.8487,1417.323],[30.9375,-17.8516,1412.2079],[30.9327,-17.8558,1411.2031],[30.927,-17.8574,1410.4712],[30.9234,-17.8598,1409.1058],[30.9236,-17.8623,1409.4957],[30.9266,-17.8615,1411.0555],[30.9261,-17.8631,1412.0754],[30.9326,-17.8634,1423.1028],[30.9403,-17.8616,1423.7473],[30.9465,-17.8666,1455.4307],[30.9522,-17.8662,1454.1885],[30.9473,-17.8602,1440.8363],[30.9465,-17.8487,1417.323]]]]}
,"properties": {"GID_3": "ZWE.2.3.29_2","GID_0": "ZWE","country": "Zimbabwe","GID_1": "ZWE.2_1","province": "Harare","NL_NAME_1": "NA","GID_2": "ZWE.2.3_2","county": "Harare","NL_NAME_2": "NA","city": "Ward36","VARNAME_3": "NA","NL_NAME_3": "NA","TYPE_3": "Ward","ENGTYPE_3": "Ward","CC_3": "NA","HASC_3": "NA","name": "Ward36.city","area_km2": 2.885832,"hist_schema_id": "Elevation0-9000","hist_area_km2": {"1400": 0.403616,"1425": 2.098795,"1450": 0.383421}}}