{"type": "Feature","bbox": [31.1412,-17.9131,31.1606,-17.8831],"geometry": {"type": "MultiPolygon","coordinates": [[[[31.1443,-17.891,1497.3606],[31.152,-17.9131,1468.782],[31.1572,-17.9068,1484.816],[31.1549,-17.9055,1489.2906],[31.155,-17.8995,1502.3728],[31.1606,-17.8984,1503.2871],[31.143,-17.8831,1505.7897],[31.1412,-17.8855,1501.463],[31.1443,-17.891,1497.3606]]]]}
,"properties": {"GID_3": "ZWE.2.2.5_2","GID_0": "ZWE","country": "Zimbabwe","GID_1": "ZWE.2_1","province": "Harare","NL_NAME_1": "NA","GID_2": "ZWE.2.2_2","county": "Epworth","NL_NAME_2": "NA","city": "Ward5","VARNAME_3": "NA","NL_NAME_3": "NA","TYPE_3": "Ward","ENGTYPE_3": "Ward","CC_3": "NA","HASC_3": "NA","name": "Ward5.city","area_km2": 2.481671,"hist_schema_id": "Elevation0-9000","hist_area_km2": {"1475": 0.484202,"1500": 1.91676,"1525": 0.080709}}}