{"type":"Feature","properties":{"GID_3":"ZWE.4.1.15_2","GID_0":"ZWE","country":"Zimbabwe","GID_1":"ZWE.4_1","province":"MashonalandCentral","NL_NAME_1":"NA","GID_2":"ZWE.4.1_2","county":"Bindura","NL_NAME_2":"NA","city":"Ward3","VARNAME_3":"NA","NL_NAME_3":"NA","TYPE_3":"Ward","ENGTYPE_3":"Ward","CC_3":"NA","HASC_3":"NA","name":"Ward3.city"},
"geometry":{"type": "MultiPolygon","coordinates": [[[[31.213,-16.9847,1173.0841],[31.2173,-16.9913,1167.5184],[31.2173,-16.9982,1173.8832],[31.2196,-17.0029,1176.0576],[31.217,-17.0039,1163.4672],[31.215699999999998,-17.0103,1168.0872],[31.2169,-17.0149,1163.6392],[31.2141,-17.0166,1167.1478],[31.2134,-17.0206,1167.6873],[31.2089,-17.0233,1175.196],[31.2059,-17.0289,1178.2959],[31.1994,-17.0295,1211.3145],[31.1893,-17.0411,1182.6951],[31.1826,-17.0443,1181.0],[31.182,-17.0479,1182.825],[31.1804,-17.0488,1181.3195],[31.1795,-17.058,1181.0],[31.1768,-17.0611,1183.2151],[31.1771,-17.0669,1182.7905],[31.1701,-17.0716,1197.3544],[31.1701,-17.0761,1188.8174],[31.1371,-17.1007,1227.85],[31.1333,-17.1487,1359.5138],[31.1207,-17.1735,1151.2594],[31.1196,-17.1792,1138.8804],[31.1235,-17.1816,1138.9858],[31.1242,-17.1857,1129.9564],[31.1272,-17.1865,1146.6716],[31.1312,-17.2309,1115.7258],[31.1405,-17.2282,1116.8948],[31.1541,-17.2175,1096.9174],[31.15,-17.2157,1100.7484],[31.1613,-17.1971,1205.0798],[31.1786,-17.1793,1389.748],[31.2109,-17.1642,1188.3003],[31.239,-17.1362,1289.8464],[31.255,-17.0883,1251.5647],[31.2518,-17.0866,1237.1953],[31.2517,-17.0703,1220.1477],[31.2604,-17.0726,1234.8285],[31.2687,-17.0568,1250.663],[31.2753,-17.0669,1264.7887],[31.2767,-17.0728,1276.1514],[31.288,-17.0816,1367.2367],[31.2947,-17.0811,1310.3937],[31.3035,-17.0727,1375.198],[31.2946,-17.0592,1372.9769],[31.2944,-17.0566,1314.9783],[31.2805,-17.0386,1252.6952],[31.2894,-17.0266,1240.463],[31.2602,-17.0078,1228.5823],[31.2431,-17.0153,1349.2922],[31.2299,-16.983,1175.1345],[31.213,-16.9847,1173.0841]]]]}}