{"type":"Feature","properties":{"GID_3":"ZWE.5.3.10_2","GID_0":"ZWE","country":"Zimbabwe","GID_1":"ZWE.5_1","province":"MashonalandEast","NL_NAME_1":"NA","GID_2":"ZWE.5.3_2","county":"Hwedza","NL_NAME_2":"NA","city":"Ward4","VARNAME_3":"NA","NL_NAME_3":"NA","TYPE_3":"Ward","ENGTYPE_3":"Ward","CC_3":"NA","HASC_3":"NA","name":"Ward4.city"},
"geometry":{"type": "MultiPolygon","coordinates": [[[[31.4791,-18.7688,1230.7273],[31.4859,-18.7707,1230.4564],[31.4995,-18.7488,1225.311],[31.5,-18.746,1227.6096],[31.497,-18.7448,1224.83],[31.4971,-18.7432,1224.4153],[31.503,-18.7366,1237.2064],[31.4829,-18.7186,1282.5549],[31.5082,-18.702,1257.0806],[31.5254,-18.6816,1285.2062],[31.5508,-18.6286,1362.8848],[31.5253,-18.6288,1332.8264],[31.5073,-18.6271,1333.175],[31.4808,-18.6317,1329.9318],[31.4602,-18.6417,1331.0803],[31.42,-18.5783,1365.0311],[31.4207,-18.5967,1356.2887],[31.3741,-18.6357,1296.8696],[31.3448,-18.6349,1282.7333],[31.3449,-18.6413,1281.3223],[31.3508,-18.6459,1295.8599],[31.3542,-18.6561,1280.7451],[31.369,-18.6606,1270.1254],[31.3705,-18.6667,1269.7675],[31.3745,-18.6723,1269.4042],[31.3744,-18.6783,1267.9563],[31.3784,-18.6858,1269.9299],[31.3798,-18.6931,1265.6133],[31.3988,-18.7011,1267.0316],[31.4079,-18.7025,1269.6763],[31.4131,-18.7068,1254.8984],[31.417,-18.7187,1254.269],[31.4164,-18.7263,1247.8087],[31.4178,-18.7273,1253.6848],[31.4278,-18.7285,1248.4321],[31.4317,-18.7314,1239.8878],[31.4491,-18.7329,1249.0624],[31.459,-18.738,1240.4149],[31.4681,-18.7374,1233.4946],[31.467,-18.7451,1227.4922],[31.4708,-18.7494,1229.8674],[31.4753,-18.7637,1223.9358],[31.4791,-18.7688,1230.7273]]]]}}