{"type":"Feature","properties":{"GID_3":"ZWE.6.6.3_2","GID_0":"ZWE","country":"Zimbabwe","GID_1":"ZWE.6_1","province":"MashonalandWest","NL_NAME_1":"NA","GID_2":"ZWE.6.6_2","county":"Kariba","NL_NAME_2":"NA","city":"Ward11","VARNAME_3":"NA","NL_NAME_3":"NA","TYPE_3":"Ward","ENGTYPE_3":"Ward","CC_3":"NA","HASC_3":"NA","name":"Ward11.city"},
"geometry":{"type": "MultiPolygon","coordinates": [[[[29.0072,-16.9717,870.2615],[29.011,-16.9586,878.0133],[29.0078,-16.9476,889.1331],[29.0075,-16.936,910.2135],[29.0041,-16.9293,848.4995],[28.9983,-16.9254,868.7996],[28.999,-16.9141,846.9601],[28.9949,-16.9118,829.7612],[28.9948,-16.9068,821.5018],[28.9921,-16.9027,812.0685],[28.994,-16.898,810.0545],[28.9978,-16.8942,812.5989],[28.9976,-16.893,812.5989],[28.9947,-16.8934,808.2548],[28.9963,-16.8904,819.7194],[28.993,-16.8869,806.6672],[28.995,-16.8855,801.7025],[28.9966,-16.881,801.0209],[28.9924,-16.8785,805.1567],[28.9944,-16.8756,808.5602],[28.9988,-16.8758,784.6083],[28.9988,-16.8727,776.5162],[29.0021,-16.8723,787.3032],[29.0005,-16.8699,782.1544],[29.0011,-16.8661,799.4637],[28.9949,-16.8658,787.7888],[28.9872,-16.8576,761.4627],[28.986,-16.8497,755.5677],[28.9835,-16.8483,758.6439],[28.9806,-16.8425,705.043],[28.9848,-16.8341,737.269],[28.9808,-16.8314,719.6625],[28.9776,-16.8322,696.5882],[28.9721,-16.8277,765.3959],[28.9588,-16.8279,727.7557],[28.9459,-16.8298,697.1368],[28.9412,-16.8336,715.1718],[28.9351,-16.834,675.3175],[28.9362,-16.8305,706.5448],[28.9438,-16.8265,677.0936],[28.9416,-16.8232,721.4174],[28.9377,-16.8247,665.7798],[28.9377,-16.8224,725.0225],[28.9491,-16.8137,686.1289],[28.9477,-16.8106,707.8513],[28.9431,-16.8087,607.106],[28.9423,-16.803,627.6756],[28.9099,-16.7948,538.4084],[28.8201,-16.8399,877.6024],[28.8461,-16.9032,1000.3151],[28.8117,-16.9173,500.7845],[28.8144,-16.94,507.4883],[28.8132,-16.9636,571.9263],[28.817,-16.9693,716.0825],[28.827,-16.9746,565.6927],[28.8293,-16.9881,523.9175],[28.8348,-16.9955,673.8659],[28.8356,-17.0007,536.9711],[28.8395,-17.004,616.3577],[28.8373,-17.008,567.9312],[28.862,-17.0252,606.9171],[28.8628,-17.0279,568.4125],[28.8689,-17.0247,650.2449],[28.8704,-17.0265,595.9972],[28.874,-17.0215,664.8831],[28.876,-17.0228,692.8793],[28.8814,-17.0202,695.7704],[28.8834,-17.0223,647.689],[28.8863,-17.0202,662.6008],[28.8927,-17.021,707.8918],[28.896,-17.0197,718.8474],[28.898,-17.0223,674.1027],[28.904,-17.0239,660.6014],[28.9083,-17.0222,736.326],[28.9141,-17.0235,663.6824],[28.9144,-17.0194,757.7319],[28.9181,-17.0203,725.1074],[28.9202,-17.0187,751.2649],[28.9208,-17.0136,715.0125],[28.9251,-17.0092,747.1281],[28.9253,-17.0065,782.6307],[28.9282,-17.0059,741.7188],[28.9283,-17.003,764.7862],[28.9321,-16.9996,810.6247],[28.9365,-16.9989,779.9067],[28.9382,-16.9948,772.7966],[28.9368,-16.9905,828.456],[28.9392,-16.9903,776.8629],[28.9403,-16.993,772.2401],[28.9437,-16.9934,777.8933],[28.9471,-16.9889,792.1815],[28.9512,-16.9874,786.5803],[28.9483,-16.9824,815.4736],[28.9503,-16.9805,801.7769],[28.9518,-16.9807,831.212],[28.9536,-16.9844,821.7213],[28.9596,-16.9852,826.4454],[28.9607,-16.9836,801.0182],[28.9586,-16.9811,820.0751],[28.966,-16.9796,813.903],[28.9657,-16.9763,841.7358],[28.9682,-16.9763,810.5698],[28.9708,-16.9689,826.0632],[28.9758,-16.9745,821.4635],[28.9773,-16.9742,827.9401],[28.978,-16.9706,828.8289],[28.9811,-16.9691,866.8228],[28.9842,-16.9693,857.699],[28.9867,-16.9737,846.3757],[28.989,-16.9711,862.3372],[28.993,-16.9709,846.5662],[28.9989,-16.965,879.4713],[29.0026,-16.9674,873.4299],[29.0066,-16.9679,866.2129],[29.0072,-16.9717,870.2615]]]]}}