{"type": "Feature","bbox": [32.0121,-16.7651,32.1162,-16.6484],"geometry": {"type": "MultiPolygon","coordinates": [[[[32.035,-16.757,696.4026],[32.0772,-16.7562,794.9507],[32.0943,-16.7651,709.8233],[32.0955,-16.762,715.1549],[32.0975,-16.762,722.595],[32.1011,-16.7567,744.0833],[32.1055,-16.7544,758.3706],[32.1043,-16.7536,758.3706],[32.1063,-16.7475,748.8649],[32.114,-16.7437,746.1088],[32.1162,-16.6932,793.4594],[32.1146,-16.6932,793.4594],[32.1117,-16.6958,796.3632],[32.1091,-16.6953,799.1957],[32.1021,-16.6997,787.5282],[32.0881,-16.698,808.6027],[32.0867,-16.6962,855.4445],[32.0785,-16.698,809.8419],[32.0733,-16.6885,814.6307],[32.073,-16.6816,822.1712],[32.0701,-16.6812,828.9917],[32.0553,-16.6573,871.0762],[32.0501,-16.6547,877.7137],[32.0455,-16.6484,902.2417],[32.0357,-16.6545,889.2092],[32.0322,-16.6538,884.5177],[32.0232,-16.6586,901.5391],[32.0121,-16.6586,904.9559],[32.015,-16.6719,870.712],[32.027,-16.6679,893.8956],[32.0335,-16.7415,732.6068],[32.0352,-16.7423,729.3613],[32.0366,-16.7473,731.9885],[32.0339,-16.7522,700.4591],[32.035,-16.757,696.4026]]]]}
,"properties": {"GID_3": "ZWE.4.9.6_2","GID_0": "ZWE","country": "Zimbabwe","GID_1": "ZWE.4_1","province": "MashonalandCentral","NL_NAME_1": "NA","GID_2": "ZWE.4.9_2","county": "Rushinga","NL_NAME_2": "NA","city": "Ward14","VARNAME_3": "NA","NL_NAME_3": "NA","TYPE_3": "Ward","ENGTYPE_3": "Ward","CC_3": "NA","HASC_3": "NA","name": "Ward14.city","area_km2": 79.64242,"hist_schema_id": "Elevation0-9000","hist_area_km2": {"700": 0.32483,"725": 1.86784,"750": 6.05045,"775": 10.65965,"800": 13.7676,"825": 17.03831,"850": 12.75355,"875": 8.06261,"900": 3.71637,"925": 1.70564,"950": 1.1574,"975": 0.81221,"1000": 0.40611,"1025": 0.4061,"1050": 0.40611,"1075": 0.26397,"1100": 0.16245,"1125": 0.04061,"1150": 0.04061}}}