{"type": "Feature","bbox": [32.3406,-20.0334,32.6013,-19.913],"geometry": {"type": "MultiPolygon","coordinates": [[[[32.3414,-19.9572,483.75],[32.3456,-19.9668,482.9596],[32.3455,-19.9735,482.8917],[32.3517,-19.9728,502.5052],[32.3589,-19.9673,521.0695],[32.3643,-19.9664,528.0009],[32.3796,-19.9732,554.2965],[32.3939,-19.9747,573.0695],[32.3933,-19.9851,603.7611],[32.3948,-19.9972,612.4553],[32.3931,-19.9979,607.0938],[32.3926,-20.0033,606.5453],[32.3936,-20.009,609.5334],[32.3972,-20.0136,616.5131],[32.3975,-20.0212,625.8892],[32.393,-20.0318,605.457],[32.3974,-20.033,618.8186],[32.4052,-20.0301,647.9884],[32.4103,-20.0331,657.1279],[32.4216,-20.0334,703.9211],[32.4378,-20.0293,813.5993],[32.4463,-20.0298,942.3412],[32.4556,-20.0211,1071.2942],[32.4552,-20.0177,1206.3325],[32.4516,-20.0148,1067.6821],[32.4524,-20.0104,956.6364],[32.4584,-20.0081,970.7921],[32.4619,-20.0047,838.1755],[32.4703,-20.0137,867.6592],[32.4781,-20.007,911.6401],[32.4805,-20.0019,860.0911],[32.4866,-19.9999,1028.9446],[32.4873,-19.9926,1143.2534],[32.4858,-19.9891,926.1515],[32.491,-19.9837,1095.3413],[32.4859,-19.9793,977.9622],[32.4872,-19.9773,939.6424],[32.4927,-19.9762,971.2577],[32.4915,-19.9667,811.2593],[32.497,-19.9645,801.6318],[32.5016,-19.9573,907.2388],[32.5045,-19.9546,964.6549],[32.5095,-19.9534,1058.4075],[32.5166,-19.9444,1285.9131],[32.5326,-19.935,1475.275],[32.537,-19.934,1300.1851],[32.5508,-19.9361,1271.7087],[32.5566,-19.9414,1421.2786],[32.5656,-19.9371,1350.9961],[32.5752,-19.9351,1383.6522],[32.5854,-19.9385,1578.6194],[32.6013,-19.916,1590.014],[32.5967,-19.9163,1530.7489],[32.585,-19.913,1196.4473],[32.5725,-19.9253,1151.0106],[32.5633,-19.9262,1122.4485],[32.5507,-19.9236,1047.0009],[32.5339,-19.9158,953.1556],[32.5307,-19.9162,941.2288],[32.5193,-19.9228,880.2664],[32.5141,-19.9238,839.3242],[32.5035,-19.9211,803.7579],[32.5016,-19.9192,863.0043],[32.4862,-19.9186,774.1692],[32.4686,-19.9288,751.5775],[32.4423,-19.9516,654.0395],[32.4325,-19.9557,672.3866],[32.428,-19.9548,641.7983],[32.4235,-19.9561,785.6595],[32.422,-19.9576,663.9114],[32.422,-19.9614,607.0866],[32.4158,-19.9609,660.1591],[32.4126,-19.9648,595.6027],[32.4062,-19.9648,574.9736],[32.4041,-19.9623,607.9919],[32.3987,-19.9645,554.433],[32.3942,-19.9629,544.7267],[32.3879,-19.9585,527.0062],[32.3853,-19.9537,528.2202],[32.3768,-19.95,518.8823],[32.371,-19.9442,516.1727],[32.3632,-19.9402,504.1141],[32.3588,-19.9401,503.7137],[32.3524,-19.9437,492.9983],[32.3482,-19.9409,492.3005],[32.3467,-19.942,486.871],[32.3406,-19.9486,486.7831],[32.3414,-19.9572,483.75]]]]}
,"properties": {"GID_3": "ZWE.3.3.1_2","GID_0": "ZWE","country": "Zimbabwe","GID_1": "ZWE.3_1","province": "Manicaland","NL_NAME_1": "NA","GID_2": "ZWE.3.3_2","county": "Chipinge","NL_NAME_2": "NA","city": "Ward1","VARNAME_3": "NA","NL_NAME_3": "NA","TYPE_3": "Ward","ENGTYPE_3": "Ward","CC_3": "NA","HASC_3": "NA","name": "Ward1.city","area_km2": 124.10787,"hist_schema_id": "Elevation0-9000","hist_area_km2": {"475": 0.95658,"500": 5.46066,"525": 5.44057,"550": 2.69024,"575": 0.87679,"600": 2.21177,"625": 6.67482,"650": 9.22546,"675": 9.9029,"700": 10.40129,"725": 10.44146,"750": 9.22601,"775": 7.83114,"800": 6.75508,"825": 4.36392,"850": 3.28798,"875": 2.57085,"900": 1.953,"925": 2.37158,"950": 1.83352,"975": 1.8136,"1000": 1.57448,"1025": 1.53464,"1050": 1.43499,"1075": 1.25566,"1100": 1.13606,"1125": 1.23572,"1150": 1.55466,"1175": 1.17596,"1200": 1.13609,"1225": 0.87702,"1250": 0.71755,"1275": 0.27905,"1300": 0.53816,"1325": 0.35878,"1350": 0.43851,"1375": 0.37871,"1400": 0.23919,"1425": 0.37871,"1450": 0.31891,"1475": 0.15946,"1500": 0.1196,"1525": 0.25913,"1550": 0.15947,"1575": 0.21926,"1600": 0.09967,"1625": 0.1794,"1650": 0.0598}}}