{"type": "Feature","bbox": [28.4956,-20.2007,28.5229,-20.1782],"geometry": {"type": "MultiPolygon","coordinates": [[[[28.4958,-20.1897,1329.9313],[28.4999,-20.1893,1339.6389],[28.5129,-20.2007,1339.6206],[28.5144,-20.1973,1342.4026],[28.5201,-20.1966,1344.6588],[28.5229,-20.1932,1347.0021],[28.5173,-20.1903,1356.4623],[28.5077,-20.1782,1348.8817],[28.4982,-20.1816,1340.561],[28.4956,-20.1866,1332.9363],[28.4958,-20.1897,1329.9313]]]]}
,"properties": {"GID_3": "ZWE.1.1.16_2","GID_0": "ZWE","country": "Zimbabwe","GID_1": "ZWE.1_1","province": "Bulawayo","NL_NAME_1": "NA","GID_2": "ZWE.1.1_2","county": "Bulawayo","NL_NAME_2": "NA","city": "Ward23","VARNAME_3": "NA","NL_NAME_3": "NA","TYPE_3": "Ward","ENGTYPE_3": "Ward","CC_3": "NA","HASC_3": "NA","name": "Ward23.city","area_km2": 3.283423,"hist_schema_id": "Elevation0-9000","hist_area_km2": {"1325": 0.29849,"1350": 2.984934}}}