{"type":"Feature","properties":{"GID_2":"ZWE.3.2_2","GID_0":"ZWE","country":"Zimbabwe","GID_1":"ZWE.3_1","province":"Manicaland","NL_NAME_1":"NA","county":"Chimanimani","VARNAME_2":"NA","NL_NAME_2":"NA","TYPE_2":"District","ENGTYPE_2":"District","CC_2":"NA","HASC_2":"NA","name":"Chimanimani.county"},
"geometry":{"type": "MultiPolygon","coordinates": [[[[32.9149,-20.0675,668.1384],[32.9122,-20.063,677.7405],[32.9211,-20.043,424.4981],[32.926,-20.0403,431.4721],[32.9325,-20.0386,449.0599],[32.945,-20.0402,386.7103],[32.9559,-20.0341,477.3122],[32.9633,-20.0386,372.7066],[32.9695,-20.0374,369.2089],[32.9719,-20.0344,439.9156],[32.9854,-20.03,348.95],[32.9888,-20.0274,405.0677],[33.0002,-20.0265,356.9608],[33.0009,-20.024,403.3703],[33.0109,-20.0188,410.4355],[33.014,-20.011,412.1029],[33.0247,-19.9642,1594.6318],[33.0356,-19.8878,1556.2932],[33.0478,-19.8341,1793.6445],[33.0473,-19.8091,2259.9485],[33.0546,-19.7918,2223.0],[33.0528,-19.7806,1999.9666],[33.0388,-19.7669,1725.0692],[33.0199,-19.7563,1785.5656],[32.9925,-19.7474,1714.2997],[32.9587,-19.723,1108.4824],[32.9555,-19.7166,1105.5875],[32.9561,-19.7106,1317.5525],[32.9793,-19.6917,1486.1726],[32.9808,-19.685,1485.6143],[32.9784,-19.6724,1439.8296],[32.9727,-19.6583,1456.7961],[32.9688,-19.6549,1462.5557],[32.9627,-19.6546,1501.6915],[32.9362,-19.672,1690.0964],[32.9245,-19.6745,1453.6692],[32.9165,-19.6789,1541.2407],[32.9074,-19.6813,1589.4264],[32.9026,-19.6806,1619.3021],[32.8897,-19.6847,1614.8594],[32.8764,-19.6853,1649.0433],[32.8727,-19.6829,1860.5524],[32.8501,-19.6846,2140.5068],[32.8385,-19.6809,1826.5559],[32.8351,-19.6772,1839.3977],[32.8345,-19.6719,1935.1326],[32.8313,-19.6665,1971.1621],[32.8403,-19.6555,1848.6185],[32.8456,-19.6422,1919.0104],[32.8448,-19.6336,1963.38],[32.8502,-19.6304,1967.1022],[32.8528,-19.6238,1729.1965],[32.8457,-19.6049,1784.5076],[32.8478,-19.6024,1674.8064],[32.8523,-19.5525,1343.8615],[32.8512,-19.5413,1363.7892],[32.8413,-19.5279,1559.4252],[32.8402,-19.5189,1494.7654],[32.8435,-19.4987,1701.7837],[32.8449,-19.4765,1779.125],[32.8352,-19.4759,1888.2651],[32.8291,-19.478,1879.0006],[32.8033,-19.4773,1917.1458],[32.7935,-19.4754,1727.8243],[32.7824,-19.4668,1567.8915],[32.7763,-19.456,1523.5962],[32.7801,-19.4318,1776.1659],[32.7779,-19.4086,2094.9568],[32.7854,-19.3945,2167.2266],[32.7857,-19.3867,2178.354],[32.7773,-19.3732,1872.7805],[32.7524,-19.3825,1885.1687],[32.7526,-19.3875,2019.0498],[32.755,-19.3921,1913.0151],[32.7567,-19.4096,1685.9742],[32.7511,-19.4192,1923.3286],[32.7284,-19.4361,1897.3618],[32.6977,-19.4438,1210.1147],[32.6901,-19.4484,1200.4331],[32.6888,-19.4556,1169.8462],[32.6833,-19.4584,1124.1241],[32.6847,-19.4627,1088.1313],[32.6827,-19.4642,1048.2817],[32.6841,-19.4694,1026.255],[32.6821,-19.4716,1026.5222],[32.6822,-19.4739,1001.5641],[32.6721,-19.4798,972.2461],[32.6669,-19.4799,964.7891],[32.6633,-19.482,966.5823],[32.6589,-19.493,893.5278],[32.6509,-19.498,859.9055],[32.6402,-19.5031,891.9399],[32.6294,-19.5041,825.3801],[32.628,-19.5057,827.4091],[32.6156,-19.5024,783.2247],[32.61,-19.5027,770.9537],[32.6014,-19.5075,750.3826],[32.5892,-19.5071,742.7297],[32.5879,-19.5088,748.016],[32.587,-19.504,721.967],[32.5801,-19.4991,723.1451],[32.5761,-19.5003,698.7361],[32.5637,-19.4988,697.1646],[32.5611,-19.4999,680.6334],[32.5607,-19.5026,684.3929],[32.5563,-19.5064,697.5718],[32.5548,-19.504,675.2561],[32.5509,-19.5034,670.521],[32.5511,-19.4992,671.9868],[32.549,-19.4977,675.694],[32.5335,-19.4979,708.7147],[32.5266,-19.4995,643.9254],[32.5256,-19.5055,647.2983],[32.5191,-19.505,637.4249],[32.5137,-19.5066,626.1564],[32.5142,-19.5078,626.1564],[32.5105,-19.5116,619.6978],[32.5075,-19.5128,603.773],[32.5055,-19.5343,594.4892],[32.5015,-19.5506,590.3206],[32.4989,-19.5522,582.5513],[32.4969,-19.5631,578.7893],[32.4918,-19.5684,582.0898],[32.4898,-19.5824,572.5493],[32.4854,-19.5914,572.3419],[32.4835,-19.6002,566.059],[32.4762,-19.6077,584.1318],[32.4741,-19.6238,560.3151],[32.4646,-19.6358,557.4828],[32.4634,-19.6397,556.0576],[32.4654,-19.6446,559.025],[32.4608,-19.6479,570.8685],[32.4576,-19.6535,558.3809],[32.4549,-19.6628,555.6101],[32.4585,-19.6672,558.2114],[32.4574,-19.6727,543.6785],[32.4542,-19.6763,541.534],[32.4337,-19.6847,541.5012],[32.4314,-19.6999,533.8002],[32.4102,-19.7236,568.539],[32.4103,-19.736,530.2507],[32.4079,-19.7379,537.1399],[32.41,-19.7429,525.902],[32.4155,-19.7485,520.9913],[32.4084,-19.771,531.2292],[32.4012,-19.7701,528.5811],[32.3897,-19.7727,507.8118],[32.3909,-19.7779,505.875],[32.3966,-19.7853,505.5969],[32.3946,-19.791,508.1019],[32.3962,-19.8011,503.25],[32.3935,-19.8105,505.5641],[32.395,-19.8172,503.7166],[32.3928,-19.8302,502.2801],[32.3935,-19.843,498.5],[32.3918,-19.8542,497.5],[32.3847,-19.8756,501.1213],[32.375,-19.8934,496.1317],[32.3701,-19.9062,492.0],[32.3662,-19.9191,491.9765],[32.3671,-19.9253,491.632],[32.3635,-19.9314,491.9659],[32.3482,-19.9409,492.3005],[32.3524,-19.9437,492.9983],[32.3588,-19.9401,503.7137],[32.3636,-19.9403,504.1141],[32.371,-19.9442,516.1727],[32.3763,-19.9497,518.8823],[32.3853,-19.9537,528.2202],[32.3874,-19.958,524.8014],[32.3927,-19.9621,539.8807],[32.3987,-19.9645,554.433],[32.4041,-19.9623,607.9919],[32.406,-19.9647,574.9736],[32.41,-19.9651,614.6047],[32.4136,-19.9644,622.8055],[32.4158,-19.9609,660.1591],[32.422,-19.9614,607.0866],[32.422,-19.9576,663.9114],[32.4235,-19.9561,785.6595],[32.428,-19.9548,641.7983],[32.4325,-19.9557,672.3866],[32.4423,-19.9516,654.0395],[32.4686,-19.9288,751.5775],[32.4862,-19.9186,774.1692],[32.5016,-19.9192,863.0043],[32.5035,-19.9211,803.7579],[32.5141,-19.9238,839.3242],[32.5193,-19.9228,880.2664],[32.5307,-19.9162,941.2288],[32.5339,-19.9158,953.1556],[32.5507,-19.9236,1047.0009],[32.5655,-19.9261,1129.0354],[32.5725,-19.9253,1151.0106],[32.5771,-19.9218,1192.1755],[32.581,-19.9158,1174.9027],[32.5848,-19.913,1196.4473],[32.5883,-19.913,1381.7715],[32.5967,-19.9163,1530.7489],[32.6013,-19.916,1590.014],[32.5854,-19.9385,1578.6194],[32.5797,-19.9492,1618.5663],[32.6031,-19.9696,1546.752],[32.6415,-19.999,1333.9443],[32.5959,-20.0755,1140.9772],[32.6721,-20.0449,1297.9393],[32.7317,-20.0358,915.8752],[32.7305,-20.0413,900.9958],[32.735,-20.0436,903.4828],[32.7354,-20.0463,924.6488],[32.7391,-20.0493,852.2654],[32.7404,-20.0565,743.4303],[32.7444,-20.0588,739.699],[32.7382,-20.0881,1063.5736],[32.7931,-20.0747,661.2428],[32.8485,-20.0559,579.2402],[32.8584,-20.056,502.757],[32.8617,-20.0593,493.6784],[32.8637,-20.0643,532.6953],[32.8637,-20.0704,522.4744],[32.8603,-20.0755,565.1849],[32.8556,-20.0765,580.7237],[32.8522,-20.0809,567.1564],[32.8581,-20.1102,1083.5046],[32.8705,-20.1034,1179.149],[32.8835,-20.0921,1190.6998],[32.8925,-20.0911,1206.7845],[32.8942,-20.1065,985.1843],[32.9095,-20.109,879.0907],[32.9201,-20.1007,792.8299],[32.9185,-20.0735,700.7665],[32.9149,-20.0675,668.1384]]]]}}