{"type":"Feature","properties":{"GID_3":"ZWE.4.10.21_2","GID_0":"ZWE","country":"Zimbabwe","GID_1":"ZWE.4_1","province":"MashonalandCentral","NL_NAME_1":"NA","GID_2":"ZWE.4.10_2","county":"Shamva","NL_NAME_2":"NA","city":"Ward28","VARNAME_3":"NA","NL_NAME_3":"NA","TYPE_3":"Ward","ENGTYPE_3":"Ward","CC_3":"NA","HASC_3":"NA","name":"Ward28.city"},
"geometry":{"type": "MultiPolygon","coordinates": [[[[31.4934,-17.3364,972.928],[31.4994,-17.3414,1003.1746],[31.5173,-17.3376,1047.8772],[31.5257,-17.3605,1131.9006],[31.5353,-17.3577,997.6625],[31.5395,-17.354,993.4806],[31.5528,-17.3505,987.0736],[31.5524,-17.3603,1084.9628],[31.546,-17.374,1050.3452],[31.5652,-17.383,1284.7904],[31.5777,-17.3639,1127.4218],[31.5636,-17.355,1116.9075],[31.5683,-17.348,1042.3588],[31.5683,-17.3388,997.6541],[31.5523,-17.3365,964.9734],[31.5543,-17.3351,962.3741],[31.5621,-17.3121,942.2012],[31.5534,-17.3153,948.934],[31.5475,-17.321,980.6209],[31.5476,-17.3095,1002.5779],[31.5371,-17.3001,935.4884],[31.5357,-17.3013,935.7707],[31.5384,-17.3048,957.7209],[31.5366,-17.3079,944.577],[31.5292,-17.3078,949.6635],[31.5246,-17.3095,948.54],[31.5251,-17.3082,948.54],[31.5215,-17.3064,953.7557],[31.5072,-17.312,963.4645],[31.5031,-17.3186,963.9282],[31.4988,-17.3354,973.863],[31.4934,-17.3364,972.928]]]]}}