{"type": "Feature","bbox": [29.6756,-16.8492,29.7148,-16.8092],"geometry": {"type": "MultiPolygon","coordinates": [[[[29.7148,-16.8394,1262.731],[29.7051,-16.8304,1242.781],[29.7064,-16.8282,1249.1334],[29.6984,-16.8187,1233.7351],[29.7037,-16.8132,1237.2483],[29.6955,-16.8092,1257.8638],[29.6871,-16.8184,1273.5901],[29.6853,-16.8175,1277.5604],[29.6822,-16.8229,1289.0762],[29.6816,-16.8279,1276.5995],[29.6756,-16.8308,1278.825],[29.6779,-16.8327,1284.9314],[29.6847,-16.8327,1291.186],[29.6866,-16.836,1275.6471],[29.6975,-16.8371,1276.75],[29.702,-16.8441,1298.8503],[29.7028,-16.8492,1292.2],[29.7148,-16.8394,1262.731]]]]}
,"properties": {"GID_3": "ZWE.6.8.9_2","GID_0": "ZWE","country": "Zimbabwe","GID_1": "ZWE.6_1","province": "MashonalandWest","NL_NAME_1": "NA","GID_2": "ZWE.6.8_2","county": "Karoi","NL_NAME_2": "NA","city": "Ward8","VARNAME_3": "NA","NL_NAME_3": "NA","TYPE_3": "Ward","ENGTYPE_3": "Ward","CC_3": "NA","HASC_3": "NA","name": "Ward8.city","area_km2": 7.305913,"hist_schema_id": "Elevation0-9000","hist_area_km2": {"1225": 0.42621,"1250": 2.84123,"1275": 2.90202,"1300": 1.136453}}}