{"type":"Feature","properties":{"GID_3":"ZWE.5.4.12_2","GID_0":"ZWE","country":"Zimbabwe","GID_1":"ZWE.5_1","province":"MashonalandEast","NL_NAME_1":"NA","GID_2":"ZWE.5.4_2","county":"Marondera","NL_NAME_2":"NA","city":"Ward2","VARNAME_3":"NA","NL_NAME_3":"NA","TYPE_3":"Ward","ENGTYPE_3":"Ward","CC_3":"NA","HASC_3":"NA","name":"Ward2.city"},
"geometry":{"type": "MultiPolygon","coordinates": [[[[31.4078,-18.132,1607.493],[31.432,-18.137,1605.309],[31.4666,-18.1489,1633.2689],[31.4906,-18.1554,1638.2333],[31.4988,-18.1621,1647.7581],[31.504,-18.1705,1664.5029],[31.5141,-18.1794,1657.7266],[31.5267,-18.1803,1647.2563],[31.5089,-18.1726,1663.6089],[31.5251,-18.1582,1637.8583],[31.591,-18.168,1664.7792],[31.5657,-18.1214,1646.8193],[31.5502,-18.0827,1580.4307],[31.5425,-18.0773,1579.2427],[31.5368,-18.063,1583.0668],[31.5446,-18.0379,1518.1317],[31.5064,-18.0674,1503.6345],[31.5038,-18.0623,1502.7269],[31.498,-18.0611,1487.5984],[31.4927,-18.0579,1494.8818],[31.4831,-18.0487,1473.2444],[31.4793,-18.0492,1486.7622],[31.4734,-18.0572,1504.1919],[31.479,-18.0649,1520.0785],[31.4427,-18.0994,1558.986],[31.4226,-18.1044,1564.088],[31.4078,-18.132,1607.493]]]]}}