{"type":"Feature","properties":{"GID_3":"ZWE.5.7.10_2","GID_0":"ZWE","country":"Zimbabwe","GID_1":"ZWE.5_1","province":"MashonalandEast","NL_NAME_1":"NA","GID_2":"ZWE.5.7_2","county":"Murehwa","NL_NAME_2":"NA","city":"Ward18","VARNAME_3":"NA","NL_NAME_3":"NA","TYPE_3":"Ward","ENGTYPE_3":"Ward","CC_3":"NA","HASC_3":"NA","name":"Ward18.city"},
"geometry":{"type": "MultiPolygon","coordinates": [[[[31.9621,-17.7298,1411.6766],[31.9745,-17.7331,1276.5381],[31.9835,-17.7329,1245.041],[31.9854,-17.729,1254.0361],[31.99,-17.7264,1235.7539],[31.99,-17.7228,1240.5612],[31.9913,-17.722,1234.5631],[31.9958,-17.728,1248.2416],[31.9957,-17.7322,1239.8721],[32.0012,-17.735,1262.6371],[32.0019,-17.7382,1252.3268],[32.0184,-17.711,1230.7125],[32.018,-17.706,1228.6621],[32.0019,-17.7031,1231.6135],[32.0004,-17.6945,1218.2037],[32.0046,-17.6889,1209.7452],[32.0049,-17.6833,1210.7587],[32.0084,-17.6798,1209.0038],[32.0056,-17.6745,1197.6382],[32.0061,-17.6681,1204.1104],[32.0109,-17.6649,1192.8569],[32.0104,-17.6574,1190.528],[32.0143,-17.6534,1182.9595],[32.0173,-17.6527,1177.7107],[32.0178,-17.6505,1173.8022],[32.003,-17.6408,1215.0789],[31.9647,-17.6276,1183.1637],[31.953,-17.6256,1175.1862],[31.9468,-17.6424,1179.7761],[31.9506,-17.6484,1187.425],[31.947,-17.6489,1187.6852],[31.9466,-17.6504,1190.7908],[31.9484,-17.661,1199.5989],[31.955,-17.6678,1213.2288],[31.9545,-17.674,1203.0593],[31.9588,-17.6813,1210.4982],[31.958,-17.6866,1211.2159],[31.9593,-17.6904,1213.1383],[31.9583,-17.6919,1213.5123],[31.9547,-17.6916,1230.2754],[31.9529,-17.6948,1225.9004],[31.9507,-17.6947,1234.9607],[31.9486,-17.6997,1223.5796],[31.9463,-17.6976,1238.2749],[31.944,-17.7028,1236.549],[31.9402,-17.7056,1245.9331],[31.9401,-17.7092,1234.0629],[31.9483,-17.7259,1292.4495],[31.9506,-17.7249,1298.2073],[31.9621,-17.7298,1411.6766]]]]}}