{"type": "Feature","bbox": [31.3449,-17.8085,31.4701,-17.7153],"geometry": {"type": "MultiPolygon","coordinates": [[[[31.4651,-17.7274,1219.3293],[31.4223,-17.7365,1372.2102],[31.4223,-17.7383,1329.6425],[31.387,-17.7244,1266.4355],[31.3772,-17.7177,1249.2368],[31.3773,-17.7153,1247.063],[31.3672,-17.7154,1238.5796],[31.3765,-17.7309,1260.288],[31.3553,-17.7407,1286.5935],[31.3449,-17.766,1316.2119],[31.3476,-17.7713,1352.6952],[31.3741,-17.7748,1338.0636],[31.3669,-17.8085,1344.8743],[31.3716,-17.8024,1321.1233],[31.3902,-17.8008,1307.7352],[31.3988,-17.8038,1291.0466],[31.4168,-17.8004,1275.5],[31.436,-17.8024,1248.9325],[31.454,-17.7984,1243.0],[31.465699999999998,-17.8032,1242.1473],[31.4701,-17.8004,1231.8267],[31.4672,-17.7781,1280.3575],[31.4651,-17.7274,1219.3293]]]]}
,"properties": {"GID_3": "ZWE.5.2.5_2","GID_0": "ZWE","country": "Zimbabwe","GID_1": "ZWE.5_1","province": "MashonalandEast","NL_NAME_1": "NA","GID_2": "ZWE.5.2_2","county": "Goromonzi","NL_NAME_2": "NA","city": "Ward13","VARNAME_3": "NA","NL_NAME_3": "NA","TYPE_3": "Ward","ENGTYPE_3": "Ward","CC_3": "NA","HASC_3": "NA","name": "Ward13.city","area_km2": 90.05285,"hist_schema_id": "Elevation0-9000","hist_area_km2": {"1225": 1.89825,"1250": 14.39707,"1275": 21.28184,"1300": 20.29195,"1325": 14.59776,"1350": 8.8435,"1375": 4.94673,"1400": 2.36229,"1425": 1.07006,"1450": 0.3634}}}