{"type":"Feature","properties":{"GID_3":"ZWE.5.3.6_2","GID_0":"ZWE","country":"Zimbabwe","GID_1":"ZWE.5_1","province":"MashonalandEast","NL_NAME_1":"NA","GID_2":"ZWE.5.3_2","county":"Hwedza","NL_NAME_2":"NA","city":"Ward14","VARNAME_3":"NA","NL_NAME_3":"NA","TYPE_3":"Ward","ENGTYPE_3":"Ward","CC_3":"NA","HASC_3":"NA","name":"Ward14.city"},
"geometry":{"type": "MultiPolygon","coordinates": [[[[31.8432,-19.1016,850.251],[31.8549,-19.1037,854.9589],[31.8607,-19.1017,855.5079],[31.8782,-19.1135,842.6354],[31.8803,-19.1168,836.4575],[31.8863,-19.1147,841.4435],[31.8929,-19.1176,841.2175],[31.8955,-19.1146,840.9916],[31.8983,-19.1146,831.3711],[31.9113,-19.1225,835.287],[31.9258,-19.123,822.1182],[31.9407,-19.1159,826.897],[31.9539,-19.1178,819.2744],[31.9633,-19.1152,819.4219],[31.9661,-19.1162,822.217],[31.9722,-19.1233,811.9714],[31.9819,-19.1195,810.3155],[31.9836,-19.1159,812.25],[31.9826,-19.1121,819.4189],[31.9714,-19.0932,813.3928],[31.9697,-19.0846,816.0646],[31.9719,-19.0691,818.343],[31.9691,-19.0531,819.886],[31.9765,-19.0461,821.155],[31.9774,-19.0422,826.8959],[31.975,-19.0345,823.1827],[31.9743,-19.0227,825.6802],[31.9757,-19.0108,828.267],[31.9785,-19.0055,834.6263],[31.9753,-18.9961,826.1649],[31.9755,-18.9694,832.1143],[31.9712,-18.967,829.9634],[31.9392,-18.9787,938.8562],[31.9214,-18.9808,862.48],[31.9029,-18.9857,877.8132],[31.8923,-18.9926,872.7678],[31.8763,-18.9984,909.2258],[31.8729,-19.0026,919.6678],[31.857,-19.0098,955.1239],[31.8173,-19.0369,942.105],[31.8027,-19.0409,890.5484],[31.7928,-19.0414,887.7717],[31.7859,-19.0444,882.0886],[31.7851,-19.048,872.9272],[31.7909,-19.0491,865.5849],[31.7951,-19.0519,864.9265],[31.7971,-19.0597,864.0149],[31.8023,-19.0592,874.0651],[31.8064,-19.0666,869.312],[31.8131,-19.0712,873.7743],[31.8116,-19.0779,867.9426],[31.8126,-19.0802,857.2844],[31.8203,-19.0852,868.3558],[31.8325,-19.0865,862.7148],[31.8374,-19.0977,855.6638],[31.8432,-19.1016,850.251]]]]}}