{"type": "Feature","bbox": [27.7135,-20.8523,27.8167,-20.6689],"geometry": {"type": "MultiPolygon","coordinates": [[[[27.7342,-20.7526,1134.6639],[27.736,-20.7577,1139.5574],[27.7351,-20.7663,1137.6948],[27.7281,-20.7754,1124.9246],[27.7273,-20.7811,1122.2545],[27.7316,-20.7949,1119.7294],[27.722,-20.8025,1118.5685],[27.716,-20.8324,1089.8297],[27.7171,-20.8361,1087.1196],[27.7148,-20.8389,1085.5897],[27.7135,-20.8482,1085.6185],[27.7811,-20.8523,1085.9324],[27.7822,-20.8409,1089.0739],[27.7803,-20.8376,1091.9988],[27.7806,-20.8348,1097.5448],[27.7836,-20.8285,1094.0162],[27.7874,-20.8266,1095.6035],[27.7865,-20.8206,1099.4832],[27.7898,-20.812,1108.8542],[27.7939,-20.8128,1105.4821],[27.7973,-20.8116,1106.5544],[27.7978,-20.8074,1109.9844],[27.7959,-20.8014,1108.8633],[27.8063,-20.7993,1113.4513],[27.8118,-20.7956,1115.7395],[27.8163,-20.7897,1122.1963],[27.816,-20.7851,1132.3357],[27.8107,-20.7843,1122.3724],[27.8133,-20.776,1129.2935],[27.8109,-20.7696,1130.3093],[27.8036,-20.7641,1134.8246],[27.8036,-20.7582,1138.6844],[27.8068,-20.7488,1145.6262],[27.8052,-20.736,1152.8707],[27.8075,-20.7317,1160.0845],[27.8078,-20.7203,1165.4854],[27.8055,-20.7031,1173.3723],[27.8104,-20.7002,1174.1461],[27.8118,-20.6954,1177.9062],[27.8167,-20.6927,1183.1633],[27.8142,-20.681,1190.9053],[27.7779,-20.6689,1221.8033],[27.7742,-20.6912,1211.2152],[27.7728,-20.7271,1179.0764],[27.7291,-20.7263,1149.1237],[27.7301,-20.7315,1148.228],[27.7327,-20.7329,1147.9266],[27.7321,-20.737,1143.601],[27.7346,-20.7395,1144.2972],[27.7313,-20.7433,1138.4204],[27.7342,-20.7526,1134.6639]]]]}
,"properties": {"GID_3": "ZWE.9.7.11_2","GID_0": "ZWE","country": "Zimbabwe","GID_1": "ZWE.9_1","province": "MatabelelandSouth","NL_NAME_1": "NA","GID_2": "ZWE.9.7_2","county": "Mangwe","NL_NAME_2": "NA","city": "Ward3","VARNAME_3": "NA","NL_NAME_3": "NA","TYPE_3": "Ward","ENGTYPE_3": "Ward","CC_3": "NA","HASC_3": "NA","name": "Ward3.city","area_km2": 127.40878,"hist_schema_id": "Elevation0-9000","hist_area_km2": {"1075": 0.31703,"1100": 15.31787,"1125": 39.81749,"1150": 40.10646,"1175": 19.61201,"1200": 10.63123,"1225": 1.60669}}}