{"type":"Feature","properties":{"GID_3":"ZWE.8.1.4_2","GID_0":"ZWE","country":"Zimbabwe","GID_1":"ZWE.8_1","province":"MatabelelandNorth","NL_NAME_1":"NA","GID_2":"ZWE.8.1_2","county":"Binga","NL_NAME_2":"NA","city":"Ward12","VARNAME_3":"NA","NL_NAME_3":"NA","TYPE_3":"Ward","ENGTYPE_3":"Ward","CC_3":"NA","HASC_3":"NA","name":"Ward12.city"},
"geometry":{"type": "MultiPolygon","coordinates": [[[[27.5615,-17.9065,746.0048],[27.5623,-17.9112,743.2262],[27.5715,-17.9186,757.4191],[27.5737,-17.9231,751.1575],[27.578,-17.9241,750.3528],[27.5797,-17.9291,748.1653],[27.5833,-17.9267,750.076],[27.585,-17.9204,756.6735],[27.5889,-17.9173,768.6626],[27.6047,-17.9218,764.3926],[27.6085,-17.9012,856.8068],[27.6118,-17.8963,864.8178],[27.6269,-17.885,936.9271],[27.6374,-17.86,878.799],[27.6345,-17.8441,800.3915],[27.6362,-17.8384,804.5139],[27.6348,-17.83,814.1757],[27.6374,-17.8256,814.6934],[27.6373,-17.8209,829.5684],[27.6356,-17.8181,852.6929],[27.6276,-17.8134,816.3197],[27.6233,-17.8063,823.879],[27.6066,-17.8087,841.1198],[27.5891,-17.8209,884.8595],[27.5711,-17.8306,873.9918],[27.5633,-17.8295,861.6298],[27.5597,-17.8323,860.8448],[27.5546,-17.832,866.8373],[27.545,-17.8355,846.7465],[27.5406,-17.8353,849.2436],[27.527,-17.8409,809.9891],[27.5233,-17.8375,807.2202],[27.5181,-17.8374,806.2614],[27.515,-17.8356,800.4326],[27.5114,-17.8368,796.8851],[27.5086,-17.8356,809.8539],[27.5048,-17.8374,819.903],[27.5052,-17.902,724.7507],[27.5104,-17.8928,739.5765],[27.5143,-17.8904,739.9232],[27.5196,-17.8905,734.3624],[27.5299,-17.8941,734.7922],[27.5351,-17.8938,733.2889],[27.5369,-17.891,738.3913],[27.5463,-17.8905,742.6239],[27.5508,-17.8917,735.736],[27.5517,-17.8975,734.1449],[27.5586,-17.9019,745.52739999999994],[27.5615,-17.9065,746.0048]]]]}}