{"type":"Feature","properties":{"GID_3":"ZWE.3.5.38_2","GID_0":"ZWE","country":"Zimbabwe","GID_1":"ZWE.3_1","province":"Manicaland","NL_NAME_1":"NA","GID_2":"ZWE.3.5_2","county":"Makoni","NL_NAME_2":"NA","city":"Ward8","VARNAME_3":"NA","NL_NAME_3":"NA","TYPE_3":"Ward","ENGTYPE_3":"Ward","CC_3":"NA","HASC_3":"NA","name":"Ward8.city"},
"geometry":{"type": "MultiPolygon","coordinates": [[[[32.3161,-18.1628,1206.5162],[32.3126,-18.147,1177.2882],[32.3163,-18.1429,1176.2048],[32.3149,-18.1374,1164.9163],[32.3167,-18.1334,1164.5032],[32.3157,-18.1302,1179.8296],[32.3179,-18.1292,1159.7458],[32.3169,-18.1202,1156.7609],[32.3198,-18.1129,1158.2883],[32.3163,-18.11,1144.2516],[32.3184,-18.098,1140.2211],[32.3161,-18.0912,1132.8409],[32.3161,-18.0813,1123.6367],[32.3207,-18.0764,1109.749],[32.319,-18.0656,1113.1294],[32.3161,-18.0657,1103.2799],[32.3164,-18.0687,1104.2363],[32.3142,-18.0721,1113.6332],[32.306,-18.0734,1129.7372],[32.3059,-18.0769,1112.1624],[32.3014,-18.0764,1131.9314],[32.299,-18.0833,1129.7255],[32.292,-18.0844,1135.6084],[32.2799,-18.0942,1165.8826],[32.2753,-18.101,1161.0732],[32.2777,-18.1045,1155.0925],[32.2748,-18.1066,1152.5895],[32.2727,-18.1139,1158.5844],[32.2582,-18.1186,1184.0874],[32.2513,-18.1247,1196.4783],[32.2484,-18.1324,1178.8083],[32.25,-18.1355,1199.2495],[32.2433,-18.139,1203.3607],[32.238,-18.1396,1194.9287],[32.2312,-18.1472,1197.0695],[32.2236,-18.1495,1213.1528],[32.2221,-18.1536,1195.795],[32.2226,-18.1587,1202.0759],[32.2161,-18.1645,1215.2555],[32.2131,-18.1708,1222.5908],[32.2098,-18.1813,1243.775],[32.2115,-18.1854,1242.0],[32.2072,-18.1897,1246.0194],[32.2013,-18.1916,1254.1874],[32.2022,-18.2008,1254.3916],[32.1901,-18.2069,1333.0431],[32.1892,-18.2114,1260.9401],[32.1917,-18.2148,1265.9482],[32.19,-18.2176,1271.1698],[32.1809,-18.2207,1284.6323],[32.1738,-18.2192,1323.8313],[32.1651,-18.2142,1330.6016],[32.1615,-18.2146,1329.7205],[32.1562,-18.2115,1336.0482],[32.1507,-18.223,1340.3453],[32.1408,-18.2265,1352.7983],[32.1322,-18.2344,1363.7045],[32.1271,-18.2367,1371.0272],[32.1211,-18.2451,1369.2853],[32.116,-18.2472,1386.3811],[32.1109,-18.255,1392.3317],[32.1205,-18.2652,1457.5834],[32.1401,-18.2747,1545.5803],[32.1547,-18.3036,1519.5715],[32.1691,-18.3238,1568.5673],[32.1938,-18.3026,1499.6311],[32.2086,-18.3371,1599.3469],[32.2755,-18.301,1485.75],[32.2988,-18.3059,1650.8989],[32.2786,-18.2501,1646.5609],[32.2886,-18.2309,1422.9052],[32.2966,-18.2235,1320.2937],[32.3073,-18.2102,1252.4585],[32.3151,-18.1955,1217.917],[32.3155,-18.1932,1226.1161],[32.312,-18.1939,1218.8267],[32.3119,-18.1928,1225.9871],[32.3161,-18.1628,1206.5162]]]]}}