{"type":"Feature","properties":{"GID_3":"ZWE.5.7.3_2","GID_0":"ZWE","country":"Zimbabwe","GID_1":"ZWE.5_1","province":"MashonalandEast","NL_NAME_1":"NA","GID_2":"ZWE.5.7_2","county":"Murehwa","NL_NAME_2":"NA","city":"Ward11","VARNAME_3":"NA","NL_NAME_3":"NA","TYPE_3":"Ward","ENGTYPE_3":"Ward","CC_3":"NA","HASC_3":"NA","name":"Ward11.city"},
"geometry":{"type": "MultiPolygon","coordinates": [[[[31.6583,-17.6194,1175.6133],[31.645,-17.5996,1149.4843],[31.6423,-17.598,1149.2651],[31.6391,-17.5912,1184.9302],[31.6225,-17.6168,1186.8],[31.6177,-17.6169,1173.1653],[31.6139,-17.6143,1173.5762],[31.5949,-17.5963,1140.8843],[31.5925,-17.6016,1146.3901],[31.592,-17.6109,1181.646],[31.5936,-17.6158,1238.834],[31.5926,-17.6182,1171.9807],[31.5962,-17.6269,1194.0083],[31.5927,-17.6367,1189.5176],[31.5982,-17.6504,1185.7672],[31.5827,-17.6674,1202.0942],[31.5795,-17.6738,1192.7556],[31.5796,-17.6799,1195.7719],[31.5731,-17.6884,1200.0253],[31.5697,-17.7038,1205.8833],[31.5724,-17.7084,1216.6067],[31.5716,-17.7109,1208.8624],[31.5762,-17.7156,1217.0259],[31.5796,-17.7176,1249.6846],[31.5868,-17.7164,1261.6213],[31.5884,-17.7218,1253.3369],[31.5957,-17.7229,1283.5895],[31.5994,-17.7284,1280.1951],[31.5985,-17.7332,1283.7048],[31.6008,-17.743,1289.27],[31.6059,-17.747,1296.1246],[31.6128,-17.7452,1305.8066],[31.6131,-17.741,1319.699],[31.6209,-17.7389,1340.0817],[31.6241,-17.7332,1349.3713],[31.6323,-17.7317,1307.9447],[31.6347,-17.729,1289.756],[31.6411,-17.7295,1290.4824],[31.6509,-17.7265,1299.9867],[31.6601,-17.721,1319.3159],[31.6772,-17.7161,1430.9652],[31.6806,-17.7128,1351.7856],[31.6818,-17.7084,1338.2091],[31.6805,-17.7039,1320.5148],[31.6829,-17.6925,1334.1963],[31.6799,-17.686,1290.3613],[31.6801,-17.6799,1286.2838],[31.6888,-17.6577,1210.295],[31.6933,-17.6554,1197.5576],[31.6903,-17.6494,1206.9237],[31.6876,-17.6487,1187.5046],[31.6776,-17.6367,1182.5581],[31.6743,-17.6364,1179.8229],[31.6684,-17.6277,1185.1392],[31.6639,-17.6264,1165.8125],[31.6583,-17.6194,1175.6133]]]]}}