{"type":"Feature","properties":{"GID_3":"ZWE.8.2.21_2","GID_0":"ZWE","country":"Zimbabwe","GID_1":"ZWE.8_1","province":"MatabelelandNorth","NL_NAME_1":"NA","GID_2":"ZWE.8.2_2","county":"Bubi","NL_NAME_2":"NA","city":"Ward7","VARNAME_3":"NA","NL_NAME_3":"NA","TYPE_3":"Ward","ENGTYPE_3":"Ward","CC_3":"NA","HASC_3":"NA","name":"Ward7.city"},
"geometry":{"type": "MultiPolygon","coordinates": [[[[28.4955,-19.384,1132.5261],[28.5037,-19.3755,1136.295],[28.5083,-19.374,1145.7937],[28.5152,-19.3799,1149.6105],[28.5192,-19.376,1147.9303],[28.5263,-19.3826,1158.1993],[28.5818,-19.3328,1184.1279],[28.5848,-19.2933,1179.697],[28.5116,-19.2591,1141.7334],[28.5134,-19.2651,1149.167],[28.5133,-19.2736,1165.59],[28.4963,-19.2949,1230.181],[28.481,-19.3265,1164.2881],[28.4751,-19.3324,1159.355],[28.4767,-19.3417,1147.6199],[28.4498,-19.3742,1151.3333],[28.4955,-19.384,1132.5261]]]]}}