{"type":"Feature","properties":{"GID_3":"ZWE.8.4.13_2","GID_0":"ZWE","country":"Zimbabwe","GID_1":"ZWE.8_1","province":"MatabelelandNorth","NL_NAME_1":"NA","GID_2":"ZWE.8.4_2","county":"HwangeUrban","NL_NAME_2":"NA","city":"Ward7","VARNAME_3":"NA","NL_NAME_3":"NA","TYPE_3":"Ward","ENGTYPE_3":"Ward","CC_3":"NA","HASC_3":"NA","name":"Ward7.city"},
"geometry":{"type": "MultiPolygon","coordinates": [[[[26.5058,-18.345,745.2894],[26.508,-18.3458,737.9344],[26.5181,-18.3598,760.618],[26.5083,-18.3637,756.4886],[26.5075,-18.3739,783.3547],[26.5174,-18.3743,795.048],[26.516,-18.3821,808.5497],[26.5208,-18.3825,828.793],[26.5254,-18.4219,809.4022],[26.534,-18.4183,807.3829],[26.5367,-18.4139,803.1473],[26.5363,-18.4096,813.43],[26.5419,-18.404,798.6404],[26.5454,-18.3836,785.7241],[26.5484,-18.3795,770.0823],[26.5483,-18.3702,774.6859],[26.5512,-18.3621,749.2742],[26.5465,-18.3565,746.5991],[26.5468,-18.3516,744.8548],[26.543,-18.3449,756.8323],[26.5386,-18.3453,755.9634],[26.514,-18.3381,763.2916],[26.5079,-18.3407,758.6545],[26.5088,-18.3438,740.9469],[26.5058,-18.345,745.2894]]]]}}