{"type": "Feature","bbox": [28.5065,-18.7761,28.6004,-18.6425],"geometry": {"type": "MultiPolygon","coordinates": [[[[28.5089,-18.6871,1083.356],[28.5065,-18.6929,1066.7292],[28.507,-18.7005,1074.0858],[28.5133,-18.7157,1052.101],[28.5165,-18.719,1041.7693],[28.5193,-18.7337,1028.168],[28.5286,-18.7366,1019.8004],[28.5299,-18.74,1014.0848],[28.5353,-18.7416,1012.1693],[28.5336,-18.7509,1012.8365],[28.5248,-18.759,1011.4327],[28.5235,-18.7641,1009.1508],[28.5187,-18.7666,1007.7373],[28.5142,-18.7667,1008.0944],[28.5078,-18.7761,1006.7151],[28.538,-18.7659,1012.7083],[28.5626,-18.7654,1014.3711],[28.5865,-18.7619,1015.3566],[28.5879,-18.7612,1016.4474],[28.5869,-18.7529,1025.2225],[28.5909,-18.7529,1020.5922],[28.5996,-18.7469,1020.8213],[28.6004,-18.7363,1029.506],[28.5964,-18.7313,1028.8185],[28.5954,-18.7175,1037.7572],[28.5926,-18.7148,1039.9879],[28.5891,-18.7036,1046.7693],[28.5914,-18.7006,1052.1118],[28.5919,-18.6964,1051.9331],[28.5957,-18.6919,1055.0099],[28.5922,-18.6867,1062.9452],[28.5963,-18.6747,1066.2501],[28.5951,-18.6681,1077.054],[28.5989,-18.6634,1078.244],[28.6002,-18.6577,1094.7234],[28.598,-18.655,1096.8391],[28.5905,-18.6515,1092.387],[28.5874,-18.6465,1099.3442],[28.5875,-18.6425,1104.5695],[28.566,-18.6461,1115.8605],[28.5314,-18.6458,1132.4137],[28.532,-18.6516,1123.6511],[28.5415,-18.656,1113.1647],[28.5465,-18.6622,1105.2534],[28.5478,-18.6724,1087.8995],[28.5508,-18.6748,1086.7703],[28.5341,-18.6805,1098.3557],[28.5236,-18.6817,1094.2556],[28.5089,-18.6871,1083.356]]]]}
,"properties": {"GID_3": "ZWE.8.6.19_2","GID_0": "ZWE","country": "Zimbabwe","GID_1": "ZWE.8_1","province": "MatabelelandNorth","NL_NAME_1": "NA","GID_2": "ZWE.8.6_2","county": "Nkayi","NL_NAME_2": "NA","city": "Ward26","VARNAME_3": "NA","NL_NAME_3": "NA","TYPE_3": "Ward","ENGTYPE_3": "Ward","CC_3": "NA","HASC_3": "NA","name": "Ward26.city","area_km2": 96.95591,"hist_schema_id": "Elevation0-9000","hist_area_km2": {"1000": 6.44435,"1025": 21.06154,"1050": 25.64342,"1075": 24.20131,"1100": 14.32198,"1125": 5.02216,"1150": 0.26116}}}