{"type":"Feature","properties":{"GID_3":"ZWE.8.3.6_2","GID_0":"ZWE","country":"Zimbabwe","GID_1":"ZWE.8_1","province":"MatabelelandNorth","NL_NAME_1":"NA","GID_2":"ZWE.8.3_2","county":"Hwange","NL_NAME_2":"NA","city":"Ward14","VARNAME_3":"NA","NL_NAME_3":"NA","TYPE_3":"Ward","ENGTYPE_3":"Ward","CC_3":"NA","HASC_3":"NA","name":"Ward14.city"},
"geometry":{"type": "MultiPolygon","coordinates": [[[[26.725,-18.4296,963.2339],[26.7106,-18.4696,980.3529],[26.7323,-18.4855,920.2577],[26.7644,-18.5014,1047.4978],[26.7947,-18.526,1009.7482],[26.82,-18.5138,1029.6204],[26.8581,-18.514,1057.1361],[26.8693,-18.5007,1038.543],[26.8916,-18.4663,965.0522],[26.9049,-18.4775,1012.6975],[26.9135,-18.4805,1021.4979],[26.9243,-18.4787,1014.7781],[26.9277,-18.4667,1005.0759],[26.9297,-18.4444,986.2948],[26.9351,-18.4342,974.4962],[26.9391,-18.4218,977.0366],[26.9166,-18.4193,984.5898],[26.8963,-18.4107,953.6512],[26.8871,-18.399,917.1228],[26.884,-18.378,886.611],[26.8545,-18.3722,735.4127],[26.8548,-18.3751,848.2045],[26.853,-18.3776,769.8137],[26.8347,-18.3776,888.3266],[26.8185,-18.3805,891.6448],[26.8164,-18.3799,890.4025],[26.8159,-18.3776,892.4085],[26.7801,-18.4009,858.6548],[26.7617,-18.4056,856.6634],[26.7512,-18.4112,857.9805],[26.7507,-18.4144,885.1404],[26.725,-18.4296,963.2339]]]]}}