{"type": "Feature","bbox": [28.9532,-18.2328,28.9771,-18.2104],"geometry": {"type": "MultiPolygon","coordinates": [[[[28.9532,-18.225,1295.605],[28.9642,-18.2328,1306.2931],[28.9678,-18.2326,1306.1674],[28.9768,-18.2257,1294.2361],[28.9771,-18.2216,1268.9805],[28.9713,-18.2175,1253.7766],[28.9636,-18.216,1260.5631],[28.9646,-18.2113,1241.3997],[28.9599,-18.2104,1230.5686],[28.9586,-18.2151,1257.9492],[28.9553,-18.2142,1243.0426],[28.9561,-18.2212,1265.5815],[28.9532,-18.225,1295.605]]]]}
,"properties": {"GID_3": "ZWE.10.4.6_2","GID_0": "ZWE","country": "Zimbabwe","GID_1": "ZWE.10_1","province": "Midlands","NL_NAME_1": "NA","GID_2": "ZWE.10.4_2","county": "GokweSouthUrban","NL_NAME_2": "NA","city": "Ward6","VARNAME_3": "NA","NL_NAME_3": "NA","TYPE_3": "Ward","ENGTYPE_3": "Ward","CC_3": "NA","HASC_3": "NA","name": "Ward6.city","area_km2": 3.584716,"hist_schema_id": "Elevation0-9000","hist_area_km2": {"1225": 0.060421,"1250": 0.463211,"1275": 1.18821,"1300": 1.872875}}}