{"type":"Feature","properties":{"GID_3":"ZWE.3.3.24_2","GID_0":"ZWE","country":"Zimbabwe","GID_1":"ZWE.3_1","province":"Manicaland","NL_NAME_1":"NA","GID_2":"ZWE.3.3_2","county":"Chipinge","NL_NAME_2":"NA","city":"Ward30","VARNAME_3":"NA","NL_NAME_3":"NA","TYPE_3":"Ward","ENGTYPE_3":"Ward","CC_3":"NA","HASC_3":"NA","name":"Ward30.city"},
"geometry":{"type": "MultiPolygon","coordinates": [[[[32.48,-21.3262,155.2502],[32.476,-21.3113,156.5803],[32.4664,-21.2961,153.5882],[32.4541,-21.2783,158.5186],[32.4312,-21.2507,169.8434],[32.4302,-21.2471,170.3396],[32.425,-21.2427,172.1216],[32.4247,-21.2407,172.3898],[32.4277,-21.2388,173.9619],[32.4223,-21.2272,176.5086],[32.4194,-21.2267,177.1998],[32.411,-21.2162,185.7842],[32.3993,-21.2066,191.1127],[32.3941,-21.1889,221.4425],[32.3993,-21.18,229.48],[32.4063,-21.1759,220.9543],[32.4058,-21.1699,216.0964],[32.4029,-21.1675,228.6969],[32.3963,-21.1657,233.2768],[32.3937,-21.1621,236.9584],[32.3923,-21.1622,236.9584],[32.3907,-21.1653,229.7219],[32.3844,-21.1626,241.6605],[32.3832,-21.1594,251.5283],[32.3903,-21.1575,243.2162],[32.3757,-21.1457,252.3458],[32.363,-21.1399,262.7076],[32.3688,-21.1334,271.9275],[32.3653,-21.1283,274.2856],[32.3617,-21.1173,288.8849],[32.3578,-21.1163,287.2352],[32.3535,-21.1101,291.6988],[32.3449,-21.1043,305.1255],[32.3349,-21.1053,312.1923],[32.3186,-21.103,351.1122],[32.3055,-21.1163,395.7046],[32.3002,-21.1151,382.71],[32.2846,-21.1043,356.212],[32.2774,-21.1034,343.1476],[32.2713,-21.1056,331.9269],[32.2858,-21.1596,301.5857],[32.2892,-21.1843,326.4106],[32.2944,-21.1927,271.2249],[32.3059,-21.2022,307.7687],[32.3047,-21.2102,239.4368],[32.3132,-21.2231,238.3585],[32.322,-21.2291,242.382],[32.3294,-21.239,199.4883],[32.3379,-21.2461,212.0637],[32.3544,-21.2483,183.4361],[32.3624,-21.2524,172.0822],[32.3765,-21.2547,167.2559],[32.3924,-21.2625,167.203],[32.4025,-21.2745,164.3206],[32.4069,-21.2829,164.7479],[32.4175,-21.2933,160.5528],[32.4278,-21.2982,176.3092],[32.4361,-21.3049,164.859],[32.4481,-21.3075,158.7692],[32.445,-21.3089,161.4886],[32.4526,-21.3097,153.203],[32.48,-21.3262,155.2502]]]]}}