{"type":"Feature","properties":{"GID_3":"ZWE.6.2.12_2","GID_0":"ZWE","country":"Zimbabwe","GID_1":"ZWE.6_1","province":"MashonalandWest","NL_NAME_1":"NA","GID_2":"ZWE.6.2_2","county":"ChegutuUrban","NL_NAME_2":"NA","city":"Ward9","VARNAME_3":"NA","NL_NAME_3":"NA","TYPE_3":"Ward","ENGTYPE_3":"Ward","CC_3":"NA","HASC_3":"NA","name":"Ward9.city"},
"geometry":{"type": "MultiPolygon","coordinates": [[[[30.1332,-18.1295,1184.3806],[30.1377,-18.1232,1182.3684],[30.1367,-18.1227,1180.988],[30.1352,-18.1249,1183.9147],[30.1305,-18.1227,1179.3503],[30.1289,-18.1242,1179.8434],[30.1299,-18.1248,1180.356],[30.1276,-18.1274,1179.9711],[30.1332,-18.1295,1184.3806]]]]}}