{"type":"Feature","properties":{"GID_3":"ZWE.6.1.7_2","GID_0":"ZWE","country":"Zimbabwe","GID_1":"ZWE.6_1","province":"MashonalandWest","NL_NAME_1":"NA","GID_2":"ZWE.6.1_2","county":"Chegutu","NL_NAME_2":"NA","city":"Ward15","VARNAME_3":"NA","NL_NAME_3":"NA","TYPE_3":"Ward","ENGTYPE_3":"Ward","CC_3":"NA","HASC_3":"NA","name":"Ward15.city"},
"geometry":{"type": "MultiPolygon","coordinates": [[[[30.8313,-17.9209,1376.3821],[30.8178,-17.9197,1383.9863],[30.8015,-17.9434,1391.436],[30.7513,-17.9237,1407.0437],[30.7514,-17.9212,1404.0287],[30.7374,-17.9046,1386.5676],[30.7678,-17.8783,1348.3053],[30.7604,-17.8654,1348.524],[30.754,-17.8682,1345.3213],[30.7476,-17.8643,1343.51],[30.7166,-17.894,1356.3228],[30.6994,-17.8927,1362.5161],[30.659,-17.9288,1392.4491],[30.6361,-17.912,1375.7728],[30.5872,-17.9262,1371.1477],[30.5832,-17.9497,1373.9915],[30.5603,-17.9717,1344.295],[30.559,-17.9753,1337.675],[30.5449,-17.9872,1330.5037],[30.5385,-17.9845,1332.0228],[30.5314,-18.0047,1319.2957],[30.5313,-18.0086,1316.8375],[30.5283,-18.0121,1314.1372],[30.5355,-18.0116,1317.9198],[30.538,-18.0138,1317.9138],[30.5407,-18.0135,1318.3203],[30.547,-18.0168,1322.3127],[30.5504,-18.0256,1320.5],[30.5533,-18.0239,1320.5],[30.5544,-18.0259,1320.5],[30.5574,-18.0243,1327.8083],[30.5677,-18.0302,1330.5498],[30.5706,-18.0342,1329.5818],[30.5712,-18.0394,1327.7952],[30.5762,-18.042,1329.5801],[30.577,-18.0446,1333.9385],[30.5793,-18.0454,1330.2737],[30.5795,-18.0481,1330.4347],[30.5841,-18.05,1331.4707],[30.5847,-18.0536,1331.225],[30.5882,-18.0528,1336.3708],[30.5891,-18.0549,1332.205],[30.5869,-18.0561,1331.6449],[30.5874,-18.0582,1333.1486],[30.5914,-18.0574,1334.451],[30.5936,-18.0605,1335.6361],[30.6041,-18.0587,1338.4703],[30.6038,-18.0566,1337.4825],[30.6021,-18.0559,1337.0518],[30.6036,-18.0546,1337.0518],[30.6031,-18.0522,1339.7955],[30.604,-18.0509,1340.0415],[30.6065,-18.0517,1338.3781],[30.6102,-18.0488,1338.5172],[30.6109,-18.0459,1341.5081],[30.6189,-18.0473,1341.6891],[30.6194,-18.0439,1340.5234],[30.6214,-18.0429,1345.8042],[30.6267,-18.0445,1343.4609],[30.6339,-18.0388,1348.9515],[30.6387,-18.0961,1327.3693],[30.6666,-18.1053,1318.709],[30.6679,-18.1041,1321.5668],[30.6795,-18.1051,1336.0865],[30.6799,-18.107,1342.9506],[30.6964,-18.1158,1346.994],[30.712,-18.109,1347.5239],[30.7114,-18.0972,1350.2881],[30.7132,-18.0935,1352.325],[30.7356,-18.0622,1377.7916],[30.7718,-18.0227,1398.2112],[30.8166,-17.9812,1424.1436],[30.8085,-17.9469,1378.1667],[30.8313,-17.9209,1376.3821]]]]}}