{"type": "Feature","bbox": [32.0652,-16.7004,32.1562,-16.5975],"geometry": {"type": "MultiPolygon","coordinates": [[[[32.0652,-16.6728,841.7208],[32.0701,-16.6812,828.9917],[32.073,-16.6816,822.1712],[32.0733,-16.6885,814.6307],[32.0788,-16.6981,809.8419],[32.0867,-16.6962,855.4445],[32.0881,-16.698,808.6027],[32.1021,-16.6997,787.5282],[32.1091,-16.6953,799.1957],[32.1117,-16.6958,796.3632],[32.1163,-16.6932,788.5161],[32.1239,-16.6973,779.7042],[32.1305,-16.6969,784.4644],[32.1305,-16.7004,759.1089],[32.1336,-16.6986,776.8133],[32.1363,-16.6997,757.3682],[32.1401,-16.6956,754.7354],[32.1432,-16.6945,746.8439],[32.1454,-16.6963,744.9547],[32.1465,-16.6948,740.9861],[32.1462,-16.6924,749.063],[32.1406,-16.687,754.2861],[32.1417,-16.6818,780.5032],[32.1397,-16.6813,778.5664],[32.1363,-16.6856,762.5643],[32.135,-16.6808,776.1908],[32.1402,-16.6784,767.3699],[32.1398,-16.6741,786.1562],[32.1466,-16.671,796.0994],[32.1489,-16.668,785.3196],[32.1524,-16.6559,788.2323],[32.1562,-16.6533,779.1544],[32.1538,-16.65,784.1984],[32.1545,-16.6447,792.0338],[32.1467,-16.6321,818.2711],[32.1295,-16.6222,854.3385],[32.1288,-16.6176,871.8695],[32.1254,-16.6144,894.1411],[32.1209,-16.6012,896.8561],[32.1151,-16.5975,945.2027],[32.1145,-16.6084,897.683],[32.1178,-16.6234,876.8885],[32.1279,-16.6344,847.3424],[32.1312,-16.6352,846.7979],[32.1097,-16.6562,811.9443],[32.1002,-16.656,835.2039],[32.0956,-16.6587,825.1589],[32.0945,-16.6616,819.1744],[32.0881,-16.6617,833.4827],[32.0882,-16.6634,829.4965],[32.0652,-16.6728,841.7208]]]]}
,"properties": {"GID_3": "ZWE.4.9.7_2","GID_0": "ZWE","country": "Zimbabwe","GID_1": "ZWE.4_1","province": "MashonalandCentral","NL_NAME_1": "NA","GID_2": "ZWE.4.9_2","county": "Rushinga","NL_NAME_2": "NA","city": "Ward15","VARNAME_3": "NA","NL_NAME_3": "NA","TYPE_3": "Ward","ENGTYPE_3": "Ward","CC_3": "NA","HASC_3": "NA","name": "Ward15.city","area_km2": 46.08705,"hist_schema_id": "Elevation0-9000","hist_area_km2": {"725": 0.02031,"750": 0.87328,"775": 3.7979,"800": 9.99303,"825": 15.76173,"850": 10.86683,"875": 2.66098,"900": 1.52376,"925": 0.54859,"950": 0.04064}}}