{"type": "Feature","bbox": [30.9117,-18.5424,31.0253,-18.4347],"geometry": {"type": "MultiPolygon","coordinates": [[[[31.0075,-18.4374,1385.1028],[30.9773,-18.4532,1382.5496],[30.9661,-18.4347,1360.8157],[30.957,-18.4357,1370.1428],[30.9439,-18.4516,1376.4719],[30.9117,-18.4604,1347.6284],[30.9156,-18.47,1359.8469],[30.9279,-18.487,1373.709],[30.9403,-18.4911,1376.1051],[30.9616,-18.5159,1393.7207],[30.952,-18.5245,1388.9576],[30.9798,-18.5424,1390.6699],[31.0253,-18.5375,1407.1748],[31.0152,-18.4543,1397.7745],[31.0075,-18.4374,1385.1028]]]]}
,"properties": {"GID_3": "ZWE.5.10.11_2","GID_0": "ZWE","country": "Zimbabwe","GID_1": "ZWE.5_1","province": "MashonalandEast","NL_NAME_1": "NA","GID_2": "ZWE.5.10_2","county": "Seke","NL_NAME_2": "NA","city": "Ward19","VARNAME_3": "NA","NL_NAME_3": "NA","TYPE_3": "Ward","ENGTYPE_3": "Ward","CC_3": "NA","HASC_3": "NA","name": "Ward19.city","area_km2": 88.79681,"hist_schema_id": "Elevation0-9000","hist_area_km2": {"1325": 0.04022,"1350": 5.53037,"1375": 28.01392,"1400": 54.4483,"1425": 0.764}}}