{"type":"Feature","properties":{"GID_2":"ZWE.9.1_2","GID_0":"ZWE","country":"Zimbabwe","GID_1":"ZWE.9_1","province":"MatabelelandSouth","NL_NAME_1":"NA","county":"Beitbridge","VARNAME_2":"NA","NL_NAME_2":"NA","TYPE_2":"District","ENGTYPE_2":"District","CC_2":"NA","HASC_2":"NA","name":"Beitbridge.county"},
"geometry":{"type": "MultiPolygon","coordinates": [[[[30.2379,-22.3033,399.2903],[30.2402,-22.3072,393.7018],[30.2553,-22.3159,392.2234],[30.2684,-22.3372,389.5662],[30.2785,-22.3492,384.0],[30.2893,-22.3549,383.0],[30.2952,-22.3549,382.5],[30.3129,-22.3464,384.326],[30.3177,-22.3454,390.0248],[30.3359,-22.3487,384.0624],[30.3568,-22.3465,380.3074],[30.3779,-22.3492,386.9483],[30.3909,-22.3471,373.0],[30.4553,-22.3286,367.0],[30.4791,-22.3155,376.1046],[30.4854,-22.3143,376.8974],[30.496,-22.3157,374.6668],[30.5037,-22.3202,366.0162],[30.5295,-22.323,363.6248],[30.5491,-22.3301,352.125],[30.5555,-22.3291,360.0264],[30.5647,-22.321,354.7813],[30.5717,-22.3184,353.3002],[30.6012,-22.3189,351.3284],[30.6087,-22.3216,347.5766],[30.6208,-22.3319,334.0255],[30.6305,-22.3344,343.9693],[30.639,-22.3306,321.0906],[30.6502,-22.3164,315.7929],[30.6613,-22.3092,340.217],[30.6713,-22.3082,313.7279],[30.707,-22.3148,310.2962],[30.716,-22.3114,305.8805],[30.7281,-22.31,288.753],[30.7415,-22.3061,322.0227],[30.7508,-22.3056,295.7571],[30.7586,-22.3026,303.4293],[30.7864,-22.3003,278.7232],[30.8333,-22.2892,312.0269],[30.841,-22.2893,274.8825],[30.8546,-22.2941,258.0072],[30.8656,-22.2952,251.6609],[30.8835,-22.3027,264.2804],[30.8991,-22.2943,279.5016],[30.9329,-22.3002,245.6998],[30.9397,-22.3033,369.048],[30.9458,-22.3124,283.2931],[30.9595,-22.3115,283.3192],[30.9705,-22.3137,263.2246],[30.9734,-22.3219,238.9585],[30.9823,-22.3256,257.3694],[30.9898,-22.325,233.4537],[30.9935,-22.3207,229.5],[30.9951,-22.3155,231.9565],[30.9998,-22.3137,298.8242],[31.0366,-22.3311,227.446],[31.0512,-22.3355,229.3058],[31.0705,-22.3374,233.0121],[31.087,-22.3453,228.3912],[31.0984,-22.3453,222.778],[31.0997,-22.343,229.3519],[31.1133,-22.3375,223.6936],[31.1133,-22.3353,221.2136],[31.1003,-22.3202,228.5681],[31.0986,-22.3143,229.4575],[31.0861,-22.302,230.8915],[31.0841,-22.2976,229.9119],[31.0841,-22.2897,264.0247],[31.0802,-22.2885,250.3877],[31.0725,-22.2938,235.4227],[31.0683,-22.2941,236.1353],[31.0611,-22.2852,309.6043],[31.0554,-22.2869,240.638],[31.0512,-22.2859,259.2924],[31.0497,-22.2831,241.5223],[31.0521,-22.2787,256.6476],[31.0496,-22.2716,244.0904],[31.0533,-22.2684,274.8314],[31.0533,-22.2666,273.6225],[31.0343,-22.2667,247.7986],[31.0308,-22.2634,244.0384],[31.0276,-22.2519,281.1294],[31.0242,-22.2509,297.2373],[31.0174,-22.2525,251.7574],[31.0131,-22.2504,245.9575],[31.0162,-22.2331,249.5372],[31.0209,-22.2328,256.8107],[31.0263,-22.2367,257.5439],[31.0318,-22.2358,252.5475],[31.0363,-22.2302,333.7762],[31.036,-22.227,264.1948],[31.0345,-22.224,306.4642],[31.0304,-22.2214,275.7391],[31.0204,-22.2184,292.8961],[31.0109,-22.2275,267.4688],[31.0059,-22.2246,263.6065],[31.0133,-22.2084,275.2358],[31.0024,-22.2072,272.3484],[31.0065,-22.1972,273.8475],[31.0098,-22.194,293.2289],[31.0053,-22.1786,295.3999],[30.9877,-22.1742,304.5465],[30.9894,-22.1692,312.4603],[30.9859,-22.1633,298.6247],[30.983,-22.1619,301.0963],[30.9626,-22.1598,312.2812],[30.9547,-22.1551,324.3592],[30.9479,-22.1365,305.2533],[30.9481,-22.125,308.0338],[30.9441,-22.1129,315.2913],[30.9312,-22.1053,335.8452],[30.9353,-22.0862,354.8098],[30.9313,-22.0738,370.26],[30.9276,-22.0725,354.7548],[30.9171,-22.0736,383.7561],[30.8997,-22.0835,366.024],[30.8895,-22.0843,381.3188],[30.8869,-22.0811,377.7776],[30.8734,-22.0418,410.3226],[30.8595,-22.0343,393.4016],[30.8574,-22.0167,392.0186],[30.833,-21.9975,406.0897],[30.8037,-21.9991,410.6641],[30.8017,-21.9966,401.1761],[30.8029,-21.9915,400.7057],[30.7978,-21.9855,407.0057],[30.7966,-21.9808,407.8276],[30.8011,-21.9753,408.3822],[30.8087,-21.9748,408.3665],[30.8068,-21.9698,412.2967],[30.7981,-21.9642,414.461],[30.7833,-21.9646,416.0278],[30.7727,-21.9566,421.0409],[30.7672,-21.9548,417.4863],[30.7616,-21.9492,414.8164],[30.7569,-21.9414,420.4991],[30.7542,-21.9326,421.853],[30.7561,-21.9296,419.4059],[30.7713,-21.9222,423.1198],[30.7689,-21.9188,426.4034],[30.7602,-21.9135,422.257],[30.7614,-21.907,426.4923],[30.7503,-21.9035,429.1996],[30.7381,-21.8913,431.3839],[30.7276,-21.8903,434.7212],[30.7305,-21.8751,435.6021],[30.7167,-21.8753,440.8138],[30.7128,-21.8721,438.0593],[30.7101,-21.8618,436.8996],[30.7143,-21.8587,440.9111],[30.7151,-21.856,444.9252],[30.7108,-21.8503,443.6633],[30.7029,-21.8473,446.6239],[30.6852,-21.8316,447.2896],[30.6828,-21.8305,449.4421],[30.6724,-21.8315,447.1499],[30.6702,-21.8295,449.1387],[30.6698,-21.8237,450.0959],[30.6742,-21.8174,452.0131],[30.6651,-21.8112,456.6256],[30.6649,-21.8082,455.5318],[30.669,-21.7972,452.272],[30.6652,-21.7816,455.2271],[30.6586,-21.7799,460.7481],[30.6532,-21.7814,459.6545],[30.6354,-21.7713,464.0589],[30.6348,-21.7689,460.2401],[30.6376,-21.764,464.3093],[30.6435,-21.7567,465.2521],[30.6488,-21.7531,467.4094],[30.6501,-21.7503,466.0621],[30.649,-21.7489,466.2927],[30.6445,-21.7481,470.2876],[30.6396,-21.7509,470.0327],[30.6316,-21.7594,470.7257],[30.6195,-21.7632,470.7612],[30.6071,-21.7458,481.3874],[30.5995,-21.7431,473.459],[30.5965,-21.7519,473.0078],[30.5902,-21.754,481.7107],[30.5881,-21.752,478.5994],[30.5877,-21.7449,481.6649],[30.5821,-21.736,479.2809],[30.5767,-21.7351,480.9299],[30.5712,-21.7374,483.284],[30.5622,-21.7298,484.2962],[30.5592,-21.7319,481.8009],[30.5577,-21.7384,482.9023],[30.554,-21.7453,486.6118],[30.5443,-21.7479,485.5596],[30.5408,-21.745,483.8105],[30.5431,-21.736,494.5742],[30.5353,-21.7283,489.4556],[30.5341,-21.7199,490.3643],[30.5243,-21.7198,491.0255],[30.5218,-21.7142,493.576],[30.5185,-21.7115,493.9332],[30.5038,-21.7103,498.1341],[30.4998,-21.708,498.2333],[30.4982,-21.705,497.0284],[30.4979,-21.7011,496.3602],[30.5019,-21.6914,497.8246],[30.4995,-21.6871,504.4663],[30.4992,-21.6818,501.692],[30.5,-21.6796,502.1335],[30.5053,-21.6777,506.8044],[30.5076,-21.6741,506.8533],[30.5084,-21.6648,501.4226],[30.5065,-21.6605,502.5168],[30.5032,-21.658,502.5499],[30.4921,-21.6565,503.2646],[30.4887,-21.6574,505.4723],[30.4857,-21.6623,512.564],[30.4825,-21.6632,509.5654],[30.4783,-21.6615,511.0391],[30.4762,-21.656,507.5332],[30.4704,-21.6516,508.7037],[30.4502,-21.6526,519.0759],[30.4461,-21.647,518.044],[30.4464,-21.6357,515.3168],[30.4434,-21.6312,513.4313],[30.4269,-21.6305,524.8227],[30.4075,-21.6246,518.985],[30.4022,-21.6204,523.322],[30.3952,-21.6088,524.254],[30.3878,-21.6111,530.0168],[30.3812,-21.6108,533.2858],[30.3722,-21.601,526.8782],[30.3611,-21.5949,531.5895],[30.3559,-21.5956,530.3666],[30.345,-21.6072,532.3286],[30.3383,-21.6111,537.5192],[30.3321,-21.6023,535.7758],[30.3282,-21.6002,537.4547],[30.306,-21.6014,542.4128],[30.295,-21.5953,541.5325],[30.2757,-21.5969,547.828],[30.2639,-21.5916,546.4819],[30.2334,-21.5944,557.2486],[30.2303,-21.5916,556.168],[30.2292,-21.588,550.2849],[30.2304,-21.5849,550.3539],[30.2397,-21.5758,552.9022],[30.2417,-21.5708,554.501],[30.243,-21.5588,563.1121],[30.2405,-21.5497,556.3408],[30.2357,-21.5455,562.3495],[30.2308,-21.544,563.4649],[30.2213,-21.5535,564.1415],[30.2183,-21.5539,570.2393],[30.2144,-21.5514,562.939],[30.2115,-21.5426,570.8901],[30.2086,-21.5387,568.2608],[30.193,-21.5287,574.599],[30.1852,-21.5285,570.5684],[30.1783,-21.5327,576.6053],[30.1725,-21.5319,577.0356],[30.1684,-21.5263,577.1965],[30.1661,-21.5162,572.9313],[30.1701,-21.5041,580.0521],[30.1658,-21.5005,584.9689],[30.1462,-21.5058,588.6803],[30.1414,-21.5045,587.5902],[30.1335,-21.4982,588.778],[30.1269,-21.4965,592.2693],[30.0961,-21.5007,601.0024],[30.0957,-21.4957,594.6437],[30.097,-21.4928,602.6473],[30.107,-21.4875,601.9219],[30.1087,-21.4834,602.1086],[30.0935,-21.4762,608.3871],[30.0814,-21.4791,605.4098],[30.0727,-21.4789,610.8511],[30.0696,-21.4725,606.2401],[30.0689,-21.4594,614.9024],[30.0546,-21.4476,620.115],[30.0459,-21.4438,621.1288],[30.0415,-21.4394,613.7526],[30.0391,-21.4276,616.7628],[30.0402,-21.423,621.646],[30.035,-21.4181,623.071],[30.0338,-21.4137,630.1246],[30.0272,-21.4109,630.7145],[30.0247,-21.4074,623.5148],[30.0188,-21.3878,635.5144],[30.0077,-21.3811,633.879],[29.9991,-21.3713,647.6],[29.9538,-21.3536,651.0098],[29.9481,-21.3489,669.2587],[29.9364,-21.3083,669.7913],[29.9214,-21.2985,687.5369],[29.919,-21.2934,694.09],[29.9188,-21.2768,688.3932],[29.9062,-21.2694,692.3959],[29.8548,-21.3103,737.0835],[29.8907,-21.3285,708.8513],[29.8964,-21.3593,750.7443],[29.8502,-21.4265,724.9048],[29.8035,-21.4989,900.0201],[29.4959,-21.454,714.056],[29.5198,-21.5147,681.0867],[29.4671,-21.5332,657.063],[29.4526,-21.5399,633.0493],[29.4299,-21.5468,662.0991],[29.3599,-21.5612,719.7314],[29.2987,-21.6539,718.7186],[29.2479,-21.7474,678.8269],[29.2375,-21.7576,661.485],[29.2322,-21.7679,656.1888],[29.2349,-21.7686,651.4865],[29.2329,-21.7767,647.8251],[29.2289,-21.7774,646.728],[29.2282,-21.7832,641.884],[29.224,-21.7868,637.8185],[29.2262,-21.7922,638.4841],[29.2259,-21.8028,629.5383],[29.2231,-21.8046,627.3054],[29.2217,-21.8095,626.0942],[29.218,-21.8123,623.2693],[29.2172,-21.8167,619.6157],[29.2085,-21.8179,621.5923],[29.2062,-21.8207,627.5519],[29.208,-21.8289,613.3683],[29.2151,-21.8344,613.5335],[29.2159,-21.8393,607.9149],[29.2129,-21.8411,607.342],[29.2077,-21.8393,608.8698],[29.2045,-21.8406,610.1927],[29.1988,-21.85,594.0784],[29.2009,-21.8583,607.6907],[29.1905,-21.8634,589.4232],[29.1836,-21.8716,584.3724],[29.18,-21.8721,584.3563],[29.1784,-21.8742,585.277],[29.1817,-21.8808,582.7575],[29.183,-21.8901,582.1757],[29.1873,-21.8943,585.7081],[29.1881,-21.8977,575.2512],[29.0377,-21.9968,659.4785],[29.0517,-22.0181,652.5719],[29.0717,-22.038,621.2256],[29.0935,-22.0536,610.996],[29.1238,-22.0663,608.6398],[29.1586,-22.0736,611.3882],[29.185,-22.0747,614.6927],[29.2045,-22.0723,592.2247],[29.2482,-22.0585,541.4667],[29.251,-22.0611,541.0718],[29.257,-22.0632,542.3845],[29.2631,-22.0686,539.21],[29.2738,-22.0852,531.5759],[29.2846,-22.1154,527.7435],[29.2989,-22.1303,523.7816],[29.3361,-22.1599,516.2335],[29.3534,-22.1827,512.3027],[29.3628,-22.1903,510.3624],[29.373,-22.1918,512.279],[29.3802,-22.1909,525.3096],[29.4045,-22.181,515.8114],[29.4125,-22.1745,507.2243],[29.4251,-22.1702,511.7184],[29.4653,-22.1632,505.7134],[29.485,-22.165,501.3309],[29.5158,-22.1764,495.0858],[29.5254,-22.1746,503.589],[29.5348,-22.1703,490.4464],[29.5342,-22.1583,492.7011],[29.5355,-22.1552,488.4309],[29.5392,-22.1527,487.7444],[29.5625,-22.1498,485.6667],[29.5755,-22.1403,484.5061],[29.582,-22.1388,490.6504],[29.5931,-22.144,488.0607],[29.6021,-22.1521,486.6479],[29.6091,-22.154,487.7007],[29.6176,-22.149,483.5953],[29.6227,-22.1382,478.9649],[29.6261,-22.1341,485.0782],[29.6537,-22.1234,479.8974],[29.663,-22.1245,475.7408],[29.6705,-22.1349,477.4129],[29.6748,-22.1371,479.9989],[29.6957,-22.1353,469.6666],[29.7164,-22.1418,469.8582],[29.7383,-22.1385,474.9989],[29.7734,-22.1383,473.2061],[29.7833,-22.1437,470.732],[29.785,-22.1472,469.7116],[29.8117,-22.1646,466.3437],[29.8338,-22.1701,465.6422],[29.8568,-22.1712,464.1856],[29.8646,-22.1742,462.4018],[29.8704,-22.1815,458.3694],[29.8861,-22.1902,458.1349],[29.9306,-22.1861,456.5122],[29.9879,-22.1527,531.5978],[30.0221,-22.1592,532.808],[30.0317,-22.1589,526.895],[30.0514,-22.1625,528.8134],[30.0549,-22.2549,412.4893],[30.062,-22.2592,409.9124],[30.0749,-22.2719,408.6072],[30.1005,-22.2846,407.2957],[30.1109,-22.2949,409.5089],[30.1165,-22.303,403.5],[30.1243,-22.3086,407.1815],[30.1321,-22.3088,414.0794],[30.1472,-22.3014,400.125],[30.1555,-22.2992,410.0637],[30.1857,-22.2953,405.7478],[30.1979,-22.2958,400.0804],[30.223,-22.2932,399.6487],[30.2337,-22.2949,396.012],[30.2379,-22.3033,399.2903]]]]}}