{"type":"Feature","properties":{"GID_3":"ZWE.7.4.14_2","GID_0":"ZWE","country":"Zimbabwe","GID_1":"ZWE.7_1","province":"Masvingo","NL_NAME_1":"NA","GID_2":"ZWE.7.4_2","county":"Chivi","NL_NAME_2":"NA","city":"Ward21","VARNAME_3":"NA","NL_NAME_3":"NA","TYPE_3":"Ward","ENGTYPE_3":"Ward","CC_3":"NA","HASC_3":"NA","name":"Ward21.city"},
"geometry":{"type": "MultiPolygon","coordinates": [[[[30.4534,-20.6373,699.1931],[30.4583,-20.6467,699.565],[30.467,-20.6524,701.2142],[30.4769,-20.6544,704.2255],[30.4788,-20.6563,695.2742],[30.4814,-20.6611,699.9774],[30.4815,-20.6659,689.352],[30.4788,-20.6761,686.3681],[30.4815,-20.6802,695.4088],[30.4925,-20.684,694.9467],[30.5162,-20.6814,680.3727],[30.5233,-20.6851,674.9249],[30.5237,-20.6938,677.0529],[30.5221,-20.7016,673.0458],[30.5142,-20.7178,672.9609],[30.5127,-20.7254,672.4246],[30.5155,-20.7407,665.5928],[30.5218,-20.7488,666.7985],[30.5418,-20.7563,657.3944],[30.5515,-20.7656,711.5257],[30.5597,-20.7706,657.76],[30.5726,-20.7746,652.6472],[30.5905,-20.7764,652.0184],[30.5934,-20.7794,641.9669],[30.6049,-20.7678,644.2412],[30.6275,-20.7531,639.0189],[30.6225,-20.7423,657.7186],[30.6148,-20.7418,655.2703],[30.6136,-20.7349,748.2845],[30.6073,-20.7344,675.2308],[30.6069,-20.7268,677.5063],[30.590699999999998,-20.724,672.3203],[30.5877,-20.7133,682.9966],[30.5829,-20.7052,681.9679],[30.583,-20.6993,681.4142],[30.5778,-20.6831,691.4543],[30.5729,-20.6792,692.7353],[30.5775,-20.6727,749.8493],[30.5745,-20.6656,717.0362],[30.5742,-20.6562,701.6897],[30.5675,-20.6508,702.8986],[30.5468,-20.6501,710.9158],[30.5419,-20.6466,712.7004],[30.5402,-20.6411,724.4756],[30.5357,-20.6368,720.8829],[30.534,-20.6325,730.0068],[30.5029,-20.6295,742.7518],[30.4909,-20.617,769.7768],[30.4855,-20.6148,773.6741],[30.4778,-20.6185,754.3248],[30.4686,-20.6307,731.6104],[30.4623,-20.631,717.6663],[30.4534,-20.6373,699.1931]]]]}}