{"type":"Feature","properties":{"GID_3":"ZWE.4.7.3_2","GID_0":"ZWE","country":"Zimbabwe","GID_1":"ZWE.4_1","province":"MashonalandCentral","NL_NAME_1":"NA","GID_2":"ZWE.4.7_2","county":"MountDarwin","NL_NAME_2":"NA","city":"Ward11","VARNAME_3":"NA","NL_NAME_3":"NA","TYPE_3":"Ward","ENGTYPE_3":"Ward","CC_3":"NA","HASC_3":"NA","name":"Ward11.city"},
"geometry":{"type": "MultiPolygon","coordinates": [[[[31.7653,-16.4995,855.3911],[31.7709,-16.4993,913.4441],[31.7806,-16.5037,859.2444],[31.7847,-16.5031,839.387],[31.7847,-16.5001,866.4812],[31.7905,-16.5017,830.2123],[31.7939,-16.499,905.4257],[31.7963,-16.5029,827.4718],[31.7992,-16.502,836.34],[31.809,-16.507,815.7114],[31.8133,-16.5058,846.3818],[31.8179,-16.5073,819.1304],[31.8261,-16.5068,831.8091],[31.8303,-16.51,810.4739],[31.8388,-16.5084,791.8001],[31.839,-16.5049,799.9921],[31.8409,-16.5037,813.1077],[31.8424,-16.5049,799.4575],[31.8518,-16.5051,814.1923],[31.8538,-16.5078,791.9287],[31.8517,-16.51,783.8],[31.8601,-16.5129,808.4048],[31.8606,-16.5165,777.6129],[31.8627,-16.5181,774.1373],[31.8699,-16.5192,782.0447],[31.8821,-16.5168,814.676],[31.888,-16.5183,752.886],[31.8808,-16.4522,781.7741],[31.8611,-16.4533,778.4041],[31.8498,-16.4587,810.2988],[31.8387,-16.4604,868.0695],[31.8277,-16.4598,947.5788],[31.8254,-16.4588,994.9565],[31.8228,-16.4459,1127.4261],[31.7494,-16.4269,1383.0614],[31.7449,-16.4286,1480.5219],[31.7325,-16.4292,1340.4132],[31.7137,-16.425,1431.954],[31.705,-16.4252,1294.8887],[31.6999,-16.4273,1333.8025],[31.6949,-16.433,1419.4011],[31.6885,-16.4368,1335.2443],[31.6881,-16.4529,978.0314],[31.7001,-16.4646,939.8188],[31.7011,-16.4692,941.0745],[31.7064,-16.4699,924.6964],[31.7117,-16.4685,941.9395],[31.7166,-16.4768,906.754],[31.7249,-16.4826,900.3704],[31.7249,-16.4847,893.0708],[31.7292,-16.4823,914.4592],[31.7353,-16.4854,895.1772],[31.7384,-16.4841,921.4445],[31.7451,-16.4848,903.7032],[31.7487,-16.4876,906.9174],[31.7552,-16.4892,952.5229],[31.7653,-16.4995,855.3911]]]]}}