{"type":"Feature","properties":{"GID_3":"ZWE.3.7.13_2","GID_0":"ZWE","country":"Zimbabwe","GID_1":"ZWE.3_1","province":"Manicaland","NL_NAME_1":"NA","GID_2":"ZWE.3.7_2","county":"MutareUrban","NL_NAME_2":"NA","city":"Ward3","VARNAME_3":"NA","NL_NAME_3":"NA","TYPE_3":"Ward","ENGTYPE_3":"Ward","CC_3":"NA","HASC_3":"NA","name":"Ward3.city"},
"geometry":{"type": "MultiPolygon","coordinates": [[[[32.6488,-18.9942,1097.5579],[32.6477,-18.9923,1093.229],[32.6455,-18.9935,1080.1448],[32.6448,-18.9913,1077.5691],[32.6355,-18.9929,1062.621],[32.6358,-18.995,1048.9346],[32.6271,-18.9942,1032.3601],[32.6239,-18.9903,1029.5319],[32.618,-18.9926,1032.1437],[32.6226,-19.0015,1060.9622],[32.6329,-19.0035,1068.5056],[32.6488,-18.9942,1097.5579]]]]}}