{"type": "Feature","bbox": [30.0463,-16.2767,30.5108,-15.9995],"geometry": {"type": "MultiPolygon","coordinates": [[[[30.0478,-15.9995,595.8427],[30.0463,-16.0012,593.0515],[30.0474,-16.0031,586.2597],[30.0553,-16.0033,588.5535],[30.058,-16.0,622.9957],[30.0612,-16.0008,646.1478],[30.0633,-16.0056,586.664],[30.062,-16.0128,578.8257],[30.0589,-16.0163,603.2737],[30.0636,-16.0163,609.0815],[30.0631,-16.0204,578.4891],[30.065,-16.0235,576.2313],[30.0742,-16.0276,622.384],[30.0722,-16.03,575.3812],[30.0751,-16.0339,569.5907],[30.0795,-16.0344,576.6785],[30.0824,-16.0366,580.0767],[30.0867,-16.034,587.0495],[30.0878,-16.0389,547.8654],[30.0926,-16.034,596.5554],[30.0961,-16.0394,551.2476],[30.0935,-16.0416,545.4529],[30.0936,-16.0443,529.6183],[30.0986,-16.0454,534.083],[30.1079,-16.0433,532.2626],[30.1101,-16.0441,534.7822],[30.1079,-16.0471,511.9041],[30.0994,-16.0494,554.9402],[30.1012,-16.0582,530.5708],[30.0998,-16.0602,520.9183],[30.1005,-16.0633,515.3979],[30.0954,-16.0623,518.4157],[30.0943,-16.0671,522.2444],[30.099,-16.0729,495.8986],[30.094,-16.0751,499.7174],[30.0892,-16.0746,516.4598],[30.0881,-16.0796,495.1645],[30.0788,-16.092,481.7929],[30.0809,-16.0941,473.3079],[30.0783,-16.1013,476.3938],[30.0814,-16.1047,464.2911],[30.0853,-16.1013,485.8463],[30.0905,-16.1009,492.4923],[30.0915,-16.0974,498.6937],[30.0994,-16.0886,518.3983],[30.1065,-16.0897,541.9551],[30.1096,-16.0917,544.5273],[30.111,-16.0991,534.4545],[30.1155,-16.1027,536.7512],[30.1191,-16.1032,531.4569],[30.1262,-16.1093,525.8158],[30.1323,-16.1108,509.3239],[30.1416,-16.11,515.7412],[30.1432,-16.1055,503.4974],[30.1513,-16.1101,501.9604],[30.16,-16.1117,507.83],[30.1676,-16.1172,505.8701],[30.1798,-16.1199,520.641],[30.1844,-16.1234,505.1237],[30.188,-16.1225,509.2391],[30.1906,-16.1185,483.9741],[30.1952,-16.1201,494.6925],[30.1967,-16.1231,507.8659],[30.2004,-16.1177,490.4409],[30.2224,-16.116,473.356],[30.2285,-16.1185,486.3365],[30.2301,-16.1176,503.5542],[30.2321,-16.1201,492.9876],[30.2388,-16.1202,500.4498],[30.2433,-16.1237,483.8121],[30.2529,-16.1228,455.0415],[30.2559,-16.1282,438.3727],[30.2606,-16.1312,439.5477],[30.2604,-16.1344,432.6881],[30.2641,-16.139,416.8931],[30.2644,-16.1421,400.6497],[30.2681,-16.1431,409.3441],[30.2662,-16.1516,416.0828],[30.2625,-16.1527,420.0895],[30.2638,-16.1563,422.9845],[30.2668,-16.1586,422.8523],[30.267,-16.1603,416.0797],[30.2641,-16.1598,424.4202],[30.2643,-16.162,419.5956],[30.266,-16.1636,419.4926],[30.2685,-16.1628,424.1182],[30.2681,-16.1662,423.3672],[30.2649,-16.1665,434.1077],[30.2658,-16.1701,428.7166],[30.2681,-16.1715,427.8581],[30.2667,-16.1787,432.3635],[30.2692,-16.18,431.1635],[30.2697,-16.1824,430.4572],[30.2738,-16.1828,449.2318],[30.2703,-16.1893,443.8081],[30.2717,-16.1912,437.5266],[30.2747,-16.1895,444.9825],[30.2759,-16.1924,439.13],[30.2742,-16.2015,441.9283],[30.2722,-16.2037,442.0862],[30.2725,-16.2074,447.8985],[30.2707,-16.2096,448.357],[30.2728,-16.2137,454.2513],[30.2683,-16.2166,472.659],[30.2685,-16.225,475.795],[30.2638,-16.2298,483.1197],[30.2638,-16.2437,515.1757],[30.2596,-16.2517,560.8655],[30.2611,-16.2549,565.1235],[30.2601,-16.2578,583.7292],[30.2619,-16.2611,627.7427],[30.2588,-16.2632,724.2003],[30.2602,-16.2681,791.192],[30.2583,-16.2695,783.5497],[30.2586,-16.2744,896.7465],[30.2663,-16.2714,951.9914],[30.2767,-16.27,929.0594],[30.2949,-16.2767,601.7438],[30.2989,-16.2739,580.126],[30.3047,-16.2635,533.3788],[30.3083,-16.2611,515.9313],[30.3079,-16.2571,506.1077],[30.3099,-16.2572,506.0938],[30.3104,-16.2601,515.079],[30.312,-16.2597,510.5626],[30.314,-16.2582,504.9543],[30.3151,-16.2533,499.0323],[30.3136,-16.2528,501.3534],[30.3213,-16.2499,482.4052],[30.3239,-16.2504,481.6368],[30.326,-16.2455,472.3568],[30.3296,-16.2465,476.1291],[30.3296,-16.244,469.9282],[30.3322,-16.2411,461.6188],[30.3394,-16.2422,459.2316],[30.3444,-16.2467,459.2971],[30.3557,-16.2454,446.2039],[30.3609,-16.2429,446.1158],[30.3624,-16.2444,442.7271],[30.3686,-16.242,442.0058],[30.3727,-16.2456,433.2495],[30.3757,-16.2456,438.5072],[30.3813,-16.2506,430.6449],[30.3885,-16.2492,424.9554],[30.3926,-16.2458,431.1662],[30.407,-16.2425,416.9202],[30.4076,-16.2405,419.3094],[30.4117,-16.2416,414.0532],[30.4122,-16.2396,414.2492],[30.4168,-16.2382,411.4618],[30.4184,-16.2357,411.7514],[30.421,-16.2363,412.4223],[30.4225,-16.2353,409.5854],[30.4226,-16.2328,406.2606],[30.4195,-16.2328,405.2713],[30.4195,-16.2303,404.7281],[30.4272,-16.2274,406.2719],[30.4278,-16.2239,400.1381],[30.4345,-16.2211,396.6256],[30.4351,-16.2181,395.2088],[30.436,-16.2206,395.1661],[30.4386,-16.2216,396.5074],[30.4391,-16.2186,396.4144],[30.4448,-16.2212,393.608],[30.4468,-16.2182,393.5371],[30.4452,-16.2134,389.1096],[30.4438,-16.2117,396.1128],[30.4404,-16.2118,391.3531],[30.4408,-16.2089,398.0672],[30.4364,-16.2087,394.8133],[30.4355,-16.2073,398.1425],[30.4364,-16.2032,406.523],[30.4337,-16.1983,413.3434],[30.4346,-16.1935,418.1955],[30.4309,-16.1916,422.9891],[30.4299,-16.1848,436.262],[30.4257,-16.1788,440.8948],[30.4311,-16.163,447.6051],[30.441,-16.1456,481.8144],[30.4373,-16.1383,471.1369],[30.4388,-16.1339,467.8818],[30.4373,-16.1259,455.5441],[30.4417,-16.1193,461.6799],[30.4372,-16.1087,476.8645],[30.4448,-16.1013,504.5237],[30.4542,-16.1004,482.4163],[30.4555,-16.083,478.7531],[30.4615,-16.0752,470.3169],[30.4632,-16.0687,442.5448],[30.4676,-16.0677,439.3323],[30.4714,-16.0643,443.6161],[30.4787,-16.0646,429.7336],[30.4816,-16.0629,433.8226],[30.4827,-16.0598,425.4155],[30.4803,-16.051,438.0096],[30.4813,-16.0476,421.7361],[30.4896,-16.0461,421.0856],[30.4931,-16.0496,423.2368],[30.5004,-16.0486,417.7564],[30.5082,-16.0446,401.96],[30.5063,-16.0428,408.1449],[30.5018,-16.0448,418.3003],[30.5041,-16.0403,408.4546],[30.5108,-16.0385,393.1088],[30.5066,-16.0367,405.8016],[30.5089,-16.0349,397.6265],[30.5062,-16.0328,400.075],[30.5073,-16.0298,388.9346],[30.5024,-16.031,394.2083],[30.4998,-16.0278,399.0361],[30.4926,-16.0357,416.7269],[30.4927,-16.0294,404.3575],[30.4888,-16.0273,416.396],[30.4918,-16.0254,403.1906],[30.4917,-16.0226,407.4189],[30.4982,-16.0205,407.8178],[30.4963,-16.0198,408.1039],[30.4958,-16.0175,399.5867],[30.4849,-16.0175,414.6601],[30.4906,-16.0145,411.6348],[30.493,-16.0102,404.6313],[30.4847,-16.0109,403.4196],[30.4813,-16.0088,412.1855],[30.4884,-16.0028,406.8188],[30.4886,-16.001,405.546],[30.0478,-15.9995,595.8427]]]]}
,"properties": {"GID_3": "ZWE.4.6.10_2","GID_0": "ZWE","country": "Zimbabwe","GID_1": "ZWE.4_1","province": "MashonalandCentral","NL_NAME_1": "NA","GID_2": "ZWE.4.6_2","county": "Mbire","NL_NAME_2": "NA","city": "Ward2","VARNAME_3": "NA","NL_NAME_3": "NA","TYPE_3": "Ward","ENGTYPE_3": "Ward","CC_3": "NA","HASC_3": "NA","name": "Ward2.city","area_km2": 802.8926,"hist_schema_id": "Elevation0-9000","hist_area_km2": {"375": 20.3164,"400": 106.3906,"425": 192.9762,"450": 194.7942,"475": 112.9392,"500": 64.6006,"525": 43.133,"550": 24.9385,"575": 17.3596,"600": 12.2261,"625": 6.2761,"650": 1.6296,"675": 0.6921,"700": 0.4885,"725": 0.6717,"750": 0.631,"775": 0.6106,"800": 0.4274,"825": 0.4274,"850": 0.2849,"875": 0.2646,"900": 0.2035,"925": 0.3867,"950": 0.2035,"975": 0.0204}}}