{"type":"Feature","properties":{"GID_3":"ZWE.10.3.5_2","GID_0":"ZWE","country":"Zimbabwe","GID_1":"ZWE.10_1","province":"Midlands","NL_NAME_1":"NA","GID_2":"ZWE.10.3_2","county":"GokweSouth","NL_NAME_2":"NA","city":"Ward13","VARNAME_3":"NA","NL_NAME_3":"NA","TYPE_3":"Ward","ENGTYPE_3":"Ward","CC_3":"NA","HASC_3":"NA","name":"Ward13.city"},
"geometry":{"type": "MultiPolygon","coordinates": [[[[28.9173,-18.2324,1275.1349],[28.9052,-18.2244,1265.455],[28.8977,-18.2149,1225.1238],[28.8972,-18.2066,1201.105],[28.8992,-18.198,1190.6825],[28.8905,-18.1846,1168.6929],[28.8949,-18.1733,1161.27],[28.8925,-18.1617,1152.6622],[28.8952,-18.1584,1150.5568],[28.894,-18.1582,1150.5568],[28.8946,-18.1565,1149.5415],[28.8927,-18.1526,1146.8008],[28.8891,-18.1503,1147.915],[28.8864,-18.1522,1145.713],[28.8788,-18.1512,1144.182],[28.8747,-18.1488,1145.1387],[28.8725,-18.1495,1143.0377],[28.8651,-18.1468,1140.0459],[28.8571,-18.1488,1136.9811],[28.8503,-18.1464,1096.6503],[28.8478,-18.1436,1135.1787],[28.8458,-18.1461,1125.2356],[28.8413,-18.142,1131.6053],[28.8375,-18.1429,1085.5442],[28.8339,-18.1388,1130.9117],[28.8278,-18.1417,1127.7031],[28.8215,-18.1385,1132.1211],[28.818,-18.1393,1130.6819],[28.8171,-18.1381,1113.5049],[28.8154,-18.1316,1026.9954],[28.8182,-18.1298,1129.5552],[28.8166,-18.1278,1044.4548],[28.8195,-18.1263,1082.3496],[28.8192,-18.1217,1045.1168],[28.8273,-18.1114,1039.9149],[28.832,-18.1109,1054.0063],[28.8339,-18.1011,1025.4716],[28.8428,-18.092,1122.986],[28.845,-18.0871,1038.2487],[28.847,-18.0853,1022.5737],[28.8486,-18.0863,1085.3333],[28.8474,-18.0908,1134.1489],[28.8499,-18.0916,1100.6249],[28.8516,-18.0953,1114.9922],[28.8499,-18.0969,1137.1125],[28.8462,-18.0942,1135.9937],[28.8462,-18.0961,1135.3441],[28.8489,-18.1004,1098.4841],[28.8519,-18.0996,1079.5453],[28.8533,-18.1024,1099.0659],[28.8542,-18.0936,1018.8692],[28.8518,-18.0888,1003.6666],[28.8505,-18.0804,956.3816],[28.8462,-18.0742,939.1494],[28.8418,-18.0716,923.082],[28.8407,-18.0693,913.9429],[28.8388,-18.0694,902.1644],[28.8391,-18.0665,902.5627],[28.8377,-18.0668,897.9872],[28.8366,-18.0633,905.6657],[28.8311,-18.0593,894.6786],[28.8273,-18.059,875.4604],[28.8274,-18.0566,881.8116],[28.8249,-18.0571,875.4933],[28.8232,-18.0557,862.9182],[28.8244,-18.0537,875.4783],[28.8212,-18.0517,857.0759],[28.8196,-18.047,855.2385],[28.8187,-18.0344,857.8549],[28.8162,-18.0347,849.8601],[28.8126,-18.0325,850.7872],[28.8167,-18.0306,845.3993],[28.8168,-18.0272,855.4872],[28.8149,-18.0257,845.4841],[28.8125,-18.026,843.9732],[28.8135,-18.0288,844.0391],[28.8094,-18.0247,843.3754],[28.8069,-18.0266,839.3135],[28.8068,-18.0285,840.0395],[28.8053,-18.0284,839.6934],[28.8057,-18.0263,839.3135],[28.8029,-18.0224,836.7757],[28.8007,-18.0226,837.6631],[28.8014,-18.0243,837.6042],[28.7932,-18.0362,843.4919],[28.7928,-18.0409,845.2036],[28.794,-18.041,845.0394],[28.7942,-18.0443,846.4399],[28.7975,-18.0445,849.6335],[28.7977,-18.0512,850.1728],[28.7899,-18.0586,859.2753],[28.7772,-18.0654,883.1465],[28.7779,-18.0695,866.6151],[28.7712,-18.0712,884.6391],[28.7695,-18.0731,892.0934],[28.7697,-18.0788,879.2539],[28.7715,-18.0799,878.6757],[28.7648,-18.0905,886.9675],[28.766,-18.0952,887.215],[28.7614,-18.0989,892.8336],[28.7591,-18.1041,898.6728],[28.755,-18.1035,910.0665],[28.7524,-18.1066,903.6309],[28.7499,-18.1183,912.8438],[28.7462,-18.1149,923.9127],[28.7443,-18.1177,921.4665],[28.7456,-18.1201,922.8838],[28.7375,-18.1262,927.0335],[28.734,-18.1252,936.6318],[28.7349,-18.1304,929.0126],[28.7314,-18.1297,936.761],[28.7296,-18.1309,949.0637],[28.7307,-18.1364,944.6526],[28.7206,-18.1402,969.1401],[28.7128,-18.1406,964.2025],[28.706,-18.1453,977.9858],[28.695,-18.1423,1011.9279],[28.6803,-18.1443,1045.2732],[28.664,-18.142,1073.0603],[28.6644,-18.1383,1084.4053],[28.6696,-18.1282,1032.7019],[28.6693,-18.1197,1017.8256],[28.678,-18.1003,979.254],[28.6767,-18.0953,951.4426],[28.6795,-18.0843,936.9311],[28.6782,-18.081,943.6405],[28.6798,-18.0792,943.225],[28.6827,-18.0816,930.4156],[28.6875,-18.0717,919.152],[28.6862,-18.0693,917.6794],[28.6832,-18.0685,923.7733],[28.6857,-18.066,904.316],[28.6859,-18.0623,896.387],[28.6845,-18.0615,896.387],[28.6785,-18.0647,908.6788],[28.6787,-18.068,912.7869],[28.6806,-18.0682,916.121],[28.6754,-18.0766,923.3116],[28.6756,-18.0797,926.4767],[28.6716,-18.0835,928.2126],[28.6701,-18.0876,932.3384],[28.6621,-18.0889,944.5287],[28.6575,-18.0968,953.6711],[28.6492,-18.1017,968.3029],[28.6404,-18.1015,995.1692],[28.6345,-18.1057,1014.0188],[28.6281,-18.121,1053.2148],[28.6225,-18.1246,1039.3418],[28.6191,-18.1304,1081.2893],[28.616,-18.1407,1104.2368],[28.6209,-18.1441,1142.4221],[28.6225,-18.1415,1147.5024],[28.6306,-18.1385,1182.9417],[28.6317,-18.1333,1171.14],[28.6301,-18.1286,1133.6824],[28.6347,-18.1203,1126.2396],[28.6385,-18.1212,1123.9795],[28.6385,-18.1235,1145.04],[28.6401,-18.1221,1089.8252],[28.6405,-18.1231,1109.6515],[28.6396,-18.1253,1128.8135],[28.6414,-18.1268,1128.3002],[28.6396,-18.1338,1180.9872],[28.6423,-18.1376,1145.9585],[28.6505,-18.1339,1169.1255],[28.649,-18.1274,1097.9156],[28.6544,-18.1277,1117.2454],[28.652,-18.1403,1188.3684],[28.6322,-18.1454,1188.3185],[28.6222,-18.1498,1177.1389],[28.6386,-18.193,1206.2646],[28.6457,-18.2021,1209.0171],[28.6518,-18.2138,1195.0065],[28.6585,-18.2198,1194.1027],[28.6663,-18.2174,1176.1277],[28.6684,-18.2185,1180.9277],[28.6708,-18.2226,1199.665],[28.6696,-18.229,1189.8253],[28.6796,-18.2411,1171.5532],[28.6833,-18.2428,1167.3767],[28.6993,-18.2465,1160.959],[28.7106,-18.2404,1154.9849],[28.728,-18.2471,1144.8513],[28.7315,-18.2464,1143.1637],[28.7394,-18.2507,1143.9652],[28.7493,-18.2474,1153.2192],[28.7546,-18.2503,1171.1735],[28.7638,-18.2489,1152.0339],[28.7685,-18.2498,1155.1852],[28.7796,-18.2401,1188.9452],[28.7939,-18.2415,1183.9248],[28.8046,-18.237,1189.512],[28.8087,-18.2296,1205.2256],[28.8134,-18.2275,1224.6147],[28.8154,-18.2245,1224.5112],[28.8203,-18.2244,1232.4203],[28.8249,-18.2265,1264.3347],[28.8437,-18.2299,1274.4154],[28.8751,-18.2416,1289.5397],[28.9232,-18.2461,1292.5522],[28.9369,-18.2388,1295.884],[28.9317,-18.2392,1290.5664],[28.9231,-18.2365,1272.587],[28.9173,-18.2324,1275.1349]]]]}}