{"type": "Feature","bbox": [31.8907,-18.284,32.0252,-18.1426],"geometry": {"type": "MultiPolygon","coordinates": [[[[31.8978,-18.1426,1538.5242],[31.8907,-18.1551,1503.031],[31.8969,-18.1695,1552.8469],[31.9186,-18.1705,1608.5383],[31.9273,-18.1849,1536.1938],[31.9092,-18.2034,1469.4363],[31.9486,-18.2163,1722.2279],[31.9308,-18.2481,1630.5737],[31.9094,-18.2807,1567.5201],[31.9368,-18.284,1516.114],[31.9525,-18.2611,1574.0143],[31.9706,-18.2622,1576.009],[31.9683,-18.256,1567.488],[31.9551,-18.2552,1594.3503],[31.955,-18.2506,1605.3799],[31.9669,-18.2506,1574.5363],[31.9676,-18.2527,1565.8363],[31.9759,-18.2532,1591.3223],[31.9831,-18.2466,1613.0121],[31.981,-18.2438,1622.2478],[31.9931,-18.234,1637.0548],[31.9837,-18.1949,1608.2927],[31.9995,-18.1991,1617.2449],[32.0252,-18.203,1600.6647],[32.0227,-18.1748,1542.9181],[31.9912,-18.1667,1553.7886],[31.985,-18.1436,1563.4092],[31.8978,-18.1426,1538.5242]]]]}
,"properties": {"GID_3": "ZWE.3.5.28_2","GID_0": "ZWE","country": "Zimbabwe","GID_1": "ZWE.3_1","province": "Manicaland","NL_NAME_1": "NA","GID_2": "ZWE.3.5_2","county": "Makoni","NL_NAME_2": "NA","city": "Ward34","VARNAME_3": "NA","NL_NAME_3": "NA","TYPE_3": "Ward","ENGTYPE_3": "Ward","CC_3": "NA","HASC_3": "NA","name": "Ward34.city","area_km2": 109.43016,"hist_schema_id": "Elevation0-9000","hist_area_km2": {"1475": 2.1149,"1500": 7.69488,"1525": 18.14977,"1550": 24.29273,"1575": 19.39701,"1600": 14.76154,"1625": 10.51251,"1650": 8.80104,"1675": 2.19528,"1700": 0.66463,"1725": 0.28196,"1750": 0.38266,"1775": 0.18126}}}