{"type": "Feature","bbox": [32.007,-16.6433,32.0411,-16.6181],"geometry": {"type": "MultiPolygon","coordinates": [[[[32.0411,-16.6433,923.4939],[32.0404,-16.6183,1018.7141],[32.0097,-16.6181,960.3557],[32.0071,-16.6339,975.7484],[32.007,-16.6388,1005.4668],[32.0091,-16.6425,980.3258],[32.0411,-16.6433,923.4939]]]]}
,"properties": {"GID_3": "ZWE.4.9.17_2","GID_0": "ZWE","country": "Zimbabwe","GID_1": "ZWE.4_1","province": "MashonalandCentral","NL_NAME_1": "NA","GID_2": "ZWE.4.9_2","county": "Rushinga","NL_NAME_2": "NA","city": "Ward24","VARNAME_3": "NA","NL_NAME_3": "NA","TYPE_3": "Ward","ENGTYPE_3": "Ward","CC_3": "NA","HASC_3": "NA","name": "Ward24.city","area_km2": 9.487255,"hist_schema_id": "Elevation0-9000","hist_area_km2": {"950": 0.243785,"975": 2.13311,"1000": 4.835057,"1025": 2.09247,"1050": 0.182833}}}