{"type": "Feature","bbox": [28.2681,-20.9179,28.4724,-20.7985],"geometry": {"type": "MultiPolygon","coordinates": [[[[28.3105,-20.8338,1070.2434],[28.3172,-20.8453,1064.8169],[28.3152,-20.8513,1065.1392],[28.318,-20.8533,1063.3212],[28.3226,-20.8519,1062.7466],[28.322,-20.8597,1060.7358],[28.3275,-20.8595,1065.6897],[28.3298,-20.8653,1056.2383],[28.3333,-20.864,1063.5474],[28.3377,-20.868,1052.8015],[28.3406,-20.8639,1060.0554],[28.349,-20.8678,1055.4623],[28.3473,-20.8761,1044.0093],[28.3515,-20.9053,1030.6083],[28.366,-20.9051,1047.6798],[28.3748,-20.8902,1063.1799],[28.38,-20.888,1060.8588],[28.3936,-20.8861,1060.4481],[28.4038,-20.8938,1059.0793],[28.4035,-20.8961,1058.123],[28.4066,-20.9002,1053.7922],[28.4101,-20.9116,1043.0275],[28.4125,-20.9136,1042.0803],[28.4374,-20.9179,1025.3792],[28.4532,-20.9104,1020.2747],[28.4627,-20.9138,1014.6326],[28.4724,-20.9112,1000.6252],[28.4616,-20.8992,1009.3983],[28.4506,-20.8973,1005.3414],[28.449,-20.8917,1008.2808],[28.4413,-20.8852,1011.7297],[28.4359,-20.8776,1017.2394],[28.432,-20.8754,1012.163],[28.4308,-20.8692,1022.9592],[28.4253,-20.8628,1021.8693],[28.4187,-20.8585,1023.8243],[28.4135,-20.8594,1027.2877],[28.3996,-20.8449,1031.4933],[28.3961,-20.8433,1035.105],[28.3956,-20.8398,1036.25],[28.3919,-20.8362,1041.0472],[28.3917,-20.8338,1036.5881],[28.3765,-20.8234,1068.7089],[28.3329,-20.7985,1127.2855],[28.2681,-20.8037,1087.3495],[28.271,-20.8107,1090.0531],[28.2801,-20.8233,1078.9923],[28.2875,-20.8259,1081.8379],[28.3036,-20.8212,1076.2192],[28.3039,-20.8262,1071.5288],[28.3105,-20.8338,1070.2434]]]]}
,"properties": {"GID_3": "ZWE.9.8.5_2","GID_0": "ZWE","country": "Zimbabwe","GID_1": "ZWE.9_1","province": "MatabelelandSouth","NL_NAME_1": "NA","GID_2": "ZWE.9.8_2","county": "Matobo","NL_NAME_2": "NA","city": "Ward13","VARNAME_3": "NA","NL_NAME_3": "NA","TYPE_3": "Ward","ENGTYPE_3": "Ward","CC_3": "NA","HASC_3": "NA","name": "Ward13.city","area_km2": 106.15798,"hist_schema_id": "Elevation0-9000","hist_area_km2": {"1000": 3.74362,"1025": 18.24403,"1050": 31.0238,"1075": 34.53668,"1100": 16.74682,"1125": 1.36754,"1150": 0.37657,"1175": 0.07928,"1200": 0.03964}}}