{"type": "Feature","bbox": [32.621,-16.7417,32.7551,-16.5745],"geometry": {"type": "MultiPolygon","coordinates": [[[[32.6561,-16.5745,560.8964],[32.6562,-16.5935,618.1067],[32.6354,-16.5951,627.3043],[32.6249,-16.6,687.4584],[32.621,-16.6037,788.5548],[32.6236,-16.6104,676.4402],[32.6317,-16.6194,654.5753],[32.6262,-16.6271,636.9525],[32.6252,-16.6401,656.026],[32.638,-16.6539,627.1794],[32.6395,-16.6583,640.0802],[32.6348,-16.67,569.0428],[32.6357,-16.6747,591.9918],[32.6293,-16.6811,548.1968],[32.6369,-16.6926,519.6209],[32.6305,-16.7021,504.5523],[32.6378,-16.7092,511.0138],[32.6318,-16.711,513.7897],[32.6312,-16.7134,488.9163],[32.6337,-16.7159,483.6718],[32.6335,-16.7196,470.5092],[32.6384,-16.7196,468.88],[32.6382,-16.7265,460.0787],[32.6453,-16.7223,473.0347],[32.6555,-16.7226,459.3993],[32.6622,-16.73,438.5632],[32.6801,-16.7413,429.5853],[32.6834,-16.7417,430.4912],[32.6967,-16.7378,432.2402],[32.7091,-16.729,490.286],[32.7202,-16.7284,449.191],[32.7328,-16.7241,418.1073],[32.7482,-16.713,405.9127],[32.7486,-16.7099,418.392],[32.7551,-16.7035,410.0573],[32.7092,-16.6855,875.5724],[32.7035,-16.6798,1061.0908],[32.7023,-16.6751,1037.6747],[32.712,-16.6025,709.1843],[32.7092,-16.6,755.2076],[32.6561,-16.5745,560.8964]]]]}
,"properties": {"GID_3": "ZWE.4.9.1_2","GID_0": "ZWE","country": "Zimbabwe","GID_1": "ZWE.4_1","province": "MashonalandCentral","NL_NAME_1": "NA","GID_2": "ZWE.4.9_2","county": "Rushinga","NL_NAME_2": "NA","city": "Ward1","VARNAME_3": "NA","NL_NAME_3": "NA","TYPE_3": "Ward","ENGTYPE_3": "Ward","CC_3": "NA","HASC_3": "NA","name": "Ward1.city","area_km2": 143.3605,"hist_schema_id": "Elevation0-9000","hist_area_km2": {"400": 0.1421,"425": 2.8023,"450": 6.2137,"475": 7.5134,"500": 6.0311,"525": 6.8436,"550": 7.311,"575": 10.2367,"600": 14.3004,"625": 12.1675,"650": 20.7,"675": 21.1072,"700": 7.4148,"725": 4.3879,"750": 3.1894,"775": 2.2751,"800": 1.7063,"825": 1.7875,"850": 1.6655,"875": 1.0765,"900": 0.9749,"925": 1.0561,"950": 0.7718,"975": 0.4671,"1000": 0.325,"1025": 0.4062,"1050": 0.2437,"1075": 0.2437}}}