{"type": "Feature","bbox": [31.5791,-20.6245,31.7199,-20.5123],"geometry": {"type": "MultiPolygon","coordinates": [[[[31.7078,-20.5215,610.0091],[31.7026,-20.5236,625.0764],[31.669,-20.5184,688.0167],[31.6546,-20.5198,749.784],[31.6434,-20.5231,836.0886],[31.6154,-20.5229,782.3726],[31.6083,-20.5198,675.343],[31.6023,-20.5123,597.5675],[31.5842,-20.5124,550.2325],[31.5802,-20.5195,564.4672],[31.5791,-20.5248,551.1611],[31.5822,-20.539,541.696],[31.5882,-20.5465,540.5073],[31.5932,-20.5607,529.0],[31.5995,-20.5665,529.0],[31.597,-20.5801,529.0],[31.6022,-20.6021,529.0],[31.6052,-20.6128,529.0],[31.6142,-20.6245,619.9373],[31.6332,-20.6027,594.2492],[31.6585,-20.6027,537.7675],[31.6602,-20.5992,543.9667],[31.6686,-20.5978,563.1558],[31.6722,-20.5929,560.8798],[31.6675,-20.5861,576.3124],[31.6707,-20.5812,569.7573],[31.6812,-20.576,582.2921],[31.6861,-20.5652,590.178],[31.6934,-20.5562,628.439],[31.7199,-20.5503,580.6753],[31.7156,-20.5315,582.8457],[31.7091,-20.5293,599.4851],[31.7078,-20.5215,610.0091]]]]}
,"properties": {"GID_3": "ZWE.7.9.25_2","GID_0": "ZWE","country": "Zimbabwe","GID_1": "ZWE.7_1","province": "Masvingo","NL_NAME_1": "NA","GID_2": "ZWE.7.9_2","county": "Zaka","NL_NAME_2": "NA","city": "Ward31","VARNAME_3": "NA","NL_NAME_3": "NA","TYPE_3": "Ward","ENGTYPE_3": "Ward","CC_3": "NA","HASC_3": "NA","name": "Ward31.city","area_km2": 101.22577,"hist_schema_id": "Elevation0-9000","hist_area_km2": {"525": 7.18496,"550": 14.35154,"575": 19.93017,"600": 20.34812,"625": 8.17948,"650": 6.88937,"675": 5.36067,"700": 4.58647,"725": 4.46738,"750": 3.57393,"775": 2.16421,"800": 2.06493,"825": 1.27075,"850": 0.57581,"875": 0.23827,"900": 0.03971}}}