{"type": "Feature","bbox": [31.0559,-18.0243,31.0724,-18.0073],"geometry": {"type": "MultiPolygon","coordinates": [[[[31.0591,-18.0137,1422.2839],[31.0559,-18.0228,1410.4929],[31.0578,-18.0243,1403.3451],[31.0632,-18.023,1414.5339],[31.0724,-18.0146,1425.2576],[31.0613,-18.0073,1430.0105],[31.0591,-18.0137,1422.2839]]]]}
,"properties": {"GID_3": "ZWE.2.1.5_2","GID_0": "ZWE","country": "Zimbabwe","GID_1": "ZWE.2_1","province": "Harare","NL_NAME_1": "NA","GID_2": "ZWE.2.1_2","county": "Chitungwiza","NL_NAME_2": "NA","city": "Ward13","VARNAME_3": "NA","NL_NAME_3": "NA","TYPE_3": "Ward","ENGTYPE_3": "Ward","CC_3": "NA","HASC_3": "NA","name": "Ward13.city","area_km2": 1.69366,"hist_schema_id": "Elevation0-9000","hist_area_km2": {"1400": 0.262106,"1425": 1.431554}}}