{"type": "Feature","bbox": [32.9101,-19.7183,32.9808,-19.6546],"geometry": {"type": "MultiPolygon","coordinates": [[[[32.9559,-19.7156,1129.1638],[32.9561,-19.7106,1317.5525],[32.9793,-19.6917,1486.1726],[32.9808,-19.685,1485.6143],[32.9784,-19.6724,1439.8296],[32.9727,-19.6583,1456.7961],[32.9688,-19.6549,1462.5557],[32.9627,-19.6546,1501.6915],[32.9362,-19.672,1690.0964],[32.9245,-19.6745,1453.6692],[32.9165,-19.6789,1541.2407],[32.9101,-19.6797,1554.219],[32.913,-19.7106,1168.9291],[32.9269,-19.712,1111.167],[32.9294,-19.715,1092.5077],[32.9393,-19.7147,1068.3342],[32.953,-19.7183,1038.2446],[32.9559,-19.7156,1129.1638]]]]}
,"properties": {"GID_3": "ZWE.3.2.2_2","GID_0": "ZWE","country": "Zimbabwe","GID_1": "ZWE.3_1","province": "Manicaland","NL_NAME_1": "NA","GID_2": "ZWE.3.2_2","county": "Chimanimani","NL_NAME_2": "NA","city": "Ward10","VARNAME_3": "NA","NL_NAME_3": "NA","TYPE_3": "Ward","ENGTYPE_3": "Ward","CC_3": "NA","HASC_3": "NA","name": "Ward10.city","area_km2": 33.79694,"hist_schema_id": "Elevation0-9000","hist_area_km2": {"1050": 0.05988,"1075": 0.27943,"1100": 0.59879,"1125": 0.61876,"1150": 0.95809,"1175": 0.81838,"1200": 1.03796,"1225": 1.37731,"1250": 1.53702,"1275": 2.03607,"1300": 1.69678,"1325": 2.87465,"1350": 2.81481,"1375": 2.11611,"1400": 2.17607,"1425": 2.49548,"1450": 1.99642,"1475": 1.63704,"1500": 1.29767,"1525": 0.89837,"1550": 0.83846,"1575": 0.87839,"1600": 0.4392,"1625": 0.75862,"1650": 0.59891,"1675": 0.39928,"1700": 0.31943,"1725": 0.23957}}}