{"type": "Feature","bbox": [30.956,-16.7754,31.1281,-16.6553],"geometry": {"type": "MultiPolygon","coordinates": [[[[30.9687,-16.6573,1678.3492],[30.9799,-16.6766,1589.819],[30.9744,-16.6952,1614.1482],[30.9643,-16.7079,1563.54],[30.956,-16.7507,1585.8188],[30.9961,-16.7505,1395.2218],[31.0408,-16.7616,1152.7147],[31.0407,-16.7573,1158.1594],[31.0458,-16.7521,1148.9615],[31.0458,-16.7483,1170.1112],[31.0477,-16.7463,1145.399],[31.047,-16.7438,1165.9316],[31.0484,-16.7435,1137.4633],[31.0474,-16.7407,1186.9561],[31.0492,-16.7404,1139.7281],[31.0863,-16.7754,1220.1593],[31.1236,-16.7522,1182.1707],[31.1281,-16.7471,1202.7124],[31.1215,-16.7421,1210.7379],[31.1186,-16.7455,1197.431],[31.1025,-16.7281,1264.6642],[31.0594,-16.6947,1106.1222],[31.0584,-16.692,1090.0244],[31.0613,-16.6885,1091.4175],[31.066,-16.6865,1086.5483],[31.0649,-16.6833,1091.0592],[31.07,-16.6785,1083.5],[31.0708,-16.6743,1083.5],[31.0281,-16.6577,1226.3326],[30.9858,-16.6553,1348.9927],[30.9687,-16.6573,1678.3492]]]]}
,"properties": {"GID_3": "ZWE.4.3.5_2","GID_0": "ZWE","country": "Zimbabwe","GID_1": "ZWE.4_1","province": "MashonalandCentral","NL_NAME_1": "NA","GID_2": "ZWE.4.3_2","county": "Centenary/Muzarabani","NL_NAME_2": "NA","city": "Ward13","VARNAME_3": "NA","NL_NAME_3": "NA","TYPE_3": "Ward","ENGTYPE_3": "Ward","CC_3": "NA","HASC_3": "NA","name": "Ward13.city","area_km2": 136.1539,"hist_schema_id": "Elevation0-9000","hist_area_km2": {"1075": 0.0812,"1100": 2.8839,"1125": 10.5198,"1150": 13.7281,"1175": 15.3934,"1200": 18.9668,"1225": 18.904,"1250": 17.4616,"1275": 9.4819,"1300": 5.6244,"1325": 4.0205,"1350": 3.6754,"1375": 3.1068,"1400": 2.5383,"1425": 2.1728,"1450": 1.6043,"1475": 1.5027,"1500": 1.3808,"1525": 0.9747,"1550": 0.6701,"1575": 0.4671,"1600": 0.3655,"1625": 0.264,"1650": 0.3046,"1675": 0.0609}}}