{"type":"Feature","properties":{"GID_3":"ZWE.7.2.24_2","GID_0":"ZWE","country":"Zimbabwe","GID_1":"ZWE.7_1","province":"Masvingo","NL_NAME_1":"NA","GID_2":"ZWE.7.2_2","county":"Chiredzi","NL_NAME_2":"NA","city":"Ward30","VARNAME_3":"NA","NL_NAME_3":"NA","TYPE_3":"Ward","ENGTYPE_3":"Ward","CC_3":"NA","HASC_3":"NA","name":"Ward30.city"},
"geometry":{"type": "MultiPolygon","coordinates": [[[[31.4976,-21.1467,343.1037],[31.4989,-21.1501,329.9025],[31.5147,-21.1537,333.7852],[31.5402,-21.1736,318.6691],[31.5522,-21.174,326.1998],[31.568,-21.1671,318.257],[31.5743,-21.1708,313.8265],[31.5783,-21.1649,331.0844],[31.5962,-21.1618,356.6],[31.6026,-21.1624,362.496],[31.6089,-21.1673,363.588],[31.6152,-21.1695,364.1962],[31.6308,-21.1605,369.7218],[31.6442,-21.1492,371.7605],[31.6432,-21.1341,377.9037],[31.6508,-21.1006,390.015],[31.6463,-21.0919,397.7485],[31.6473,-21.0768,400.4362],[31.6439,-21.0703,406.3563],[31.637,-21.0718,405.1829],[31.626,-21.0788,396.583],[31.6167,-21.0814,386.9563],[31.604,-21.0813,385.2759],[31.5886,-21.0649,398.9323],[31.5934,-21.0504,408.3482],[31.5984,-21.0438,414.0594],[31.6009,-21.0343,419.7519],[31.5415,-21.0462,405.4066],[31.5339,-21.0576,403.0251],[31.4992,-21.1308,373.0904],[31.4974,-21.1365,368.1062],[31.4976,-21.1467,343.1037]]]]}}