{"type":"Feature","properties":{"GID_3":"ZWE.3.8.1_2","GID_0":"ZWE","country":"Zimbabwe","GID_1":"ZWE.3_1","province":"Manicaland","NL_NAME_1":"NA","GID_2":"ZWE.3.8_2","county":"Mutasa","NL_NAME_2":"NA","city":"Ward1","VARNAME_3":"NA","NL_NAME_3":"NA","TYPE_3":"Ward","ENGTYPE_3":"Ward","CC_3":"NA","HASC_3":"NA","name":"Ward1.city"},
"geometry":{"type": "MultiPolygon","coordinates": [[[[33.0003,-18.2952,668.7571],[32.9885,-18.2964,688.9586],[32.9886,-18.3404,873.6801],[32.9607,-18.3522,714.2172],[32.9601,-18.3563,686.2683],[32.9572,-18.3574,751.5764],[32.9563,-18.3597,681.5928],[32.959,-18.3646,687.6919],[32.9569,-18.3652,687.348],[32.958,-18.369,688.9524],[32.956,-18.373,678.0583],[32.9584,-18.3751,689.1248],[32.9705,-18.3774,726.1138],[32.9702,-18.3873,682.8232],[32.968,-18.3891,688.6271],[32.9687,-18.3925,673.7927],[32.9726,-18.3929,686.1669],[32.9719,-18.3977,671.181],[32.973,-18.3987,657.3225],[32.978,-18.396,677.0212],[32.9825,-18.3973,654.4753],[32.9846,-18.4096,633.8816],[32.9909,-18.4099,633.9844],[32.9931,-18.4077,640.0529],[33.0095,-18.4057,622.6726],[33.0117,-18.4028,625.5122],[33.0187,-18.4043,616.5983],[33.02,-18.4031,613.8489],[33.019,-18.3979,633.2738],[33.0227,-18.3917,607.2166],[33.0239,-18.3839,624.66],[33.0256,-18.3838,624.66],[33.0275,-18.3866,641.2732],[33.026,-18.3895,630.8703],[33.0358,-18.382,598.6665],[33.0352,-18.3802,596.4553],[33.0278,-18.3833,613.045],[33.0286,-18.3756,611.6916],[33.0254,-18.3766,604.2668],[33.0202,-18.3711,606.976],[33.0199,-18.3679,615.9509],[33.0161,-18.3678,629.9494],[33.016,-18.3642,635.2795],[33.0135,-18.3642,611.0424],[33.0128,-18.3611,625.302],[33.0157,-18.3592,633.4902],[33.014,-18.3518,631.2745],[33.0163,-18.3447,627.2844],[33.0142,-18.3463,638.9075],[33.0114,-18.345,623.1248],[33.0147,-18.3393,665.6736],[33.0153,-18.3329,636.6356],[33.0124,-18.333,651.9225],[33.0143,-18.3303,632.3447],[33.0109,-18.3235,647.8239],[33.012,-18.3207,641.2439],[33.0093,-18.3196,640.1814],[33.0077,-18.312,644.5778],[33.0021,-18.3048,677.3198],[33.0003,-18.2952,668.7571]]]]}}