{"type": "Feature","bbox": [31.8228,-16.4606,32.0275,-16.3203],"geometry": {"type": "MultiPolygon","coordinates": [[[[31.9437,-16.42,632.681],[31.9135,-16.4129,625.8593],[31.9058,-16.392,601.2559],[31.9081,-16.3907,595.5986],[31.9075,-16.3888,597.1857],[31.9092,-16.3885,593.4327],[31.91,-16.3738,581.7057],[31.9098,-16.3718,580.2626],[31.9055,-16.3676,577.88],[31.9022,-16.3476,562.9808],[31.8938,-16.3365,551.7061],[31.8834,-16.3329,545.3984],[31.8728,-16.3259,540.1868],[31.8628,-16.3241,535.1646],[31.8591,-16.3203,533.629],[31.8583,-16.3259,535.6622],[31.8626,-16.3291,538.0054],[31.8544,-16.3424,546.1918],[31.8572,-16.3549,558.1598],[31.8558,-16.3648,560.0165],[31.8524,-16.3722,563.9229],[31.8528,-16.3794,568.1959],[31.8499,-16.3877,574.8447],[31.8423,-16.3929,591.0553],[31.8356,-16.4024,684.7812],[31.8369,-16.4191,789.644],[31.829,-16.4297,816.7705],[31.8228,-16.4459,1127.4261],[31.8254,-16.4588,994.9565],[31.8376,-16.4606,880.5409],[31.8498,-16.4587,810.2988],[31.8611,-16.4533,778.4041],[31.8743,-16.4522,797.7297],[31.9078,-16.4527,767.7946],[31.9163,-16.4497,716.5718],[31.9211,-16.4463,700.5492],[31.9368,-16.4457,754.2206],[31.9707,-16.4399,685.1455],[32.0011,-16.4386,885.858],[32.0275,-16.4396,1026.7427],[31.9437,-16.42,632.681]]]]}
,"properties": {"GID_3": "ZWE.4.7.27_2","GID_0": "ZWE","country": "Zimbabwe","GID_1": "ZWE.4_1","province": "MashonalandCentral","NL_NAME_1": "NA","GID_2": "ZWE.4.7_2","county": "MountDarwin","NL_NAME_2": "NA","city": "Ward33","VARNAME_3": "NA","NL_NAME_3": "NA","TYPE_3": "Ward","ENGTYPE_3": "Ward","CC_3": "NA","HASC_3": "NA","name": "Ward33.city","area_km2": 117.61931,"hist_schema_id": "Elevation0-9000","hist_area_km2": {"525": 0.3866,"550": 13.14307,"575": 17.8404,"600": 13.13988,"625": 9.68111,"650": 7.62644,"675": 10.22924,"700": 9.00885,"725": 6.58882,"750": 5.65341,"775": 6.77186,"800": 6.16178,"825": 3.37579,"850": 1.76922,"875": 1.17947,"900": 0.83378,"925": 0.52874,"950": 0.50837,"975": 0.36602,"1000": 0.32535,"1025": 0.18301,"1050": 0.26434,"1075": 0.26435,"1100": 0.28468,"1125": 0.28468,"1150": 0.32535,"1175": 0.12201,"1200": 0.24401,"1225": 0.16267,"1250": 0.122,"1275": 0.14234,"1300": 0.10167}}}