{"type": "Feature","bbox": [29.4526,-21.5919,29.7717,-21.454],"geometry": {"type": "MultiPolygon","coordinates": [[[[29.4967,-21.5919,612.729],[29.4986,-21.591,614.7656],[29.5054,-21.5781,634.0443],[29.5107,-21.5758,642.0951],[29.5342,-21.5768,665.0847],[29.5476,-21.5733,681.3958],[29.5538,-21.5741,685.7428],[29.567,-21.5593,683.6219],[29.5751,-21.5539,682.3975],[29.5833,-21.5528,674.2067],[29.5916,-21.5553,666.4355],[29.5922,-21.5486,670.6711],[29.5957,-21.5424,672.9209],[29.593,-21.5319,687.0864],[29.6048,-21.5284,683.9684],[29.6166,-21.5284,675.9],[29.6344,-21.5334,659.5995],[29.6419,-21.5324,665.4949],[29.663,-21.5343,664.0533],[29.6986,-21.5389,649.4661],[29.7069,-21.5416,646.6515],[29.7291,-21.5321,665.5644],[29.7435,-21.5299,677.8152],[29.7494,-21.531,684.0374],[29.7598,-21.528,697.5492],[29.7643,-21.529,707.0621],[29.7717,-21.5274,715.7528],[29.7656,-21.5129,695.3658],[29.752,-21.4913,686.7186],[29.4959,-21.454,714.056],[29.5198,-21.5147,681.0867],[29.4671,-21.5332,657.063],[29.4526,-21.5399,633.0493],[29.4692,-21.547,633.5112],[29.4793,-21.5553,628.8553],[29.4791,-21.5612,629.5381],[29.4701,-21.5674,621.4655],[29.471,-21.5721,624.0959],[29.4784,-21.5797,622.0049],[29.4902,-21.5851,622.4525],[29.4967,-21.5919,612.729]]]]}
,"properties": {"GID_3": "ZWE.9.1.4_2","GID_0": "ZWE","country": "Zimbabwe","GID_1": "ZWE.9_1","province": "MatabelelandSouth","NL_NAME_1": "NA","GID_2": "ZWE.9.1_2","county": "Beitbridge","NL_NAME_2": "NA","city": "Ward12","VARNAME_3": "NA","NL_NAME_3": "NA","TYPE_3": "Ward","ENGTYPE_3": "Ward","CC_3": "NA","HASC_3": "NA","name": "Ward12.city","area_km2": 231.8457,"hist_schema_id": "Elevation0-9000","hist_area_km2": {"600": 0.1577,"625": 5.9548,"650": 35.478,"675": 94.3605,"700": 71.3308,"725": 24.5639}}}