{"type": "Feature","bbox": [27.5971,-20.0862,27.8118,-19.9327],"geometry": {"type": "MultiPolygon","coordinates": [[[[27.5971,-19.9841,1099.7448],[27.6099,-19.9981,1105.8275],[27.6221,-20.0026,1108.2048],[27.634,-20.0115,1107.1327],[27.6443,-20.015,1112.2371],[27.6489,-20.0208,1114.7524],[27.6521,-20.032,1116.1506],[27.6617,-20.0423,1118.1285],[27.6828,-20.0506,1121.7031],[27.6891,-20.0617,1124.48],[27.6956,-20.0656,1130.1471],[27.6995,-20.0712,1130.089],[27.7094,-20.0746,1130.4742],[27.7187,-20.0828,1137.8942],[27.7251,-20.0862,1142.1353],[27.727,-20.0832,1148.2344],[27.7485,-20.0673,1182.1824],[27.7699,-20.0617,1212.4972],[27.7811,-20.053,1209.7991],[27.7904,-20.036,1201.6204],[27.7957,-20.0304,1202.8251],[27.8055,-20.0291,1205.7764],[27.8108,-20.024,1205.4738],[27.8118,-20.0185,1203.8455],[27.8088,-20.0028,1197.282],[27.7964,-19.9916,1188.3308],[27.7871,-19.9762,1182.9937],[27.7667,-19.9748,1171.7395],[27.763,-19.97,1170.0032],[27.7614,-19.9646,1167.4146],[27.7511,-19.9626,1162.1101],[27.7115,-19.9475,1144.9005],[27.7059,-19.9472,1141.8771],[27.6943,-19.939,1139.1083],[27.6679,-19.9337,1127.7782],[27.6579,-19.9327,1124.7183],[27.6427,-19.9395,1118.7327],[27.6373,-19.9515,1123.4053],[27.6293,-19.9542,1123.9521],[27.6274,-19.9562,1125.2642],[27.6183,-19.9528,1122.8865],[27.6192,-19.9581,1127.3704],[27.618,-19.9608,1127.2435],[27.6107,-19.9649,1128.0881],[27.5971,-19.9841,1099.7448]]]]}
,"properties": {"GID_3": "ZWE.8.7.8_2","GID_0": "ZWE","country": "Zimbabwe","GID_1": "ZWE.8_1","province": "MatabelelandNorth","NL_NAME_1": "NA","GID_2": "ZWE.8.7_2","county": "Tsholotsho","NL_NAME_2": "NA","city": "Ward16","VARNAME_3": "NA","NL_NAME_3": "NA","TYPE_3": "Ward","ENGTYPE_3": "Ward","CC_3": "NA","HASC_3": "NA","name": "Ward16.city","area_km2": 215.1098,"hist_schema_id": "Elevation0-9000","hist_area_km2": {"1100": 7.372,"1125": 45.4905,"1150": 87.4448,"1175": 49.2459,"1200": 25.5168,"1225": 0.0398}}}