{"type":"Feature","properties":{"GID_3":"ZWE.2.3.9_2","GID_0":"ZWE","country":"Zimbabwe","GID_1":"ZWE.2_1","province":"Harare","NL_NAME_1":"NA","GID_2":"ZWE.2.3_2","county":"Harare","NL_NAME_2":"NA","city":"Ward18","VARNAME_3":"NA","NL_NAME_3":"NA","TYPE_3":"Ward","ENGTYPE_3":"Ward","CC_3":"NA","HASC_3":"NA","name":"Ward18.city"},
"geometry":{"type": "MultiPolygon","coordinates": [[[[31.0889,-17.7741,1532.6888],[31.1009,-17.7684,1513.7249],[31.1056,-17.7695,1508.1091],[31.109,-17.7667,1498.4093],[31.119,-17.7637,1477.046],[31.1202,-17.7688,1468.6224],[31.1244,-17.771,1472.4493],[31.1383,-17.7628,1513.6862],[31.1445,-17.7678,1480.9633],[31.1515,-17.7605,1475.5],[31.1525,-17.757,1480.1494],[31.167,-17.7552,1464.9536],[31.1795,-17.7515,1436.1963],[31.1827,-17.7491,1422.5586],[31.1882,-17.7535,1458.9495],[31.1963,-17.7532,1408.4546],[31.1959,-17.7494,1376.8683],[31.2021,-17.7425,1378.5558],[31.2015,-17.7296,1438.3167],[31.2098,-17.7265,1377.7804],[31.2054,-17.7119,1350.6512],[31.2004,-17.7121,1335.4559],[31.1973,-17.716,1343.1226],[31.1973,-17.7186,1350.2208],[31.1892,-17.7052,1416.9297],[31.1812,-17.6962,1540.6139],[31.1725,-17.6996,1554.8412],[31.1638,-17.696,1515.8384],[31.1599,-17.7041,1458.9397],[31.1572,-17.7037,1445.8792],[31.1544,-17.7015,1451.5972],[31.1578,-17.6996,1451.2198],[31.1591,-17.6965,1481.8741],[31.1516,-17.6933,1464.6204],[31.1504,-17.6882,1474.0419],[31.147,-17.6862,1493.4017],[31.1439,-17.6893,1479.8625],[31.1462,-17.6916,1489.1633],[31.1458,-17.6941,1474.6943],[31.1481,-17.6955,1452.8174],[31.1483,-17.7007,1442.7612],[31.1379,-17.6977,1526.5615],[31.1388,-17.6925,1510.2828],[31.1221,-17.6913,1556.5187],[31.1162,-17.6936,1567.387],[31.113,-17.7019,1560.9854],[31.0996,-17.7205,1523.6682],[31.0938,-17.7333,1510.2924],[31.0877,-17.7382,1506.1738],[31.0838,-17.7388,1505.5308],[31.0858,-17.7501,1524.8582],[31.0872,-17.7519,1527.5161],[31.0922,-17.7519,1528.8389],[31.0892,-17.7569,1534.0919],[31.0927,-17.7576,1525.5157],[31.0939,-17.7659,1539.719],[31.0883,-17.7673,1537.5038],[31.0889,-17.7741,1532.6888]]]]}}