{"type": "Feature","bbox": [31.9051,-17.1903,32.0888,-17.0439],"geometry": {"type": "MultiPolygon","coordinates": [[[[32.0888,-17.0601,703.3585],[32.0834,-17.058,778.8766],[32.0763,-17.0468,828.9066],[32.0656,-17.0439,822.7267],[32.0562,-17.0495,891.6614],[32.0498,-17.0512,874.6887],[32.0438,-17.0562,921.8618],[32.0126,-17.0559,829.4645],[31.9845,-17.0494,830.5762],[31.9736,-17.0484,839.4051],[31.9742,-17.0551,834.5591],[31.9797,-17.0609,886.6286],[31.9773,-17.0793,885.9953],[31.9782,-17.0857,907.8976],[31.9686,-17.0988,1062.1401],[31.9649,-17.1126,980.9774],[31.9656,-17.119,973.7518],[31.9547,-17.1246,982.0792],[31.953,-17.1275,964.2999],[31.9461,-17.1314,1000.3166],[31.9438,-17.137,920.3304],[31.9304,-17.1416,1121.5393],[31.9226,-17.1461,1035.4142],[31.9212,-17.1484,1025.4766],[31.9218,-17.1557,1060.0515],[31.9076,-17.1646,944.969],[31.9051,-17.1676,1023.2554],[31.9052,-17.1703,1052.8169],[31.9079,-17.1732,958.2167],[31.9125,-17.1729,869.3742],[31.9141,-17.1772,880.9098],[31.924,-17.1817,1069.0262],[31.9634,-17.187,1059.0339],[31.9679,-17.1858,1145.7747],[31.9779,-17.1903,989.9105],[31.9952,-17.1885,910.2294],[31.9971,-17.1897,840.7731],[32.0126,-17.1898,830.8726],[32.0388,-17.1866,763.8163],[32.0461,-17.1719,744.3894],[32.0491,-17.1614,749.5437],[32.0538,-17.1556,743.488],[32.059,-17.1448,744.0165],[32.0614,-17.1354,728.1581],[32.0687,-17.1217,744.744],[32.0754,-17.1139,718.3808],[32.0754,-17.1081,718.209],[32.0812,-17.092,734.9324],[32.0875,-17.0877,750.339],[32.0845,-17.0753,706.3715],[32.0888,-17.0601,703.3585]]]]}
,"properties": {"GID_3": "ZWE.5.11.14_2","GID_0": "ZWE","country": "Zimbabwe","GID_1": "ZWE.5_1","province": "MashonalandEast","NL_NAME_1": "NA","GID_2": "ZWE.5.11_2","county": "UzumbaMarambaPfungwe","NL_NAME_2": "NA","city": "Ward6","VARNAME_3": "NA","NL_NAME_3": "NA","TYPE_3": "Ward","ENGTYPE_3": "Ward","CC_3": "NA","HASC_3": "NA","name": "Ward6.city","area_km2": 187.9951,"hist_schema_id": "Elevation0-9000","hist_area_km2": {"700": 0.4053,"725": 1.9252,"750": 4.3769,"775": 4.0727,"800": 5.3698,"825": 12.0561,"850": 19.5937,"875": 22.066,"900": 18.2573,"925": 17.3048,"950": 15.258,"975": 18.7631,"1000": 13.4136,"1025": 10.5363,"1050": 7.3346,"1075": 6.5037,"1100": 4.4777,"1125": 2.3907,"1150": 1.6004,"1175": 0.4862,"1200": 0.5267,"1225": 0.6482,"1250": 0.2836,"1275": 0.1418,"1300": 0.1621,"1325": 0.0405}}}