{"type": "Feature","bbox": [30.6556,-18.6052,30.7667,-18.506],"geometry": {"type": "MultiPolygon","coordinates": [[[[30.7652,-18.506,1346.3613],[30.7538,-18.5268,1330.6028],[30.7482,-18.5309,1345.5206],[30.747,-18.5359,1342.2976],[30.7373,-18.5537,1359.8708],[30.7338,-18.5558,1357.1],[30.727,-18.5548,1337.3115],[30.7219,-18.5509,1343.4457],[30.7126,-18.5499,1325.9004],[30.7046,-18.5513,1313.5945],[30.6909,-18.5488,1305.8672],[30.6865,-18.546,1306.9786],[30.6721,-18.543,1291.9025],[30.6632,-18.5393,1290.6733],[30.6599,-18.5392,1287.7476],[30.6559,-18.5419,1285.5227],[30.6556,-18.5442,1286.3352],[30.658,-18.5466,1291.4335],[30.6583,-18.556,1298.0769],[30.6628,-18.561,1305.1835],[30.6685,-18.5643,1309.7549],[30.6764,-18.5734,1326.7285],[30.678,-18.5836,1343.1968],[30.6978,-18.6052,1315.2849],[30.7048,-18.5948,1320.6095],[30.7071,-18.5952,1321.0309],[30.7053,-18.5997,1316.7422],[30.7073,-18.5998,1317.795],[30.7149,-18.5952,1322.8269],[30.7207,-18.5938,1326.4354],[30.7269,-18.5925,1330.4668],[30.7349,-18.5934,1334.8262],[30.742,-18.5903,1343.3589],[30.7463,-18.5911,1360.7441],[30.7662,-18.5707,1402.4008],[30.7667,-18.5327,1339.4707],[30.7652,-18.506,1346.3613]]]]}
,"properties": {"GID_3": "ZWE.6.10.1_2","GID_0": "ZWE","country": "Zimbabwe","GID_1": "ZWE.6_1","province": "MashonalandWest","NL_NAME_1": "NA","GID_2": "ZWE.6.10_2","county": "Mhondoro-Ngezi","NL_NAME_2": "NA","city": "Ward1","VARNAME_3": "NA","NL_NAME_3": "NA","TYPE_3": "Ward","ENGTYPE_3": "Ward","CC_3": "NA","HASC_3": "NA","name": "Ward1.city","area_km2": 55.73431,"hist_schema_id": "Elevation0-9000","hist_area_km2": {"1275": 0.20102,"1300": 7.07537,"1325": 19.69638,"1350": 20.78226,"1375": 7.31606,"1400": 0.34166,"1425": 0.22107,"1450": 0.08039,"1475": 0.0201}}}