{"type":"Feature","properties":{"GID_3":"ZWE.8.7.21_2","GID_0":"ZWE","country":"Zimbabwe","GID_1":"ZWE.8_1","province":"MatabelelandNorth","NL_NAME_1":"NA","GID_2":"ZWE.8.7_2","county":"Tsholotsho","NL_NAME_2":"NA","city":"Ward8","VARNAME_3":"NA","NL_NAME_3":"NA","TYPE_3":"Ward","ENGTYPE_3":"Ward","CC_3":"NA","HASC_3":"NA","name":"Ward8.city"},
"geometry":{"type": "MultiPolygon","coordinates": [[[[27.1542,-19.5639,997.9913],[27.1536,-19.581,1000.3751],[27.1572,-19.5849,1004.0099],[27.1545,-19.5896,1000.7513],[27.1632,-19.5936,1003.058],[27.1684,-19.6068,1003.2749],[27.1768,-19.6206,1006.7539],[27.1847,-19.6252,1007.7402],[27.1874,-19.6345,1008.2624],[27.205,-19.6596,1012.7616],[27.2071,-19.6689,1015.2045],[27.2006,-19.6885,1015.9896],[27.1939,-19.698,1017.7888],[27.1905,-19.7074,1020.3555],[27.1949,-19.7249,1018.7741],[27.1963,-19.748,1021.6027],[27.1794,-19.7816,1022.6462],[27.1728,-19.7866,1021.3115],[27.1542,-19.7876,1019.1829],[27.1481,-19.7912,1016.3501],[27.1342,-19.7958,1014.9093],[27.1394,-19.7964,1019.5668],[27.1535,-19.8028,1019.2129],[27.163,-19.8052,1020.1245],[27.1765,-19.8037,1022.3857],[27.1813,-19.8057,1021.1735],[27.1836,-19.8123,1023.9418],[27.1909,-19.8139,1022.4099],[27.1939,-19.8167,1026.8156],[27.2043,-19.8152,1027.8289],[27.2202,-19.8096,1026.8062],[27.3066,-19.7561,1042.8057],[27.3366,-19.769,1047.407],[27.3564,-19.7679,1048.1084],[27.3657,-19.7713,1050.1216],[27.4889,-19.7699,1068.3651],[27.5154,-19.7712,1072.7595],[27.5159,-19.7653,1071.1279],[27.5205,-19.7548,1069.6833],[27.5336,-19.7414,1067.9934],[27.5506,-19.7329,1065.6912],[27.5577,-19.7328,1065.2729],[27.5676,-19.7274,1063.0503],[27.5709,-19.7173,1057.2631],[27.5264,-19.7004,1058.8015],[27.5121,-19.687,1053.2622],[27.5053,-19.6863,1048.7889],[27.4993,-19.6883,1048.0024],[27.4965,-19.6864,1052.2754],[27.4445,-19.6708,1048.0312],[27.4211,-19.6596,1045.2394],[27.3643,-19.612,1034.687],[27.3481,-19.6023,1029.9915],[27.3373,-19.6009,1029.1356],[27.2197,-19.5698,1009.2314],[27.1949,-19.5583,1004.704],[27.184,-19.5518,1002.6515],[27.1749,-19.5434,1000.8873],[27.161,-19.5458,997.5991],[27.1542,-19.5639,997.9913]]]]}}