{"type":"Feature","properties":{"GID_3":"ZWE.5.6.12_2","GID_0":"ZWE","country":"Zimbabwe","GID_1":"ZWE.5_1","province":"MashonalandEast","NL_NAME_1":"NA","GID_2":"ZWE.5.6_2","county":"Mudzi","NL_NAME_2":"NA","city":"Ward3","VARNAME_3":"NA","NL_NAME_3":"NA","TYPE_3":"Ward","ENGTYPE_3":"Ward","CC_3":"NA","HASC_3":"NA","name":"Ward3.city"},
"geometry":{"type": "MultiPolygon","coordinates": [[[[32.5195,-16.7777,561.1541],[32.5104,-16.7815,613.9017],[32.4908,-16.7937,568.2735],[32.4699,-16.8109,577.3991],[32.4641,-16.818,537.4265],[32.4525,-16.8256,557.8917],[32.4323,-16.8325,567.8788],[32.4213,-16.8385,566.3717],[32.4213,-16.8422,558.7847],[32.4191,-16.8463,559.6136],[32.4242,-16.8492,576.5546],[32.4226,-16.8537,568.0201],[32.4257,-16.8586,588.1391],[32.4221,-16.8659,590.3035],[32.4196,-16.867,606.8992],[32.4196,-16.8692,607.3034],[32.4239,-16.8729,626.1783],[32.4244,-16.8775,611.4266],[32.43,-16.8855,621.6851],[32.4338,-16.8886,625.4419],[32.443,-16.8876,648.0049],[32.4495,-16.8909,638.2983],[32.4601,-16.9039,645.9186],[32.4583,-16.9092,640.5675],[32.459,-16.9138,640.5913],[32.4671,-16.9227,662.0627],[32.4696,-16.9283,654.8003],[32.4673,-16.9305,661.5032],[32.4694,-16.9381,663.4319],[32.4674,-16.9418,666.4041],[32.4646,-16.942,676.0757],[32.4595,-16.9471,669.8738],[32.46,-16.9501,681.0013],[32.4637,-16.9541,682.1279],[32.4622,-16.965,704.5635],[32.4675,-16.9779,704.4564],[32.4703,-16.9803,707.4795],[32.4701,-16.9891,706.1704],[32.476,-17.0005,715.9609],[32.4834,-17.0053,726.0386],[32.4859,-17.0103,724.0923],[32.4885,-17.0112,729.9053],[32.492,-17.0093,737.4065],[32.4949,-17.0127,736.5272],[32.4916,-17.0181,738.6232],[32.4975,-17.0257,753.8958],[32.4994,-17.0318,761.6895],[32.4984,-17.0349,758.2614],[32.5057,-17.0379,774.6652],[32.5069,-17.0399,767.2587],[32.512,-17.0372,812.8588],[32.5267,-17.0512,877.1525],[32.5266,-17.0479,882.024],[32.5292,-17.046,875.0581],[32.5447,-17.0455,865.1471],[32.5479,-17.0473,836.3959],[32.5512,-17.0469,814.3289],[32.552,-17.0443,810.9217],[32.5623,-17.0359,801.8911],[32.5674,-17.0354,800.2203],[32.5605,-17.0291,813.0641],[32.5601,-17.0196,897.2748],[32.5579,-17.0118,781.0826],[32.5584,-17.0017,752.9766],[32.5556,-17.0013,745.4142],[32.5504,-16.9864,715.3508],[32.5449,-16.9792,705.9975],[32.5415,-16.9715,708.6003],[32.5495,-16.9666,696.7874],[32.5509,-16.9605,685.4627],[32.5535,-16.9573,693.4188],[32.5594,-16.9572,681.2576],[32.5581,-16.9544,682.5664],[32.5618,-16.9525,685.2449],[32.559,-16.9495,682.0594],[32.5574,-16.9412,668.9474],[32.5544,-16.9373,665.9087],[32.5543,-16.9332,665.7681],[32.5569,-16.9292,659.9322],[32.5649,-16.9243,649.793],[32.5683,-16.9188,642.5767],[32.5636,-16.9081,639.0106],[32.566,-16.9052,648.1642],[32.5704,-16.9039,634.8408],[32.5696,-16.8978,630.1796],[32.5717,-16.8923,640.5564],[32.5684,-16.8891,625.6775],[32.5671,-16.8851,647.4448],[32.5627,-16.884,641.8951],[32.561,-16.8854,626.8472],[32.5543,-16.8813,618.3707],[32.547,-16.8708,609.8809],[32.5459,-16.8652,605.1647],[32.5489,-16.8568,611.2879],[32.5414,-16.8482,590.069],[32.5413,-16.8412,588.8317],[32.539,-16.8379,584.7417],[32.5409,-16.8317,596.5086],[32.5438,-16.8288,575.8599],[32.5402,-16.8242,587.2523],[32.5433,-16.8185,570.5284],[32.5336,-16.8096,565.0173],[32.5318,-16.8022,573.5446],[32.5302,-16.8033,568.023],[32.5254,-16.7985,576.0086],[32.5193,-16.7963,561.6641],[32.5191,-16.7948,572.5994],[32.5249,-16.7924,552.913],[32.5246,-16.7901,558.5568],[32.5226,-16.7895,540.9738],[32.5244,-16.7855,556.5],[32.5215,-16.7835,530.802],[32.5234,-16.7805,529.2232],[32.5195,-16.7777,561.1541]]]]}}