{"type":"Feature","properties":{"GID_3":"ZWE.3.10.10_2","GID_0":"ZWE","country":"Zimbabwe","GID_1":"ZWE.3_1","province":"Manicaland","NL_NAME_1":"NA","GID_2":"ZWE.3.10_2","county":"Rusape","NL_NAME_2":"NA","city":"Ward9","VARNAME_3":"NA","NL_NAME_3":"NA","TYPE_3":"Ward","ENGTYPE_3":"Ward","CC_3":"NA","HASC_3":"NA","name":"Ward9.city"},
"geometry":{"type": "MultiPolygon","coordinates": [[[[32.1444,-18.5283,1417.1907],[32.1378,-18.5288,1421.6467],[32.1394,-18.535,1436.8787],[32.1383,-18.535,1435.5289],[32.1384,-18.5384,1431.7495],[32.1406,-18.5384,1429.7166],[32.1415,-18.5435,1417.0138],[32.1313,-18.5497,1398.5662],[32.1624,-18.5619,1473.4116],[32.1522,-18.5429,1441.0469],[32.1444,-18.5283,1417.1907]]]]}}