{"type":"Feature","properties":{"GID_3":"ZWE.4.10.7_2","GID_0":"ZWE","country":"Zimbabwe","GID_1":"ZWE.4_1","province":"MashonalandCentral","NL_NAME_1":"NA","GID_2":"ZWE.4.10_2","county":"Shamva","NL_NAME_2":"NA","city":"Ward15","VARNAME_3":"NA","NL_NAME_3":"NA","TYPE_3":"Ward","ENGTYPE_3":"Ward","CC_3":"NA","HASC_3":"NA","name":"Ward15.city"},
"geometry":{"type": "MultiPolygon","coordinates": [[[[31.4954,-17.2054,1375.3506],[31.535,-17.2111,1230.9631],[31.5358,-17.2095,1196.6233],[31.5336,-17.1802,1164.5338],[31.5394,-17.1113,1009.845],[31.5372,-17.0761,996.5951],[31.5361,-17.0761,996.5951],[31.5361,-17.073,986.8458],[31.5311,-17.0725,1006.4569],[31.532,-17.0747,989.5],[31.5288,-17.0747,989.5],[31.5242,-17.0716,989.5],[31.5216,-17.0742,989.8182],[31.5149,-17.068,996.4229],[31.5192,-17.0773,991.6642],[31.516,-17.0773,989.8657],[31.5091,-17.0825,995.161],[31.5054,-17.082,997.387],[31.5045,-17.086,994.824],[31.4815,-17.0959,1024.5779],[31.4788,-17.0959,1025.9119],[31.4787,-17.0971,1017.0806],[31.4765,-17.0948,1020.6915],[31.4754,-17.0962,1015.6279],[31.4728,-17.0954,1019.2588],[31.4702,-17.0916,1025.5533],[31.4674,-17.0933,1020.1268],[31.463,-17.0925,1029.8884],[31.4586,-17.0945,1038.2947],[31.4541,-17.0936,1039.0577],[31.4537,-17.0954,1027.1674],[31.4453,-17.0951,1043.3359],[31.4432,-17.0971,1040.3406],[31.4387,-17.0924,1049.4497],[31.4345,-17.093,1040.64],[31.4095,-17.1244,1181.8922],[31.4393,-17.1369,1257.6748],[31.4218,-17.1774,1138.8027],[31.4745,-17.1767,1187.7419],[31.4735,-17.2037,1230.9352],[31.4954,-17.2054,1375.3506]]]]}}