{"type": "Feature","bbox": [28.9917,-17.9967,29.1274,-17.8635],"geometry": {"type": "MultiPolygon","coordinates": [[[[28.9949,-17.9071,1105.1105],[28.9982,-17.9124,1015.9945],[29.0118,-17.9078,962.7224],[29.0169,-17.9096,1000.8762],[29.0171,-17.9137,1106.3468],[29.0115,-17.9187,1092.5688],[29.0062,-17.918,1053.1871],[29.0017,-17.9151,1084.6788],[28.9961,-17.9184,1068.998],[28.999,-17.9228,980.0182],[28.9988,-17.9267,1006.4326],[29.0031,-17.9297,1006.6104],[29.0089,-17.9302,966.5702],[29.0147,-17.9343,969.469],[29.0185,-17.9436,1000.0039],[29.0183,-17.9452,1030.3815],[29.0152,-17.9458,1127.293],[29.0041,-17.9397,1113.6976],[29.001,-17.9398,1101.2893],[29.0025,-17.9488,1040.2996],[29.0065,-17.9542,1050.566],[29.0039,-17.9567,1091.0862],[28.9989,-17.9552,1123.9766],[28.9917,-17.9578,1101.7623],[28.992,-17.9606,1051.4729],[28.9999,-17.9597,988.2992],[29.002,-17.9639,953.9488],[28.9934,-17.9728,1103.4502],[28.9989,-17.9723,975.0989],[29.0023,-17.9771,1038.0424],[29.0043,-17.9715,1034.8376],[29.0125,-17.963,975.7667],[29.0187,-17.9632,960.7644],[29.0288,-17.96,931.9917],[29.0315,-17.9622,975.1962],[29.0241,-17.9705,1103.1113],[29.0235,-17.9732,1015.6993],[29.0277,-17.9747,989.6964],[29.0346,-17.9728,934.9573],[29.0318,-17.9781,1088.5413],[29.0243,-17.9839,1111.5659],[29.0201,-17.9853,1096.7222],[29.0159,-17.9895,1112.0754],[29.0105,-17.9903,1099.3019],[29.0128,-17.9926,1039.787],[29.0284,-17.9905,941.9285],[29.0307,-17.9919,974.644],[29.0297,-17.9943,1048.6255],[29.0312,-17.9959,1007.5488],[29.036,-17.9954,905.343],[29.0381,-17.9967,902.5732],[29.0413,-17.9951,899.0888],[29.0422,-17.9924,900.1045],[29.0439,-17.9935,895.9366],[29.0473,-17.9909,893.8336],[29.0493,-17.9916,891.3248],[29.0493,-17.9895,896.9547],[29.0506,-17.9909,892.593],[29.0548,-17.9894,887.0259],[29.0558,-17.9858,893.2206],[29.0572,-17.9868,890.253],[29.0594,-17.9834,888.9308],[29.0609,-17.9849,886.0895],[29.0653,-17.9845,881.6113],[29.0664,-17.9801,883.326],[29.0719,-17.978,877.1841],[29.0712,-17.9764,877.298],[29.073,-17.977,874.5392],[29.071,-17.9747,875.7822],[29.0739,-17.9735,872.2611],[29.0739,-17.971,878.1478],[29.0791,-17.9701,879.9782],[29.0794,-17.9744,871.7181],[29.0844,-17.9734,871.5612],[29.0864,-17.9696,882.9269],[29.088,-17.9721,871.2844],[29.0921,-17.9727,872.8723],[29.0932,-17.9709,878.5855],[29.0971,-17.9703,866.2626],[29.0958,-17.9684,875.4612],[29.0969,-17.9669,878.4039],[29.1039,-17.9675,867.7252],[29.105,-17.9701,873.4216],[29.1024,-17.9702,865.3844],[29.1016,-17.9735,870.8928],[29.1045,-17.9766,863.6349],[29.1088,-17.9778,863.6036],[29.1114,-17.976,862.2939],[29.1133,-17.9704,865.3864],[29.1161,-17.9688,864.9538],[29.1169,-17.9633,866.118],[29.119,-17.9631,863.7209],[29.1199,-17.9596,865.8063],[29.1221,-17.9601,870.3492],[29.1213,-17.9637,864.347],[29.1229,-17.9663,859.4047],[29.1274,-17.968,861.5354],[29.1271,-17.966,864.9673],[29.1242,-17.9643,866.649],[29.127,-17.9616,870.3936],[29.1037,-17.8642,884.2811],[29.0998,-17.8679,885.1157],[29.0941,-17.8697,889.2625],[29.0858,-17.8645,893.8986],[29.0799,-17.8635,896.5871],[29.0726,-17.865,899.4091],[29.0685,-17.8687,903.4081],[29.0627,-17.87,903.5603],[29.0476,-17.8688,913.5322],[29.0406,-17.8707,916.9545],[29.0329,-17.8784,921.887],[29.0179,-17.8809,937.9481],[29.011,-17.8906,960.8179],[28.9985,-17.8978,968.6161],[28.9993,-17.9056,987.5612],[28.9949,-17.9071,1105.1105]]]]}
,"properties": {"GID_3": "ZWE.10.2.3_2","GID_0": "ZWE","country": "Zimbabwe","GID_1": "ZWE.10_1","province": "Midlands","NL_NAME_1": "NA","GID_2": "ZWE.10.2_2","county": "GokweNorth","NL_NAME_2": "NA","city": "Ward11","VARNAME_3": "NA","NL_NAME_3": "NA","TYPE_3": "Ward","ENGTYPE_3": "Ward","CC_3": "NA","HASC_3": "NA","name": "Ward11.city","area_km2": 139.3538,"hist_schema_id": "Elevation0-9000","hist_area_km2": {"850": 0.3832,"875": 37.9838,"900": 53.2972,"925": 29.8371,"950": 8.6342,"975": 3.8934,"1000": 1.412,"1025": 0.8875,"1050": 0.6253,"1075": 0.6656,"1100": 1.0085,"1125": 0.6858,"1150": 0.0403}}}