{"type": "Feature","bbox": [29.0395,-18.8964,29.1623,-18.7993],"geometry": {"type": "MultiPolygon","coordinates": [[[[29.0395,-18.8008,1129.7958],[29.0414,-18.8029,1126.8269],[29.0428,-18.8137,1139.6115],[29.0509,-18.8188,1140.9858],[29.0397,-18.8435,1157.5857],[29.0609,-18.849,1163.8286],[29.0583,-18.8507,1167.1831],[29.0583,-18.8541,1173.7322],[29.0557,-18.8588,1177.7444],[29.0572,-18.8676,1181.799],[29.0599,-18.8693,1184.942],[29.0599,-18.8714,1189.9883],[29.0669,-18.8821,1214.3068],[29.1186,-18.8964,1209.6226],[29.1623,-18.8375,1150.3887],[29.1556,-18.8316,1148.4692],[29.1458,-18.8317,1145.1482],[29.1413,-18.8369,1143.2627],[29.1352,-18.8371,1144.0536],[29.1326,-18.8335,1146.6068],[29.1224,-18.8286,1144.5305],[29.1213,-18.8234,1142.5409],[29.1174,-18.8215,1141.5],[29.1023,-18.8276,1141.5],[29.0896,-18.8128,1149.0638],[29.0869,-18.8117,1136.5223],[29.0839,-18.8141,1138.4862],[29.0786,-18.8119,1136.9946],[29.0742,-18.8061,1137.7283],[29.0671,-18.8025,1139.1772],[29.0608,-18.8012,1131.2483],[29.0567,-18.8046,1130.3511],[29.0463,-18.8066,1131.2212],[29.0431,-18.8,1127.8295],[29.0401,-18.7993,1131.0216],[29.0395,-18.8008,1129.7958]]]]}
,"properties": {"GID_3": "ZWE.10.7.11_2","GID_0": "ZWE","country": "Zimbabwe","GID_1": "ZWE.10_1","province": "Midlands","NL_NAME_1": "NA","GID_2": "ZWE.10.7_2","county": "Kwekwe","NL_NAME_2": "NA","city": "Ward19","VARNAME_3": "NA","NL_NAME_3": "NA","TYPE_3": "Ward","ENGTYPE_3": "Ward","CC_3": "NA","HASC_3": "NA","name": "Ward19.city","area_km2": 76.02698,"hist_schema_id": "Elevation0-9000","hist_area_km2": {"1125": 4.4555,"1150": 38.24711,"1175": 23.31382,"1200": 8.84705,"1225": 1.1635}}}