{"type": "Feature","bbox": [31.073,-17.8252,31.1445,-17.7628],"geometry": {"type": "MultiPolygon","coordinates": [[[[31.0751,-17.7851,1528.2883],[31.0782,-17.7918,1517.1512],[31.0731,-17.809,1491.2521],[31.073,-17.8152,1489.2634],[31.0909,-17.8202,1496.844],[31.096,-17.8252,1512.3632],[31.1082,-17.8119,1546.6794],[31.1114,-17.8103,1545.3872],[31.1097,-17.8088,1539.5919],[31.1127,-17.801,1559.208],[31.1313,-17.7902,1529.7783],[31.1365,-17.7844,1507.4644],[31.1366,-17.7798,1501.8881],[31.1445,-17.7678,1480.9633],[31.1383,-17.7628,1513.6862],[31.1244,-17.771,1472.4493],[31.1202,-17.7688,1468.6224],[31.119,-17.7637,1477.046],[31.109,-17.7667,1498.4093],[31.1056,-17.7695,1508.1091],[31.1009,-17.7684,1513.7249],[31.0961,-17.7718,1530.3263],[31.0889,-17.7741,1532.6888],[31.0873,-17.7776,1529.375],[31.0751,-17.7851,1528.2883]]]]}
,"properties": {"GID_3": "ZWE.2.3.44_2","GID_0": "ZWE","country": "Zimbabwe","GID_1": "ZWE.2_1","province": "Harare","NL_NAME_1": "NA","GID_2": "ZWE.2.3_2","county": "Harare","NL_NAME_2": "NA","city": "Ward8","VARNAME_3": "NA","NL_NAME_3": "NA","TYPE_3": "Ward","ENGTYPE_3": "Ward","CC_3": "NA","HASC_3": "NA","name": "Ward8.city","area_km2": 27.69831,"hist_schema_id": "Elevation0-9000","hist_area_km2": {"1475": 2.11997,"1500": 11.6284,"1525": 10.59867,"1550": 3.18976,"1575": 0.16151}}}