{"type":"Feature","properties":{"GID_3":"ZWE.6.7.9_2","GID_0":"ZWE","country":"Zimbabwe","GID_1":"ZWE.6_1","province":"MashonalandWest","NL_NAME_1":"NA","GID_2":"ZWE.6.7_2","county":"KaribaUrban","NL_NAME_2":"NA","city":"Ward9","VARNAME_3":"NA","NL_NAME_3":"NA","TYPE_3":"Ward","ENGTYPE_3":"Ward","CC_3":"NA","HASC_3":"NA","name":"Ward9.city"},
"geometry":{"type": "MultiPolygon","coordinates": [[[[28.7775,-16.5322,496.2391],[28.7774,-16.5322,496.2391],[28.7768,-16.5332,484.595],[28.7775,-16.5325,496.2391],[28.7775,-16.5322,496.2391]]],
[[[28.7781,-16.531,491.0721],[28.7786,-16.5304,486.58],[28.7785,-16.5303,491.0721],[28.7781,-16.531,491.0721]]],
[[[28.7805,-16.5284,494.1595],[28.7798,-16.53,486.58],[28.7821,-16.5275,515.3625],[28.7841,-16.5281,489.4483],[28.784,-16.5317,483.5],[28.7856,-16.5307,484.3949],[28.7856,-16.5283,491.3799],[28.7885,-16.531,486.1473],[28.7914,-16.5305,532.7765],[28.7916,-16.5329,491.961],[28.7991,-16.5336,500.9875],[28.8022,-16.5322,517.3338],[28.8008,-16.5348,483.5],[28.8066,-16.5368,531.715],[28.8138,-16.5334,491.3181],[28.817,-16.5286,494.1543],[28.8163,-16.5266,497.5961],[28.8141,-16.5287,510.9029],[28.811,-16.5264,579.15],[28.7982,-16.532,550.5264],[28.7967,-16.5304,555.3627],[28.793,-16.5305,557.0074],[28.7854,-16.5244,598.4714],[28.7805,-16.5284,494.1595]]],
[[[28.792,-16.5185,724.2009],[28.7903,-16.5199,766.8931],[28.7847,-16.5238,638.0442],[28.793,-16.5224,721.6389],[28.792,-16.5185,724.2009]]]]}}