{"type": "Feature","bbox": [29.9644,-19.7383,30.0129,-19.6741],"geometry": {"type": "MultiPolygon","coordinates": [[[[29.997,-19.6874,1384.4148],[29.9945,-19.6929,1352.8398],[29.9966,-19.6953,1321.2949],[29.9959,-19.6987,1298.8977],[29.9823,-19.7012,1288.4343],[29.9724,-19.6998,1319.5989],[29.9719,-19.7194,1290.3782],[29.9652,-19.7196,1354.4043],[29.9644,-19.7222,1347.3652],[29.9667,-19.7335,1321.1191],[29.9763,-19.7383,1236.6588],[30.0129,-19.7218,1432.8114],[30.0089,-19.7218,1297.2341],[30.0051,-19.6741,1459.1766],[29.9993,-19.6772,1431.5786],[29.9991,-19.6828,1403.4863],[29.997,-19.6874,1384.4148]]]]}
,"properties": {"GID_3": "ZWE.10.12.12_2","GID_0": "ZWE","country": "Zimbabwe","GID_1": "ZWE.10_1","province": "Midlands","NL_NAME_1": "NA","GID_2": "ZWE.10.12_2","county": "ShurugwiTown","NL_NAME_2": "NA","city": "Ward8","VARNAME_3": "NA","NL_NAME_3": "NA","TYPE_3": "Ward","ENGTYPE_3": "Ward","CC_3": "NA","HASC_3": "NA","name": "Ward8.city","area_km2": 17.10539,"hist_schema_id": "Elevation0-9000","hist_area_km2": {"1150": 0.63865,"1175": 2.01579,"1200": 2.59466,"1225": 2.57475,"1250": 2.85425,"1275": 2.03592,"1300": 1.69658,"1325": 1.05788,"1350": 0.39919,"1375": 0.23955,"1400": 0.39926,"1425": 0.27949,"1450": 0.11978,"1475": 0.09982,"1500": 0.07985,"1525": 0.01996}}}