{"type": "Feature","bbox": [28.7768,-16.5378,28.8683,-16.5097],"geometry": {"type": "MultiPolygon","coordinates": [[[[28.777,-16.5329,496.2391],[28.7775,-16.5322,496.2391],[28.7774,-16.5322,496.2391],[28.7768,-16.5332,484.595],[28.777,-16.5329,496.2391]]],
[[[28.7785,-16.5303,491.0721],[28.7781,-16.531,491.0721],[28.7786,-16.5304,486.58],[28.7785,-16.5303,491.0721]]],
[[[28.7839,-16.5243,638.0442],[28.7796,-16.5298,486.58],[28.7814,-16.5297,485.0755],[28.7821,-16.5275,515.3625],[28.7841,-16.5281,489.4483],[28.784,-16.5317,483.5],[28.7856,-16.5307,484.3949],[28.7856,-16.5283,491.3799],[28.7885,-16.531,486.1473],[28.7914,-16.5305,532.7765],[28.7916,-16.5329,491.961],[28.7991,-16.5336,500.9875],[28.8019,-16.5322,517.3338],[28.8029,-16.5329,517.3338],[28.8008,-16.5348,483.5],[28.8066,-16.5368,531.715],[28.8138,-16.5334,491.3181],[28.8167,-16.5287,494.1543],[28.818,-16.5341,503.3341],[28.823,-16.5281,497.7416],[28.8274,-16.5325,483.5],[28.8304,-16.5311,485.1199],[28.8312,-16.5275,490.6945],[28.8317,-16.5289,488.1185],[28.8333,-16.5282,485.8146],[28.8332,-16.5298,483.5],[28.8352,-16.5287,486.966],[28.8364,-16.5299,483.5],[28.836,-16.5284,486.966],[28.8381,-16.5276,485.6113],[28.8368,-16.5253,491.6708],[28.8383,-16.5259,485.763],[28.8381,-16.5245,492.9744],[28.8395,-16.5255,485.763],[28.8385,-16.5272,483.5],[28.84,-16.528,483.5],[28.8403,-16.5267,483.5],[28.8413,-16.5283,483.5],[28.8429,-16.5243,489.7371],[28.8426,-16.53,483.5],[28.8437,-16.5303,483.5],[28.8437,-16.5288,483.5],[28.8456,-16.5301,483.5],[28.8472,-16.5268,484.4716],[28.8507,-16.5328,483.5],[28.8544,-16.5306,483.5],[28.8535,-16.5329,483.5],[28.856,-16.5341,483.5],[28.8539,-16.5354,483.5],[28.8552,-16.5366,483.5],[28.8543,-16.5378,483.5],[28.8591,-16.5371,483.5],[28.8585,-16.536,483.5],[28.8615,-16.5349,484.3615],[28.8637,-16.5311,495.0128],[28.8655,-16.532,486.6445],[28.8683,-16.5253,493.8736],[28.8519,-16.5219,495.536],[28.8549,-16.5181,501.3387],[28.8527,-16.5106,518.2158],[28.8445,-16.5097,516.1082],[28.8342,-16.51,517.8054],[28.8178,-16.5159,554.827],[28.8141,-16.5155,587.7734],[28.8108,-16.5218,592.1349],[28.8107,-16.5185,716.1096],[28.8018,-16.5111,775.601],[28.7839,-16.5243,638.0442]]]]}
,"properties": {"GID_2": "ZWE.6.7_2","GID_0": "ZWE","country": "Zimbabwe","GID_1": "ZWE.6_1","province": "MashonalandWest","NL_NAME_1": "NA","county": "KaribaUrban","VARNAME_2": "NA","NL_NAME_2": "NA","TYPE_2": "District","ENGTYPE_2": "District","CC_2": "NA","HASC_2": "NA","name": "Kariba_Urban.county","area_km2": 16.03774,"hist_schema_id": "Elevation0-9000","hist_area_km2": {"475": 1.28053,"500": 5.87439,"525": 2.50023,"550": 1.30091,"575": 0.89437,"600": 0.63012,"625": 0.26424,"650": 0.3862,"675": 0.40654,"700": 0.77242,"725": 0.36588,"750": 0.50817,"775": 0.36588,"800": 0.3049,"825": 0.16261,"850": 0.02033}}}