{"type": "Feature","bbox": [28.9522,-18.1709,29.2293,-17.9492],"geometry": {"type": "MultiPolygon","coordinates": [[[[29.2201,-17.9492,842.5605],[29.2117,-17.9496,838.4374],[29.2149,-17.9529,830.3819],[29.2122,-17.9553,830.2711],[29.2081,-17.9527,838.8235],[29.2054,-17.9638,833.8758],[29.2025,-17.9599,837.5674],[29.198,-17.9625,836.4818],[29.1963,-17.962,836.4818],[29.1865,-17.9525,854.9352],[29.184,-17.9551,843.9534],[29.1819,-17.9539,855.1719],[29.1816,-17.9563,842.939],[29.178,-17.9539,857.4075],[29.1753,-17.9563,849.5515],[29.17,-17.9577,855.9644],[29.1741,-17.9578,849.5515],[29.1728,-17.9603,847.8678],[29.1741,-17.962,847.0051],[29.1684,-17.9605,849.7699],[29.1677,-17.9677,856.2176],[29.1649,-17.9666,849.7199],[29.1628,-17.9601,862.2167],[29.1601,-17.96,864.2567],[29.1615,-17.965,847.8647],[29.159,-17.9657,850.8764],[29.1545,-17.9623,857.7825],[29.1512,-17.9695,850.5892],[29.1536,-17.9733,852.4815],[29.1497,-17.9754,850.6391],[29.1462,-17.9731,855.0607],[29.1458,-17.966,853.0277],[29.1423,-17.9647,860.3266],[29.1439,-17.9616,854.8322],[29.1475,-17.9622,864.2054],[29.1484,-17.9603,867.8436],[29.1468,-17.9587,870.8389],[29.1429,-17.9587,871.2718],[29.1405,-17.9604,870.5416],[29.1405,-17.9708,856.1118],[29.1355,-17.962,868.8632],[29.1286,-17.9607,872.3804],[29.1266,-17.9617,870.3936],[29.1242,-17.9642,866.649],[29.1274,-17.9665,865.7952],[29.1262,-17.9682,858.7568],[29.1216,-17.9645,864.347],[29.122,-17.9599,870.3492],[29.1199,-17.9596,865.8063],[29.119,-17.9631,863.7209],[29.1169,-17.9633,866.118],[29.1161,-17.9688,864.9538],[29.1133,-17.9704,865.3864],[29.1122,-17.9747,866.2277],[29.1095,-17.9775,863.6036],[29.1059,-17.9774,863.9739],[29.1016,-17.9736,870.8928],[29.102,-17.9707,865.3844],[29.105,-17.97,873.4216],[29.1037,-17.9674,867.7252],[29.0968,-17.9669,878.4039],[29.0958,-17.9684,875.4612],[29.0971,-17.9703,866.2626],[29.0932,-17.9709,878.5855],[29.0921,-17.9727,872.8723],[29.088,-17.9721,871.2844],[29.0864,-17.9696,882.9269],[29.0844,-17.9734,871.5612],[29.08,-17.9744,871.7181],[29.0789,-17.974,871.2104],[29.0791,-17.9701,879.9782],[29.0746,-17.9708,878.1478],[29.0737,-17.9737,872.2611],[29.071,-17.9747,875.7822],[29.073,-17.977,874.5392],[29.0712,-17.9764,877.298],[29.0719,-17.978,877.1841],[29.0664,-17.9801,883.326],[29.0653,-17.9845,881.6113],[29.0609,-17.9849,886.0895],[29.0594,-17.9834,888.9308],[29.0572,-17.9868,890.253],[29.0558,-17.9858,893.2206],[29.0548,-17.9894,887.0259],[29.0506,-17.9909,892.593],[29.0493,-17.9895,896.9547],[29.0493,-17.9916,891.3248],[29.0473,-17.9909,893.8336],[29.0439,-17.9935,895.9366],[29.0422,-17.9924,900.1045],[29.0413,-17.9951,899.0888],[29.0381,-17.9967,902.5732],[29.036,-17.9954,905.343],[29.0331,-17.9965,924.6637],[29.0297,-18.001,917.5402],[29.018,-18.0025,1009.5871],[29.0138,-18.0004,1049.0581],[29.0049,-18.001,1002.0347],[29.0048,-18.0036,965.3906],[29.0166,-18.0057,947.175],[29.0314,-18.0053,931.4682],[29.0383,-18.0035,920.7598],[29.0475,-17.9961,898.8482],[29.0532,-17.9965,908.4644],[29.0498,-18.0049,1046.316],[29.0513,-18.0097,934.4399],[29.0447,-18.0098,1078.3743],[29.0409,-18.012,1088.9563],[29.0363,-18.0102,1032.0472],[29.0329,-18.0245,982.5548],[29.0293,-18.0243,1104.1816],[29.0225,-18.0205,1098.6493],[29.014,-18.0231,1059.9213],[29.0025,-18.0178,1127.6582],[29.0012,-18.0224,1014.7656],[29.0037,-18.0271,957.5216],[29.0012,-18.0317,1068.4463],[28.9956,-18.034,1036.3357],[28.9867,-18.0348,1115.0844],[28.9824,-18.039,1115.9943],[28.9772,-18.035,1059.7739],[28.9725,-18.0445,1115.7155],[28.9624,-18.0503,1115.1055],[28.9657,-18.0527,1055.8608],[28.9744,-18.0505,966.7256],[28.9784,-18.0513,1014.9218],[28.9722,-18.0583,1084.3264],[28.9747,-18.0614,1034.5581],[28.9707,-18.0671,1113.3281],[28.9745,-18.0682,1027.4733],[28.9698,-18.0752,1125.7555],[28.9687,-18.0843,1036.3569],[28.9705,-18.0886,1068.429],[28.973,-18.0856,1119.007],[28.973,-18.0816,1024.9139],[28.9763,-18.0819,1116.2538],[28.9766,-18.0784,1041.2783],[28.9786,-18.078,1090.2794],[28.9798,-18.0748,1030.0519],[28.9824,-18.0769,1025.068],[28.9827,-18.0804,1058.293],[28.9855,-18.0773,1085.869],[28.9848,-18.0725,1010.1547],[28.9891,-18.0749,1065.3676],[28.9893,-18.0692,1003.0323],[28.9916,-18.0719,1056.2678],[28.9925,-18.0701,1029.6024],[28.9947,-18.0707,1099.0974],[28.9947,-18.0671,1017.4126],[28.9963,-18.066,1011.5939],[28.996,-18.0603,1035.2097],[28.9892,-18.0565,1023.676],[28.9875,-18.0536,976.6318],[28.9942,-18.0508,978.4678],[28.9956,-18.0486,955.588],[29.0028,-18.0511,971.4756],[29.0065,-18.0699,1037.6924],[29.0145,-18.0772,952.09],[29.013,-18.0808,1065.5696],[29.0072,-18.0818,986.2554],[29.0026,-18.0817,1055.7345],[28.9991,-18.0775,1058.3929],[28.9951,-18.0769,1149.8459],[28.9906,-18.0787,1142.8607],[28.9805,-18.0887,1090.8044],[28.9955,-18.0889,975.6135],[28.9959,-18.0915,1017.3504],[28.9891,-18.0963,1124.7917],[28.986,-18.0957,1139.623],[28.9839,-18.0985,1143.9252],[28.9791,-18.0971,1144.0737],[28.9771,-18.0991,1145.7795],[28.9766,-18.1047,1112.9697],[28.9697,-18.1029,1119.2194],[28.9726,-18.1061,1097.6487],[28.9719,-18.1083,1139.4987],[28.9682,-18.1108,1059.1196],[28.964,-18.1113,1056.931],[28.9622,-18.1135,1056.2949],[28.9571,-18.1142,1102.2668],[28.9562,-18.1172,1067.0729],[28.9522,-18.1188,1116.0924],[28.9574,-18.1209,1131.9414],[28.9657,-18.1128,1056.931],[28.9672,-18.1175,1124.9381],[28.9695,-18.1152,1073.1215],[28.9711,-18.118,1126.0471],[28.9729,-18.1169,1133.6299],[28.9741,-18.1122,1009.7369],[28.9814,-18.1119,1148.8019],[28.9801,-18.1153,1130.4845],[28.9826,-18.1172,1157.1956],[28.9826,-18.1197,1118.9685],[28.9749,-18.1217,1111.8019],[28.967,-18.1272,1148.8928],[28.967,-18.1296,1129.1676],[28.971,-18.1317,1067.8141],[28.9757,-18.1271,1028.1918],[28.9783,-18.1266,1038.5244],[28.9778,-18.1301,1141.9915],[28.9821,-18.1274,1024.342],[28.9831,-18.1303,1080.4575],[28.984,-18.1267,1022.6729],[28.9874,-18.1246,1020.3004],[28.9858,-18.1337,1114.3704],[28.98,-18.1391,1161.7631],[28.9824,-18.1408,1047.8533],[28.9785,-18.1459,1133.8057],[28.9845,-18.1455,1029.9802],[28.9862,-18.1602,1161.9453],[28.9924,-18.1709,1093.1865],[28.9924,-18.1641,1166.5605],[28.9906,-18.1618,1127.5118],[28.9909,-18.1512,1136.5262],[28.9884,-18.1437,1025.7657],[28.9896,-18.1385,1028.6768],[28.9914,-18.1393,1044.5494],[28.9934,-18.1379,1140.95],[28.9921,-18.1323,1061.156],[28.9952,-18.129,1146.5219],[28.9931,-18.1199,1061.5823],[28.995,-18.1182,1031.2161],[28.9945,-18.1131,1015.9365],[28.9957,-18.11,1015.3812],[29.0049,-18.1026,955.5033],[29.0057,-18.1093,996.4017],[29.0082,-18.1133,993.9797],[29.0071,-18.1307,1089.1509],[29.0093,-18.1297,1156.3788],[29.0118,-18.1227,1017.2188],[29.0152,-18.1246,1038.6639],[29.0175,-18.1192,1160.4775],[29.0139,-18.1096,1111.6873],[29.0155,-18.1034,1005.8336],[29.0128,-18.0993,1033.045],[29.0137,-18.0942,942.5928],[29.0187,-18.0964,950.98],[29.0213,-18.1004,963.5904],[29.0281,-18.0954,989.1006],[29.0283,-18.1103,990.031],[29.0317,-18.1202,1036.3135],[29.0346,-18.1238,1163.8619],[29.0375,-18.115,1158.2559],[29.0333,-18.1068,1002.6276],[29.0369,-18.1044,984.0394],[29.0426,-18.1073,980.5643],[29.0448,-18.1124,1054.0332],[29.0435,-18.1254,1005.3206],[29.0514,-18.1228,972.7453],[29.0542,-18.1259,1003.9265],[29.0526,-18.1287,1019.4854],[29.047,-18.1314,1059.0242],[29.0457,-18.1357,1100.8171],[29.0399,-18.1337,1159.4932],[29.0274,-18.1408,1167.3876],[29.0297,-18.1438,1054.2063],[29.0295,-18.1462,1113.6896],[29.0329,-18.1486,1057.3837],[29.0281,-18.1517,1115.4202],[29.0259,-18.1512,1163.5449],[29.0249,-18.1534,1082.9573],[29.0215,-18.1548,1114.9954],[29.0215,-18.1589,1051.7081],[29.0239,-18.1607,1099.0714],[29.0297,-18.1552,1029.844],[29.0326,-18.1602,1082.8679],[29.0359,-18.1552,1053.3387],[29.0384,-18.1556,1108.433],[29.0383,-18.1522,1017.6622],[29.0418,-18.1515,1022.444],[29.0427,-18.1478,1025.4391],[29.0478,-18.1427,992.4352],[29.0478,-18.1385,988.7994],[29.0531,-18.1355,974.9473],[29.0539,-18.1325,995.4296],[29.0592,-18.127,962.6353],[29.0591,-18.124,959.2385],[29.0657,-18.1197,948.4714],[29.0678,-18.1134,939.7568],[29.0731,-18.1087,933.8224],[29.085,-18.1051,928.8519],[29.0859,-18.1077,923.295],[29.0867,-18.1056,927.4852],[29.0899,-18.1064,917.7609],[29.0938,-18.1051,914.4467],[29.0942,-18.1025,914.7786],[29.0986,-18.1025,908.8786],[29.1,-18.1046,911.319],[29.1017,-18.1003,911.6024],[29.1044,-18.1024,903.6919],[29.1087,-18.0973,906.8387],[29.1154,-18.1002,899.7281],[29.1158,-18.0964,901.8735],[29.1189,-18.098,898.4835],[29.1198,-18.0942,902.2043],[29.1242,-18.0946,896.114],[29.1228,-18.0904,895.9764],[29.125,-18.0912,893.0768],[29.1263,-18.084,895.4023],[29.1276,-18.0857,894.7219],[29.132,-18.0865,889.6989],[29.1347,-18.0839,891.1888],[29.1382,-18.083,889.4128],[29.1426,-18.0847,885.5392],[29.1448,-18.0817,884.5859],[29.1461,-18.0842,881.9626],[29.1479,-18.0804,881.0956],[29.1496,-18.0816,878.5954],[29.1483,-18.0782,881.9855],[29.1518,-18.0782,880.5225],[29.1491,-18.0757,878.5883],[29.1513,-18.0723,885.4116],[29.1562,-18.0739,874.9062],[29.1535,-18.071,880.2755],[29.1566,-18.0701,875.1675],[29.1539,-18.0672,878.033],[29.1556,-18.0655,872.7456],[29.1574,-18.0684,873.4269],[29.1605,-18.0684,873.434],[29.1596,-18.0654,873.9879],[29.1565,-18.0638,878.3311],[29.1596,-18.0625,872.699],[29.1595,-18.0578,871.1975],[29.1622,-18.0587,868.0685],[29.1634,-18.0536,871.5444],[29.1714,-18.0556,868.7122],[29.174,-18.053,872.3184],[29.1687,-18.0484,867.8982],[29.1704,-18.0484,865.8168],[29.1722,-18.0446,866.0527],[29.1805,-18.0424,857.4888],[29.18,-18.0331,856.7934],[29.1826,-18.0314,859.9619],[29.183,-18.0276,867.9222],[29.1852,-18.0267,856.001],[29.1852,-18.0246,857.1718],[29.1891,-18.0233,861.7551],[29.1891,-18.0203,859.8095],[29.1913,-18.0199,858.7992],[29.1939,-18.0152,856.6944],[29.2005,-18.0126,841.6566],[29.2048,-18.0079,831.3638],[29.2079,-17.9976,850.3459],[29.2172,-17.9919,829.8994],[29.2148,-17.9796,834.0067],[29.2128,-17.976,834.9891],[29.2131,-17.9707,836.7222],[29.2219,-17.9642,836.0828],[29.2268,-17.9632,833.1799],[29.2293,-17.9583,850.4204],[29.2292,-17.957,846.4186],[29.221,-17.9526,837.376],[29.2201,-17.9492,842.5605]]]]}
,"properties": {"GID_3": "ZWE.10.3.16_2","GID_0": "ZWE","country": "Zimbabwe","GID_1": "ZWE.10_1","province": "Midlands","NL_NAME_1": "NA","GID_2": "ZWE.10.3_2","county": "GokweSouth","NL_NAME_2": "NA","city": "Ward23","VARNAME_3": "NA","NL_NAME_3": "NA","TYPE_3": "Ward","ENGTYPE_3": "Ward","CC_3": "NA","HASC_3": "NA","name": "Ward23.city","area_km2": 295.6845,"hist_schema_id": "Elevation0-9000","hist_area_km2": {"825": 3.8118,"850": 37.5698,"875": 83.818,"900": 75.8174,"925": 39.4058,"950": 18.2402,"975": 9.2109,"1000": 7.5777,"1025": 6.3882,"1050": 4.8163,"1075": 2.8817,"1100": 2.3781,"1125": 2.096,"1150": 1.5114,"1175": 0.1612}}}