{"type":"Feature","properties":{"GID_3":"ZWE.4.1.6_2","GID_0":"ZWE","country":"Zimbabwe","GID_1":"ZWE.4_1","province":"MashonalandCentral","NL_NAME_1":"NA","GID_2":"ZWE.4.1_2","county":"Bindura","NL_NAME_2":"NA","city":"Ward14","VARNAME_3":"NA","NL_NAME_3":"NA","TYPE_3":"Ward","ENGTYPE_3":"Ward","CC_3":"NA","HASC_3":"NA","name":"Ward14.city"},
"geometry":{"type": "MultiPolygon","coordinates": [[[[31.3065,-17.4865,1137.4725],[31.3047,-17.503,1148.5551],[31.3011,-17.5075,1155.869],[31.3024,-17.5102,1149.2511],[31.2992,-17.5172,1172.3861],[31.3003,-17.5203,1157.8677],[31.2989,-17.5214,1158.3892],[31.3017,-17.5276,1218.6189],[31.3185,-17.5317,1248.623],[31.319,-17.5342,1247.7379],[31.3277,-17.5342,1273.8353],[31.3307,-17.5362,1282.6052],[31.3415,-17.5378,1368.8066],[31.3752,-17.5376,1405.6075],[31.3793,-17.5366,1320.6671],[31.3839,-17.5303,1198.2202],[31.3825,-17.5195,1174.6331],[31.385,-17.5144,1154.3751],[31.3744,-17.515,1283.8939],[31.3892,-17.482,1112.9055],[31.3846,-17.4836,1108.6606],[31.3764,-17.4835,1116.9993],[31.3693,-17.4805,1121.9355],[31.3637,-17.4824,1146.2104],[31.3489,-17.4818,1265.7971],[31.3412,-17.4798,1321.9014],[31.3244,-17.4797,1181.4829],[31.3098,-17.4753,1128.699],[31.3065,-17.4865,1137.4725]]]]}}