{"type":"Feature","properties":{"GID_3":"ZWE.10.9.34_2","GID_0":"ZWE","country":"Zimbabwe","GID_1":"ZWE.10_1","province":"Midlands","NL_NAME_1":"NA","GID_2":"ZWE.10.9_2","county":"Mberengwa","NL_NAME_2":"NA","city":"Ward6","VARNAME_3":"NA","NL_NAME_3":"NA","TYPE_3":"Ward","ENGTYPE_3":"Ward","CC_3":"NA","HASC_3":"NA","name":"Ward6.city"},
"geometry":{"type": "MultiPolygon","coordinates": [[[[30.2556,-20.7602,758.4],[30.2588,-20.761,761.4208],[30.264,-20.7584,760.749],[30.2727,-20.759,758.6777],[30.2741,-20.7627,748.7825],[30.2841,-20.7639,748.8682],[30.2873,-20.7632,747.5797],[30.2853,-20.76,747.2293],[30.2863,-20.7591,750.6621],[30.2912,-20.7598,742.7911],[30.2966,-20.7563,744.0463],[30.3047,-20.7555,744.1378],[30.3113,-20.7569,740.8763],[30.3165,-20.7609,739.4315],[30.3221,-20.7611,741.1135],[30.3257,-20.7658,736.3422],[30.3307,-20.7611,737.3545],[30.3373,-20.7603,734.1435],[30.3387,-20.7606,733.909],[30.339,-20.7645,731.1327],[30.3444,-20.7635,732.9634],[30.3484,-20.7654,731.5185],[30.3519,-20.7625,730.7241],[30.3606,-20.7607,723.4362],[30.3604,-20.7551,721.879],[30.3617,-20.7535,724.9257],[30.3644,-20.7557,723.8271],[30.3712,-20.7525,720.8786],[30.3762,-20.7432,717.7891],[30.3807,-20.744,721.2014],[30.3828,-20.7482,716.5382],[30.3883,-20.7474,717.5305],[30.3955,-20.7439,715.5356],[30.397,-20.7457,716.4597],[30.3954,-20.7491,715.1787],[30.3998,-20.7535,709.7184],[30.4031,-20.7502,713.536],[30.4062,-20.7502,709.687],[30.4091,-20.7481,705.4753],[30.4137,-20.7418,711.072],[30.4187,-20.7404,702.1993],[30.4152,-20.7364,704.406],[30.4163,-20.7339,706.7194],[30.4126,-20.7287,717.6005],[30.4035,-20.731,717.8308],[30.3985,-20.7285,715.8425],[30.396,-20.7232,721.3109],[30.3964,-20.7179,726.0715],[30.3906,-20.7171,726.5555],[30.3877,-20.7128,732.7252],[30.3812,-20.6945,761.3829],[30.3821,-20.6848,776.2505],[30.3856,-20.681,758.1401],[30.3954,-20.6765,749.2343],[30.401,-20.6772,743.8118],[30.4027,-20.6745,746.5974],[30.4057,-20.675,739.5482],[30.4118,-20.6702,739.2825],[30.4111,-20.6601,748.2769],[30.4087,-20.6567,740.6187],[30.4063,-20.6452,747.1],[30.4023,-20.6366,766.7037],[30.4063,-20.6312,765.845],[30.4,-20.6325,771.8381],[30.3978,-20.6294,837.0121],[30.3931,-20.6281,790.7507],[30.3868,-20.6299,802.2933],[30.3831,-20.6288,826.8326],[30.379,-20.6299,807.5059],[30.3746,-20.6282,829.0933],[30.3703,-20.6321,830.5321],[30.365,-20.6318,837.2559],[30.3639,-20.6303,844.4625],[30.3599,-20.6311,855.3303],[30.3517,-20.6362,870.5944],[30.3458,-20.6465,870.7604],[30.3466,-20.653199999999998,868.8927],[30.3478,-20.6554,853.7782],[30.3558,-20.6601,826.2682],[30.359,-20.6644,852.5813],[30.3487,-20.672,822.8851],[30.34,-20.6753,850.5479],[30.328,-20.6704,875.0613],[30.324,-20.6641,925.3017],[30.3171,-20.6601,938.027],[30.3163,-20.657,929.2969],[30.3131,-20.6544,951.4131],[30.3079,-20.6524,961.4887],[30.3037,-20.6551,958.7208],[30.2975,-20.6555,975.7422],[30.2913,-20.6693,946.9502],[30.2852,-20.6773,873.5524],[30.2804,-20.6792,857.5297],[30.2697,-20.6918,827.317],[30.271,-20.6939,826.4443],[30.2748,-20.6939,818.8597],[30.275,-20.6964,809.748],[30.2651,-20.6992,806.8159],[30.2644,-20.7049,794.2525],[30.26,-20.706,802.6486],[30.2595,-20.7099,786.8971],[30.2558,-20.7146,781.7916],[30.2563,-20.7187,781.1616],[30.2525,-20.7247,775.3055],[30.2542,-20.7291,773.2737],[30.2536,-20.7379,768.8717],[30.2506,-20.7424,770.0839],[30.2594,-20.7468,767.0076],[30.2541,-20.7493,778.265],[30.2512,-20.7525,839.8472],[30.2556,-20.7602,758.4]]]]}}