{"type":"Feature","properties":{"GID_3":"ZWE.2.3.25_2","GID_0":"ZWE","country":"Zimbabwe","GID_1":"ZWE.2_1","province":"Harare","NL_NAME_1":"NA","GID_2":"ZWE.2.3_2","county":"Harare","NL_NAME_2":"NA","city":"Ward32","VARNAME_3":"NA","NL_NAME_3":"NA","TYPE_3":"Ward","ENGTYPE_3":"Ward","CC_3":"NA","HASC_3":"NA","name":"Ward32.city"},
"geometry":{"type": "MultiPolygon","coordinates": [[[[30.9418,-17.9181,1411.7684],[30.9499,-17.9056,1420.451],[30.943,-17.9054,1416.7972],[30.9409,-17.8955,1423.8765],[30.9359,-17.8973,1422.8237],[30.9265,-17.9059,1411.6104],[30.9366,-17.9119,1406.1007],[30.9259,-17.917,1418.4714],[30.9418,-17.9181,1411.7684]]]]}}