{"type": "Feature","bbox": [30.1924,-17.3764,30.2041,-17.3689],"geometry": {"type": "MultiPolygon","coordinates": [[[[30.1924,-17.376,1177.7168],[30.1958,-17.3764,1182.7664],[30.2004,-17.3739,1173.7893],[30.2041,-17.3709,1176.468],[30.204,-17.3689,1170.4338],[30.2002,-17.3705,1159.9437],[30.1967,-17.3692,1154.3208],[30.1935,-17.3723,1160.6542],[30.1924,-17.376,1177.7168]]]]}
,"properties": {"GID_3": "ZWE.6.3.8_2","GID_0": "ZWE","country": "Zimbabwe","GID_1": "ZWE.6_1","province": "MashonalandWest","NL_NAME_1": "NA","GID_2": "ZWE.6.3_2","county": "Chinhoyi","NL_NAME_2": "NA","city": "Ward2","VARNAME_3": "NA","NL_NAME_3": "NA","TYPE_3": "Ward","ENGTYPE_3": "Ward","CC_3": "NA","HASC_3": "NA","name": "Ward2.city","area_km2": 0.6070511,"hist_schema_id": "Elevation0-9000","hist_area_km2": {"1150": 0.1011759,"1175": 0.5058751}}}