{"type":"Feature","properties":{"GID_3":"ZWE.6.13.20_2","GID_0":"ZWE","country":"Zimbabwe","GID_1":"ZWE.6_1","province":"MashonalandWest","NL_NAME_1":"NA","GID_2":"ZWE.6.13_2","county":"Zvimba","NL_NAME_2":"NA","city":"Ward27","VARNAME_3":"NA","NL_NAME_3":"NA","TYPE_3":"Ward","ENGTYPE_3":"Ward","CC_3":"NA","HASC_3":"NA","name":"Ward27.city"},
"geometry":{"type": "MultiPolygon","coordinates": [[[[30.1003,-17.8592,1114.5476],[30.1007,-17.8189,1127.7098],[30.129,-17.7953,1178.6368],[30.0506,-17.7556,1163.5529],[29.9544,-17.7207,1284.0698],[29.9545,-17.7263,1289.9297],[29.951,-17.7307,1242.3462],[29.9518,-17.7415,1259.7727],[29.9471,-17.754,1258.6309],[29.9484,-17.7655,1171.9822],[29.9442,-17.7676,1231.6083],[29.9374,-17.7758,1118.9866],[29.9278,-17.7929,1139.9402],[29.9194,-17.796,1152.7495],[29.8998,-17.8111,1122.1562],[29.888,-17.8154,1134.7024],[29.8841,-17.8184,1181.42],[29.878,-17.825,1153.6373],[29.8633,-17.8492,1136.5271],[29.8417,-17.8533,1114.8114],[29.836,-17.8524,928.8241],[29.834,-17.8564,919.4945],[29.8348,-17.8604,940.9633],[29.8382,-17.8638,944.7454],[29.851,-17.8678,971.7625],[29.8708,-17.8818,996.7109],[29.882,-17.8825,948.3316],[29.8902,-17.8796,978.9564],[29.9022,-17.8832,977.1158],[29.9047,-17.8824,992.0726],[29.9047,-17.8795,971.9921],[29.911,-17.8743,1011.6813],[29.9218,-17.8725,1022.3005],[29.9378,-17.8659,989.9874],[29.9412,-17.8658,984.8336],[29.9451,-17.8691,977.8096],[29.9456,-17.8648,977.3839],[29.9486,-17.8618,987.2303],[29.952,-17.8625,989.8009],[29.9576,-17.8667,986.2334],[29.9628,-17.8645,991.0742],[29.9675,-17.8598,997.8231],[29.9715,-17.8634,989.2636],[29.9782,-17.8609,1026.8235],[29.9816,-17.8635,1004.4979],[29.9984,-17.8625,1026.049],[30.0175,-17.8658,1019.3126],[30.0199,-17.8641,1033.342],[30.0289,-17.8645,1073.1698],[30.0323,-17.866,1025.9906],[30.0366,-17.8725,1029.3705],[30.0383,-17.8707,1036.7322],[30.0423,-17.871,1037.22],[30.041,-17.8664,1042.5229],[30.0454,-17.8643,1068.2625],[30.049,-17.8674,1057.0979],[30.0553,-17.8661,1055.2784],[30.0573,-17.8716,1057.1276],[30.0679,-17.8694,1075.9414],[30.0729,-17.8727,1071.172],[30.0763,-17.8706,1065.241],[30.0765,-17.8668,1073.8436],[30.0833,-17.862,1082.9224],[30.0865,-17.8624,1087.5864],[30.0955,-17.859,1093.5513],[30.1003,-17.8592,1114.5476]]]]}}