{"type": "Feature","bbox": [29.8289,-18.4824,30.3177,-18.2275],"geometry": {"type": "MultiPolygon","coordinates": [[[[30.0274,-18.2349,1189.5151],[29.9995,-18.2581,1191.5046],[30.022,-18.2846,1185.0171],[30.0227,-18.2893,1184.0504],[30.0139,-18.3009,1174.4355],[30.0269,-18.3066,1222.7192],[30.0075,-18.3434,1168.4788],[30.0027,-18.3659,1136.0541],[30.015,-18.3667,1146.5015],[30.0154,-18.3793,1156.5449],[30.0,-18.3786,1151.5903],[29.9925,-18.3884,1140.7111],[29.9894,-18.3976,1125.8085],[29.963,-18.387,1159.0828],[29.9472,-18.41,1157.6603],[29.9041,-18.4179,1250.3112],[29.8445,-18.3816,1121.634],[29.837,-18.3863,1112.585],[29.8342,-18.3909,1113.7603],[29.8336,-18.4153,1101.9043],[29.8301,-18.4259,1099.73],[29.8289,-18.4386,1076.6014],[29.8338,-18.4388,1083.1672],[29.8375,-18.4408,1073.6063],[29.8418,-18.4461,1077.1243],[29.8468,-18.4467,1081.4755],[29.8571,-18.4384,1086.3368],[29.8631,-18.4407,1087.371],[29.8694,-18.4455,1102.2953],[29.8759,-18.4421,1097.7871],[29.8774,-18.4439,1096.0],[29.8791,-18.4553,1096.0],[29.886,-18.4521,1096.0],[29.888,-18.4542,1096.0],[29.8907,-18.4642,1098.4988],[29.8995,-18.4586,1096.0],[29.9094,-18.4686,1096.0],[29.9122,-18.4682,1096.0],[29.9126,-18.4667,1102.6976],[29.9113,-18.4598,1096.0],[29.9149,-18.4609,1096.0],[29.9135,-18.4513,1096.5082],[29.9175,-18.4497,1096.0],[29.9203,-18.4508,1096.4167],[29.9228,-18.455,1096.0],[29.9264,-18.4553,1097.3678],[29.9337,-18.4606,1101.0295],[29.9363,-18.4671,1098.7114],[29.9403,-18.4666,1099.4685],[29.9406,-18.4643,1098.1158],[29.9377,-18.4582,1100.839],[29.9409,-18.4559,1123.301],[29.9474,-18.4623,1105.7491],[29.9498,-18.4611,1100.7415],[29.9513,-18.4553,1098.2628],[29.9613,-18.4517,1101.6741],[29.962,-18.4487,1101.9324],[29.9684,-18.4493,1100.5354],[29.9715,-18.442,1101.7781],[29.9751,-18.442,1104.8047],[29.9857,-18.4487,1103.4969],[29.9929,-18.4489,1105.7228],[30.0065,-18.4529,1109.7424],[30.0094,-18.4557,1107.5507],[30.0139,-18.4554,1109.9385],[30.0165,-18.4461,1115.3586],[30.0198,-18.4461,1110.9928],[30.0258,-18.4525,1112.0546],[30.0287,-18.4525,1111.3351],[30.0304,-18.4478,1115.2902],[30.041,-18.4476,1116.264],[30.0601,-18.46,1116.0408],[30.0707,-18.4594,1115.8756],[30.0717,-18.4528,1120.304],[30.0757,-18.456,1118.7821],[30.0844,-18.4534,1123.9581],[30.0908,-18.4585,1123.9188],[30.0962,-18.4586,1121.9052],[30.1003,-18.4556,1126.8163],[30.1089,-18.4565,1123.5244],[30.113,-18.4546,1126.3057],[30.1261,-18.4567,1124.9314],[30.1306,-18.4549,1129.4854],[30.1326,-18.4576,1129.0496],[30.1408,-18.4585,1136.1177],[30.1428,-18.4621,1126.4268],[30.1448,-18.4625,1131.0319],[30.1514,-18.4599,1133.3156],[30.1649,-18.4628,1132.5488],[30.1671,-18.4605,1135.0903],[30.1741,-18.4586,1139.1305],[30.1843,-18.4631,1139.0375],[30.1856,-18.4584,1141.0316],[30.1881,-18.4585,1139.8617],[30.1906,-18.4561,1142.2225],[30.1951,-18.4562,1143.4537],[30.198,-18.4512,1147.2505],[30.2016,-18.4551,1151.3453],[30.1995,-18.459,1144.7113],[30.2015,-18.4614,1142.2692],[30.206,-18.463,1145.4326],[30.209,-18.4584,1146.3251],[30.2171,-18.4624,1147.783],[30.2212,-18.4601,1150.7157],[30.2273,-18.4668,1148.8485],[30.2343,-18.4653,1163.1232],[30.2422,-18.4722,1151.6134],[30.2427,-18.4706,1158.4822],[30.2488,-18.4707,1189.6472],[30.2528,-18.4735,1153.2876],[30.2586,-18.4713,1154.4866],[30.2614,-18.4768,1154.8799],[30.2701,-18.4726,1165.4148],[30.2741,-18.4742,1157.9844],[30.2803,-18.4739,1159.1484],[30.2827,-18.4771,1159.219],[30.2922,-18.4749,1162.5587],[30.2966,-18.4788,1162.8479],[30.2996,-18.4784,1164.9521],[30.301,-18.4824,1162.9397],[30.3063,-18.4807,1165.7125],[30.3088,-18.4762,1165.3997],[30.3111,-18.4765,1165.8467],[30.3133,-18.4802,1165.4568],[30.316,-18.4798,1169.8677],[30.3177,-18.4769,1172.415],[30.3131,-18.4151,1191.297],[30.2896,-18.4131,1169.2627],[30.2553,-18.4022,1157.4111],[30.2551,-18.4036,1156.9579],[30.2529,-18.4028,1156.3617],[30.2507,-18.3993,1155.1161],[30.2499,-18.3901,1161.2614],[30.2462,-18.3894,1158.7219],[30.2456,-18.3914,1151.7399],[30.2441,-18.3914,1151.7399],[30.2431,-18.388,1152.3777],[30.2399,-18.3879,1151.0188],[30.2411,-18.3847,1151.1177],[30.2432,-18.3845,1149.7089],[30.2425,-18.3822,1150.2034],[30.2401,-18.3839,1150.4988],[30.2344,-18.381,1161.7345],[30.2285,-18.3815,1151.1963],[30.2294,-18.3857,1148.1758],[30.2263,-18.383,1146.0493],[30.2248,-18.3843,1145.3689],[30.2204,-18.3822,1145.9044],[30.2214,-18.3849,1145.1737],[30.2199,-18.3852,1144.7402],[30.2155,-18.3806,1158.5396],[30.2135,-18.3804,1155.8793],[30.2099,-18.3815,1146.5476],[30.2083,-18.3845,1143.6681],[30.2034,-18.3848,1142.3593],[30.2028,-18.3793,1150.2338],[30.1993,-18.3838,1144.7715],[30.1967,-18.3845,1145.536],[30.1995,-18.3884,1139.8021],[30.1921,-18.3904,1139.1292],[30.1909,-18.3451,1175.0244],[30.0951,-18.3508,1160.6957],[30.1108,-18.3273,1197.0825],[30.1257,-18.3095,1190.316],[30.1214,-18.2969,1246.417],[30.1161,-18.299,1212.339],[30.0971,-18.2729,1211.5728],[30.0868,-18.2835,1201.698],[30.0801,-18.2434,1199.3436],[30.0652,-18.2588,1203.1841],[30.0364,-18.2275,1186.0571],[30.0274,-18.2349,1189.5151]]]]}
,"properties": {"GID_3": "ZWE.6.10.6_2","GID_0": "ZWE","country": "Zimbabwe","GID_1": "ZWE.6_1","province": "MashonalandWest","NL_NAME_1": "NA","GID_2": "ZWE.6.10_2","county": "Mhondoro-Ngezi","NL_NAME_2": "NA","city": "Ward14","VARNAME_3": "NA","NL_NAME_3": "NA","TYPE_3": "Ward","ENGTYPE_3": "Ward","CC_3": "NA","HASC_3": "NA","name": "Ward14.city","area_km2": 553.5997,"hist_schema_id": "Elevation0-9000","hist_area_km2": {"1075": 1.5085,"1100": 33.9329,"1125": 117.0566,"1150": 188.2064,"1175": 114.575,"1200": 87.4309,"1225": 10.5673,"1250": 0.322}}}