{"type": "Feature","bbox": [26.8358,-18.5434,27.2981,-18.1585],"geometry": {"type": "MultiPolygon","coordinates": [[[[27.1193,-18.2347,1011.7673],[27.1104,-18.2356,1021.436],[27.0841,-18.2316,1002.6685],[27.0742,-18.2334,980.9548],[27.0631,-18.2314,988.9515],[27.0571,-18.2337,986.0912],[27.0528,-18.2242,938.3781],[27.0437,-18.2259,934.6774],[27.0419,-18.2152,933.8469],[27.0194,-18.2187,932.343],[27.0001,-18.217,886.8334],[26.9882,-18.2194,821.9397],[26.9842,-18.2137,799.496],[26.965,-18.206,726.5721],[26.9576,-18.1863,705.0508],[26.9722,-18.1698,700.5763],[26.9711,-18.1585,704.5271],[26.869,-18.1605,576.1531],[26.8677,-18.1663,529.7111],[26.8589,-18.1746,531.5996],[26.8557,-18.1869,533.7559],[26.8586,-18.1898,536.1832],[26.873,-18.1929,609.5538],[26.8746,-18.1959,540.8843],[26.8734,-18.2004,537.1117],[26.8642,-18.215,556.7086],[26.8522,-18.227,608.2087],[26.8487,-18.234,567.1095],[26.8358,-18.2439,585.1012],[26.8381,-18.2458,548.1552],[26.8638,-18.2511,632.0765],[26.8733,-18.2565,559.2268],[26.8829,-18.2589,568.5151],[26.8938,-18.2743,590.0137],[26.8968,-18.2812,564.2729],[26.9098,-18.2921,601.4161],[26.917,-18.2865,633.5768],[26.9198,-18.2868,657.2148],[26.9163,-18.2986,565.9119],[26.923,-18.3058,705.6543],[26.9278,-18.3153,580.4222],[26.9215,-18.3208,611.1464],[26.9233,-18.329,592.1246],[26.9143,-18.334,596.0001],[26.9041,-18.3355,615.0419],[26.9004,-18.3385,614.0316],[26.8923,-18.3379,685.1093],[26.8893,-18.3405,653.084],[26.8903,-18.3432,621.7226],[26.8885,-18.3444,608.2269],[26.882,-18.3412,686.885],[26.8762,-18.3407,694.4016],[26.8751,-18.342,690.3811],[26.9382,-18.3771,918.3915],[26.9446,-18.3851,907.7078],[26.9474,-18.3928,955.0928],[26.9553,-18.3987,952.8483],[26.9583,-18.4083,974.6443],[27.0015,-18.4441,933.5115],[27.0385,-18.4664,941.5546],[27.0649,-18.4895,978.5132],[27.0787,-18.5125,934.4877],[27.1192,-18.5223,988.3232],[27.1536,-18.5434,901.4097],[27.1632,-18.5337,896.4423],[27.1666,-18.5276,897.0602],[27.1769,-18.5215,898.393],[27.1803,-18.5123,887.7064],[27.1836,-18.5093,940.566],[27.1881,-18.5086,882.7197],[27.1928,-18.5108,890.7358],[27.2125,-18.5009,897.5219],[27.2227,-18.4988,898.0225],[27.2355,-18.4835,923.8591],[27.2376,-18.474,943.2312],[27.2391,-18.4516,971.9117],[27.2527,-18.4421,972.0203],[27.2704,-18.4376,965.3896],[27.2774,-18.4338,967.2922],[27.2981,-18.434,999.706],[27.2962,-18.4278,992.4094],[27.2969,-18.4242,999.39],[27.2922,-18.4091,1019.1021],[27.2921,-18.3992,1031.1265],[27.2944,-18.3879,1019.0709],[27.2936,-18.3847,1015.1559],[27.2877,-18.3829,1013.0308],[27.2766,-18.3824,996.1744],[27.2703,-18.378,988.9445],[27.2622,-18.3755,985.533],[27.2697,-18.3626,970.4871],[27.2691,-18.3419,948.5262],[27.2511,-18.346,1023.9166],[27.2463,-18.349,1023.0945],[27.2413,-18.3464,1007.8962],[27.2322,-18.3501,999.6383],[27.2179,-18.3504,986.7391],[27.2088,-18.3534,985.5984],[27.2023,-18.3526,987.5437],[27.196,-18.347,990.0011],[27.1921,-18.3378,982.616],[27.1886,-18.3343,989.1319],[27.1701,-18.3277,994.6675],[27.1666,-18.3225,985.2618],[27.1594,-18.3243,990.3578],[27.1564,-18.3231,993.5271],[27.1478,-18.2996,962.183],[27.131,-18.3009,965.6113],[27.1295,-18.303,979.4287],[27.1266,-18.3014,972.9973],[27.122,-18.3026,962.9089],[27.1182,-18.3009,957.7461],[27.1165,-18.2977,952.2998],[27.1177,-18.2849,946.3918],[27.1244,-18.276,939.821],[27.1209,-18.2629,939.71],[27.1251,-18.2483,927.0772],[27.1221,-18.2449,933.9035],[27.1193,-18.2347,1011.7673]]]]}
,"properties": {"GID_3": "ZWE.8.3.3_2","GID_0": "ZWE","country": "Zimbabwe","GID_1": "ZWE.8_1","province": "MatabelelandNorth","NL_NAME_1": "NA","GID_2": "ZWE.8.3_2","county": "Hwange","NL_NAME_2": "NA","city": "Ward11","VARNAME_3": "NA","NL_NAME_3": "NA","TYPE_3": "Ward","ENGTYPE_3": "Ward","CC_3": "NA","HASC_3": "NA","name": "Ward11.city","area_km2": 972.2424,"hist_schema_id": "Elevation0-9000","hist_area_km2": {"525": 1.1884,"550": 4.169,"575": 8.3161,"600": 11.236,"625": 16.7353,"650": 17.6216,"675": 24.0256,"700": 26.0202,"725": 9.3011,"750": 11.6568,"775": 19.771,"800": 28.9695,"825": 39.4523,"850": 55.8278,"875": 81.5958,"900": 108.6874,"925": 131.9074,"950": 119.4785,"975": 101.2064,"1000": 82.7885,"1025": 53.3549,"1050": 14.5659,"1075": 2.1531,"1100": 1.1673,"1125": 0.5032,"1150": 0.2214,"1175": 0.1812,"1200": 0.1409}}}