{"type": "Feature","bbox": [30.635,-17.8812,30.6722,-17.856],"geometry": {"type": "MultiPolygon","coordinates": [[[[30.635,-17.8792,1365.2607],[30.6644,-17.8812,1372.2019],[30.6722,-17.8743,1363.5553],[30.6654,-17.8712,1357.6655],[30.6614,-17.8673,1358.8713],[30.6596,-17.8598,1351.5209],[30.653,-17.856,1360.4302],[30.6465,-17.8604,1365.6226],[30.635,-17.8792,1365.2607]]]]}
,"properties": {"GID_3": "ZWE.6.11.5_2","GID_0": "ZWE","country": "Zimbabwe","GID_1": "ZWE.6_1","province": "MashonalandWest","NL_NAME_1": "NA","GID_2": "ZWE.6.11_2","county": "Norton","NL_NAME_2": "NA","city": "Ward13","VARNAME_3": "NA","NL_NAME_3": "NA","TYPE_3": "Ward","ENGTYPE_3": "Ward","CC_3": "NA","HASC_3": "NA","name": "Ward13.city","area_km2": 6.073932,"hist_schema_id": "Elevation0-9000","hist_area_km2": {"1350": 1.271327,"1375": 4.802605}}}