{"type": "Feature","bbox": [31.5154,-21.5489,31.8059,-21.3904],"geometry": {"type": "MultiPolygon","coordinates": [[[[31.6104,-21.5489,472.8302],[31.6878,-21.5309,477.5843],[31.7061,-21.5249,493.9083],[31.7147,-21.5243,494.972],[31.7479,-21.5162,476.3327],[31.7492,-21.4988,454.1063],[31.7479,-21.4877,442.9832],[31.7494,-21.4855,441.5644],[31.756,-21.4777,430.5117],[31.7606,-21.4761,424.9553],[31.779,-21.4603,401.2383],[31.7857,-21.4519,392.5225],[31.7997,-21.4442,380.0331],[31.8059,-21.4388,374.8177],[31.7625,-21.4151,381.3997],[31.7457,-21.418,380.6396],[31.7315,-21.4251,387.3596],[31.7129,-21.4284,396.7165],[31.692,-21.4252,401.568],[31.6772,-21.4159,398.6877],[31.6514,-21.393,401.5314],[31.6141,-21.3916,416.1301],[31.5972,-21.3927,410.7036],[31.5738,-21.3904,414.6682],[31.5555,-21.3906,413.1155],[31.5463,-21.3922,412.0184],[31.5294,-21.3984,420.6635],[31.5154,-21.4105,425.7614],[31.5338,-21.4472,434.8018],[31.5568,-21.4576,441.9532],[31.5681,-21.4666,448.5831],[31.5698,-21.479,445.0009],[31.5665,-21.4875,445.3149],[31.5513,-21.509,450.8058],[31.5549,-21.5163,456.8711],[31.590699999999998,-21.526,450.0633],[31.6015,-21.535,459.921],[31.6069,-21.5461,467.4972],[31.6104,-21.5489,472.8302]]]]}
,"properties": {"GID_3": "ZWE.7.2.32_2","GID_0": "ZWE","country": "Zimbabwe","GID_1": "ZWE.7_1","province": "Masvingo","NL_NAME_1": "NA","GID_2": "ZWE.7.2_2","county": "Chiredzi","NL_NAME_2": "NA","city": "Ward9","VARNAME_3": "NA","NL_NAME_3": "NA","TYPE_3": "Ward","ENGTYPE_3": "Ward","CC_3": "NA","HASC_3": "NA","name": "Ward9.city","area_km2": 318.8485,"hist_schema_id": "Elevation0-9000","hist_area_km2": {"375": 9.138,"400": 61.7726,"425": 140.2309,"450": 72.8736,"475": 30.6912,"500": 4.1422}}}