{"type":"Feature","properties":{"GID_3":"ZWE.7.9.21_2","GID_0":"ZWE","country":"Zimbabwe","GID_1":"ZWE.7_1","province":"Masvingo","NL_NAME_1":"NA","GID_2":"ZWE.7.9_2","county":"Zaka","NL_NAME_2":"NA","city":"Ward28","VARNAME_3":"NA","NL_NAME_3":"NA","TYPE_3":"Ward","ENGTYPE_3":"Ward","CC_3":"NA","HASC_3":"NA","name":"Ward28.city"},
"geometry":{"type": "MultiPolygon","coordinates": [[[[31.3277,-20.5752,582.3433],[31.3263,-20.5884,583.462],[31.3352,-20.5918,574.0095],[31.341,-20.5878,602.3207],[31.3496,-20.5874,605.0187],[31.3568,-20.5905,607.1198],[31.3617,-20.596,638.4767],[31.3801,-20.6077,671.8419],[31.384,-20.6201,682.202],[31.3914,-20.6318,631.1741],[31.3916,-20.6352,633.2346],[31.4121,-20.6336,658.8367],[31.418,-20.6355,648.6101],[31.4283,-20.636,630.8171],[31.4441,-20.6328,617.8243],[31.4493,-20.6291,615.4774],[31.4411,-20.625,622.7137],[31.4348,-20.6193,667.78],[31.433,-20.6059,747.0601],[31.4386,-20.5985,686.2704],[31.4473,-20.5919,656.4623],[31.4467,-20.5853,645.0],[31.4374,-20.5863,650.3097],[31.4359,-20.5815,656.3811],[31.4302,-20.5772,664.137],[31.4347,-20.5633,691.0979],[31.425,-20.5523,717.1299],[31.4212,-20.5425,688.6771],[31.418,-20.5386,676.5243],[31.4081,-20.5443,665.1609],[31.3989,-20.5451,652.1014],[31.3971,-20.547,644.6985],[31.3922,-20.5472,650.7594],[31.3871,-20.5499,631.368],[31.3763,-20.5517,622.1055],[31.3725,-20.5561,619.5941],[31.366,-20.5573,621.5315],[31.3629,-20.5604,604.7626],[31.3544,-20.5611,620.028],[31.353,-20.5635,598.106],[31.3456,-20.5675,593.8711],[31.3387,-20.5663,630.0383],[31.3305,-20.5752,587.4365],[31.3277,-20.5752,582.3433]]]]}}