{"type": "Feature","bbox": [26.5144,-18.3453,26.5459,-18.3111],"geometry": {"type": "MultiPolygon","coordinates": [[[[26.5238,-18.3416,760.4316],[26.5386,-18.3453,755.9634],[26.543,-18.345,756.8323],[26.5457,-18.3431,754.2695],[26.5459,-18.3111,803.7308],[26.5265,-18.3314,777.0842],[26.5229,-18.3319,780.1739],[26.5232,-18.3302,779.7783],[26.5161,-18.3274,789.9693],[26.5144,-18.3336,797.2968],[26.5229,-18.3362,793.078],[26.5238,-18.3416,760.4316]]]]}
,"properties": {"GID_3": "ZWE.8.4.9_2","GID_0": "ZWE","country": "Zimbabwe","GID_1": "ZWE.8_1","province": "MatabelelandNorth","NL_NAME_1": "NA","GID_2": "ZWE.8.4_2","county": "HwangeUrban","NL_NAME_2": "NA","city": "Ward3","VARNAME_3": "NA","NL_NAME_3": "NA","TYPE_3": "Ward","ENGTYPE_3": "Ward","CC_3": "NA","HASC_3": "NA","name": "Ward3.city","area_km2": 6.259236,"hist_schema_id": "Elevation0-9000","hist_area_km2": {"750": 1.891774,"775": 1.267938,"800": 2.093151,"825": 0.825224,"850": 0.181149}}}