{"type":"Feature","properties":{"GID_3":"ZWE.10.7.25_2","GID_0":"ZWE","country":"Zimbabwe","GID_1":"ZWE.10_1","province":"Midlands","NL_NAME_1":"NA","GID_2":"ZWE.10.7_2","county":"Kwekwe","NL_NAME_2":"NA","city":"Ward31","VARNAME_3":"NA","NL_NAME_3":"NA","TYPE_3":"Ward","ENGTYPE_3":"Ward","CC_3":"NA","HASC_3":"NA","name":"Ward31.city"},
"geometry":{"type": "MultiPolygon","coordinates": [[[[29.7299,-18.611,1076.4214],[29.7201,-18.6109,1068.2866],[29.7077,-18.6156,1065.119],[29.6995,-18.6105,1065.3422],[29.6961,-18.6102,1065.7856],[29.6906,-18.6139,1066.8253],[29.6765,-18.6103,1063.9602],[29.6694,-18.605,1062.9379],[29.6655,-18.604,1062.5278],[29.6534,-18.6152,1061.5823],[29.6483,-18.6167,1056.2996],[29.6437,-18.6135,1052.2922],[29.6398,-18.6147,1049.0208],[29.6358,-18.6129,1047.3796],[29.6257,-18.6005,1042.4407],[29.6192,-18.5996,1040.3895],[29.6245,-18.6047,1042.4564],[29.6266,-18.6183,1045.1001],[29.6351,-18.6298,1049.7988],[29.6371,-18.6375,1048.8621],[29.6347,-18.644,1048.0153],[29.6383,-18.6574,1048.9989],[29.6355,-18.6611,1050.957],[29.6289,-18.6639,1057.7089],[29.6272,-18.669,1056.1199],[29.6351,-18.6858,1067.2513],[29.6581,-18.6815,1110.7323],[29.6946,-18.6598,1098.7275],[29.73,-18.6707,1094.0347],[29.7021,-18.7196,1126.0222],[29.6932,-18.7652,1153.1849],[29.6852,-18.7859,1108.0337],[29.6871,-18.7908,1108.8259],[29.6976,-18.8007,1116.4807],[29.7042,-18.8041,1121.6475],[29.7062,-18.8088,1116.2932],[29.7123,-18.8117,1130.0208],[29.7157,-18.8158,1124.1095],[29.7145,-18.8264,1121.6091],[29.7216,-18.8398,1128.5436],[29.7201,-18.8481,1127.7631],[29.7154,-18.856,1128.0841],[29.7181,-18.8583,1135.8181],[29.7223,-18.855,1137.8323],[29.7235,-18.8579,1133.1747],[29.7232,-18.8608,1136.318],[29.7202,-18.8614,1133.118],[29.7174,-18.867,1136.545],[29.7214,-18.8732,1141.679],[29.7279,-18.8737,1172.1237],[29.7294,-18.8765,1149.3093],[29.7286,-18.8824,1139.2588],[29.732,-18.8894,1151.9747],[29.7295,-18.8985,1148.6315],[29.7807,-18.9105,1187.8235],[29.8188,-18.8859,1192.5157],[29.8233,-18.8748,1191.6334],[29.8284,-18.8724,1179.4949],[29.8321,-18.8683,1176.6406],[29.832,-18.8587,1161.9626],[29.8493,-18.8582,1164.7595],[29.8502,-18.8629,1163.7446],[29.8542,-18.8663,1165.511],[29.8656,-18.8679,1174.5308],[29.8677,-18.8659,1165.6099],[29.8694,-18.8587,1174.9708],[29.8712,-18.8578,1176.7284],[29.8743,-18.8661,1165.8501],[29.8829,-18.8683,1170.1467],[29.8918,-18.862,1178.788],[29.8945,-18.862,1170.3491],[29.8969,-18.8687,1168.5996],[29.8997,-18.8708,1172.6184],[29.9137,-18.8409,1200.6554],[29.903,-18.8364,1199.655],[29.9175,-18.8012,1161.2712],[29.8758,-18.7752,1180.8665],[29.8966,-18.7004,1117.4712],[29.8912,-18.7031,1106.1926],[29.8895,-18.6957,1118.3585],[29.884,-18.696,1114.0061],[29.8796,-18.6898,1107.032],[29.8706,-18.6874,1107.6458],[29.8648,-18.6837,1113.8394],[29.8614,-18.6854,1113.3361],[29.8588,-18.6904,1113.5836],[29.8557,-18.6908,1109.4004],[29.8539,-18.6831,1098.6881],[29.8504,-18.6775,1106.6764],[29.8423,-18.6715,1096.0129],[29.8353,-18.6728,1098.7157],[29.8332,-18.6799,1097.6182],[29.8298,-18.682,1096.5867],[29.8145,-18.6738,1098.6202],[29.8061,-18.6747,1097.792],[29.7999,-18.6611,1087.2277],[29.8011,-18.6546,1087.5713],[29.8001,-18.6511,1098.7692],[29.7936,-18.6467,1091.1963],[29.7885,-18.6498,1091.1436],[29.7811,-18.6492,1086.7327],[29.7814,-18.6452,1111.9745],[29.7769,-18.6416,1088.4742],[29.7759,-18.6387,1084.0046],[29.7771,-18.6303,1094.1785],[29.7627,-18.6339,1088.6953],[29.7569,-18.6378,1084.9375],[29.7507,-18.6455,1082.4021],[29.7431,-18.6456,1080.1641],[29.7379,-18.6439,1084.3525],[29.7354,-18.6417,1076.8513],[29.7344,-18.6282,1073.7859],[29.7355,-18.6192,1076.1464],[29.7299,-18.611,1076.4214]]]]}}