{"type":"Feature","properties":{"GID_3":"ZWE.7.9.13_2","GID_0":"ZWE","country":"Zimbabwe","GID_1":"ZWE.7_1","province":"Masvingo","NL_NAME_1":"NA","GID_2":"ZWE.7.9_2","county":"Zaka","NL_NAME_2":"NA","city":"Ward20","VARNAME_3":"NA","NL_NAME_3":"NA","TYPE_3":"Ward","ENGTYPE_3":"Ward","CC_3":"NA","HASC_3":"NA","name":"Ward20.city"},
"geometry":{"type": "MultiPolygon","coordinates": [[[[31.4954,-20.3972,709.453],[31.493,-20.4049,705.7791],[31.4989,-20.4101,702.6409],[31.4998,-20.413,706.8516],[31.4937,-20.4188,699.2919],[31.4931,-20.4271,699.5671],[31.5032,-20.437,700.0702],[31.5033,-20.4428,690.5511],[31.5008,-20.4501,686.0555],[31.5024,-20.4548,680.8811],[31.5053,-20.4542,686.4088],[31.5092,-20.4505,683.3389],[31.5179,-20.4504,676.2195],[31.5208,-20.4449,686.3669],[31.5226,-20.4446,676.6232],[31.5279,-20.4494,678.1375],[31.5247,-20.4695,674.8292],[31.5305,-20.4716,671.1992],[31.546,-20.4831,640.4585],[31.5543,-20.4829,647.5286],[31.5587,-20.4979,630.051],[31.5653,-20.5038,611.1952],[31.5725,-20.5064,603.7025],[31.5821,-20.5068,593.4569],[31.585,-20.5116,550.2325],[31.5867,-20.5087,555.2122],[31.5896,-20.5083,555.9547],[31.5876,-20.5036,559.0034],[31.5952,-20.5017,570.6324],[31.5939,-20.49,571.9499],[31.6006,-20.4848,575.9969],[31.6027,-20.47,599.363],[31.6053,-20.4645,604.2694],[31.6117,-20.4586,602.9146],[31.6131,-20.4491,611.9161],[31.6175,-20.4453,611.9495],[31.6175,-20.4345,624.6261],[31.6203,-20.4311,629.9443],[31.6204,-20.4285,625.8095],[31.6275,-20.4221,630.9706],[31.6273,-20.4145,641.4205],[31.6234,-20.4086,663.6207],[31.6209,-20.3992,673.3582],[31.6203,-20.3882,690.8336],[31.6162,-20.3889,694.259],[31.6032,-20.3963,742.7949],[31.5922,-20.397,883.0927],[31.5887,-20.3952,786.4265],[31.579,-20.3947,784.17],[31.5882,-20.3881,762.3634],[31.5896,-20.3822,735.7043],[31.5838,-20.3829,748.4807],[31.5697,-20.3914,801.4392],[31.5645,-20.3885,746.3245],[31.5602,-20.3881,739.1055],[31.5526,-20.4007,724.651],[31.5437,-20.4091,718.2063],[31.5427,-20.4161,707.4674],[31.5357,-20.4191,702.1535],[31.5302,-20.415,702.3109],[31.5286,-20.408,710.4504],[31.5178,-20.397,725.5271],[31.4991,-20.3957,713.7478],[31.4954,-20.3972,709.453]]]]}}