{"type": "Feature","bbox": [31.0608,-16.9159,31.1944,-16.8116],"geometry": {"type": "MultiPolygon","coordinates": [[[[31.0728,-16.8385,1380.205],[31.0608,-16.9156,1356.6799],[31.0761,-16.9146,1308.1559],[31.0964,-16.9159,1257.5038],[31.1128,-16.9006,1237.8602],[31.1143,-16.863,1330.6198],[31.122,-16.8704,1274.9783],[31.1435,-16.8716,1286.1284],[31.1485,-16.8739,1312.0481],[31.1713,-16.8743,1306.3467],[31.1692,-16.8685,1324.8926],[31.1703,-16.8558,1306.7188],[31.1659,-16.8501,1264.35],[31.1636,-16.8492,1215.9844],[31.1641,-16.8459,1209.4567],[31.1823,-16.8326,1180.0404],[31.1907,-16.8304,1128.6917],[31.1944,-16.8273,1133.6011],[31.1871,-16.8225,1145.0448],[31.1852,-16.8194,1153.9225],[31.1778,-16.8211,1189.147],[31.1722,-16.817,1269.5526],[31.1716,-16.8116,1279.2202],[31.0728,-16.8385,1380.205]]]]}
,"properties": {"GID_3": "ZWE.4.5.1_2","GID_0": "ZWE","country": "Zimbabwe","GID_1": "ZWE.4_1","province": "MashonalandCentral","NL_NAME_1": "NA","GID_2": "ZWE.4.5_2","county": "Mazowe","NL_NAME_2": "NA","city": "Ward1","VARNAME_3": "NA","NL_NAME_3": "NA","TYPE_3": "Ward","ENGTYPE_3": "Ward","CC_3": "NA","HASC_3": "NA","name": "Ward1.city","area_km2": 81.44737,"hist_schema_id": "Elevation0-9000","hist_area_km2": {"1125": 0.14206,"1150": 1.01473,"1175": 1.62354,"1200": 3.02378,"1225": 6.33123,"1250": 10.28739,"1275": 17.34813,"1300": 17.57107,"1325": 14.52792,"1350": 4.3423,"1375": 1.62331,"1400": 1.09574,"1425": 1.5422,"1450": 0.87253,"1475": 0.10145}}}