{"type":"Feature","properties":{"GID_3":"ZWE.10.11.21_2","GID_0":"ZWE","country":"Zimbabwe","GID_1":"ZWE.10_1","province":"Midlands","NL_NAME_1":"NA","GID_2":"ZWE.10.11_2","county":"Shurugwi","NL_NAME_2":"NA","city":"Ward6","VARNAME_3":"NA","NL_NAME_3":"NA","TYPE_3":"Ward","ENGTYPE_3":"Ward","CC_3":"NA","HASC_3":"NA","name":"Ward6.city"},
"geometry":{"type": "MultiPolygon","coordinates": [[[[30.3517,-19.8377,1041.755],[30.3161,-19.8476,1211.7556],[30.2781,-19.8495,1150.5778],[30.1979,-19.887,1056.8541],[30.1956,-19.9261,1052.082],[30.1519,-19.9449,982.0102],[30.145,-19.9596,975.671],[30.143,-19.9678,974.0967],[30.139,-19.9701,972.0546],[30.138,-19.9726,979.826],[30.1442,-19.9861,968.3411],[30.1727,-19.9886,1015.0913],[30.2046,-19.9968,1014.563],[30.2067,-19.9562,1048.8684],[30.2502,-19.9653,1067.823],[30.2513,-19.9197,1110.209],[30.3691,-19.9209,990.9257],[30.3683,-19.9144,994.4487],[30.3705,-19.9063,999.946],[30.3735,-19.9033,993.3977],[30.3727,-19.9005,999.7717],[30.3622,-19.8955,1009.8923],[30.3579,-19.896,1018.4154],[30.3522,-19.8922,1002.6616],[30.352,-19.8763,1015.7019],[30.3497,-19.8691,1034.7488],[30.345,-19.864,1019.8659],[30.35,-19.8564,1024.6188],[30.3487,-19.8525,1021.5812],[30.3536,-19.8446,1023.6313],[30.3517,-19.8377,1041.755]]]]}}