{"type": "Feature","bbox": [29.1069,-19.0636,29.2906,-18.8939],"geometry": {"type": "MultiPolygon","coordinates": [[[[29.2134,-18.8939,1155.3621],[29.2068,-18.8964,1164.7874],[29.197,-18.9083,1173.1968],[29.1731,-18.9133,1194.0626],[29.1609,-18.9112,1200.8945],[29.1551,-18.9474,1230.7452],[29.148,-18.9603,1233.8812],[29.149,-18.9852,1236.176],[29.1464,-18.9899,1239.9763],[29.1491,-18.9906,1234.3209],[29.1488,-18.9917,1236.547],[29.1069,-19.0034,1227.923],[29.1192,-19.0295,1216.4602],[29.114,-19.0397,1221.0223],[29.1138,-19.0484,1220.1182],[29.1514,-19.0567,1260.7202],[29.1717,-19.0636,1291.1689],[29.2317,-19.0231,1230.053],[29.2334,-19.0156,1224.3386],[29.2387,-19.0115,1219.3235],[29.2446,-19.0004,1214.1287],[29.2434,-18.9925,1206.8972],[29.24,-18.9845,1200.0197],[29.2414,-18.9802,1198.7987],[29.2616,-18.9758,1205.0089],[29.2784,-18.9742,1195.5238],[29.2906,-18.9685,1179.571],[29.2872,-18.9597,1178.7976],[29.2821,-18.9596,1175.4939],[29.2793,-18.9578,1179.5934],[29.2778,-18.9416,1172.0599],[29.2725,-18.9412,1172.8621],[29.2681,-18.9383,1173.6423],[29.2622,-18.9394,1171.9413],[29.2572,-18.9359,1174.4231],[29.2494,-18.9351,1166.3385],[29.2415,-18.9299,1162.2698],[29.2358,-18.9235,1160.3247],[29.2377,-18.9181,1161.1262],[29.2276,-18.9084,1162.7842],[29.2205,-18.9061,1159.2566],[29.2184,-18.9004,1160.0764],[29.2134,-18.8939,1155.3621]]]]}
,"properties": {"GID_3": "ZWE.10.7.14_2","GID_0": "ZWE","country": "Zimbabwe","GID_1": "ZWE.10_1","province": "Midlands","NL_NAME_1": "NA","GID_2": "ZWE.10.7_2","county": "Kwekwe","NL_NAME_2": "NA","city": "Ward21","VARNAME_3": "NA","NL_NAME_3": "NA","TYPE_3": "Ward","ENGTYPE_3": "Ward","CC_3": "NA","HASC_3": "NA","name": "Ward21.city","area_km2": 184.0118,"hist_schema_id": "Elevation0-9000","hist_area_km2": {"1150": 1.9456,"1175": 29.942,"1200": 50.051,"1225": 52.5441,"1250": 35.8201,"1275": 13.4083,"1300": 0.3006}}}