{"type":"Feature","properties":{"GID_3":"ZWE.4.1.18_2","GID_0":"ZWE","country":"Zimbabwe","GID_1":"ZWE.4_1","province":"MashonalandCentral","NL_NAME_1":"NA","GID_2":"ZWE.4.1_2","county":"Bindura","NL_NAME_2":"NA","city":"Ward6","VARNAME_3":"NA","NL_NAME_3":"NA","TYPE_3":"Ward","ENGTYPE_3":"Ward","CC_3":"NA","HASC_3":"NA","name":"Ward6.city"},
"geometry":{"type": "MultiPolygon","coordinates": [[[[31.366,-17.324,1054.2356],[31.3694,-17.3384,1038.8237],[31.3581,-17.3415,1060.3188],[31.348,-17.3217,1064.1851],[31.3184,-17.331,1166.9358],[31.3185,-17.3175,1097.2427],[31.2916,-17.3114,1221.1938],[31.2538,-17.3229,1174.9441],[31.2486,-17.3307,1317.9651],[31.1949,-17.341,1178.6021],[31.1513,-17.3533,1162.0924],[31.1371,-17.3652,1145.665],[31.1479,-17.3794,1234.8867],[31.1494,-17.403,1179.8052],[31.1485,-17.4056,1180.9561],[31.1536,-17.4047,1138.9266],[31.1551,-17.4018,1160.5895],[31.1598,-17.3989,1150.9648],[31.1623,-17.3999,1136.5],[31.1664,-17.3955,1136.5],[31.169,-17.396,1136.5],[31.1685,-17.3931,1136.5],[31.17,-17.3921,1151.4821],[31.1746,-17.3922,1136.5],[31.1824,-17.3859,1139.3772],[31.1936,-17.3815,1136.5],[31.1963,-17.3737,1113.8765],[31.2029,-17.3694,1128.5879],[31.2188,-17.3656,1090.5338],[31.2199,-17.3636,1100.3167],[31.2224,-17.3632,1091.3385],[31.2311,-17.3652,1083.885],[31.2316,-17.3623,1105.7072],[31.2395,-17.3623,1095.085],[31.2426,-17.3604,1086.3147],[31.2457,-17.3614,1079.962],[31.2508,-17.3595,1120.8347],[31.2579,-17.3605,1079.6648],[31.2631,-17.3567,1072.0566],[31.2825,-17.3568,1063.6191],[31.2897,-17.3534,1068.5229],[31.2958,-17.3579,1060.9739],[31.2983,-17.3579,1050.3346],[31.2978,-17.356,1060.0684],[31.3009,-17.355,1056.2563],[31.3187,-17.3601,1044.0491],[31.3198,-17.3586,1042.5388],[31.3228,-17.3601,1041.098],[31.3346,-17.3578,1053.637],[31.340699999999998,-17.3598,1041.5602],[31.3433,-17.3573,1030.3408],[31.354,-17.3569,1028.4811],[31.356,-17.3594,1025.1481],[31.3596,-17.358,1027.1432],[31.3601,-17.3604,1025.3616],[31.3647,-17.3624,1025.0583],[31.3677,-17.3615,1026.766],[31.3794,-17.3689,1024.5],[31.3841,-17.3694,1057.7188],[31.3834,-17.367,1038.5808],[31.3862,-17.3663,1056.6539],[31.3777,-17.3136,1063.649],[31.3646,-17.318,1071.4866],[31.366,-17.324,1054.2356]]]]}}