{"type": "Feature","bbox": [32.0889,-19.4581,32.2418,-19.2431],"geometry": {"type": "MultiPolygon","coordinates": [[[[32.1098,-19.3972,715.8206],[32.1113,-19.4011,707.2111],[32.1254,-19.4076,704.3054],[32.1304,-19.4156,701.402],[32.1398,-19.4211,699.7346],[32.1466,-19.4343,692.4882],[32.16,-19.4467,687.8909],[32.1653,-19.4581,682.7142],[32.1721,-19.4451,691.8225],[32.1725,-19.4388,702.9911],[32.1795,-19.4325,704.2521],[32.1823,-19.4246,709.3627],[32.1885,-19.4219,723.8005],[32.1935,-19.4228,720.4032],[32.2003,-19.4122,730.5005],[32.2019,-19.3986,737.2067],[32.2077,-19.3771,755.039],[32.2108,-19.3731,759.3571],[32.2113,-19.3669,770.4305],[32.2128,-19.3671,770.4305],[32.2135,-19.364,768.1042],[32.2193,-19.3581,773.0497],[32.2178,-19.3549,778.8759],[32.2195,-19.348,787.3308],[32.2175,-19.3319,813.2228],[32.2188,-19.3255,824.9225],[32.2214,-19.3194,835.4739],[32.2273,-19.3146,843.378],[32.2278,-19.3038,866.0913],[32.23,-19.2985,875.8706],[32.2326,-19.28,907.4365],[32.2352,-19.2724,925.7748],[32.2407,-19.2635,923.8447],[32.2418,-19.2484,926.7137],[32.2402,-19.2515,914.7469],[32.2347,-19.2552,898.2071],[32.2269,-19.2576,894.5473],[32.2193,-19.2567,878.1079],[32.2044,-19.2468,851.1887],[32.2004,-19.2455,850.2751],[32.1973,-19.2473,843.3334],[32.1926,-19.2435,836.2968],[32.1896,-19.2445,831.3444],[32.1866,-19.2431,830.1931],[32.1845,-19.2443,832.296],[32.1845,-19.2468,829.7404],[32.1809,-19.2525,820.9377],[32.1631,-19.2653,802.703],[32.1545,-19.2785,783.1302],[32.1511,-19.2791,791.6808],[32.1471,-19.2824,776.2812],[32.1314,-19.285,764.4113],[32.1276,-19.2887,761.8986],[32.1265,-19.2863,763.6293],[32.1235,-19.2855,779.7834],[32.1228,-19.2924,764.6079],[32.1155,-19.304,758.9222],[32.1141,-19.3099,756.6929],[32.1068,-19.3125,760.5934],[32.1041,-19.3177,752.9229],[32.1003,-19.3196,750.3351],[32.096,-19.3262,748.5747],[32.0889,-19.3328,742.9192],[32.0931,-19.3585,729.5859],[32.1016,-19.3709,729.8892],[32.1032,-19.3856,716.3855],[32.1098,-19.3972,715.8206]]]]}
,"properties": {"GID_3": "ZWE.3.6.8_2","GID_0": "ZWE","country": "Zimbabwe","GID_1": "ZWE.3_1","province": "Manicaland","NL_NAME_1": "NA","GID_2": "ZWE.3.6_2","county": "Mutare","NL_NAME_2": "NA","city": "Ward16","VARNAME_3": "NA","NL_NAME_3": "NA","TYPE_3": "Ward","ENGTYPE_3": "Ward","CC_3": "NA","HASC_3": "NA","name": "Ward16.city","area_km2": 211.6595,"hist_schema_id": "Elevation0-9000","hist_area_km2": {"675": 0.04,"700": 7.0582,"725": 19.4781,"750": 35.1618,"775": 35.5274,"800": 31.8907,"825": 25.1712,"850": 15.5883,"875": 14.3886,"900": 12.3675,"925": 6.2235,"950": 2.7414,"975": 1.901,"1000": 1.2206,"1025": 1.1406,"1050": 0.6803,"1075": 0.3802,"1100": 0.3202,"1125": 0.2401,"1150": 0.1,"1175": 0.04}}}