{"type":"Feature","properties":{"GID_3":"ZWE.4.1.8_2","GID_0":"ZWE","country":"Zimbabwe","GID_1":"ZWE.4_1","province":"MashonalandCentral","NL_NAME_1":"NA","GID_2":"ZWE.4.1_2","county":"Bindura","NL_NAME_2":"NA","city":"Ward16","VARNAME_3":"NA","NL_NAME_3":"NA","TYPE_3":"Ward","ENGTYPE_3":"Ward","CC_3":"NA","HASC_3":"NA","name":"Ward16.city"},
"geometry":{"type": "MultiPolygon","coordinates": [[[[31.3839,-17.5303,1198.2202],[31.389,-17.5342,1221.6538],[31.4018,-17.5397,1255.3434],[31.4151,-17.5372,1325.7507],[31.4265,-17.5413,1323.9379],[31.4121,-17.5594,1267.8367],[31.4156,-17.5641,1248.9211],[31.4231,-17.5604,1236.8065],[31.4268,-17.5612,1230.8296],[31.4301,-17.5671,1229.4221],[31.4325,-17.5765,1208.0776],[31.4356,-17.5809,1199.1396],[31.4586,-17.5625,1199.4824],[31.4695,-17.5828,1158.8359],[31.47,-17.579,1164.9],[31.4756,-17.5716,1157.5078],[31.4727,-17.5658,1150.9596],[31.4739,-17.5589,1168.0469],[31.4829,-17.5501,1146.7825],[31.4838,-17.5462,1183.6902],[31.5062,-17.5174,1142.859],[31.5073,-17.5144,1150.1465],[31.5053,-17.5089,1145.4702],[31.508,-17.5051,1146.3518],[31.5087,-17.5001,1135.4124],[31.4585,-17.5091,1356.6827],[31.385,-17.5144,1154.3751],[31.3825,-17.5195,1174.6331],[31.3839,-17.5303,1198.2202]]]]}}