{"type":"Feature","properties":{"GID_3":"ZWE.4.7.9_2","GID_0":"ZWE","country":"Zimbabwe","GID_1":"ZWE.4_1","province":"MashonalandCentral","NL_NAME_1":"NA","GID_2":"ZWE.4.7_2","county":"MountDarwin","NL_NAME_2":"NA","city":"Ward17","VARNAME_3":"NA","NL_NAME_3":"NA","TYPE_3":"Ward","ENGTYPE_3":"Ward","CC_3":"NA","HASC_3":"NA","name":"Ward17.city"},
"geometry":{"type": "MultiPolygon","coordinates": [[[[31.6115,-16.6109,954.2456],[31.6065,-16.607,953.4394],[31.6036,-16.6093,969.2591],[31.5975,-16.6062,967.5585],[31.5976,-16.6026,970.5948],[31.5994,-16.6006,979.352],[31.5955,-16.5993,970.7111],[31.5893,-16.5914,980.2737],[31.5885,-16.5875,989.1072],[31.5733,-16.5807,1009.2169],[31.5721,-16.5781,1010.7596],[31.5673,-16.5786,1018.272],[31.5648,-16.5773,1026.1285],[31.5535,-16.5816,1067.7007],[31.5398,-16.5816,1046.9935],[31.54,-16.5748,1057.667],[31.5372,-16.5724,1074.3418],[31.5235,-16.5729,1116.1877],[31.5198,-16.5714,1102.6482],[31.514,-16.557,1039.9692],[31.5032,-16.5458,1039.1787],[31.5,-16.5476,1014.8464],[31.4968,-16.5466,1015.9604],[31.4971,-16.5497,1002.4492],[31.4942,-16.5491,1019.5801],[31.4947,-16.5528,1003.6761],[31.4921,-16.5585,996.2511],[31.4888,-16.5583,1002.1348],[31.487,-16.563,994.5959],[31.4877,-16.5663,991.0303],[31.4827,-16.5702,989.1806],[31.4953,-16.5778,995.7265],[31.4961,-16.5808,978.3654],[31.4925,-16.5863,986.0923],[31.4919,-16.5923,972.6879],[31.498,-16.6017,970.3826],[31.501,-16.601,996.469],[31.5037,-16.604,973.5473],[31.5012,-16.6089,966.5538],[31.502,-16.618,961.7261],[31.4971,-16.6186,977.8743],[31.4954,-16.6208,966.5749],[31.4992,-16.6229,970.3717],[31.5023,-16.6226,977.4349],[31.5038,-16.6278,953.585],[31.5075,-16.6283,960.9768],[31.5109,-16.6332,946.7477],[31.5132,-16.6325,963.5817],[31.5169,-16.6344,950.603],[31.5176,-16.6379,949.8531],[31.5262,-16.6415,949.5832],[31.527,-16.6507,938.5498],[31.5298,-16.657,940.4478],[31.542,-16.6648,935.0936],[31.5457,-16.6634,935.3944],[31.5424,-16.6714,924.1252],[31.5472,-16.6737,936.7924],[31.5443,-16.6766,918.9357],[31.5448,-16.6812,927.481],[31.5527,-16.6893,920.9783],[31.5585,-16.6897,930.7418],[31.5597,-16.6828,966.1895],[31.5646,-16.6788,964.4282],[31.5643,-16.6711,972.3743],[31.5678,-16.6645,985.0216],[31.5659,-16.6575,977.9896],[31.5778,-16.644,963.1933],[31.5763,-16.6378,969.2116],[31.5817,-16.636,964.6531],[31.5833,-16.6291,943.1328],[31.5887,-16.6294,946.2585],[31.5935,-16.6378,930.0339],[31.5993,-16.6406,939.7136],[31.5996,-16.6428,926.6411],[31.6129,-16.6392,932.0197],[31.6122,-16.6265,938.7065],[31.6154,-16.6241,939.4008],[31.6161,-16.6179,948.1025],[31.6115,-16.6109,954.2456]]]]}}