{"type": "Feature","bbox": [31.5632,-17.3026,31.5809,-17.2849],"geometry": {"type": "MultiPolygon","coordinates": [[[[31.5809,-17.2945,939.928],[31.5699,-17.2849,938.6957],[31.5632,-17.3026,945.142],[31.5806,-17.3026,924.5804],[31.5809,-17.2945,939.928]]]]}
,"properties": {"GID_3": "ZWE.4.10.15_2","GID_0": "ZWE","country": "Zimbabwe","GID_1": "ZWE.4_1","province": "MashonalandCentral","NL_NAME_1": "NA","GID_2": "ZWE.4.10_2","county": "Shamva","NL_NAME_2": "NA","city": "Ward22","VARNAME_3": "NA","NL_NAME_3": "NA","TYPE_3": "Ward","ENGTYPE_3": "Ward","CC_3": "NA","HASC_3": "NA","name": "Ward22.city","area_km2": 2.489944,"hist_schema_id": "Elevation0-9000","hist_area_km2": {"925": 0.485833,"950": 1.882653,"975": 0.121458}}}