{"type": "Feature","bbox": [30.5178,-16.4572,30.7497,-16.3608],"geometry": {"type": "MultiPolygon","coordinates": [[[[30.6751,-16.4284,1079.8276],[30.6997,-16.4249,1032.1151],[30.7043,-16.4278,1008.4099],[30.7175,-16.4248,986.8712],[30.7256,-16.4306,977.738],[30.731,-16.4315,989.6148],[30.7328,-16.4333,983.8265],[30.7387,-16.4334,939.8243],[30.7419,-16.4299,923.2181],[30.7459,-16.4308,883.1266],[30.7487,-16.4274,924.5587],[30.7497,-16.4217,878.7325],[30.7447,-16.419,854.1257],[30.7466,-16.4164,792.6466],[30.7452,-16.4151,788.0833],[30.7457,-16.4112,740.2461],[30.7417,-16.4068,752.5775],[30.7407,-16.4004,700.5376],[30.7239,-16.3954,621.0517],[30.7155,-16.394,809.4385],[30.6912,-16.3966,1030.6835],[30.6646,-16.3961,1057.5781],[30.6469,-16.4005,1130.55],[30.6399,-16.3911,1082.5554],[30.6272,-16.3862,886.6149],[30.6232,-16.3773,697.2748],[30.6167,-16.3761,712.1644],[30.594,-16.3783,775.0494],[30.581,-16.3722,797.9025],[30.5696,-16.3699,723.5776],[30.5483,-16.3694,619.9797],[30.5367,-16.3637,783.7916],[30.526,-16.3609,786.0065],[30.5178,-16.3608,499.4095],[30.519,-16.3616,538.7812],[30.5184,-16.365,531.9586],[30.5204,-16.367,512.3031],[30.5204,-16.373,534.56],[30.5219,-16.374,592.7922],[30.5223,-16.379,554.0858],[30.5197,-16.3859,614.5253],[30.533,-16.389,597.796],[30.5324,-16.3939,665.8212],[30.5396,-16.398,674.4893],[30.5359,-16.4034,697.3562],[30.5487,-16.4021,668.5663],[30.5518,-16.4065,702.0262],[30.5559,-16.4041,680.4],[30.5584,-16.4071,705.1182],[30.5501,-16.4164,744.3508],[30.5521,-16.4224,777.006],[30.5551,-16.4239,771.2211],[30.5556,-16.4289,800.2115],[30.5499,-16.4318,794.3452],[30.5473,-16.4367,795.5623],[30.5521,-16.4439,853.6814],[30.6072,-16.4542,1014.4955],[30.6453,-16.4572,1080.3633],[30.6502,-16.4384,1135.2062],[30.6574,-16.43,1101.6339],[30.6751,-16.4284,1079.8276]]]]}
,"properties": {"GID_3": "ZWE.4.4.13_2","GID_0": "ZWE","country": "Zimbabwe","GID_1": "ZWE.4_1","province": "MashonalandCentral","NL_NAME_1": "NA","GID_2": "ZWE.4.4_2","county": "Guruve","NL_NAME_2": "NA","city": "Ward20","VARNAME_3": "NA","NL_NAME_3": "NA","TYPE_3": "Ward","ENGTYPE_3": "Ward","CC_3": "NA","HASC_3": "NA","name": "Ward20.city","area_km2": 132.9928,"hist_schema_id": "Elevation0-9000","hist_area_km2": {"475": 0.0203,"500": 0.1017,"525": 0.0814,"550": 0.061,"575": 0.2238,"600": 0.5899,"625": 1.3222,"650": 1.7493,"675": 2.4612,"700": 3.3969,"725": 4.78,"750": 5.6954,"775": 6.0819,"800": 5.0648,"825": 4.7189,"850": 4.5358,"875": 4.9628,"900": 4.6779,"925": 5.3694,"950": 5.5727,"975": 6.8741,"1000": 11.6329,"1025": 13.7479,"1050": 14.5207,"1075": 11.3481,"1100": 8.2364,"1125": 4.0063,"1150": 0.9965,"1175": 0.122,"1200": 0.0407}}}