{"type": "Feature","bbox": [31.165,-22.3935,31.681,-21.9742],"geometry": {"type": "MultiPolygon","coordinates": [[[[31.681,-22.0682,456.0549],[31.6615,-22.02,447.3712],[31.6486,-21.9958,434.0451],[31.5323,-22.1161,293.6377],[31.5003,-22.1618,295.7847],[31.4599,-22.2032,266.9708],[31.4483,-22.2177,249.3587],[31.4268,-22.145,242.4329],[31.4471,-22.0434,257.4716],[31.3996,-22.0513,262.1698],[31.3978,-22.0384,287.6546],[31.3814,-22.0011,331.1891],[31.385,-21.9976,343.5823],[31.3815,-21.9989,334.4929],[31.3681,-21.9747,334.8705],[31.3643,-21.9742,342.8594],[31.2244,-22.0029,501.8892],[31.2248,-22.018,498.3026],[31.2357,-22.0597,422.4005],[31.2297,-22.0809,307.1312],[31.2303,-22.1029,316.9933],[31.2322,-22.1128,305.6826],[31.213,-22.1156,322.2791],[31.2048,-22.1201,332.1158],[31.1941,-22.1299,353.737],[31.1743,-22.1433,385.0351],[31.1816,-22.1472,384.7852],[31.1767,-22.1545,379.2881],[31.1678,-22.1612,379.7354],[31.165,-22.1698,362.0224],[31.1722,-22.1782,346.6555],[31.1762,-22.1866,334.6582],[31.1877,-22.1799,350.7392],[31.1935,-22.1716,369.0679],[31.1937,-22.1618,382.6151],[31.1994,-22.158,382.9406],[31.2148,-22.1628,368.2684],[31.2302,-22.1751,357.7268],[31.2374,-22.1843,333.139],[31.2955,-22.2335,320.7513],[31.3042,-22.264,303.4525],[31.3212,-22.2748,304.7458],[31.3269,-22.3175,290.5685],[31.3325,-22.3346,278.7628],[31.3339,-22.3468,272.3692],[31.3367,-22.3559,267.6687],[31.3428,-22.3654,268.565],[31.3495,-22.3935,237.4993],[31.3815,-22.3718,295.5596],[31.4699,-22.2836,214.2703],[31.4815,-22.2695,232.6514],[31.4867,-22.2666,231.8869],[31.4977,-22.2555,247.7252],[31.504,-22.2515,247.647],[31.5287,-22.2211,256.6233],[31.5374,-22.2148,247.7038],[31.5903,-22.1595,311.8247],[31.6113,-22.1408,321.9019],[31.681,-22.0682,456.0549]]]]}
,"properties": {"GID_3": "ZWE.7.2.7_2","GID_0": "ZWE","country": "Zimbabwe","GID_1": "ZWE.7_1","province": "Masvingo","NL_NAME_1": "NA","GID_2": "ZWE.7.2_2","county": "Chiredzi","NL_NAME_2": "NA","city": "Ward15","VARNAME_3": "NA","NL_NAME_3": "NA","TYPE_3": "Ward","ENGTYPE_3": "Ward","CC_3": "NA","HASC_3": "NA","name": "Ward15.city","area_km2": 989.5058,"hist_schema_id": "Elevation0-9000","hist_area_km2": {"200": 21.7585,"225": 161.4582,"250": 152.6538,"275": 170.3827,"300": 156.1745,"325": 93.7256,"350": 66.438,"375": 49.9236,"400": 39.0451,"425": 39.4037,"450": 26.3159,"475": 10.3785,"500": 1.8478}}}