{"type":"Feature","properties":{"GID_3":"ZWE.4.1.16_2","GID_0":"ZWE","country":"Zimbabwe","GID_1":"ZWE.4_1","province":"MashonalandCentral","NL_NAME_1":"NA","GID_2":"ZWE.4.1_2","county":"Bindura","NL_NAME_2":"NA","city":"Ward4","VARNAME_3":"NA","NL_NAME_3":"NA","TYPE_3":"Ward","ENGTYPE_3":"Ward","CC_3":"NA","HASC_3":"NA","name":"Ward4.city"},
"geometry":{"type": "MultiPolygon","coordinates": [[[[31.2811,-17.1956,1083.5182],[31.3312,-17.1918,1101.8171],[31.3618,-17.1943,1311.3549],[31.3895,-17.2091,1029.5687],[31.4358,-17.2213,1114.7291],[31.4451,-17.2028,1269.095],[31.4735,-17.2037,1230.9352],[31.4745,-17.1767,1187.7419],[31.4218,-17.1774,1138.8027],[31.4393,-17.1369,1257.6748],[31.4095,-17.1244,1181.8922],[31.4344,-17.0931,1040.64],[31.4301,-17.0878,1060.4242],[31.4273,-17.0887,1049.724],[31.4267,-17.0853,1056.9417],[31.4247,-17.0853,1046.9366],[31.4241,-17.0812,1061.4589],[31.4206,-17.0809,1057.5692],[31.4192,-17.0781,1063.5259],[31.4168,-17.0785,1061.6395],[31.4145,-17.0756,1074.9246],[31.4066,-17.0722,1071.8755],[31.4076,-17.0705,1077.0779],[31.4059,-17.0696,1069.5686],[31.4062,-17.0658,1085.6219],[31.4047,-17.0646,1085.6219],[31.3992,-17.0665,1079.1875],[31.3951,-17.0648,1083.3813],[31.3934,-17.0608,1093.7866],[31.3916,-17.0609,1092.8347],[31.3903,-17.0633,1086.3295],[31.3857,-17.0601,1099.8768],[31.3833,-17.061,1115.484],[31.3819,-17.0648,1096.771],[31.3798,-17.0631,1100.6689],[31.3755,-17.0639,1104.7059],[31.3748,-17.0614,1115.6464],[31.3726,-17.0635,1108.5496],[31.3699,-17.0609,1119.5026],[31.3659,-17.0625,1122.7048],[31.3609,-17.0609,1140.9595],[31.3586,-17.0646,1161.3088],[31.371,-17.0953,1160.3085],[31.3608,-17.0964,1128.7014],[31.3613,-17.0987,1133.6123],[31.3565,-17.1021,1149.4636],[31.3606,-17.1096,1146.0422],[31.3606,-17.1148,1156.9631],[31.3326,-17.1441,1142.5371],[31.3322,-17.1478,1138.4561],[31.3239,-17.1445,1260.8423],[31.3081,-17.1599,1124.2351],[31.2811,-17.1956,1083.5182]]]]}}