{"type":"Feature","properties":{"GID_3":"ZWE.8.3.4_2","GID_0":"ZWE","country":"Zimbabwe","GID_1":"ZWE.8_1","province":"MatabelelandNorth","NL_NAME_1":"NA","GID_2":"ZWE.8.3_2","county":"Hwange","NL_NAME_2":"NA","city":"Ward12","VARNAME_3":"NA","NL_NAME_3":"NA","TYPE_3":"Ward","ENGTYPE_3":"Ward","CC_3":"NA","HASC_3":"NA","name":"Ward12.city"},
"geometry":{"type": "MultiPolygon","coordinates": [[[[26.5465,-18.2793,762.5792],[26.6015,-18.3411,736.5916],[26.6189,-18.3212,758.5934],[26.6338,-18.3251,723.0996],[26.6475,-18.3262,678.092],[26.6592,-18.3401,772.3016],[26.6681,-18.3473,822.6387],[26.6941,-18.3392,734.0612],[26.7072,-18.3335,783.6563],[26.7122,-18.3045,716.6445],[26.731,-18.2964,697.9205],[26.7477,-18.2968,710.6581],[26.7529,-18.2925,700.3815],[26.7551,-18.2934,720.5359],[26.7564,-18.2965,728.4746],[26.7606,-18.2965,740.2081],[26.8028,-18.2722,739.9319],[26.8211,-18.2596,665.0928],[26.835,-18.2483,551.9019],[26.8373,-18.2455,548.1552],[26.8358,-18.2433,585.1012],[26.8374,-18.2415,607.9297],[26.8444,-18.2383,542.6109],[26.8487,-18.234,567.1095],[26.8524,-18.2267,608.2087],[26.8642,-18.215,556.7086],[26.8732,-18.2007,537.1117],[26.8746,-18.1959,540.8843],[26.873,-18.1929,609.5538],[26.8688,-18.1913,564.2751],[26.8629,-18.1973,540.2687],[26.859,-18.1982,547.3801],[26.8527,-18.2035,557.6626],[26.8457,-18.1953,651.9289],[26.8404,-18.2006,588.3456],[26.8397,-18.2108,568.7115],[26.8371,-18.2167,571.2572],[26.8343,-18.2179,595.1865],[26.8301,-18.2162,595.291],[26.8341,-18.2099,608.0094],[26.8336,-18.2075,613.6021],[26.8309,-18.2058,615.4047],[26.8259,-18.2054,657.3889],[26.8207,-18.2112,654.7892],[26.8142,-18.2143,640.4622],[26.8119,-18.2132,643.5858],[26.8104,-18.2077,696.2014],[26.8073,-18.2078,684.743],[26.8054,-18.2051,700.4663],[26.7937,-18.2071,704.0591],[26.7815,-18.2031,751.1942],[26.7653,-18.2051,704.0624],[26.7587,-18.2075,668.1571],[26.7543,-18.2155,677.3801],[26.7498,-18.2152,647.8766],[26.7423,-18.211,658.5279],[26.7316,-18.2148,647.6273],[26.7209,-18.2003,629.4468],[26.717,-18.1881,661.7985],[26.7206,-18.1545,836.9101],[26.6946,-18.1444,637.2184],[26.6829,-18.1352,548.4794],[26.68,-18.1369,540.3187],[26.6759,-18.1364,559.2605],[26.6706,-18.1418,538.6859],[26.6589,-18.1478,550.0574],[26.6426,-18.1605,594.3694],[26.6419,-18.1649,553.4831],[26.6362,-18.1683,566.8989],[26.6251,-18.1867,565.5999],[26.6203,-18.1878,578.5222],[26.6135,-18.1855,574.0493],[26.5994,-18.192,586.9486],[26.5893,-18.1915,594.6459],[26.5876,-18.1938,574.3444],[26.5885,-18.1947,577.5186],[26.5661,-18.2103,624.5394],[26.5494,-18.2287,642.8323],[26.5336,-18.2463,650.1748],[26.5326,-18.2619,700.4921],[26.5466,-18.2775,782.301],[26.5465,-18.2793,762.5792]]]]}}