{"type": "Feature","bbox": [32.8314,-18.5012,32.8692,-18.4663],"geometry": {"type": "MultiPolygon","coordinates": [[[[32.869,-18.4866,751.1376],[32.8673,-18.4833,752.6552],[32.8692,-18.4752,757.7587],[32.8642,-18.469,761.2481],[32.8585,-18.4663,767.9578],[32.8529,-18.4697,782.4197],[32.8485,-18.469,817.4303],[32.8382,-18.4765,852.2642],[32.8314,-18.4772,890.3876],[32.8425,-18.4991,787.5323],[32.8475,-18.5012,805.8203],[32.8563,-18.4938,788.1757],[32.869,-18.4866,751.1376]]]]}
,"properties": {"GID_3": "ZWE.3.8.25_2","GID_0": "ZWE","country": "Zimbabwe","GID_1": "ZWE.3_1","province": "Manicaland","NL_NAME_1": "NA","GID_2": "ZWE.3.8_2","county": "Mutasa","NL_NAME_2": "NA","city": "Ward31","VARNAME_3": "NA","NL_NAME_3": "NA","TYPE_3": "Ward","ENGTYPE_3": "Ward","CC_3": "NA","HASC_3": "NA","name": "Ward31.city","area_km2": 9.229846,"hist_schema_id": "Elevation0-9000","hist_area_km2": {"750": 0.723913,"775": 2.674443,"800": 3.45865,"825": 1.447834,"850": 0.542939,"875": 0.301632,"900": 0.080436}}}