{"type":"Feature","properties":{"GID_3":"ZWE.4.5.10_2","GID_0":"ZWE","country":"Zimbabwe","GID_1":"ZWE.4_1","province":"MashonalandCentral","NL_NAME_1":"NA","GID_2":"ZWE.4.5_2","county":"Mazowe","NL_NAME_2":"NA","city":"Ward18","VARNAME_3":"NA","NL_NAME_3":"NA","TYPE_3":"Ward","ENGTYPE_3":"Ward","CC_3":"NA","HASC_3":"NA","name":"Ward18.city"},
"geometry":{"type": "MultiPolygon","coordinates": [[[[31.1485,-17.4056,1180.9561],[31.1494,-17.403,1179.8052],[31.1479,-17.3794,1234.8867],[31.1367,-17.3646,1143.0498],[31.1238,-17.3349,1114.4736],[31.115,-17.3194,1092.1923],[31.1154,-17.3113,1096.2646],[31.1052,-17.3088,1098.6018],[31.0992,-17.3096,1100.5374],[31.0959,-17.3127,1098.2104],[31.0945,-17.3171,1100.6636],[31.0913,-17.3163,1103.7006],[31.0901,-17.3257,1101.3765],[31.0862,-17.3269,1109.3267],[31.0855,-17.3347,1113.7675],[31.0812,-17.3399,1109.2419],[31.0815,-17.3457,1109.0667],[31.0881,-17.3506,1129.3269],[31.0888,-17.3595,1118.778],[31.082,-17.3646,1123.9105],[31.0826,-17.3688,1131.0],[31.0766,-17.3714,1132.3748],[31.0764,-17.3758,1131.0],[31.0724,-17.3822,1140.1006],[31.0731,-17.3872,1137.9038],[31.061,-17.3974,1143.1277],[31.0823,-17.4112,1409.8582],[31.0759,-17.4234,1391.3015],[31.0534,-17.43,1394.322],[31.0767,-17.4536,1192.8853],[31.0564,-17.4854,1348.5461],[31.097,-17.4916,1328.9569],[31.0994,-17.4797,1318.085],[31.1162,-17.4753,1217.5393],[31.1199,-17.4724,1219.0249],[31.1193,-17.47,1225.6353],[31.1251,-17.4687,1217.0],[31.1264,-17.4653,1233.0558],[31.1346,-17.4652,1240.3328],[31.1407,-17.456,1234.0651],[31.1458,-17.4517,1183.075],[31.1437,-17.4482,1197.8395],[31.1381,-17.4458,1180.1541],[31.138,-17.4399,1185.1143],[31.1423,-17.4296,1170.073],[31.1451,-17.4272,1156.7896],[31.1449,-17.4232,1171.0341],[31.1485,-17.4163,1150.2649],[31.1469,-17.4128,1154.3157],[31.1485,-17.4056,1180.9561]]]]}}