{"type": "Feature","bbox": [30.143,-20.1006,30.2973,-20.0035],"geometry": {"type": "MultiPolygon","coordinates": [[[[30.2715,-20.0946,942.0057],[30.2779,-20.0852,954.0748],[30.284,-20.0857,972.8833],[30.282,-20.0807,960.9636],[30.2834,-20.0689,976.9147],[30.2851,-20.0647,986.3909],[30.2942,-20.0568,995.1725],[30.2935,-20.048,1001.9894],[30.2973,-20.0408,1016.5606],[30.2892,-20.0181,1047.3453],[30.2773,-20.0035,1044.3413],[30.2405,-20.0081,1004.1402],[30.2238,-20.0125,1010.1627],[30.2198,-20.0168,999.5348],[30.1501,-20.0233,977.517],[30.1445,-20.0242,956.6622],[30.143,-20.0265,950.549],[30.144,-20.0333,943.7126],[30.151,-20.0365,943.7621],[30.1604,-20.044,940.3314],[30.1668,-20.0436,941.2587],[30.1708,-20.0546,931.5911],[30.1914,-20.0665,923.1663],[30.1853,-20.0806,916.792],[30.1863,-20.0844,919.0468],[30.185,-20.0891,910.1808],[30.1875,-20.098,902.2753],[30.2013,-20.0932,945.9086],[30.2102,-20.0925,956.9997],[30.2506,-20.0966,953.5062],[30.2569,-20.1006,935.2448],[30.2594,-20.0986,937.1602],[30.2704,-20.0964,940.8043],[30.2715,-20.0946,942.0057]]]]}
,"properties": {"GID_3": "ZWE.7.4.1_2","GID_0": "ZWE","country": "Zimbabwe","GID_1": "ZWE.7_1","province": "Masvingo","NL_NAME_1": "NA","GID_2": "ZWE.7.4_2","county": "Chivi","NL_NAME_2": "NA","city": "Ward1","VARNAME_3": "NA","NL_NAME_3": "NA","TYPE_3": "Ward","ENGTYPE_3": "Ward","CC_3": "NA","HASC_3": "NA","name": "Ward1.city","area_km2": 111.39686,"hist_schema_id": "Elevation0-9000","hist_area_km2": {"900": 0.11947,"925": 5.07808,"950": 32.16365,"975": 34.05781,"1000": 22.42809,"1025": 14.16317,"1050": 3.38658}}}