{"type": "Feature","bbox": [30.6824,-18.5331,30.7905,-18.373],"geometry": {"type": "MultiPolygon","coordinates": [[[[30.7822,-18.373,1290.7164],[30.7739,-18.3797,1289.7609],[30.7661,-18.3939,1297.6622],[30.7502,-18.3996,1298.1761],[30.7478,-18.402,1292.45],[30.7463,-18.4071,1291.7183],[30.7362,-18.3933,1283.6572],[30.726,-18.3851,1282.9734],[30.7149,-18.3813,1275.7509],[30.7088,-18.3838,1276.4501],[30.6991,-18.3927,1292.6067],[30.6992,-18.3999,1297.4059],[30.6913,-18.4015,1288.856],[30.6824,-18.4062,1278.0127],[30.6847,-18.4156,1273.1328],[30.6879,-18.4159,1273.5713],[30.6917,-18.4212,1274.4503],[30.6917,-18.428,1276.0524],[30.6994,-18.436,1281.0858],[30.7003,-18.4454,1279.4374],[30.7028,-18.4478,1281.4827],[30.7044,-18.4467,1281.4827],[30.7057,-18.4487,1281.3086],[30.7062,-18.4472,1286.1189],[30.7077,-18.448,1281.9583],[30.7098,-18.4579,1283.0419],[30.7164,-18.4661,1283.3352],[30.7216,-18.4766,1286.8279],[30.7221,-18.4794,1287.1555],[30.7199,-18.4859,1290.4575],[30.7289,-18.4962,1294.2374],[30.7363,-18.4978,1299.5933],[30.7434,-18.5033,1299.2305],[30.7419,-18.5098,1305.6429],[30.7461,-18.5242,1328.1833],[30.7447,-18.5286,1332.3458],[30.7473,-18.5331,1339.7789],[30.7538,-18.5268,1330.6028],[30.7652,-18.506,1346.3613],[30.7667,-18.499,1344.3743],[30.7661,-18.4857,1343.8291],[30.7697,-18.4542,1327.0422],[30.7709,-18.4131,1292.8635],[30.7743,-18.4115,1292.7909],[30.7793,-18.4059,1291.9548],[30.7858,-18.4035,1290.6562],[30.7888,-18.3986,1291.0614],[30.7881,-18.3942,1294.7793],[30.7905,-18.3915,1289.0648],[30.7869,-18.3854,1291.0159],[30.787,-18.3826,1297.4647],[30.7815,-18.3778,1288.9829],[30.7833,-18.3752,1286.6174],[30.7822,-18.373,1290.7164]]]]}
,"properties": {"GID_3": "ZWE.6.1.26_2","GID_0": "ZWE","country": "Zimbabwe","GID_1": "ZWE.6_1","province": "MashonalandWest","NL_NAME_1": "NA","GID_2": "ZWE.6.1_2","county": "Chegutu","NL_NAME_2": "NA","city": "Ward6","VARNAME_3": "NA","NL_NAME_3": "NA","TYPE_3": "Ward","ENGTYPE_3": "Ward","CC_3": "NA","HASC_3": "NA","name": "Ward6.city","area_km2": 92.64319,"hist_schema_id": "Elevation0-9000","hist_area_km2": {"1275": 9.83714,"1300": 58.43272,"1325": 20.21094,"1350": 4.16239}}}