{"type": "Feature","bbox": [30.1203,-18.1702,30.1604,-18.1369],"geometry": {"type": "MultiPolygon","coordinates": [[[[30.1203,-18.1521,1180.274],[30.1377,-18.1702,1200.7831],[30.155,-18.1584,1187.7615],[30.1604,-18.1473,1178.71],[30.1515,-18.1384,1185.4414],[30.1479,-18.1369,1185.9993],[30.1418,-18.1422,1192.4401],[30.1392,-18.1396,1191.7375],[30.1307,-18.1437,1186.1082],[30.1203,-18.1521,1180.274]]]]}
,"properties": {"GID_3": "ZWE.6.2.6_2","GID_0": "ZWE","country": "Zimbabwe","GID_1": "ZWE.6_1","province": "MashonalandWest","NL_NAME_1": "NA","GID_2": "ZWE.6.2_2","county": "ChegutuUrban","NL_NAME_2": "NA","city": "Ward3","VARNAME_3": "NA","NL_NAME_3": "NA","TYPE_3": "Ward","ENGTYPE_3": "Ward","CC_3": "NA","HASC_3": "NA","name": "Ward3.city","area_km2": 8.743788,"hist_schema_id": "Elevation0-9000","hist_area_km2": {"1175": 3.34445,"1200": 5.399339}}}