{"type":"Feature","properties":{"GID_3":"ZWE.8.3.5_2","GID_0":"ZWE","country":"Zimbabwe","GID_1":"ZWE.8_1","province":"MatabelelandNorth","NL_NAME_1":"NA","GID_2":"ZWE.8.3_2","county":"Hwange","NL_NAME_2":"NA","city":"Ward13","VARNAME_3":"NA","NL_NAME_3":"NA","TYPE_3":"Ward","ENGTYPE_3":"Ward","CC_3":"NA","HASC_3":"NA","name":"Ward13.city"},
"geometry":{"type": "MultiPolygon","coordinates": [[[[26.8373,-18.2455,548.1552],[26.8211,-18.2596,665.0928],[26.8028,-18.2722,739.9319],[26.761,-18.2962,752.3197],[26.767,-18.298,745.6459],[26.7678,-18.3004,758.5901],[26.771,-18.3015,771.2813],[26.7775,-18.3019,814.6553],[26.7795,-18.3105,837.7913],[26.7828,-18.312,852.3447],[26.7799,-18.3186,860.739],[26.775,-18.3217,870.9098],[26.773,-18.3267,902.6162],[26.7701,-18.3462,738.5769],[26.7612,-18.347,733.632],[26.7592,-18.3489,735.7341],[26.758,-18.3524,734.4831],[26.7482,-18.3621,742.8459],[26.7486,-18.3679,753.7912],[26.7429,-18.3772,767.3795],[26.7445,-18.3795,759.7831],[26.7433,-18.3811,770.2015],[26.7388,-18.3803,773.766],[26.727,-18.3884,795.4331],[26.7262,-18.3946,813.7833],[26.7213,-18.3996,853.0973],[26.7213,-18.4043,865.4182],[26.714,-18.407,815.8682],[26.707,-18.4133,808.45],[26.7187,-18.4157,920.0258],[26.725,-18.4296,963.2339],[26.7507,-18.4144,885.1404],[26.7512,-18.4112,857.9805],[26.7617,-18.4056,856.6634],[26.7801,-18.4009,858.6548],[26.8159,-18.3776,892.4085],[26.8164,-18.3799,890.4025],[26.8185,-18.3805,891.6448],[26.8347,-18.3776,888.3266],[26.8533,-18.3774,769.8137],[26.8582,-18.3616,757.7836],[26.8686,-18.3593,642.0515],[26.8681,-18.3555,667.0835],[26.8709,-18.3548,637.5037],[26.8755,-18.3481,629.4214],[26.8741,-18.3432,632.9534],[26.8758,-18.3408,694.4016],[26.8823,-18.3412,686.885],[26.8885,-18.3444,608.2269],[26.8903,-18.3432,621.7226],[26.8893,-18.3405,653.084],[26.8923,-18.3379,685.1093],[26.9004,-18.3385,614.0316],[26.9041,-18.3355,615.0419],[26.9143,-18.334,596.0001],[26.9234,-18.3288,592.1246],[26.9215,-18.3208,611.1464],[26.9278,-18.3153,580.4222],[26.923,-18.3058,705.6543],[26.9163,-18.2986,565.9119],[26.9198,-18.2867,657.2148],[26.917,-18.2865,633.5768],[26.9098,-18.2921,601.4161],[26.8968,-18.2812,564.2729],[26.8938,-18.2743,590.0137],[26.8829,-18.2589,568.5151],[26.8733,-18.2565,559.2268],[26.8638,-18.2511,632.0765],[26.8373,-18.2455,548.1552]]]]}}