{"type":"Feature","properties":{"GID_3":"ZWE.4.6.5_2","GID_0":"ZWE","country":"Zimbabwe","GID_1":"ZWE.4_1","province":"MashonalandCentral","NL_NAME_1":"NA","GID_2":"ZWE.4.6_2","county":"Mbire","NL_NAME_2":"NA","city":"Ward13","VARNAME_3":"NA","NL_NAME_3":"NA","TYPE_3":"Ward","ENGTYPE_3":"Ward","CC_3":"NA","HASC_3":"NA","name":"Ward13.city"},
"geometry":{"type": "MultiPolygon","coordinates": [[[[31.068,-16.1404,349.4662],[31.0585,-16.1359,353.0938],[31.0596,-16.1319,356.0731],[31.0581,-16.1299,360.3204],[31.0591,-16.13,357.3027],[31.0587,-16.124,370.0458],[31.0643,-16.1191,363.3081],[31.0628,-16.1166,361.733],[31.0654,-16.1117,359.2194],[31.065,-16.1042,354.522],[31.0733,-16.0974,353.0915],[31.0748,-16.0929,349.213],[31.08,-16.0875,347.9662],[31.0867,-16.0826,344.5364],[31.0919,-16.0757,341.8153],[31.0946,-16.0658,339.4746],[31.0874,-16.0707,340.6237],[31.0694,-16.0726,343.8957],[31.062,-16.076,345.998],[31.0535,-16.0724,351.3549],[31.033,-16.0698,365.4211],[31.0341,-16.0663,364.4069],[31.0265,-16.0568,348.8085],[31.0249,-16.0392,340.2897],[31.0171,-16.0498,342.0844],[31.0121,-16.0502,344.2443],[31.0078,-16.0566,343.4004],[30.9911,-16.0593,346.289],[30.9891,-16.0645,345.4073],[30.9835,-16.0686,349.2041],[30.9808,-16.0687,350.4165],[30.9742,-16.0759,350.8536],[30.9658,-16.0753,352.4377],[30.964,-16.0788,352.8181],[30.9543,-16.0809,352.942],[30.9451,-16.0911,355.7775],[30.9342,-16.0948,358.0351],[30.9283,-16.1073,360.0462],[30.9215,-16.1128,362.0948],[30.9192,-16.1169,360.3277],[30.9208,-16.1244,367.6378],[30.9199,-16.1285,378.1865],[30.9255,-16.1319,378.8196],[30.9311,-16.1383,387.0303],[30.9272,-16.1452,390.1283],[30.9288,-16.1486,393.0435],[30.9245,-16.1567,393.6732],[30.9291,-16.1809,401.0753],[30.9238,-16.1849,397.9089],[30.9215,-16.1925,398.203],[30.9136,-16.202,393.6645],[30.9117,-16.2087,400.0101],[30.9024,-16.2136,405.5837],[30.9011,-16.2171,407.8841],[30.9023,-16.2209,405.3019],[30.9002,-16.2241,408.3011],[30.8883,-16.2306,408.4695],[30.8832,-16.2378,410.0665],[30.8758,-16.2399,415.0445],[30.8668,-16.2481,415.015],[30.8662,-16.2543,417.8632],[30.8583,-16.2577,414.5491],[30.8552,-16.2622,414.8691],[30.8498,-16.2656,417.0471],[30.8476,-16.2705,420.3616],[30.8445,-16.2714,423.5354],[30.8637,-16.271,408.4669],[30.8673,-16.273,405.3306],[30.8764,-16.2742,399.7807],[30.8976,-16.2718,394.0514],[30.9058,-16.2674,392.2961],[30.9238,-16.2635,384.2966],[30.9278,-16.2642,382.8089],[30.9376,-16.2603,379.037],[30.9599,-16.2584,379.1834],[30.9632,-16.2604,372.1276],[30.9674,-16.2594,369.2396],[30.9705,-16.2609,366.7589],[30.9713,-16.2552,375.1219],[30.9668,-16.2531,369.8354],[30.9638,-16.255,375.4563],[30.9628,-16.2525,377.8331],[30.9648,-16.2491,377.9411],[30.973,-16.2469,366.6113],[30.974,-16.2445,369.1244],[30.9776,-16.2429,375.5677],[30.9753,-16.2365,368.6105],[30.9715,-16.2347,373.3808],[30.9731,-16.2319,364.7049],[30.9717,-16.2269,366.9382],[30.9815,-16.2058,362.1287],[30.9816,-16.1941,368.0809],[30.9993,-16.1846,356.9847],[31.0077,-16.1716,355.9333],[31.0149,-16.1659,357.0957],[31.02,-16.1651,357.4774],[31.0305,-16.1665,355.8074],[31.0336,-16.1648,356.9167],[31.0381,-16.1651,353.392],[31.0534,-16.1568,352.7484],[31.058,-16.152,352.3072],[31.0617,-16.1527,350.909],[31.0671,-16.1482,349.0751],[31.068,-16.1404,349.4662]]]]}}