{"type":"Feature","properties":{"GID_3":"ZWE.8.1.7_2","GID_0":"ZWE","country":"Zimbabwe","GID_1":"ZWE.8_1","province":"MatabelelandNorth","NL_NAME_1":"NA","GID_2":"ZWE.8.1_2","county":"Binga","NL_NAME_2":"NA","city":"Ward15","VARNAME_3":"NA","NL_NAME_3":"NA","TYPE_3":"Ward","ENGTYPE_3":"Ward","CC_3":"NA","HASC_3":"NA","name":"Ward15.city"},
"geometry":{"type": "MultiPolygon","coordinates": [[[[27.5034,-17.9994,897.3762],[27.5012,-18.0123,890.1296],[27.514,-18.016,885.2388],[27.5278,-18.0261,853.0018],[27.545,-18.0292,836.309],[27.5482,-18.0338,814.1255],[27.5532,-18.0333,809.1272],[27.5584,-18.0305,806.5547],[27.5609,-18.0161,799.6389],[27.5668,-18.0135,791.1222],[27.5651,-18.0055,787.017],[27.5724,-17.9988,786.9009],[27.5717,-17.9944,782.6938],[27.5681,-17.991,782.272],[27.5688,-17.9877,775.2079],[27.5723,-17.9839,776.4578],[27.57,-17.9846,778.1708],[27.5691,-17.9823,775.7587],[27.5707,-17.9808,775.5007],[27.5746,-17.9818,775.6694],[27.5773,-17.9797,774.3236],[27.5821,-17.9789,770.212],[27.5795,-17.9724,766.7135],[27.5775,-17.9724,766.5268],[27.5755,-17.9685,768.9975],[27.5713,-17.9652,764.2672],[27.5748,-17.9606,764.7458],[27.5748,-17.9549,758.5934],[27.5819,-17.9515,761.5027],[27.5828,-17.9428,754.097],[27.5771,-17.9348,750.7568],[27.5814,-17.934,751.4445],[27.585,-17.929,749.5033],[27.5834,-17.9265,750.076],[27.5797,-17.9291,748.1653],[27.578,-17.9241,750.3528],[27.5737,-17.9231,751.1575],[27.5715,-17.9186,757.4191],[27.5623,-17.9112,743.2262],[27.5615,-17.9065,746.0048],[27.5542,-17.9133,745.6753],[27.553,-17.9196,749.6108],[27.5538,-17.9287,755.8788],[27.5517,-17.9315,755.7146],[27.5133,-17.9384,766.7547],[27.5097,-17.9413,775.1038],[27.5067,-17.95,855.6888],[27.5067,-17.9711,901.058],[27.5051,-17.9825,890.4623],[27.5063,-17.9972,894.3239],[27.5034,-17.9979,895.4793],[27.5034,-17.9994,897.3762]]]]}}