{"type":"Feature","properties":{"GID_1":"ZWE.9_1","GID_0":"ZWE","country":"Zimbabwe","province":"MatabelelandSouth","VARNAME_1":"NA","NL_NAME_1":"NA","TYPE_1":"Province","ENGTYPE_1":"Province","CC_1":"NA","HASC_1":"ZW.MS","ISO_1":"ZW-MS","name":"Matabeleland_South.province"},
"geometry":{"type": "MultiPolygon","coordinates": [[[[30.2371,-22.3006,390.0],[30.2397,-22.3068,393.7018],[30.2553,-22.3159,392.2234],[30.2684,-22.3372,389.5662],[30.2785,-22.3492,384.0],[30.2893,-22.3549,383.0],[30.2952,-22.3549,382.5],[30.3129,-22.3464,384.326],[30.3177,-22.3454,390.0248],[30.3359,-22.3487,384.0624],[30.3568,-22.3465,380.3074],[30.3779,-22.3492,386.9483],[30.3909,-22.3471,373.0],[30.4553,-22.3286,367.0],[30.4791,-22.3155,376.1046],[30.4854,-22.3143,376.8974],[30.496,-22.3157,374.6668],[30.5037,-22.3202,366.0162],[30.5295,-22.323,363.6248],[30.5491,-22.3301,352.125],[30.5555,-22.3291,360.0264],[30.5647,-22.321,354.7813],[30.5717,-22.3184,353.3002],[30.6012,-22.3189,351.3284],[30.6087,-22.3216,347.5766],[30.6208,-22.3319,334.0255],[30.6305,-22.3344,343.9693],[30.639,-22.3306,321.0906],[30.6502,-22.3164,315.7929],[30.6613,-22.3092,340.217],[30.6713,-22.3082,313.7279],[30.707,-22.3148,310.2962],[30.716,-22.3114,305.8805],[30.7281,-22.31,288.753],[30.7415,-22.3061,322.0227],[30.7508,-22.3056,295.7571],[30.7586,-22.3026,303.4293],[30.7864,-22.3003,278.7232],[30.8333,-22.2892,312.0269],[30.841,-22.2893,274.8825],[30.8546,-22.2941,258.0072],[30.8656,-22.2952,251.6609],[30.8835,-22.3027,264.2804],[30.8991,-22.2943,279.5016],[30.9329,-22.3002,245.6998],[30.9397,-22.3033,369.048],[30.9458,-22.3124,283.2931],[30.9595,-22.3115,283.3192],[30.9705,-22.3137,263.2246],[30.9734,-22.3219,238.9585],[30.9823,-22.3256,257.3694],[30.9898,-22.325,233.4537],[30.9935,-22.3207,229.5],[30.9951,-22.3155,231.9565],[30.9998,-22.3137,298.8242],[31.0366,-22.3311,227.446],[31.0512,-22.3355,229.3058],[31.0705,-22.3374,233.0121],[31.087,-22.3453,228.3912],[31.0984,-22.3453,222.778],[31.0997,-22.343,229.3519],[31.1133,-22.3375,223.6936],[31.1133,-22.3353,221.2136],[31.1003,-22.3202,228.5681],[31.0986,-22.3143,229.4575],[31.0861,-22.302,230.8915],[31.0841,-22.2976,229.9119],[31.0841,-22.2897,264.0247],[31.0802,-22.2885,250.3877],[31.0725,-22.2938,235.4227],[31.0683,-22.2941,236.1353],[31.0611,-22.2852,309.6043],[31.0554,-22.2869,240.638],[31.0512,-22.2859,259.2924],[31.0497,-22.2831,241.5223],[31.0521,-22.2787,256.6476],[31.0496,-22.2716,244.0904],[31.0533,-22.2684,274.8314],[31.0533,-22.2666,273.6225],[31.0343,-22.2667,247.7986],[31.0308,-22.2634,244.0384],[31.0276,-22.2519,281.1294],[31.0242,-22.2509,297.2373],[31.0174,-22.2525,251.7574],[31.0131,-22.2504,245.9575],[31.0162,-22.2331,249.5372],[31.0209,-22.2328,256.8107],[31.0263,-22.2367,257.5439],[31.0318,-22.2358,252.5475],[31.0363,-22.2302,333.7762],[31.036,-22.227,264.1948],[31.0345,-22.224,306.4642],[31.0304,-22.2214,275.7391],[31.0204,-22.2184,292.8961],[31.0109,-22.2275,267.4688],[31.0059,-22.2246,263.6065],[31.0133,-22.2084,275.2358],[31.0024,-22.2072,272.3484],[31.0065,-22.1972,273.8475],[31.0098,-22.194,293.2289],[31.0053,-22.1786,295.3999],[30.9877,-22.1742,304.5465],[30.9894,-22.1692,312.4603],[30.9859,-22.1633,298.6247],[30.983,-22.1619,301.0963],[30.9626,-22.1598,312.2812],[30.9547,-22.1551,324.3592],[30.9479,-22.1365,305.2533],[30.9481,-22.125,308.0338],[30.9441,-22.1129,315.2913],[30.9312,-22.1053,335.8452],[30.9353,-22.0862,354.8098],[30.9313,-22.0738,370.26],[30.9276,-22.0725,354.7548],[30.9171,-22.0736,383.7561],[30.8997,-22.0835,366.024],[30.8895,-22.0843,381.3188],[30.8869,-22.0811,377.7776],[30.8734,-22.0418,410.3226],[30.8595,-22.0343,393.4016],[30.8574,-22.0167,392.0186],[30.833,-21.9975,406.0897],[30.8037,-21.9991,410.6641],[30.8017,-21.9966,401.1761],[30.8029,-21.9915,400.7057],[30.7978,-21.9855,407.0057],[30.7966,-21.9808,407.8276],[30.8011,-21.9753,408.3822],[30.8087,-21.9748,408.3665],[30.8068,-21.9698,412.2967],[30.7981,-21.9642,414.461],[30.7833,-21.9646,416.0278],[30.7727,-21.9566,421.0409],[30.7672,-21.9548,417.4863],[30.7616,-21.9492,414.8164],[30.7569,-21.9414,420.4991],[30.7542,-21.9326,421.853],[30.7561,-21.9296,419.4059],[30.7713,-21.9222,423.1198],[30.7689,-21.9188,426.4034],[30.7602,-21.9135,422.257],[30.7614,-21.907,426.4923],[30.7503,-21.9035,429.1996],[30.7381,-21.8913,431.3839],[30.7276,-21.8903,434.7212],[30.7305,-21.8751,435.6021],[30.7167,-21.8753,440.8138],[30.7128,-21.8721,438.0593],[30.7101,-21.8618,436.8996],[30.7143,-21.8587,440.9111],[30.7151,-21.856,444.9252],[30.7108,-21.8503,443.6633],[30.7029,-21.8473,446.6239],[30.6852,-21.8316,447.2896],[30.6828,-21.8305,449.4421],[30.6724,-21.8315,447.1499],[30.6702,-21.8295,449.1387],[30.6698,-21.8237,450.0959],[30.6742,-21.8174,452.0131],[30.6651,-21.8112,456.6256],[30.6649,-21.8082,455.5318],[30.669,-21.7972,452.272],[30.6652,-21.7816,455.2271],[30.6586,-21.7799,460.7481],[30.6532,-21.7814,459.6545],[30.6354,-21.7713,464.0589],[30.6348,-21.7689,460.2401],[30.6376,-21.764,464.3093],[30.6498,-21.7514,461.3128],[30.6485,-21.7485,466.2927],[30.6445,-21.7481,470.2876],[30.6396,-21.7509,470.0327],[30.6316,-21.7594,470.7257],[30.6195,-21.7632,470.7612],[30.6071,-21.7458,481.3874],[30.5995,-21.7431,473.459],[30.5965,-21.7519,473.0078],[30.5902,-21.754,481.7107],[30.5881,-21.752,478.5994],[30.5877,-21.7449,481.6649],[30.5821,-21.736,479.2809],[30.5767,-21.7351,480.9299],[30.5712,-21.7374,483.284],[30.5622,-21.7298,484.2962],[30.5592,-21.7319,481.8009],[30.5577,-21.7384,482.9023],[30.554,-21.7453,486.6118],[30.5443,-21.7479,485.5596],[30.5408,-21.745,483.8105],[30.5431,-21.736,494.5742],[30.5353,-21.7283,489.4556],[30.5341,-21.7199,490.3643],[30.5243,-21.7198,491.0255],[30.5218,-21.7142,493.576],[30.5185,-21.7115,493.9332],[30.5038,-21.7103,498.1341],[30.4998,-21.708,498.2333],[30.4982,-21.705,497.0284],[30.4979,-21.7011,496.3602],[30.5019,-21.6914,497.8246],[30.4995,-21.6871,504.4663],[30.4992,-21.6818,501.692],[30.5001,-21.6795,500.5049],[30.5053,-21.6777,506.8044],[30.5076,-21.6738,506.8533],[30.5081,-21.6634,502.6958],[30.5035,-21.6581,502.5499],[30.4899,-21.6568,505.4723],[30.4855,-21.6625,512.564],[30.4825,-21.6632,509.5654],[30.4783,-21.6615,511.0391],[30.4762,-21.656,507.5332],[30.4704,-21.6516,508.7037],[30.4502,-21.6526,519.0759],[30.4461,-21.647,518.044],[30.4464,-21.6357,515.3168],[30.4434,-21.6312,513.4313],[30.4269,-21.6305,524.8227],[30.4075,-21.6246,518.985],[30.4022,-21.6204,523.322],[30.3952,-21.6088,524.254],[30.3878,-21.6111,530.0168],[30.3812,-21.6108,533.2858],[30.3722,-21.601,526.8782],[30.3611,-21.5949,531.5895],[30.3559,-21.5956,530.3666],[30.345,-21.6072,532.3286],[30.3383,-21.6111,537.5192],[30.3321,-21.6023,535.7758],[30.3282,-21.6002,537.4547],[30.306,-21.6014,542.4128],[30.295,-21.5953,541.5325],[30.2757,-21.5969,547.828],[30.2639,-21.5916,546.4819],[30.2334,-21.5944,557.2486],[30.2302,-21.5915,556.168],[30.2298,-21.5858,550.3539],[30.2397,-21.5758,552.9022],[30.2429,-21.5636,557.3586],[30.2418,-21.552,559.3244],[30.2361,-21.5458,562.3495],[30.2308,-21.544,563.4649],[30.2213,-21.5535,564.1415],[30.2183,-21.5539,570.2393],[30.2144,-21.5514,562.939],[30.2115,-21.5426,570.8901],[30.2086,-21.5387,568.2608],[30.193,-21.5287,574.599],[30.1852,-21.5285,570.5684],[30.1783,-21.5327,576.6053],[30.1725,-21.5319,577.0356],[30.1684,-21.5263,577.1965],[30.1661,-21.5162,572.9313],[30.1701,-21.5041,580.0521],[30.1658,-21.5005,584.9689],[30.1462,-21.5058,588.6803],[30.1414,-21.5045,587.5902],[30.1335,-21.4982,588.778],[30.1269,-21.4965,592.2693],[30.0961,-21.5007,601.0024],[30.0957,-21.4957,594.6437],[30.097,-21.4928,602.6473],[30.107,-21.4875,601.9219],[30.1087,-21.4834,602.1086],[30.0935,-21.4762,608.3871],[30.0814,-21.4791,605.4098],[30.0727,-21.4789,610.8511],[30.0696,-21.4725,606.2401],[30.0689,-21.4594,614.9024],[30.0546,-21.4476,620.115],[30.0459,-21.4438,621.1288],[30.0415,-21.4394,613.7526],[30.0391,-21.4276,616.7628],[30.0402,-21.423,621.646],[30.035,-21.4181,623.071],[30.0338,-21.4137,630.1246],[30.0272,-21.4109,630.7145],[30.0247,-21.4074,623.5148],[30.0188,-21.3878,635.5144],[30.0077,-21.3811,633.879],[29.9991,-21.3713,647.6],[29.9538,-21.3536,651.0098],[29.9481,-21.3489,669.2587],[29.9364,-21.3083,669.7913],[29.9214,-21.2985,687.5369],[29.919,-21.2934,694.09],[29.9188,-21.2768,688.3932],[29.9063,-21.2694,695.4617],[29.9012,-21.2681,689.9025],[29.8914,-21.2698,686.244],[29.8893,-21.2652,694.4454],[29.8865,-21.2634,691.898],[29.8924,-21.251,705.8337],[29.8874,-21.246,708.4607],[29.8862,-21.2317,710.2031],[29.893,-21.2293,714.1783],[29.8947,-21.2266,712.0605],[29.8878,-21.2214,725.1278],[29.8857,-21.217,720.2635],[29.8808,-21.2143,717.7249],[29.8791,-21.21,724.1707],[29.851,-21.2044,734.9605],[29.8469,-21.2007,733.6675],[29.8472,-21.1928,737.113],[29.8457,-21.189,741.1135],[29.8448,-21.1878,748.0614],[29.8422,-21.1884,733.2472],[29.8385,-21.179,755.9542],[29.8311,-21.1741,754.0],[29.8314,-21.1649,778.623],[29.8434,-21.1585,763.5966],[29.8411,-21.1514,772.3674],[29.8388,-21.1499,771.6738],[29.8341,-21.1501,773.919],[29.8204,-21.1422,777.7483],[29.8159,-21.1422,777.1904],[29.8128,-21.1394,785.3043],[29.8077,-21.1391,781.4272],[29.804,-21.1358,782.0493],[29.8013,-21.1356,783.5514],[29.7915,-21.128,784.3015],[29.786,-21.1195,790.3307],[29.7772,-21.1123,790.3926],[29.7743,-21.1116,791.1699],[29.7707,-21.1074,800.725],[29.7701,-21.1022,796.439],[29.7655,-21.098,797.2595],[29.766,-21.0889,804.204],[29.7567,-21.0909,811.8945],[29.7547,-21.0878,817.892],[29.7521,-21.0873,811.8858],[29.7474,-21.0773,809.5529],[29.7478,-21.0732,817.9328],[29.7361,-21.0429,869.6409],[29.731,-21.0333,834.31],[29.7321,-21.0312,852.588],[29.7307,-21.0229,870.6164],[29.6896,-21.0213,992.6275],[29.5925,-21.0405,949.1686],[29.5345,-21.0368,992.8748],[29.4995,-21.0284,946.8148],[29.4578,-21.0156,884.9686],[29.4894,-20.9953,888.1127],[29.5414,-20.9534,956.1666],[29.5857,-20.926,991.0352],[29.6243,-20.8912,1134.2419],[29.6375,-20.8285,1074.8265],[29.6506,-20.7557,1024.745],[29.6668,-20.7127,1155.6528],[29.6754,-20.6705,1103.2457],[29.6636,-20.655,1027.5122],[29.6617,-20.6547,1023.3035],[29.6079,-20.6682,1030.9878],[29.5968,-20.6506,1037.5862],[29.5845,-20.6043,1048.8016],[29.6203,-20.5952,1045.8928],[29.6053,-20.5753,1098.5831],[29.7011,-20.5162,1125.1465],[29.7077,-20.4988,1103.2603],[29.7134,-20.4736,1108.2881],[29.7312,-20.4556,1120.4182],[29.7309,-20.3915,1085.1454],[29.778199999999998,-20.2846,1117.9232],[29.7874,-20.2487,1125.3259],[29.7922,-20.2392,1169.5415],[29.7921,-20.2155,1135.2947],[29.816,-20.1592,1180.5551],[29.8408,-20.106,1181.6489],[29.8734,-20.0614,1101.5444],[29.8756,-20.0057,1162.506],[29.8094,-20.0001,1171.8326],[29.8004,-20.0032,1176.5753],[29.8014,-19.9541,1187.2666],[29.7982,-19.9526,1180.3392],[29.7977,-19.9449,1208.7732],[29.7528,-19.9551,1206.4584],[29.711,-19.9729,1234.3923],[29.6952,-19.9722,1247.9552],[29.6874,-19.9289,1251.2576],[29.6802,-19.9051,1259.9014],[29.6639,-19.9083,1251.8523],[29.6541,-19.9122,1271.0338],[29.6185,-19.9322,1264.9076],[29.6061,-19.935,1272.2786],[29.5985,-19.9342,1278.6039],[29.5822,-19.9182,1296.905],[29.5622,-19.8861,1340.0081],[29.5429,-19.8749,1348.4672],[29.5176,-19.8635,1400.1801],[29.5024,-19.8614,1389.2014],[29.4724,-19.8478,1415.0929],[29.4454,-19.8638,1425.0044],[29.4138,-19.8871,1446.2269],[29.4032,-19.8427,1371.5435],[29.4037,-19.8183,1354.5314],[29.4128,-19.8068,1349.5508],[29.4155,-19.7726,1334.4644],[29.4184,-19.7659,1329.499],[29.416,-19.7652,1331.8748],[29.416,-19.7636,1330.5138],[29.4211,-19.7586,1328.9885],[29.4234,-19.7583,1332.6914],[29.4236,-19.7567,1329.7598],[29.4168,-19.7504,1333.3125],[29.4153,-19.7505,1332.1616],[29.4151,-19.7524,1325.4873],[29.4121,-19.752,1326.6326],[29.4095,-19.7478,1331.6814],[29.4136,-19.7435,1319.0261],[29.413,-19.7333,1320.3975],[29.4075,-19.7272,1313.0959],[29.4065,-19.7221,1314.72],[29.4035,-19.7193,1310.4247],[29.4036,-19.7171,1311.5848],[29.4064,-19.7144,1318.9597],[29.404,-19.713,1305.6268],[29.4041,-19.7095,1307.6093],[29.4007,-19.7032,1303.9089],[29.4015,-19.699,1314.9565],[29.3922,-19.6936,1317.6521],[29.3892,-19.6938,1305.3834],[29.3867,-19.6904,1304.1028],[29.3769,-19.6882,1300.927],[29.3703,-19.6777,1307.5076],[29.3631,-19.6791,1300.1417],[29.3597,-19.669,1293.4974],[29.3599,-19.6624,1293.2627],[29.3618,-19.6606,1302.4426],[29.3567,-19.6549,1292.1616],[29.3588,-19.6523,1289.7721],[29.3588,-19.6496,1289.6929],[29.3563,-19.6468,1287.1301],[29.3564,-19.6444,1286.0569],[29.3544,-19.6432,1290.5515],[29.3568,-19.6414,1295.4506],[29.3482,-19.6317,1286.373],[29.322,-19.6185,1284.0591],[29.3165,-19.6173,1279.7682],[29.3152,-19.6133,1271.4572],[29.3167,-19.6092,1280.9613],[29.3128,-19.6036,1277.031],[29.307,-19.6011,1269.9739],[29.3076,-19.5953,1276.5039],[29.2955,-19.5835,1268.5],[29.2956,-19.5812,1270.5295],[29.3007,-19.577,1269.3682],[29.3015,-19.5743,1283.52],[29.2959,-19.5728,1267.8888],[29.292,-19.5687,1266.595],[29.2853,-19.5677,1260.4202],[29.2823,-19.5651,1256.1511],[29.2795,-19.5455,1249.3143],[29.2798,-19.5323,1259.0548],[29.2748,-19.526,1257.406],[29.2711,-19.524,1255.6775],[29.2651,-19.5149,1253.452],[29.2579,-19.512,1247.0725],[29.2538,-19.5026,1244.7388],[29.246,-19.4981,1244.4358],[29.2437,-19.49,1239.8965],[29.2399,-19.4841,1239.8479],[29.2319,-19.4805,1244.9762],[29.2338,-19.4824,1239.4686],[29.2155,-19.5296,1280.2537],[29.1719,-19.4977,1261.0154],[29.1073,-19.4903,1247.7036],[29.1027,-19.4918,1248.1643],[29.0964,-19.5006,1251.0636],[29.0921,-19.5015,1251.4924],[29.0903,-19.5065,1251.7139],[29.0821,-19.5097,1255.6895],[29.0835,-19.5193,1260.7644],[29.0944,-19.5342,1304.886],[29.1271,-19.5347,1307.7485],[29.1951,-19.5647,1314.8616],[29.1157,-19.6013,1327.267],[29.0692,-19.6544,1330.198],[29.0417,-19.6573,1347.8269],[29.1029,-19.7093,1356.6672],[29.1035,-19.7754,1401.4998],[29.0858,-19.8072,1387.9786],[29.0979,-19.814,1401.0417],[29.072,-19.83,1393.9578],[29.0466,-19.8532,1403.2849],[28.955,-19.8217,1373.5404],[28.9914,-19.9427,1368.9866],[28.9888,-19.9453,1371.2661],[28.9846,-19.9559,1370.9183],[28.9618,-19.9728,1367.8472],[28.8956,-20.0399,1395.0887],[28.816,-20.0447,1368.9711],[28.8602,-20.076,1340.3125],[28.7933,-20.1309,1370.933],[28.7917,-20.1219,1376.1427],[28.7787,-20.1255,1377.3182],[28.7733,-20.1334,1383.2141],[28.7767,-20.1347,1375.493],[28.7745,-20.1388,1377.2113],[28.7708,-20.137,1388.1366],[28.7678,-20.1404,1386.5525],[28.7812,-20.1429,1368.605],[28.7655,-20.1795,1389.4938],[28.7528,-20.2149,1392.3005],[28.7424,-20.2208,1402.6837],[28.7139,-20.2527,1399.3402],[28.7232,-20.2636,1364.725],[28.7224,-20.2653,1390.7236],[28.6691,-20.2983,1431.0573],[28.657,-20.2824,1400.7844],[28.6331,-20.2588,1457.0288],[28.6053,-20.2274,1453.3615],[28.5773,-20.2276,1427.5931],[28.5526,-20.222,1397.04],[28.5388,-20.2587,1436.7795],[28.4966,-20.2355,1369.6887],[28.4811,-20.2367,1359.7682],[28.4617,-20.2597,1348.6577],[28.4588,-20.2654,1342.9353],[28.4384,-20.282,1361.5344],[28.4297,-20.2931,1371.3346],[28.4131,-20.2953,1359.5303],[28.3896,-20.2897,1399.8181],[28.3804,-20.2945,1405.688],[28.3661,-20.3149,1363.7363],[28.3434,-20.3619,1379.1235],[28.3316,-20.3546,1370.573],[28.3144,-20.2726,1318.6725],[28.3066,-20.2824,1302.0074],[28.3029,-20.2718,1284.3353],[28.2907,-20.254,1277.752],[28.2762,-20.2477,1271.808],[28.2742,-20.2457,1267.3943],[28.2742,-20.24,1264.4932],[28.271,-20.2371,1270.7642],[28.251,-20.2264,1253.7959],[28.2497,-20.2146,1250.6146],[28.2371,-20.2045,1249.2317],[28.2353,-20.194,1253.938],[28.2224,-20.1876,1245.2418],[28.2214,-20.1826,1245.6436],[28.2147,-20.1761,1242.5792],[28.1992,-20.1457,1230.4343],[28.1901,-20.1399,1228.1569],[28.1923,-20.1308,1226.5533],[28.1911,-20.1225,1223.785],[28.1857,-20.1188,1222.7913],[28.1799,-20.1185,1222.8337],[28.1662,-20.1133,1218.6672],[28.1613,-20.1149,1211.6593],[28.1546,-20.1104,1204.0132],[28.1489,-20.1115,1195.2124],[28.141,-20.1006,1197.4731],[28.1372,-20.0861,1189.8062],[28.0919,-20.0974,1215.3767],[28.0334,-20.1026,1228.1455],[27.9926,-20.1225,1281.8197],[27.9442,-20.0589,1203.6609],[27.8972,-20.1842,1263.1079],[27.8903,-20.1882,1259.7386],[27.8864,-20.186,1246.3024],[27.8834,-20.1863,1236.8459],[27.8801,-20.1836,1239.9034],[27.8683,-20.1866,1236.0935],[27.8647,-20.1796,1228.3195],[27.8611,-20.177,1253.283],[27.8571,-20.1803,1220.2594],[27.8538,-20.1778,1227.3304],[27.8486,-20.1786,1217.6083],[27.8372,-20.1711,1223.6392],[27.8304,-20.1752,1203.7496],[27.8235,-20.174,1202.5029],[27.8187,-20.1749,1197.5491],[27.8125,-20.1714,1196.7017],[27.8051,-20.1514,1191.6729],[27.793,-20.1468,1192.5452],[27.7857,-20.1473,1175.2764],[27.7801,-20.1443,1171.8896],[27.7666,-20.1304,1168.7795],[27.7588,-20.1345,1163.2418],[27.757,-20.1246,1167.1553],[27.7532,-20.1202,1160.0768],[27.7522,-20.1134,1158.1029],[27.746,-20.1097,1152.0101],[27.7461,-20.1057,1159.0371],[27.7407,-20.0988,1146.8927],[27.7369,-20.0964,1143.6699],[27.7317,-20.097,1141.1287],[27.7262,-20.0867,1136.8864],[27.7187,-20.0828,1137.8942],[27.7094,-20.0746,1130.4742],[27.6995,-20.0712,1130.089],[27.6956,-20.0656,1130.1471],[27.6891,-20.0617,1124.48],[27.6828,-20.0506,1121.7031],[27.6617,-20.0423,1118.1285],[27.6521,-20.032,1116.1506],[27.6489,-20.0208,1114.7524],[27.6443,-20.015,1112.2371],[27.634,-20.0115,1107.1327],[27.6221,-20.0026,1108.2048],[27.6099,-19.9981,1105.8275],[27.5945,-19.9809,1100.2371],[27.5903,-19.9795,1098.6061],[27.5867,-19.9698,1095.5815],[27.5759,-19.9541,1094.238],[27.573,-19.9384,1089.7375],[27.5661,-19.9268,1086.3804],[27.5644,-19.917,1087.3571],[27.5655,-19.9031,1083.0719],[27.5644,-19.8964,1084.1465],[27.5585,-19.8899,1086.5785],[27.5486,-19.8881,1081.6248],[27.5409,-19.8819,1080.587],[27.5385,-19.8702,1079.1438],[27.5286,-19.8644,1075.4155],[27.5256,-19.86,1076.3008],[27.5171,-19.8547,1073.4205],[27.5032,-19.856,1071.5507],[27.4766,-19.8512,1067.2078],[27.4611,-19.8455,1062.5647],[27.448,-19.846,1061.4253],[27.4387,-19.8345,1058.1394],[27.4316,-19.8316,1057.561],[27.4232,-19.8223,1057.0178],[27.4092,-19.8161,1055.0286],[27.4065,-19.8125,1052.9746],[27.3975,-19.8087,1052.8521],[27.3857,-19.7993,1050.3376],[27.3778,-19.7997,1050.6591],[27.3701,-19.804,1048.0507],[27.3628,-19.8026,1047.0762],[27.3566,-19.7972,1044.8523],[27.3383,-19.8005,1045.9108],[27.3058,-19.793,1038.7131],[27.2973,-19.7956,1039.9119],[27.2934,-19.8022,1037.6531],[27.2895,-19.8049,1038.8618],[27.2714,-19.8122,1038.385],[27.2688,-19.8205,1034.0593],[27.2674,-19.8227,1034.2483],[27.2652,-19.8229,1033.0492],[27.2418,-19.8185,1028.9727],[27.2316,-19.8132,1028.3223],[27.2205,-19.8117,1028.723],[27.211,-19.8119,1025.8043],[27.2043,-19.8152,1027.8289],[27.1943,-19.8167,1023.9088],[27.1909,-19.8139,1022.4099],[27.1836,-19.8123,1023.9418],[27.1813,-19.8057,1021.1735],[27.1765,-19.8037,1022.3857],[27.1646,-19.8054,1019.8194],[27.1594,-19.8045,1021.0348],[27.1364,-19.7958,1016.3258],[27.1244,-19.7978,1013.4244],[27.1081,-19.8054,1012.5304],[27.0946,-19.8048,1013.5098],[27.0753,-19.8083,1006.9938],[27.0647,-19.8143,1009.9888],[27.0491,-19.8085,1003.0752],[27.0375,-19.8111,1001.6589],[27.0236,-19.8108,1000.4582],[27.0018,-19.8146,998.1655],[26.9959,-19.8175,1000.3745],[26.9822,-19.8144,996.1823],[26.9757,-19.8081,993.0002],[26.9532,-19.8102,990.5963],[26.9471,-19.8139,989.4219],[26.9247,-19.8108,988.0562],[26.9148,-19.813,992.453],[26.9044,-19.8132,985.9894],[26.8997,-19.8165,987.7869],[26.8962,-19.8156,983.2285],[26.8841,-19.8194,981.3467],[26.8611,-19.82,979.8635],[26.8525,-19.8261,976.965],[26.8402,-19.8317,979.7063],[26.8159,-19.8373,976.0358],[26.8057,-19.8416,976.6906],[26.7997,-19.8463,971.494],[26.7886,-19.8501,969.7269],[26.7815,-19.8555,968.2062],[26.7568,-19.8581,967.2778],[26.7493,-19.8618,967.2599],[26.7334,-19.8833,959.5823],[26.703,-19.8901,956.0336],[26.7023,-19.8941,956.6725],[26.7199,-19.9289,961.1276],[26.7267,-19.9377,962.2327],[26.7457,-19.9352,966.9547],[26.76,-19.936,968.6722],[26.7805,-19.9425,972.4203],[26.7914,-19.9432,973.6433],[26.8075,-19.9493,977.162],[26.8116,-19.9533,977.3341],[26.8188,-19.9534,978.7906],[26.827,-19.9615,980.4802],[26.8393,-19.9589,982.7595],[26.8519,-19.9592,984.7292],[26.8788,-19.9727,989.6661],[26.903199999999998,-19.9789,995.2618],[26.916,-19.9884,999.3854],[26.9507,-20.0025,1004.9351],[26.9594,-20.0079,1007.8073],[26.9711,-20.0118,1011.5238],[26.9882,-20.013,1012.019],[26.9987,-20.0094,1015.0621],[27.0157,-20.0072,1017.2405],[27.0404,-20.0078,1022.4229],[27.0462,-20.0095,1023.3085],[27.0788,-20.0277,1028.6719],[27.0871,-20.0346,1031.7307],[27.0991,-20.0543,1035.29],[27.1131,-20.0652,1040.8113],[27.1297,-20.0739,1045.4805],[27.1473,-20.0805,1044.7751],[27.1536,-20.0804,1047.158],[27.1632,-20.0772,1047.4991],[27.1932,-20.0784,1054.7566],[27.2068,-20.0832,1057.7625],[27.2134,-20.0881,1057.7405],[27.2225,-20.1066,1058.7332],[27.2281,-20.1134,1062.4294],[27.2357,-20.1177,1063.9956],[27.2362,-20.1224,1067.0723],[27.2456,-20.1423,1070.9849],[27.249,-20.1623,1080.9651],[27.2602,-20.1811,1092.9866],[27.2654,-20.1955,1104.4524],[27.2669,-20.2114,1112.249],[27.2734,-20.2194,1108.4674],[27.2797,-20.2209,1106.2662],[27.2857,-20.2308,1109.8297],[27.2889,-20.2488,1122.0857],[27.2883,-20.256,1125.4678],[27.2921,-20.2633,1134.0996],[27.2902,-20.2704,1137.4752],[27.2906,-20.276,1142.6643],[27.2939,-20.2852,1145.9882],[27.3011,-20.2962,1145.7064],[27.2999,-20.3046,1149.6782],[27.3042,-20.3181,1158.5941],[27.305,-20.3258,1164.0912],[27.3003,-20.3381,1165.1691],[27.3005,-20.3465,1174.9685],[27.2973,-20.3533,1180.0072],[27.2991,-20.4242,1240.5637],[27.2895,-20.4632,1229.1049],[27.2894,-20.4732,1225.9148],[27.2861,-20.4799,1229.7949],[27.2899,-20.4915,1237.6475],[27.2897,-20.497,1241.1221],[27.3628,-20.4667,1310.0249],[27.3775,-20.4763,1316.6562],[27.434,-20.4807,1282.3018],[27.4719,-20.466,1294.7152],[27.5531,-20.4838,1320.8044],[27.5775,-20.4925,1330.104],[27.6043,-20.4779,1337.1099],[27.6223,-20.4771,1337.1536],[27.6474,-20.4976,1350.8615],[27.6756,-20.4923,1362.1047],[27.6837,-20.4851,1365.473],[27.6955,-20.4888,1364.6265],[27.7207,-20.5088,1373.0239],[27.7251,-20.5143,1377.6328],[27.7303,-20.5231,1345.4288],[27.7277,-20.5318,1325.818],[27.7313,-20.5414,1312.6097],[27.7297,-20.543,1308.656],[27.7293,-20.555,1300.9301],[27.7207,-20.575,1272.0334],[27.7222,-20.5779,1271.2004],[27.7205,-20.5798,1266.2567],[27.7225,-20.5833,1266.8389],[27.7159,-20.5942,1259.1406],[27.7089,-20.5976,1245.6344],[27.7052,-20.6034,1241.9097],[27.7051,-20.6158,1234.8608],[27.7065,-20.6229,1230.3645],[27.7091,-20.624,1224.1232],[27.7055,-20.6442,1212.0918],[27.707,-20.6551,1203.3842],[27.7063,-20.665,1189.4052],[27.7128,-20.6732,1185.9185],[27.7144,-20.678,1181.7992],[27.7162,-20.6777,1183.5439],[27.7173,-20.6832,1176.2844],[27.7264,-20.6915,1170.7611],[27.7244,-20.6926,1171.9312],[27.7248,-20.6943,1169.1284],[27.7313,-20.699,1169.5104],[27.7315,-20.7017,1163.165],[27.7347,-20.7025,1164.8105],[27.7308,-20.7057,1164.2214],[27.7303,-20.7103,1158.5392],[27.7332,-20.7144,1156.6433],[27.7306,-20.7162,1157.9171],[27.7284,-20.7217,1151.7245],[27.7291,-20.7295,1147.8428],[27.7305,-20.732,1148.228],[27.7324,-20.7323,1147.9266],[27.7321,-20.737,1143.601],[27.7346,-20.7395,1144.2972],[27.7313,-20.7433,1138.4204],[27.736,-20.7604,1138.1017],[27.7351,-20.7663,1137.6948],[27.7281,-20.7754,1124.9246],[27.7273,-20.7811,1122.2545],[27.7316,-20.7949,1119.7294],[27.722,-20.8025,1118.5685],[27.716,-20.8324,1089.8297],[27.7171,-20.8361,1087.1196],[27.7148,-20.8389,1085.5897],[27.7134,-20.8492,1085.6185],[27.7084,-20.856,1082.7968],[27.698,-20.865,1077.5388],[27.6931,-20.8742,1069.1154],[27.6929,-20.8777,1069.6556],[27.6999,-20.8927,1059.837],[27.7026,-20.9129,1069.5985],[27.6903,-20.9329,1046.5525],[27.696,-20.9394,1048.8499],[27.6983,-20.9457,1046.9335],[27.7036,-20.9491,1042.2811],[27.7097,-20.956,1036.5702],[27.7092,-20.9621,1035.1505],[27.7124,-20.9676,1038.1094],[27.7022,-20.9857,1028.7325],[27.7026,-20.9906,1030.8369],[27.7074,-20.9991,1022.4143],[27.7035,-21.0006,1027.3508],[27.6965,-21.0066,1023.1957],[27.7006,-21.0114,1019.3839],[27.6992,-21.0168,1013.9801],[27.7028,-21.0212,1015.9861],[27.7015,-21.028,1009.5725],[27.7045,-21.037,1008.0867],[27.7003,-21.0483,1009.0852],[27.6887,-21.0576,1005.2349],[27.6895,-21.0639,997.8109],[27.6963,-21.0738,997.9959],[27.6952,-21.081,995.2324],[27.6974,-21.0877,995.498],[27.6995,-21.089,993.3494],[27.7016,-21.0992,990.6696],[27.7124,-21.1046,988.4721],[27.7173,-21.1122,987.5403],[27.724,-21.1153,982.1069],[27.7331,-21.1311,977.5427],[27.7471,-21.1395,976.0119],[27.7508,-21.1498,973.7139],[27.7536,-21.1524,973.441],[27.7583,-21.1542,970.8104],[27.7699,-21.1541,966.9999],[27.7789,-21.1574,965.7004],[27.7871,-21.1746,961.6056],[27.7902,-21.177,960.4451],[27.7936,-21.1769,960.5241],[27.8014,-21.1724,956.9004],[27.8049,-21.1737,956.7146],[27.8165,-21.1881,955.481],[27.8167,-21.191,950.2443],[27.814,-21.1942,951.3714],[27.8143,-21.1975,947.4161],[27.8197,-21.1984,948.9745],[27.8254,-21.2016,948.5234],[27.8298,-21.2117,941.9808],[27.8359,-21.2203,940.5045],[27.8433,-21.2289,942.9877],[27.8563,-21.2397,936.2827],[27.8681,-21.267,930.2242],[27.8835,-21.279,923.6947],[27.8828,-21.2845,928.9807],[27.8849,-21.2886,919.2136],[27.9023,-21.2993,918.1587],[27.9124,-21.3143,916.5461],[27.9199,-21.3296,911.8259],[27.9174,-21.3442,905.3908],[27.9192,-21.3606,906.9106],[27.9295,-21.3748,898.8169],[27.9465,-21.3894,896.2084],[27.9485,-21.3975,894.7885],[27.9603,-21.4191,896.0779],[27.959,-21.4241,894.8455],[27.9541,-21.4299,889.9354],[27.9679,-21.4427,885.9712],[27.9738,-21.4529,882.666],[27.9802,-21.4565,881.2156],[27.9768,-21.4605,878.1305],[27.9729,-21.4603,884.522],[27.9712,-21.4637,882.3533],[27.9639,-21.4655,879.4959],[27.9593,-21.4688,874.1323],[27.9604,-21.4763,873.6151],[27.9757,-21.4785,873.6412],[27.9844,-21.4836,874.2478],[27.9833,-21.4874,867.6227],[27.9849,-21.4903,873.7822],[27.9751,-21.5004,868.5065],[27.9767,-21.5046,869.0505],[27.9712,-21.5116,864.1353],[27.9714,-21.5161,861.8939],[27.9783,-21.5224,864.0416],[27.9843,-21.515,856.0243],[27.9921,-21.5157,859.9569],[28.0037,-21.5138,861.7158],[28.0037,-21.5179,856.4113],[27.9977,-21.5224,853.6777],[27.9997,-21.5252,865.8026],[27.996,-21.5274,856.6891],[27.9968,-21.5305,856.0572],[28.0054,-21.539,861.1874],[28.0092,-21.551,848.8469],[28.0082,-21.5552,851.1493],[28.0197,-21.5724,848.0854],[28.052,-21.578,836.0726],[28.0678,-21.5772,840.2958],[28.0809,-21.5815,829.4659],[28.0938,-21.5773,832.6176],[28.0992,-21.5774,825.9765],[28.123,-21.585,816.7758],[28.1336,-21.5863,815.4443],[28.1443,-21.5912,818.8079],[28.1708,-21.5927,818.7092],[28.1975,-21.6017,802.9069],[28.2499,-21.5941,797.7856],[28.2861,-21.5908,795.0192],[28.2926,-21.5874,790.5289],[28.2988,-21.5912,795.5598],[28.3094,-21.5942,797.2608],[28.3254,-21.5955,787.901],[28.3391,-21.5988,789.9861],[28.3475,-21.6058,781.4467],[28.3618,-21.6021,773.6544],[28.3806,-21.6078,795.3925],[28.3918,-21.6196,758.8796],[28.4015,-21.624,766.8688],[28.4083,-21.6291,759.2876],[28.4269,-21.6354,756.9539],[28.4422,-21.6375,757.3234],[28.4505,-21.6433,749.403],[28.4574,-21.6506,756.0861],[28.4656,-21.6518,756.1345],[28.4808,-21.66,740.4847],[28.4956,-21.6646,740.9205],[28.5007,-21.6679,742.5557],[28.5133,-21.6651,734.8435],[28.519,-21.6617,736.7667],[28.5278,-21.6549,732.0658],[28.5396,-21.6414,731.3187],[28.5462,-21.6406,737.723],[28.5563,-21.6422,734.5439],[28.5614,-21.6398,726.2181],[28.5724,-21.6286,730.8838],[28.5822,-21.6284,730.1777],[28.5874,-21.6314,730.4005],[28.5994,-21.6434,719.7812],[28.6085,-21.6431,716.532],[28.6272,-21.6491,713.4761],[28.6392,-21.6487,718.5255],[28.6531,-21.6542,713.1572],[28.6632,-21.6642,704.2659],[28.6704,-21.6762,702.9357],[28.6981,-21.6864,688.7749],[28.7129,-21.6889,695.5311],[28.75,-21.6997,682.5007],[28.7693,-21.71,674.0255],[28.7753,-21.7164,676.6808],[28.7945,-21.7285,664.044],[28.8213,-21.7302,689.4453],[28.8282,-21.732,656.3574],[28.847,-21.7422,647.5956],[28.8601,-21.7523,647.262],[28.8895,-21.7562,682.4235],[28.9021,-21.7613,635.9534],[28.9174,-21.7621,634.3502],[28.9592,-21.7722,628.4626],[28.9788,-21.7673,624.0153],[28.9901,-21.7673,614.7338],[29.0172,-21.7884,617.2642],[29.0322,-21.7914,614.5064],[29.0534,-21.7989,605.9886],[29.0585,-21.7992,605.1285],[29.0717,-21.8068,611.2025],[29.0783,-21.8166,596.1458],[29.0759,-21.8188,598.5139],[29.0768,-21.8199,605.343],[29.0638,-21.8301,637.511],[29.0395,-21.8623,644.0126],[29.0337,-21.8759,646.802],[29.0326,-21.8843,647.3962],[29.0272,-21.8936,655.5439],[29.024,-21.9098,669.0089],[29.022,-21.9323,671.1373],[29.0234,-21.9511,659.1531],[29.0301,-21.9803,667.1684],[29.0388,-21.9991,662.3726],[29.0517,-22.0181,652.5719],[29.0717,-22.038,621.2256],[29.0935,-22.0536,610.996],[29.1066,-22.0601,613.0865],[29.1393,-22.0703,603.3553],[29.1586,-22.0736,611.3882],[29.185,-22.0747,614.6927],[29.2045,-22.0723,592.2247],[29.2482,-22.0585,541.4667],[29.251,-22.0611,541.0718],[29.257,-22.0632,542.3845],[29.2631,-22.0686,539.21],[29.2738,-22.0852,531.5759],[29.2846,-22.1154,527.7435],[29.2989,-22.1303,523.7816],[29.3361,-22.1599,516.2335],[29.3534,-22.1827,512.3027],[29.3628,-22.1903,510.3624],[29.373,-22.1918,512.279],[29.3802,-22.1909,525.3096],[29.4045,-22.181,515.8114],[29.4125,-22.1745,507.2243],[29.4251,-22.1702,511.7184],[29.4653,-22.1632,505.7134],[29.485,-22.165,501.3309],[29.5158,-22.1764,495.0858],[29.5254,-22.1746,503.589],[29.5348,-22.1703,490.4464],[29.5342,-22.1583,492.7011],[29.5355,-22.1552,488.4309],[29.5392,-22.1527,487.7444],[29.5625,-22.1498,485.6667],[29.5755,-22.1403,484.5061],[29.582,-22.1388,490.6504],[29.5931,-22.144,488.0607],[29.6021,-22.1521,486.6479],[29.6091,-22.154,487.7007],[29.6176,-22.149,483.5953],[29.6227,-22.1382,478.9649],[29.6261,-22.1341,485.0782],[29.6526,-22.1236,483.4012],[29.6599,-22.1235,474.488],[29.6654,-22.1266,474.5411],[29.6685,-22.1327,479.1381],[29.6748,-22.1371,479.9989],[29.6957,-22.1353,469.6666],[29.7164,-22.1418,469.8582],[29.7383,-22.1385,474.9989],[29.7734,-22.1383,473.2061],[29.7833,-22.1437,470.732],[29.785,-22.1472,469.7116],[29.8117,-22.1646,466.3437],[29.8338,-22.1701,465.6422],[29.8568,-22.1712,464.1856],[29.8646,-22.1742,462.4018],[29.8704,-22.1815,458.3694],[29.8861,-22.1902,458.1349],[29.9301,-22.1862,456.5122],[29.9268,-22.1883,446.3386],[29.9612,-22.2136,433.1431],[29.9651,-22.2138,432.0856],[29.9668,-22.22,425.5679],[29.9707,-22.2226,428.9735],[29.9745,-22.2243,424.5727],[29.9876,-22.2246,427.9492],[29.9998,-22.2288,417.7399],[30.0112,-22.2274,416.3523],[30.019,-22.2296,419.1589],[30.0212,-22.2317,420.2224],[30.0211,-22.2453,412.8814],[30.0232,-22.2506,412.2466],[30.0324,-22.2542,427.1543],[30.0549,-22.2541,416.22],[30.0749,-22.2719,408.6072],[30.1005,-22.2846,407.2957],[30.1109,-22.2949,409.5089],[30.1176,-22.304,403.5],[30.125,-22.3088,412.7024],[30.1321,-22.3088,414.0794],[30.1521,-22.2999,404.6867],[30.1857,-22.2953,405.7478],[30.1979,-22.2958,400.0804],[30.2285,-22.2934,397.4602],[30.2346,-22.2956,396.012],[30.2371,-22.3006,390.0]]]]}}