{"type":"Feature","properties":{"GID_3":"ZWE.8.5.4_2","GID_0":"ZWE","country":"Zimbabwe","GID_1":"ZWE.8_1","province":"MatabelelandNorth","NL_NAME_1":"NA","GID_2":"ZWE.8.5_2","county":"Lupane","NL_NAME_2":"NA","city":"Ward12","VARNAME_3":"NA","NL_NAME_3":"NA","TYPE_3":"Ward","ENGTYPE_3":"Ward","CC_3":"NA","HASC_3":"NA","name":"Ward12.city"},
"geometry":{"type": "MultiPolygon","coordinates": [[[[28.2162,-18.8033,975.2117],[28.2316,-18.8039,975.9702],[28.2457,-18.8099,979.2],[28.2599,-18.8131,978.9359],[28.2655,-18.8119,981.1385],[28.2746,-18.8039,979.6483],[28.284,-18.8096,980.448],[28.2901,-18.8095,986.194],[28.2958,-18.8026,985.4681],[28.3023,-18.803,982.1632],[28.3002,-18.7958,991.3541],[28.307,-18.7956,988.7315],[28.3134,-18.7926,995.4176],[28.3155,-18.7892,995.5557],[28.3182,-18.7892,990.6259],[28.3176,-18.7867,990.7839],[28.3232,-18.7737,1000.6973],[28.3211,-18.7627,1004.8865],[28.3226,-18.7598,1007.2064],[28.3225,-18.7539,1011.0133],[28.3265,-18.7503,1011.8262],[28.3273,-18.745,1012.9992],[28.3235,-18.7334,1027.0507],[28.3207,-18.7294,1029.6914],[28.324,-18.7141,1057.2169],[28.3063,-18.6851,1076.6907],[28.3055,-18.6798,1084.2947],[28.314,-18.6751,1098.495],[28.3163,-18.6675,1117.3972],[28.3056,-18.6598,1144.2583],[28.298,-18.6217,1171.9597],[28.28,-18.621,1156.735],[28.2698,-18.618,1152.7362],[28.2376,-18.6188,1151.0204],[28.2234,-18.6225,1155.6329],[28.2037,-18.6253,1150.5935],[28.2018,-18.6299,1155.8212],[28.1642,-18.6758,1121.1565],[28.1858,-18.6892,1101.5542],[28.187,-18.6991,1084.2484],[28.1919,-18.7024,1070.6736],[28.1896,-18.7083,1067.7235],[28.1904,-18.7269,1052.0024],[28.1883,-18.7439,1057.1394],[28.1891,-18.7442,1057.1394],[28.1959,-18.7396,1038.7938],[28.2066,-18.7362,1030.6775],[28.205,-18.7413,1022.811],[28.2014,-18.7449,1016.1572],[28.2005,-18.7512,1012.6799],[28.2035,-18.7513,1012.4797],[28.2053,-18.755,1011.2632],[28.2025,-18.7552,1008.6292],[28.2008,-18.7586,1005.3449],[28.2007,-18.7699,997.2498],[28.1977,-18.7783,1002.4586],[28.205,-18.7866,988.1971],[28.2045,-18.7893,985.6688],[28.2086,-18.7936,991.4331],[28.208,-18.7956,981.4714],[28.2109,-18.796,993.8544],[28.2098,-18.7977,984.2965],[28.2107,-18.8002,977.1979],[28.2162,-18.8033,975.2117]]]]}}