{"type": "Feature","bbox": [28.9445,-21.3944,29.3889,-20.8841],"geometry": {"type": "MultiPolygon","coordinates": [[[[29.0019,-20.959,1084.8638],[29.0222,-20.9649,1008.4076],[29.007,-20.9896,993.9963],[29.037,-21.0153,993.4318],[29.0214,-21.0367,975.5536],[28.9986,-21.0221,970.1304],[28.9445,-21.0517,965.2875],[28.9628,-21.0586,946.4127],[28.9553,-21.0948,1068.3439],[28.9707,-21.0987,993.3469],[29.0144,-21.1055,999.474],[29.0985,-21.1365,911.7938],[29.0869,-21.2179,881.0148],[29.0808,-21.2735,896.3925],[29.1058,-21.3026,875.7223],[29.1249,-21.3376,792.754],[29.211,-21.3556,764.8311],[29.2398,-21.3548,747.5513],[29.2541,-21.3843,736.6548],[29.3438,-21.3884,713.0738],[29.3524,-21.3944,702.1423],[29.3879,-21.3827,685.2198],[29.3889,-21.3801,687.1817],[29.3808,-21.3646,692.5951],[29.3727,-21.3557,696.3649],[29.3686,-21.3474,697.7688],[29.3694,-21.3391,707.3574],[29.3602,-21.3259,710.4346],[29.3598,-21.3203,711.9562],[29.3555,-21.3117,717.3892],[29.3599,-21.3043,728.7607],[29.3702,-21.3007,723.0208],[29.3709,-21.2958,725.2587],[29.3554,-21.2818,741.979],[29.3375,-21.2708,740.9492],[29.3458,-21.2651,740.3508],[29.3481,-21.2574,745.5419],[29.3285,-21.2548,901.9938],[29.2699,-21.2545,860.4338],[29.2692,-21.2489,820.6501],[29.27,-21.1101,833.9756],[29.3038,-21.1151,887.42],[29.303,-21.0637,956.1028],[29.3188,-21.0632,908.0392],[29.3277,-21.0485,878.0013],[29.331,-21.023,979.6078],[29.3573,-21.0307,842.8397],[29.3579,-21.0185,844.3365],[29.3467,-21.0072,845.85],[29.3499,-21.0007,849.545],[29.3458,-20.9731,849.8867],[29.3472,-20.9678,860.5698],[29.3527,-20.9612,861.3644],[29.3561,-20.9482,863.9448],[29.3534,-20.9381,862.2896],[29.3492,-20.9311,869.1133],[29.3374,-20.923,874.006],[29.3248,-20.9109,884.3878],[29.3122,-20.9063,877.4005],[29.3055,-20.907,881.4247],[29.2992,-20.905,888.6965],[29.293,-20.8915,882.0322],[29.2614,-20.8992,950.5478],[29.2613,-20.8971,939.6434],[29.1946,-20.8941,1069.1697],[29.1292,-20.8957,992.3174],[29.1111,-20.8876,977.373],[29.0712,-20.8841,1062.8235],[29.0653,-20.938,1028.5836],[29.0356,-20.9244,1022.9561],[29.0344,-20.9352,1001.5203],[29.0308,-20.9472,996.6513],[29.0019,-20.959,1084.8638]]]]}
,"properties": {"GID_3": "ZWE.9.4.15_2","GID_0": "ZWE","country": "Zimbabwe","GID_1": "ZWE.9_1","province": "MatabelelandSouth","NL_NAME_1": "NA","GID_2": "ZWE.9.4_2","county": "Gwanda","NL_NAME_2": "NA","city": "Ward22","VARNAME_3": "NA","NL_NAME_3": "NA","TYPE_3": "Ward","ENGTYPE_3": "Ward","CC_3": "NA","HASC_3": "NA","name": "Ward22.city","area_km2": 1450.883,"hist_schema_id": "Elevation0-9000","hist_area_km2": {"675": 0.059,"700": 10.267,"725": 55.766,"750": 71.377,"775": 70.3,"800": 57.272,"825": 90.989,"850": 145.355,"875": 177.719,"900": 182.716,"925": 162.504,"950": 148.687,"975": 109.535,"1000": 80.567,"1025": 42.956,"1050": 28.15,"1075": 10.986,"1100": 3.582,"1125": 1.701,"1150": 0.356,"1175": 0.04}}}