{"type": "Feature","bbox": [31.2514,-20.4361,31.3631,-20.3375],"geometry": {"type": "MultiPolygon","coordinates": [[[[31.2514,-20.3577,982.63],[31.2517,-20.3693,764.674],[31.2611,-20.3803,732.8738],[31.262,-20.3846,725.0332],[31.271,-20.3833,741.3528],[31.2823,-20.3783,787.4033],[31.2823,-20.3855,761.8542],[31.2786,-20.388,756.8917],[31.2795,-20.3927,744.9393],[31.2839,-20.3958,721.1743],[31.2839,-20.403,710.0479],[31.286,-20.4098,706.0114],[31.2805,-20.4208,686.9957],[31.276,-20.4233,683.2554],[31.2727,-20.4318,680.9662],[31.2745,-20.4361,671.5675],[31.2804,-20.4315,683.3351],[31.2881,-20.4311,689.3348],[31.2954,-20.4218,704.0563],[31.3003,-20.4257,699.5197],[31.3199,-20.4089,735.3679],[31.3263,-20.406,746.588],[31.3362,-20.409,730.7957],[31.35,-20.4202,710.7145],[31.3623,-20.4217,693.7534],[31.3631,-20.4025,706.9009],[31.3559,-20.398,703.4313],[31.3591,-20.3957,726.9929],[31.3549,-20.3837,745.2921],[31.3516,-20.3809,715.0723],[31.3541,-20.3788,721.1702],[31.3561,-20.3724,732.9598],[31.349,-20.3609,735.038],[31.3475,-20.3485,739.5219],[31.35,-20.3477,771.9612],[31.3453,-20.3421,741.7784],[31.3311,-20.3444,812.9226],[31.3195,-20.3375,853.095],[31.3137,-20.3449,788.0502],[31.304,-20.3448,818.3057],[31.2989,-20.3414,821.6757],[31.291,-20.3422,1024.0164],[31.2581,-20.357,1022.3096],[31.2514,-20.3577,982.63]]]]}
,"properties": {"GID_3": "ZWE.7.9.27_2","GID_0": "ZWE","country": "Zimbabwe","GID_1": "ZWE.7_1","province": "Masvingo","NL_NAME_1": "NA","GID_2": "ZWE.7.9_2","county": "Zaka","NL_NAME_2": "NA","city": "Ward33","VARNAME_3": "NA","NL_NAME_3": "NA","TYPE_3": "Ward","ENGTYPE_3": "Ward","CC_3": "NA","HASC_3": "NA","name": "Ward33.city","area_km2": 73.61679,"hist_schema_id": "Elevation0-9000","hist_area_km2": {"675": 0.71527,"700": 7.47135,"725": 16.61364,"750": 13.95191,"775": 11.05123,"800": 10.83315,"825": 5.90372,"850": 2.86238,"875": 1.47097,"900": 0.87463,"925": 0.49695,"950": 0.49694,"975": 0.4572,"1000": 0.19878,"1025": 0.17891,"1050": 0.03975}}}