{"type": "Feature","bbox": [31.0766,-16.6294,31.2311,-16.5318],"geometry": {"type": "MultiPolygon","coordinates": [[[[31.0876,-16.6177,1052.5664],[31.1664,-16.6225,1195.8843],[31.1658,-16.6294,1231.7756],[31.2003,-16.6293,1258.0739],[31.2017,-16.6211,1220.7139],[31.2311,-16.6069,1145.2278],[31.2198,-16.5994,1223.3516],[31.2134,-16.5803,1272.0751],[31.2152,-16.5775,1254.2592],[31.2053,-16.5549,1274.6271],[31.1976,-16.5473,1233.1733],[31.1959,-16.5318,1304.9315],[31.1655,-16.5344,1238.8976],[31.1702,-16.5519,1284.8025],[31.1682,-16.5661,1151.1072],[31.1073,-16.5581,1163.9709],[31.1079,-16.5569,1198.7683],[31.0905,-16.5729,1099.8595],[31.079,-16.5721,1032.7721],[31.0766,-16.5767,1048.1108],[31.0875,-16.5794,1048.8099],[31.0855,-16.581,1019.5551],[31.0853,-16.5867,1026.6975],[31.0866,-16.5878,1026.6975],[31.09,-16.5863,1049.9014],[31.0873,-16.5945,1036.4656],[31.0915,-16.5986,1042.9124],[31.0919,-16.6037,1032.1792],[31.0865,-16.6132,1037.0354],[31.0876,-16.6177,1052.5664]]]]}
,"properties": {"GID_3": "ZWE.4.3.3_2","GID_0": "ZWE","country": "Zimbabwe","GID_1": "ZWE.4_1","province": "MashonalandCentral","NL_NAME_1": "NA","GID_2": "ZWE.4.3_2","county": "Centenary/Muzarabani","NL_NAME_2": "NA","city": "Ward11","VARNAME_3": "NA","NL_NAME_3": "NA","TYPE_3": "Ward","ENGTYPE_3": "Ward","CC_3": "NA","HASC_3": "NA","name": "Ward11.city","area_km2": 103.00108,"hist_schema_id": "Elevation0-9000","hist_area_km2": {"1000": 0.22353,"1025": 1.93038,"1050": 5.12059,"1075": 8.12799,"1100": 8.79859,"1125": 10.01753,"1150": 13.49185,"1175": 12.78089,"1200": 12.31375,"1225": 13.49228,"1250": 9.36749,"1275": 5.48681,"1300": 1.46327,"1325": 0.34547,"1350": 0.04065}}}