{"type": "Feature","bbox": [30.3868,-16.6853,30.5542,-16.4642],"geometry": {"type": "MultiPolygon","coordinates": [[[[30.4109,-16.4642,614.9406],[30.4078,-16.4693,750.6775],[30.4084,-16.4794,652.809],[30.4038,-16.4892,648.3418],[30.4058,-16.495,674.7782],[30.4054,-16.5097,683.2694],[30.4069,-16.5138,732.7645],[30.4034,-16.5169,770.7355],[30.3974,-16.5168,737.4429],[30.3947,-16.5216,691.2914],[30.3954,-16.5263,701.5542],[30.3911,-16.5267,800.0053],[30.3886,-16.5294,849.3568],[30.39,-16.5354,721.4877],[30.3868,-16.5411,800.377],[30.387,-16.5481,737.8784],[30.3933,-16.5508,748.5923],[30.3925,-16.5523,748.2622],[30.3941,-16.5539,765.7194],[30.3976,-16.5528,821.1461],[30.4003,-16.5558,819.6793],[30.4106,-16.5583,880.4085],[30.4129,-16.5568,893.855],[30.4195,-16.5629,910.3569],[30.4231,-16.5633,924.923],[30.427,-16.568,955.7324],[30.4321,-16.5695,958.8237],[30.4388,-16.5681,996.8094],[30.4447,-16.5704,1015.053],[30.447,-16.5739,1024.7756],[30.4469,-16.5796,1040.7262],[30.4535,-16.5858,1073.4821],[30.4523,-16.5861,1073.4821],[30.4523,-16.5911,1090.3483],[30.4487,-16.5933,1098.8175],[30.4569,-16.5998,1091.9852],[30.4611,-16.6083,1026.3901],[30.4689,-16.6118,1075.7484],[30.4732,-16.616,1119.1343],[30.4759,-16.6164,1106.7444],[30.4794,-16.6214,1123.1757],[30.4826,-16.6222,1162.6448],[30.4833,-16.6241,1148.2086],[30.4809,-16.6275,1167.8204],[30.4809,-16.6309,1119.3787],[30.4781,-16.6347,1054.0183],[30.4816,-16.6374,1022.4149],[30.4796,-16.6411,996.7957],[30.4823,-16.6457,985.7649],[30.4795,-16.6476,979.1575],[30.4795,-16.6495,973.5743],[30.4763,-16.6502,969.9288],[30.4782,-16.6544,963.8026],[30.4746,-16.6597,931.567],[30.4745,-16.6642,947.0489],[30.4667,-16.6638,895.952],[30.4667,-16.6619,897.0646],[30.46,-16.6618,881.5998],[30.4592,-16.6603,876.2841],[30.4566,-16.6641,870.5995],[30.462,-16.6681,904.1038],[30.4717,-16.672,925.2901],[30.4975,-16.6758,898.0518],[30.5018,-16.6853,879.1819],[30.51,-16.6808,931.1503],[30.5141,-16.6814,882.8198],[30.5542,-16.5982,1149.5261],[30.5464,-16.5941,1170.1355],[30.5454,-16.5916,1167.6924],[30.541,-16.5931,1189.2705],[30.5361,-16.5887,1190.4213],[30.5333,-16.5883,1160.7114],[30.5319,-16.5855,1155.4612],[30.5335,-16.5806,1145.4741],[30.5264,-16.5728,1072.2468],[30.5213,-16.5703,1051.7843],[30.5201,-16.5672,1057.3206],[30.522,-16.5649,1068.1334],[30.5199,-16.566,1071.9885],[30.5181,-16.5637,1086.5814],[30.5158,-16.564,1080.728],[30.5143,-16.5601,1075.8158],[30.5079,-16.5557,1103.1208],[30.5028,-16.5476,1150.4115],[30.5026,-16.5397,1104.9862],[30.4994,-16.5373,1102.7882],[30.4979,-16.5328,1094.2927],[30.4999,-16.529,1087.2817],[30.5011,-16.5309,1099.8774],[30.4996,-16.5271,1085.9529],[30.498,-16.5271,1072.3812],[30.4954,-16.5145,1065.8049],[30.484,-16.4989,1038.2292],[30.4828,-16.4991,1038.2292],[30.4811,-16.4942,1034.8208],[30.4728,-16.4933,1036.9218],[30.4701,-16.491,1025.9197],[30.456,-16.4878,1019.2045],[30.4569,-16.4799,1059.5994],[30.4534,-16.4772,1008.7057],[30.4383,-16.4838,944.8975],[30.434,-16.483,927.9211],[30.4305,-16.4788,913.7188],[30.4254,-16.4772,868.5895],[30.4211,-16.4779,853.4896],[30.4203,-16.4741,829.7457],[30.4176,-16.4729,746.0563],[30.4176,-16.4703,721.7556],[30.4109,-16.4642,614.9406]]]]}
,"properties": {"GID_3": "ZWE.4.4.8_2","GID_0": "ZWE","country": "Zimbabwe","GID_1": "ZWE.4_1","province": "MashonalandCentral","NL_NAME_1": "NA","GID_2": "ZWE.4.4_2","county": "Guruve","NL_NAME_2": "NA","city": "Ward16","VARNAME_3": "NA","NL_NAME_3": "NA","TYPE_3": "Ward","ENGTYPE_3": "Ward","CC_3": "NA","HASC_3": "NA","name": "Ward16.city","area_km2": 186.5333,"hist_schema_id": "Elevation0-9000","hist_area_km2": {"575": 0.0203,"600": 0.122,"625": 0.1017,"650": 0.2033,"675": 0.3456,"700": 0.7725,"725": 1.0367,"750": 1.2399,"775": 1.2603,"800": 0.996,"825": 1.4635,"850": 2.7035,"875": 4.4311,"900": 6.5647,"925": 8.0278,"950": 10.9543,"975": 12.3362,"1000": 12.2747,"1025": 16.4208,"1050": 21.3593,"1075": 19.8548,"1100": 16.6427,"1125": 10.0379,"1150": 9.2041,"1175": 12.3936,"1200": 8.5739,"1225": 4.2868,"1250": 1.9504,"1275": 0.7314,"1300": 0.1219,"1325": 0.1016}}}