{"type":"Feature","properties":{"GID_3":"ZWE.4.7.37_2","GID_0":"ZWE","country":"Zimbabwe","GID_1":"ZWE.4_1","province":"MashonalandCentral","NL_NAME_1":"NA","GID_2":"ZWE.4.7_2","county":"MountDarwin","NL_NAME_2":"NA","city":"Ward6","VARNAME_3":"NA","NL_NAME_3":"NA","TYPE_3":"Ward","ENGTYPE_3":"Ward","CC_3":"NA","HASC_3":"NA","name":"Ward6.city"},
"geometry":{"type": "MultiPolygon","coordinates": [[[[31.5118,-16.4802,1140.6593],[31.5124,-16.4811,1140.6593],[31.524,-16.4704,1103.8707],[31.5461,-16.4556,960.6718],[31.5627,-16.4617,1041.0802],[31.5716,-16.46,1076.5732],[31.5871,-16.4625,1034.9146],[31.6129,-16.4637,958.1505],[31.6219,-16.4587,863.9852],[31.6356,-16.4612,737.4899],[31.6469,-16.4574,952.5574],[31.6395,-16.4486,745.2305],[31.6394,-16.4336,874.1262],[31.6429,-16.4243,679.3992],[31.6428,-16.3797,742.7269],[31.6413,-16.3778,764.9915],[31.6383,-16.3778,729.051],[31.6336,-16.381,691.9716],[31.6298,-16.3801,621.3863],[31.62,-16.3685,588.3655],[31.6214,-16.3657,569.9277],[31.6207,-16.3614,561.4724],[31.6231,-16.3563,553.0157],[31.6228,-16.3486,548.3554],[31.6183,-16.3447,535.1634],[31.6158,-16.333,519.3459],[31.6121,-16.3271,515.6852],[31.6137,-16.323,507.7558],[31.6119,-16.3191,501.4161],[31.6097,-16.3181,501.1055],[31.6106,-16.3145,506.0419],[31.6061,-16.313,495.3188],[31.6084,-16.3108,500.1492],[31.605,-16.307,493.355],[31.5963,-16.3063,486.8456],[31.5886,-16.313,488.0532],[31.573,-16.3185,481.9407],[31.5672,-16.3309,485.3475],[31.5626,-16.3359,489.8587],[31.5567,-16.3384,488.3014],[31.5421,-16.3367,474.8217],[31.5272,-16.3233,468.3505],[31.5174,-16.3175,469.1374],[31.4795,-16.3258,487.7862],[31.467,-16.3208,480.5401],[31.4517,-16.3208,464.4661],[31.4431,-16.3184,460.424],[31.4694,-16.381,541.0073],[31.5012,-16.4504,645.741],[31.4993,-16.4505,636.0755],[31.4997,-16.456,685.199],[31.5118,-16.4802,1140.6593]]]]}}