{"type": "Feature","bbox": [31.3391,-17.324,31.3477,-17.3155],"geometry": {"type": "MultiPolygon","coordinates": [[[[31.3452,-17.316,1083.4871],[31.3391,-17.3177,1076.663],[31.340699999999998,-17.324,1067.4883],[31.3459,-17.3224,1063.8489],[31.3477,-17.3196,1074.0112],[31.3476,-17.3155,1088.4956],[31.3452,-17.316,1083.4871]]]]}
,"properties": {"GID_3": "ZWE.4.2.8_2","GID_0": "ZWE","country": "Zimbabwe","GID_1": "ZWE.4_1","province": "MashonalandCentral","NL_NAME_1": "NA","GID_2": "ZWE.4.2_2","county": "BinduraUrban","NL_NAME_2": "NA","city": "Ward5","VARNAME_3": "NA","NL_NAME_3": "NA","TYPE_3": "Ward","ENGTYPE_3": "Ward","CC_3": "NA","HASC_3": "NA","name": "Ward5.city","area_km2": 0.5262628,"hist_schema_id": "Elevation0-9000","hist_area_km2": {"1075": 0.5262628}}}