{"type":"Feature","properties":{"GID_3":"ZWE.8.5.22_2","GID_0":"ZWE","country":"Zimbabwe","GID_1":"ZWE.8_1","province":"MatabelelandNorth","NL_NAME_1":"NA","GID_2":"ZWE.8.5_2","county":"Lupane","NL_NAME_2":"NA","city":"Ward3","VARNAME_3":"NA","NL_NAME_3":"NA","TYPE_3":"Ward","ENGTYPE_3":"Ward","CC_3":"NA","HASC_3":"NA","name":"Ward3.city"},
"geometry":{"type": "MultiPolygon","coordinates": [[[[27.7605,-18.3989,1066.954],[27.7716,-18.412,1057.7941],[27.7805,-18.4166,1048.9952],[27.7891,-18.426,1041.1909],[27.7875,-18.4429,1027.1168],[27.789,-18.4463,1025.8252],[27.7862,-18.4552,1019.4216],[27.788,-18.4569,1014.7095],[27.7901,-18.4579,1015.5364],[27.7904,-18.4563,1015.5364],[27.7962,-18.4548,1012.6154],[27.7977,-18.4565,1012.6338],[27.8038,-18.4568,1013.6832],[27.8249,-18.4554,1019.7599],[27.8329,-18.4591,1021.5095],[27.8346,-18.4553,1020.0967],[27.8361,-18.4553,1020.0967],[27.8418,-18.4591,1022.8445],[27.8469,-18.4601,1023.4539],[27.8469,-18.4625,1024.151],[27.8518,-18.4661,1026.7111],[27.8565,-18.4664,1027.2214],[27.8585,-18.4681,1026.5599],[27.8613,-18.4679,1031.1384],[27.8611,-18.4647,1029.1522],[27.8657,-18.4611,1030.0563],[27.8847,-18.4515,1028.5807],[27.9337,-18.4402,1026.8142],[27.9487,-18.4314,1032.0601],[27.9524,-18.4262,1035.9873],[27.9565,-18.4254,1035.6567],[27.966,-18.4178,1039.4062],[27.971,-18.4166,1039.6008],[27.9773,-18.4277,1045.5039],[27.9811,-18.43,1047.0786],[27.9873,-18.4296,1047.4635],[27.989,-18.4312,1048.5044],[27.9931,-18.43,1048.8132],[27.9948,-18.4331,1051.4701],[28.0001,-18.4339,1050.5802],[28.0013,-18.3631,1063.5643],[28.0012,-18.3502,1058.9535],[27.9988,-18.3489,1052.5901],[27.9987,-18.2382,961.2969],[27.9975,-18.2372,967.412],[27.9929,-18.2391,975.8472],[27.9867,-18.2369,978.7269],[27.9803,-18.242,975.1771],[27.9738,-18.2398,974.7303],[27.9577,-18.2423,987.2431],[27.9537,-18.2448,981.0114],[27.9511,-18.2543,985.0008],[27.9441,-18.2558,1002.8599],[27.9382,-18.262,988.0411],[27.931,-18.2652,996.4556],[27.9277,-18.2692,998.4192],[27.924,-18.2689,1006.7546],[27.919,-18.2735,1000.164],[27.9129,-18.2704,1007.8132],[27.909,-18.2722,1009.0095],[27.9072,-18.271,1011.6036],[27.9071,-18.2739,1007.2534],[27.9053,-18.2707,1015.2719],[27.9023,-18.2726,1014.0103],[27.8976,-18.2863,1025.7095],[27.8885,-18.2954,1038.4752],[27.8799,-18.299,1052.183],[27.8766,-18.3023,1051.2185],[27.877,-18.3133,1069.5782],[27.8621,-18.3275,1094.0624],[27.8578,-18.3369,1111.9739],[27.8541,-18.3859,1063.3323],[27.7605,-18.3989,1066.954]]]]}}