{"type":"Feature","properties":{"GID_3":"ZWE.5.7.8_2","GID_0":"ZWE","country":"Zimbabwe","GID_1":"ZWE.5_1","province":"MashonalandEast","NL_NAME_1":"NA","GID_2":"ZWE.5.7_2","county":"Murehwa","NL_NAME_2":"NA","city":"Ward16","VARNAME_3":"NA","NL_NAME_3":"NA","TYPE_3":"Ward","ENGTYPE_3":"Ward","CC_3":"NA","HASC_3":"NA","name":"Ward16.city"},
"geometry":{"type": "MultiPolygon","coordinates": [[[[31.6912,-17.6507,1201.8589],[31.6957,-17.6588,1191.7736],[31.7006,-17.6612,1220.8881],[31.7007,-17.6644,1216.0573],[31.7093,-17.6709,1221.4326],[31.7124,-17.6707,1233.9146],[31.7137,-17.6725,1238.7601],[31.7126,-17.6735,1210.6444],[31.7184,-17.6808,1228.9708],[31.7205,-17.6806,1233.7283],[31.7279,-17.6869,1236.9935],[31.7402,-17.6981,1260.2437],[31.742,-17.703,1238.5568],[31.7505,-17.7093,1274.0834],[31.7626,-17.7231,1292.8098],[31.7729,-17.7316,1312.6257],[31.7778,-17.7335,1314.1411],[31.7821,-17.7383,1294.7097],[31.8075,-17.7465,1356.2635],[31.8379,-17.7516,1290.8741],[31.8399,-17.7427,1323.364],[31.8433,-17.7381,1282.4524],[31.8396,-17.7324,1432.8903],[31.8385,-17.7261,1330.2896],[31.8318,-17.7101,1351.1283],[31.8303,-17.7086,1365.8715],[31.8252,-17.7095,1395.5076],[31.8209,-17.7072,1403.4017],[31.8131,-17.7074,1404.4205],[31.8057,-17.7006,1422.7583],[31.8004,-17.6993,1434.5616],[31.7969,-17.7006,1416.3079],[31.7944,-17.6974,1425.6664],[31.7934,-17.6911,1419.0736],[31.795,-17.6762,1441.3344],[31.8008,-17.6675,1442.2141],[31.8042,-17.6525,1444.8077],[31.7828,-17.6656,1383.5117],[31.7804,-17.6606,1375.7216],[31.7749,-17.66,1396.0502],[31.7715,-17.6535,1346.2306],[31.7656,-17.6521,1334.882],[31.7552,-17.6529,1295.4138],[31.7359,-17.6365,1256.9065],[31.7306,-17.6369,1243.3064],[31.7273,-17.6421,1227.658],[31.7238,-17.6422,1233.9441],[31.7054,-17.651,1213.0386],[31.6912,-17.6507,1201.8589]]]]}}