{"type":"Feature","properties":{"GID_3":"ZWE.7.6.22_2","GID_0":"ZWE","country":"Zimbabwe","GID_1":"ZWE.7_1","province":"Masvingo","NL_NAME_1":"NA","GID_2":"ZWE.7.6_2","county":"Masvingo","NL_NAME_2":"NA","city":"Ward29","VARNAME_3":"NA","NL_NAME_3":"NA","TYPE_3":"Ward","ENGTYPE_3":"Ward","CC_3":"NA","HASC_3":"NA","name":"Ward29.city"},
"geometry":{"type": "MultiPolygon","coordinates": [[[[31.2701,-20.8315,451.0],[31.2679,-20.8269,455.4459],[31.2606,-20.8202,458.0386],[31.2441,-20.8106,470.7853],[31.2404,-20.8034,452.0],[31.2388,-20.7911,460.4647],[31.2423,-20.7739,462.1082],[31.2503,-20.7563,466.6562],[31.2497,-20.7516,475.6601],[31.2434,-20.7535,480.5823],[31.2415,-20.7525,486.582],[31.2409,-20.7454,491.2599],[31.2383,-20.7406,486.7668],[31.239,-20.7314,490.1321],[31.2255,-20.7374,507.6608],[31.2243,-20.7407,513.3835],[31.2251,-20.7511,531.1727],[31.2201,-20.7573,528.5858],[31.212,-20.7601,549.7094],[31.2017,-20.773,561.0124],[31.1628,-20.7834,544.6198],[31.1491,-20.7826,555.293],[31.1348,-20.7868,599.5163],[31.1517,-20.8005,561.3952],[31.1606,-20.8048,515.0359],[31.1832,-20.8206,601.545],[31.1792,-20.8576,505.5562],[31.1902,-20.8687,479.5872],[31.2036,-20.8734,484.7278],[31.1866,-20.887,518.7201],[31.1993,-20.9207,475.2397],[31.244,-20.9014,466.0984],[31.2701,-20.8315,451.0]]]]}}