{"type":"Feature","properties":{"GID_3":"ZWE.6.5.17_2","GID_0":"ZWE","country":"Zimbabwe","GID_1":"ZWE.6_1","province":"MashonalandWest","NL_NAME_1":"NA","GID_2":"ZWE.6.5_2","county":"KadomaUrban","NL_NAME_2":"NA","city":"Ward9","VARNAME_3":"NA","NL_NAME_3":"NA","TYPE_3":"Ward","ENGTYPE_3":"Ward","CC_3":"NA","HASC_3":"NA","name":"Ward9.city"},
"geometry":{"type": "MultiPolygon","coordinates": [[[[29.9045,-18.3465,1162.7402],[29.8996,-18.3475,1151.7679],[29.8907,-18.354,1138.6527],[29.8851,-18.3605,1138.7957],[29.9074,-18.4043,1127.0071],[29.9045,-18.4178,1206.489],[29.9472,-18.41,1157.6603],[29.9629,-18.3873,1159.0828],[29.9337,-18.3662,1148.3383],[29.9369,-18.3623,1150.3075],[29.9254,-18.3522,1139.6176],[29.9238,-18.3582,1136.2435],[29.9093,-18.3464,1156.8369],[29.9223,-18.3326,1158.6226],[29.9148,-18.3365,1165.3657],[29.9099,-18.3322,1193.64],[29.908,-18.3342,1199.4565],[29.9076,-18.3397,1181.6648],[29.9046,-18.3431,1166.9811],[29.9045,-18.3465,1162.7402]]]]}}