{"type":"Feature","properties":{"GID_3":"ZWE.10.1.10_2","GID_0":"ZWE","country":"Zimbabwe","GID_1":"ZWE.10_1","province":"Midlands","NL_NAME_1":"NA","GID_2":"ZWE.10.1_2","county":"Chirumhanzu","NL_NAME_2":"NA","city":"Ward18","VARNAME_3":"NA","NL_NAME_3":"NA","TYPE_3":"Ward","ENGTYPE_3":"Ward","CC_3":"NA","HASC_3":"NA","name":"Ward18.city"},
"geometry":{"type": "MultiPolygon","coordinates": [[[[30.3501,-19.4114,1407.5409],[30.3321,-19.3834,1415.0646],[30.3014,-19.3966,1416.9927],[30.2668,-19.4057,1404.7589],[30.2247,-19.4404,1390.4977],[30.2331,-19.4606,1350.8802],[30.1758,-19.4338,1461.1046],[30.1669,-19.434,1372.436],[30.1679,-19.4564,1379.4033],[30.1578,-19.4747,1300.6002],[30.2092,-19.4906,1325.1359],[30.2464,-19.5042,1302.6881],[30.2906,-19.472,1344.6399],[30.3182,-19.5034,1369.354],[30.3381,-19.4985,1391.6379],[30.3731,-19.477,1397.3994],[30.3572,-19.4408,1426.735],[30.3501,-19.4114,1407.5409]]]]}}