{"type":"Feature","properties":{"GID_3":"ZWE.5.4.13_2","GID_0":"ZWE","country":"Zimbabwe","GID_1":"ZWE.5_1","province":"MashonalandEast","NL_NAME_1":"NA","GID_2":"ZWE.5.4_2","county":"Marondera","NL_NAME_2":"NA","city":"Ward20","VARNAME_3":"NA","NL_NAME_3":"NA","TYPE_3":"Ward","ENGTYPE_3":"Ward","CC_3":"NA","HASC_3":"NA","name":"Ward20.city"},
"geometry":{"type": "MultiPolygon","coordinates": [[[[31.665,-18.3827,1455.9111],[31.6824,-18.414,1500.7961],[31.7167,-18.4021,1602.1398],[31.7584,-18.3905,1432.3749],[31.7553,-18.3227,1512.8755],[31.7266,-18.3286,1591.3159],[31.7081,-18.318,1508.45],[31.7063,-18.3187,1503.7003],[31.706,-18.3263,1474.7958],[31.7126,-18.3311,1485.9796],[31.7142,-18.3365,1461.1736],[31.7221,-18.3443,1572.052],[31.7247,-18.3506,1450.5604],[31.7297,-18.3559,1550.1494],[31.7278,-18.3572,1456.2826],[31.7121,-18.357,1477.0699],[31.7001,-18.361,1505.7434],[31.6941,-18.3577,1512.261],[31.6897,-18.3579,1525.6215],[31.6835,-18.3549,1526.2522],[31.6797,-18.3646,1478.729],[31.665,-18.3827,1455.9111]]]]}}