{"type": "Feature","bbox": [30.6119,-16.2717,30.9909,-16.0],"geometry": {"type": "MultiPolygon","coordinates": [[[[30.9564,-16.0351,363.377],[30.9499,-16.0163,367.8208],[30.921,-16.0,379.0434],[30.6564,-16.0,381.2413],[30.6553,-16.0099,388.0374],[30.651,-16.0203,401.4062],[30.6497,-16.0315,412.6366],[30.631,-16.0484,395.9263],[30.6239,-16.0539,386.7362],[30.622,-16.0526,389.1042],[30.618,-16.0568,379.5276],[30.6209,-16.0624,378.2957],[30.6199,-16.0675,369.1733],[30.6168,-16.0711,365.4661],[30.6133,-16.0715,362.919],[30.6131,-16.0734,362.5713],[30.615,-16.0728,361.9235],[30.6153,-16.0765,363.0976],[30.6122,-16.0765,363.5035],[30.6119,-16.0778,362.269],[30.6151,-16.0803,363.4465],[30.615,-16.0829,363.7572],[30.6199,-16.0855,364.3771],[30.6195,-16.0883,364.7516],[30.6225,-16.089,368.2653],[30.6234,-16.0859,365.503],[30.6259,-16.0858,366.1073],[30.6266,-16.0891,366.8008],[30.63,-16.0894,367.9296],[30.6295,-16.0925,370.6101],[30.6406,-16.0971,377.1976],[30.6467,-16.1042,372.8235],[30.6559,-16.1097,377.4866],[30.6612,-16.1083,378.5408],[30.6648,-16.1096,383.6919],[30.6692,-16.1163,382.2322],[30.6749,-16.1192,384.8619],[30.6791,-16.1192,384.5907],[30.6817,-16.1229,383.703],[30.6805,-16.1265,386.3284],[30.6874,-16.1308,385.6523],[30.6876,-16.1349,390.0895],[30.6853,-16.1374,387.9902],[30.6867,-16.1414,388.6696],[30.6859,-16.1456,393.5486],[30.6916,-16.1514,395.6806],[30.6935,-16.1512,393.5505],[30.6942,-16.157,396.7966],[30.6972,-16.1599,398.6263],[30.6955,-16.1613,398.5842],[30.6972,-16.1652,400.152],[30.6951,-16.1735,402.253],[30.6978,-16.1754,403.9608],[30.6977,-16.1802,405.4135],[30.7013,-16.1796,406.5743],[30.701,-16.1825,406.9305],[30.7031,-16.1819,408.2963],[30.7033,-16.186,407.152],[30.7067,-16.1869,411.6371],[30.7035,-16.1947,410.8408],[30.705,-16.2012,413.0415],[30.7027,-16.2032,415.2811],[30.7045,-16.2048,414.9567],[30.704,-16.2147,419.527],[30.7066,-16.2151,423.0968],[30.7026,-16.2236,421.7649],[30.704,-16.2255,422.6165],[30.7024,-16.2289,425.7547],[30.7053,-16.2336,428.7174],[30.7049,-16.2425,436.8027],[30.7021,-16.2458,443.0214],[30.7029,-16.247,441.2036],[30.7158,-16.2544,447.3041],[30.7209,-16.2593,453.7112],[30.7291,-16.2591,448.8488],[30.7347,-16.2565,446.4258],[30.7381,-16.246,449.9929],[30.7425,-16.2423,444.3614],[30.7575,-16.2394,440.1812],[30.794,-16.2523,419.1402],[30.8134,-16.2534,405.236],[30.817,-16.266,408.5777],[30.8328,-16.2717,413.0796],[30.8445,-16.2714,423.5354],[30.8476,-16.2705,420.3616],[30.8498,-16.2656,417.0471],[30.8552,-16.2622,414.8691],[30.8583,-16.2577,414.5491],[30.8662,-16.2543,417.8632],[30.8668,-16.2481,415.015],[30.8758,-16.2399,415.0445],[30.8832,-16.2378,410.0665],[30.8883,-16.2306,408.4695],[30.9002,-16.2241,408.3011],[30.9023,-16.2209,405.3019],[30.9011,-16.2171,407.8841],[30.9024,-16.2136,405.5837],[30.9117,-16.2087,400.0101],[30.9136,-16.202,393.6645],[30.9215,-16.1925,398.203],[30.9238,-16.1849,397.9089],[30.9291,-16.1809,401.0753],[30.9245,-16.1567,393.6732],[30.9288,-16.1486,393.0435],[30.9272,-16.1452,390.1283],[30.9311,-16.1383,387.0303],[30.9255,-16.1319,378.8196],[30.9199,-16.1285,378.1865],[30.9208,-16.1244,367.6378],[30.9192,-16.1169,360.3277],[30.9213,-16.1131,360.2141],[30.9279,-16.1079,360.0462],[30.9345,-16.0945,357.3563],[30.9399,-16.0939,356.6696],[30.9451,-16.0911,355.7775],[30.9543,-16.0809,352.942],[30.964,-16.0788,352.8181],[30.9658,-16.0753,352.4377],[30.9742,-16.0759,350.8536],[30.9808,-16.0687,350.4165],[30.9835,-16.0686,349.2041],[30.9893,-16.0642,345.4073],[30.9909,-16.0595,346.289],[30.9821,-16.059,349.0901],[30.9663,-16.0494,355.6686],[30.9572,-16.0387,362.1764],[30.9564,-16.0351,363.377]]]]}
,"properties": {"GID_3": "ZWE.4.6.12_2","GID_0": "ZWE","country": "Zimbabwe","GID_1": "ZWE.4_1","province": "MashonalandCentral","NL_NAME_1": "NA","GID_2": "ZWE.4.6_2","county": "Mbire","NL_NAME_2": "NA","city": "Ward4","VARNAME_3": "NA","NL_NAME_3": "NA","TYPE_3": "Ward","ENGTYPE_3": "Ward","CC_3": "NA","HASC_3": "NA","name": "Ward4.city","area_km2": 788.0668,"hist_schema_id": "Elevation0-9000","hist_area_km2": {"350": 17.0727,"375": 163.1857,"400": 296.2232,"425": 192.9661,"450": 84.7346,"475": 33.8233,"500": 0.0611}}}