{"type": "Feature","bbox": [31.4581,-21.0065,31.8277,-20.6214],"geometry": {"type": "MultiPolygon","coordinates": [[[[31.7463,-21.0065,351.3271],[31.7575,-20.9964,363.9333],[31.7834,-20.9772,387.1574],[31.7547,-20.9155,435.1163],[31.8277,-20.8676,454.2744],[31.7933,-20.8271,476.1695],[31.7683,-20.8406,464.0156],[31.7927,-20.7898,557.4109],[31.7949,-20.7711,503.1412],[31.7998,-20.7692,500.3682],[31.7947,-20.7572,493.3781],[31.7901,-20.7559,494.2062],[31.79,-20.7486,495.9308],[31.7844,-20.7463,502.848],[31.7806,-20.7422,496.9478],[31.7716,-20.7429,496.3775],[31.753,-20.7371,498.8514],[31.7295,-20.7124,494.5478],[31.7067,-20.6966,500.2889],[31.7363,-20.6828,489.4797],[31.7229,-20.6613,503.7803],[31.6764,-20.6797,502.9992],[31.6733,-20.666,493.1543],[31.6755,-20.6632,498.0702],[31.6775,-20.664,498.6988],[31.6796,-20.6611,496.9231],[31.6824,-20.6603,505.6699],[31.6863,-20.6533,506.7976],[31.679,-20.6457,507.3194],[31.679,-20.6402,508.0921],[31.6753,-20.6381,509.0722],[31.6434,-20.6354,514.4454],[31.6403,-20.6337,516.5292],[31.6337,-20.6351,513.064],[31.6272,-20.6336,517.9513],[31.6172,-20.634,512.4837],[31.6166,-20.6299,517.1],[31.6124,-20.6281,561.6654],[31.6142,-20.6245,619.9373],[31.6116,-20.6214,529.0],[31.6021,-20.6255,529.0],[31.6042,-20.6272,546.1198],[31.5149,-20.6534,557.0135],[31.4581,-20.6791,559.9583],[31.4594,-20.6921,506.5454],[31.4871,-20.7003,499.2456],[31.5275,-20.7097,485.7524],[31.5287,-20.7171,481.5444],[31.5326,-20.7196,482.2102],[31.5306,-20.7224,477.7683],[31.5336,-20.7257,479.7544],[31.5337,-20.7298,476.2142],[31.5375,-20.7331,475.6884],[31.5387,-20.738,472.9446],[31.5446,-20.7467,475.4306],[31.5429,-20.749,472.2736],[31.5454,-20.7558,466.4399],[31.5503,-20.7614,467.3251],[31.6365,-20.7568,441.7193],[31.6387,-20.7679,420.5363],[31.6334,-20.7879,412.332],[31.6361,-20.7907,427.272],[31.638,-20.7989,419.0532],[31.6472,-20.8074,418.7753],[31.6449,-20.8116,411.3997],[31.6482,-20.8216,408.3904],[31.6476,-20.8366,410.553],[31.6449,-20.8396,408.5909],[31.6373,-20.8417,402.4075],[31.6351,-20.8464,398.2733],[31.6288,-20.8532,399.309],[31.6272,-20.8585,400.0196],[31.6308,-20.8632,416.5227],[31.6305,-20.8749,400.7169],[31.634,-20.8789,395.9138],[31.6347,-20.8888,389.8933],[31.6424,-20.915,383.552],[31.6464,-20.9155,390.0494],[31.6634,-20.9075,387.5031],[31.6711,-20.9071,385.0463],[31.6729,-20.9099,374.2504],[31.6724,-20.9153,376.8702],[31.6682,-20.92,376.0999],[31.6677,-20.9227,370.3743],[31.6723,-20.9436,365.6814],[31.6749,-20.947,374.8192],[31.6765,-20.9546,372.4137],[31.6909,-20.9593,373.9719],[31.6929,-20.9629,408.7962],[31.6873,-20.9844,362.9595],[31.693,-20.9875,366.0342],[31.7018,-20.9831,361.3893],[31.7127,-20.9828,364.1348],[31.7169,-20.989,354.0415],[31.7377,-20.9968,354.2186],[31.7463,-21.0065,351.3271]]]]}
,"properties": {"GID_3": "ZWE.7.2.13_2","GID_0": "ZWE","country": "Zimbabwe","GID_1": "ZWE.7_1","province": "Masvingo","NL_NAME_1": "NA","GID_2": "ZWE.7.2_2","county": "Chiredzi","NL_NAME_2": "NA","city": "Ward20","VARNAME_3": "NA","NL_NAME_3": "NA","TYPE_3": "Ward","ENGTYPE_3": "Ward","CC_3": "NA","HASC_3": "NA","name": "Ward20.city","area_km2": 666.7286,"hist_schema_id": "Elevation0-9000","hist_area_km2": {"350": 3.9393,"375": 31.8356,"400": 53.6314,"425": 95.3115,"450": 136.6413,"475": 137.9788,"500": 161.1079,"525": 38.3469,"550": 5.059,"575": 1.2499,"600": 0.7143,"625": 0.4167,"650": 0.3175,"675": 0.0794,"700": 0.0992}}}