{"type":"Feature","properties":{"GID_3":"ZWE.7.4.29_2","GID_0":"ZWE","country":"Zimbabwe","GID_1":"ZWE.7_1","province":"Masvingo","NL_NAME_1":"NA","GID_2":"ZWE.7.4_2","county":"Chivi","NL_NAME_2":"NA","city":"Ward6","VARNAME_3":"NA","NL_NAME_3":"NA","TYPE_3":"Ward","ENGTYPE_3":"Ward","CC_3":"NA","HASC_3":"NA","name":"Ward6.city"},
"geometry":{"type": "MultiPolygon","coordinates": [[[[30.3504,-20.1251,924.3917],[30.3476,-20.1297,920.2696],[30.3468,-20.1391,912.3505],[30.3301,-20.1455,907.9193],[30.3284,-20.1497,899.5854],[30.3305,-20.1515,902.165],[30.3262,-20.1517,900.8858],[30.3246,-20.1564,894.164],[30.3175,-20.1631,890.1056],[30.3135,-20.1642,897.4348],[30.313,-20.1724,882.3995],[30.3062,-20.1772,879.9457],[30.3028,-20.1835,876.6679],[30.2976,-20.1865,871.1891],[30.3055,-20.1895,879.4432],[30.3111,-20.1886,881.2028],[30.3177,-20.1897,886.5258],[30.3331,-20.2003,891.1473],[30.3473,-20.2056,874.8107],[30.3465,-20.2002,879.4453],[30.3486,-20.1974,879.8179],[30.3477,-20.1953,882.564],[30.3493,-20.1921,889.4929],[30.3469,-20.1888,886.744],[30.3475,-20.1865,888.3457],[30.3459,-20.1867,889.3408],[30.3466,-20.1841,893.2148],[30.3438,-20.1763,894.9214],[30.3685,-20.1668,931.9164],[30.3782,-20.1648,934.8649],[30.3849,-20.1672,935.7581],[30.3842,-20.1596,949.059],[30.4074,-20.1592,946.9328],[30.3986,-20.1446,959.6746],[30.3913,-20.1465,970.3431],[30.3869,-20.129,974.7368],[30.3765,-20.1095,968.8763],[30.3619,-20.1163,958.2051],[30.3504,-20.1251,924.3917]]]]}}