{"type": "Feature","bbox": [29.7456,-19.4751,29.7625,-19.4635],"geometry": {"type": "MultiPolygon","coordinates": [[[[29.7625,-19.4693,1418.7288],[29.7599,-19.4658,1418.207],[29.753,-19.4653,1425.8334],[29.7518,-19.4635,1430.2231],[29.7463,-19.4661,1427.7927],[29.7507,-19.4721,1407.2096],[29.7456,-19.4751,1411.7841],[29.7534,-19.4741,1403.6941],[29.7625,-19.4693,1418.7288]]]]}
,"properties": {"GID_3": "ZWE.10.6.3_2","GID_0": "ZWE","country": "Zimbabwe","GID_1": "ZWE.10_1","province": "Midlands","NL_NAME_1": "NA","GID_2": "ZWE.10.6_2","county": "GweruUrban","NL_NAME_2": "NA","city": "Ward11","VARNAME_3": "NA","NL_NAME_3": "NA","TYPE_3": "Ward","ENGTYPE_3": "Ward","CC_3": "NA","HASC_3": "NA","name": "Ward11.city","area_km2": 1.1993947,"hist_schema_id": "Elevation0-9000","hist_area_km2": {"1400": 0.4597608,"1425": 0.7396339}}}