{"type":"Feature","properties":{"GID_3":"ZWE.9.8.17_2","GID_0":"ZWE","country":"Zimbabwe","GID_1":"ZWE.9_1","province":"MatabelelandSouth","NL_NAME_1":"NA","GID_2":"ZWE.9.8_2","county":"Matobo","NL_NAME_2":"NA","city":"Ward24","VARNAME_3":"NA","NL_NAME_3":"NA","TYPE_3":"Ward","ENGTYPE_3":"Ward","CC_3":"NA","HASC_3":"NA","name":"Ward24.city"},
"geometry":{"type": "MultiPolygon","coordinates": [[[[28.3316,-20.3546,1370.573],[28.3083,-20.406,1399.4852],[28.3013,-20.426,1389.999],[28.2987,-20.4479,1409.1432],[28.2695,-20.4615,1457.2179],[28.2666,-20.489,1426.2443],[28.2252,-20.5176,1384.4564],[28.2017,-20.5385,1308.3145],[28.1837,-20.5506,1249.736],[28.2506,-20.5935,1338.524],[28.2556,-20.6054,1264.589],[28.2913,-20.5763,1344.925],[28.2968,-20.5664,1367.0509],[28.4061,-20.4901,1381.1163],[28.4305,-20.5104,1399.0059],[28.4973,-20.5106,1428.2212],[28.4967,-20.4728,1406.1869],[28.4891,-20.447,1313.8801],[28.4759,-20.4114,1354.8716],[28.4429,-20.4183,1365.7046],[28.4132,-20.4411,1348.804],[28.403,-20.4174,1360.403],[28.3757,-20.3823,1385.7649],[28.3316,-20.3546,1370.573]]]]}}