{"type":"Feature","properties":{"GID_3":"ZWE.7.1.30_2","GID_0":"ZWE","country":"Zimbabwe","GID_1":"ZWE.7_1","province":"Masvingo","NL_NAME_1":"NA","GID_2":"ZWE.7.1_2","county":"Bikita","NL_NAME_2":"NA","city":"Ward7","VARNAME_3":"NA","NL_NAME_3":"NA","TYPE_3":"Ward","ENGTYPE_3":"Ward","CC_3":"NA","HASC_3":"NA","name":"Ward7.city"},
"geometry":{"type": "MultiPolygon","coordinates": [[[[31.7511,-20.1714,766.1298],[31.7493,-20.1886,773.1284],[31.7716,-20.2114,696.9043],[31.7726,-20.2284,683.203],[31.7828,-20.2389,667.4697],[31.7841,-20.2423,663.5718],[31.7833,-20.2466,659.585],[31.8514,-20.2494,720.8688],[31.8724,-20.2089,1068.9644],[31.8613,-20.2072,972.5438],[31.8493,-20.1845,717.1156],[31.8462,-20.1832,713.6315],[31.8438,-20.1788,729.6148],[31.8318,-20.1739,738.2319],[31.8272,-20.1692,752.4004],[31.8192,-20.1678,767.4704],[31.8131,-20.163,775.3591],[31.8088,-20.1619,804.6865],[31.7963,-20.1618,822.9862],[31.7868,-20.1644,823.9756],[31.7847,-20.1536,805.6496],[31.7557,-20.1713,763.818],[31.7511,-20.1714,766.1298]]]]}}