{"type":"Feature","properties":{"GID_3":"ZWE.5.10.16_2","GID_0":"ZWE","country":"Zimbabwe","GID_1":"ZWE.5_1","province":"MashonalandEast","NL_NAME_1":"NA","GID_2":"ZWE.5.10_2","county":"Seke","NL_NAME_2":"NA","city":"Ward4","VARNAME_3":"NA","NL_NAME_3":"NA","TYPE_3":"Ward","ENGTYPE_3":"Ward","CC_3":"NA","HASC_3":"NA","name":"Ward4.city"},
"geometry":{"type": "MultiPolygon","coordinates": [[[[31.3097,-18.1244,1530.1206],[31.3014,-18.1446,1550.365],[31.2974,-18.1487,1541.4471],[31.2852,-18.1505,1524.7926],[31.2806,-18.153,1514.3218],[31.2755,-18.1592,1505.7825],[31.2702,-18.1609,1496.4813],[31.2728,-18.1645,1497.9648],[31.2781,-18.1693,1501.4048],[31.2858,-18.1703,1514.8151],[31.293,-18.1764,1510.4882],[31.3004,-18.1758,1522.2883],[31.3066,-18.1852,1526.4536],[31.3196,-18.1896,1524.5573],[31.3246,-18.2022,1538.9381],[31.3304,-18.2078,1544.0925],[31.3375,-18.21,1546.3798],[31.3464,-18.2096,1550.4951],[31.3571,-18.2038,1566.1102],[31.3705,-18.2044,1574.7103],[31.3647,-18.2144,1583.7422],[31.3629,-18.2324,1548.4224],[31.3996,-18.2354,1577.6631],[31.4036,-18.2258,1589.681],[31.3967,-18.2234,1580.8961],[31.3968,-18.2134,1592.0989],[31.4092,-18.2128,1615.6268],[31.3961,-18.1768,1595.0415],[31.4033,-18.1683,1573.1205],[31.407,-18.1661,1573.7319],[31.3932,-18.1583,1578.8138],[31.3887,-18.1588,1572.0459],[31.382,-18.1565,1561.7173],[31.3721,-18.1499,1559.6301],[31.3637,-18.151,1550.5454],[31.3575,-18.148,1546.0896],[31.3527,-18.1442,1535.4706],[31.3493,-18.137,1543.0009],[31.3422,-18.131,1541.95],[31.3377,-18.1324,1528.7297],[31.3268,-18.1313,1525.885],[31.3209,-18.1278,1528.759],[31.3097,-18.1244,1530.1206]]]]}}