{"type": "Feature","bbox": [30.4539,-20.8765,30.6347,-20.6823],"geometry": {"type": "MultiPolygon","coordinates": [[[[30.5199,-20.6823,685.0805],[30.5098,-20.6919,700.516],[30.4975,-20.6974,729.5922],[30.4869,-20.7049,704.497],[30.4814,-20.7151,704.9494],[30.4786,-20.7407,709.6302],[30.4801,-20.7484,693.2985],[30.4734,-20.7563,684.8372],[30.4691,-20.7696,701.6327],[30.466,-20.7905,693.2468],[30.4543,-20.8311,718.248],[30.4539,-20.8385,726.4421],[30.4755,-20.8507,714.7131],[30.482,-20.8508,712.6196],[30.4911,-20.8646,727.7148],[30.4955,-20.8685,705.5361],[30.5158,-20.8765,682.7876],[30.5176,-20.873,681.2574],[30.5233,-20.8729,683.5526],[30.5274,-20.8697,676.8597],[30.5347,-20.869,674.4767],[30.5358,-20.8662,675.4736],[30.5439,-20.8647,668.6274],[30.5484,-20.8611,667.1897],[30.5512,-20.8564,667.4737],[30.5551,-20.8552,663.1594],[30.5609,-20.8463,663.8704],[30.5707,-20.8431,660.1835],[30.574,-20.8444,663.233],[30.5764,-20.8425,665.0991],[30.58,-20.8428,656.2412],[30.5812,-20.8404,659.0885],[30.5873,-20.8399,654.951],[30.5895,-20.837,669.5382],[30.5957,-20.8375,655.3307],[30.5987,-20.8262,650.0571],[30.6037,-20.8218,646.3088],[30.602,-20.815,649.3427],[30.6067,-20.8137,641.0398],[30.6098,-20.8053,641.9891],[30.619,-20.8005,635.0328],[30.6308,-20.7849,628.6096],[30.6278,-20.777,619.1634],[30.6347,-20.7712,661.0505],[30.633,-20.7622,646.7304],[30.6275,-20.7531,639.0189],[30.6049,-20.7678,644.2412],[30.5934,-20.7794,641.9669],[30.5905,-20.7764,652.0184],[30.5726,-20.7746,652.6472],[30.5597,-20.7706,657.76],[30.5515,-20.7656,711.5257],[30.5418,-20.7563,657.3944],[30.5218,-20.7488,666.7985],[30.5155,-20.7407,665.5928],[30.5127,-20.7257,672.4246],[30.514,-20.7185,669.3769],[30.5209,-20.7051,673.2252],[30.5237,-20.6938,677.0529],[30.5234,-20.6853,674.9249],[30.5199,-20.6823,685.0805]]]]}
,"properties": {"GID_3": "ZWE.7.8.12_2","GID_0": "ZWE","country": "Zimbabwe","GID_1": "ZWE.7_1","province": "Masvingo","NL_NAME_1": "NA","GID_2": "ZWE.7.8_2","county": "Mwenezi","NL_NAME_2": "NA","city": "Ward3","VARNAME_3": "NA","NL_NAME_3": "NA","TYPE_3": "Ward","ENGTYPE_3": "Ward","CC_3": "NA","HASC_3": "NA","name": "Ward3.city","area_km2": 190.4976,"hist_schema_id": "Elevation0-9000","hist_area_km2": {"625": 4.4207,"650": 19.8813,"675": 71.0798,"700": 76.3093,"725": 16.646,"750": 1.2685,"775": 0.4757,"800": 0.2775,"825": 0.119,"850": 0.0198}}}