{"type": "Feature","bbox": [32.2057,-19.3061,32.3525,-19.1664],"geometry": {"type": "MultiPolygon","coordinates": [[[[32.2943,-19.1664,967.2599],[32.2817,-19.1726,959.2988],[32.2736,-19.1731,940.3692],[32.283,-19.184,976.3104],[32.2856,-19.1907,985.9303],[32.2875,-19.2033,1014.4242],[32.2851,-19.2091,1010.2703],[32.2749,-19.2153,978.9438],[32.2727,-19.2209,962.1969],[32.2619,-19.2224,939.6341],[32.2479,-19.2198,920.0739],[32.2442,-19.2217,914.9426],[32.2455,-19.2245,919.1278],[32.242,-19.2331,935.4946],[32.2388,-19.2332,930.3795],[32.2335,-19.2376,921.5919],[32.2171,-19.2459,871.239],[32.2087,-19.2464,861.3676],[32.2057,-19.2482,852.7701],[32.2193,-19.2567,878.1079],[32.2269,-19.2576,894.5473],[32.2363,-19.2542,907.8961],[32.2406,-19.251,916.8612],[32.2417,-19.2483,921.8218],[32.2492,-19.253,931.0148],[32.2525,-19.2647,933.4393],[32.2617,-19.2739,917.7358],[32.2646,-19.2821,910.1483],[32.2729,-19.2921,898.8323],[32.2727,-19.2963,891.4014],[32.2705,-19.2978,884.0187],[32.2693,-19.3019,875.5901],[32.2711,-19.3061,870.7825],[32.2746,-19.3022,872.0184],[32.2764,-19.3022,873.206],[32.2784,-19.2986,878.1465],[32.2865,-19.3001,908.8248],[32.2872,-19.2985,917.9867],[32.3022,-19.2991,944.8776],[32.3046,-19.2946,956.2653],[32.3138,-19.2927,988.2666],[32.3281,-19.2801,1081.6754],[32.3293,-19.2683,1250.8993],[32.3454,-19.2538,1230.1853],[32.3525,-19.2371,1028.1378],[32.3415,-19.2355,1064.6741],[32.3366,-19.2304,1114.6639],[32.3397,-19.2226,1321.405],[32.3406,-19.2103,1680.7578],[32.3264,-19.1918,1111.0879],[32.3143,-19.1847,1041.8164],[32.3129,-19.1808,1029.415],[32.3063,-19.1776,1015.4015],[32.2943,-19.1664,967.2599]]]]}
,"properties": {"GID_3": "ZWE.3.6.2_2","GID_0": "ZWE","country": "Zimbabwe","GID_1": "ZWE.3_1","province": "Manicaland","NL_NAME_1": "NA","GID_2": "ZWE.3.6_2","county": "Mutare","NL_NAME_2": "NA","city": "Ward10","VARNAME_3": "NA","NL_NAME_3": "NA","TYPE_3": "Ward","ENGTYPE_3": "Ward","CC_3": "NA","HASC_3": "NA","name": "Ward10.city","area_km2": 104.35352,"hist_schema_id": "Elevation0-9000","hist_area_km2": {"850": 0.16014,"875": 2.28177,"900": 4.04267,"925": 10.54803,"950": 13.65104,"975": 11.89073,"1000": 12.13123,"1025": 11.75113,"1050": 8.18774,"1075": 7.68738,"1100": 4.78466,"1125": 3.44321,"1150": 2.40236,"1175": 2.38234,"1200": 1.72171,"1225": 0.96093,"1250": 0.84083,"1275": 0.76076,"1300": 0.66066,"1325": 0.60059,"1350": 0.54054,"1375": 0.44044,"1400": 0.38041,"1425": 0.22023,"1450": 0.22023,"1475": 0.20021,"1500": 0.14015,"1525": 0.24025,"1550": 0.1001,"1575": 0.20021,"1600": 0.24025,"1625": 0.32034,"1650": 0.18019,"1675": 0.04004}}}