{"type": "Feature","bbox": [31.1225,-18.3908,31.2421,-18.2692],"geometry": {"type": "MultiPolygon","coordinates": [[[[31.2421,-18.3139,1490.8435],[31.236,-18.3123,1486.2537],[31.2366,-18.3036,1491.4064],[31.2349,-18.301,1488.1127],[31.2204,-18.2952,1476.1992],[31.208,-18.285,1463.2295],[31.1963,-18.2868,1453.3969],[31.185,-18.2853,1445.7898],[31.1762,-18.2754,1442.5995],[31.1718,-18.2742,1438.9207],[31.1659,-18.2692,1431.9111],[31.165,-18.2725,1432.5428],[31.17,-18.2942,1449.7402],[31.1684,-18.2997,1444.3182],[31.1727,-18.3071,1443.8054],[31.1735,-18.3216,1440.7571],[31.1804,-18.3261,1454.4419],[31.1808,-18.3412,1445.8496],[31.1556,-18.3502,1417.5386],[31.1499,-18.3497,1410.9485],[31.1225,-18.3584,1368.5415],[31.135,-18.3652,1389.8499],[31.1388,-18.3644,1390.4021],[31.1457,-18.3747,1387.9099],[31.1488,-18.3764,1393.8597],[31.1531,-18.3762,1406.2837],[31.1592,-18.3795,1406.8597],[31.1681,-18.3803,1410.8438],[31.1823,-18.3793,1426.353],[31.187,-18.3841,1425.9177],[31.1894,-18.3851,1424.3037],[31.191,-18.3839,1437.6868],[31.1946,-18.3895,1436.8639],[31.2004,-18.3889,1441.408],[31.2086,-18.3908,1445.991],[31.211,-18.3892,1450.6763],[31.2219,-18.3885,1469.0046],[31.2233,-18.3823,1474.9258],[31.2178,-18.3763,1477.7789],[31.2148,-18.368,1476.5671],[31.2096,-18.3633,1466.913],[31.2078,-18.359,1465.7205],[31.1972,-18.3523,1456.5549],[31.2071,-18.3469,1468.582],[31.223,-18.3486,1470.5303],[31.2256,-18.3468,1474.8171],[31.2418,-18.3297,1501.354],[31.2421,-18.3139,1490.8435]]]]}
,"properties": {"GID_3": "ZWE.5.4.3_2","GID_0": "ZWE","country": "Zimbabwe","GID_1": "ZWE.5_1","province": "MashonalandEast","NL_NAME_1": "NA","GID_2": "ZWE.5.4_2","county": "Marondera","NL_NAME_2": "NA","city": "Ward11","VARNAME_3": "NA","NL_NAME_3": "NA","TYPE_3": "Ward","ENGTYPE_3": "Ward","CC_3": "NA","HASC_3": "NA","name": "Ward11.city","area_km2": 74.52551,"hist_schema_id": "Elevation0-9000","hist_area_km2": {"1375": 0.58357,"1400": 3.56167,"1425": 8.93439,"1450": 26.12326,"1475": 29.12329,"1500": 6.19933}}}