{"type":"Feature","properties":{"GID_3":"ZWE.3.3.15_2","GID_0":"ZWE","country":"Zimbabwe","GID_1":"ZWE.3_1","province":"Manicaland","NL_NAME_1":"NA","GID_2":"ZWE.3.3_2","county":"Chipinge","NL_NAME_2":"NA","city":"Ward22","VARNAME_3":"NA","NL_NAME_3":"NA","TYPE_3":"Ward","ENGTYPE_3":"Ward","CC_3":"NA","HASC_3":"NA","name":"Ward22.city"},
"geometry":{"type": "MultiPolygon","coordinates": [[[[32.272,-20.5983,406.7963],[32.2684,-20.6046,405.5],[32.2611,-20.6108,407.2495],[32.2569,-20.6167,404.0],[32.2609,-20.6458,406.5114],[32.256,-20.6695,398.0],[32.2518,-20.6755,407.2959],[32.2552,-20.6793,411.5978],[32.27,-20.6888,422.021],[32.2749,-20.6868,420.9837],[32.2816,-20.6898,422.8777],[32.3184,-20.6888,436.5398],[32.3259,-20.6931,450.8673],[32.3361,-20.6915,462.9443],[32.3529,-20.6942,480.1021],[32.3711,-20.7028,482.3948],[32.3788,-20.7094,479.1069],[32.3826,-20.6917,528.9227],[32.3805,-20.69,516.6676],[32.3807,-20.6862,563.0056],[32.3781,-20.6825,566.4939],[32.3803,-20.6767,565.2947],[32.3743,-20.6453,757.447],[32.3761,-20.6314,822.7123],[32.3749,-20.6227,851.0739],[32.3878,-20.6126,672.5641],[32.3848,-20.5923,537.1473],[32.3808,-20.5851,499.6233],[32.371,-20.587,457.5662],[32.3605,-20.5825,430.5978],[32.3585,-20.5796,428.3011],[32.3533,-20.5798,424.9264],[32.349,-20.5721,422.0929],[32.3397,-20.5635,419.6832],[32.3238,-20.558,417.2833],[32.2793,-20.5969,411.8923],[32.276,-20.5964,412.0704],[32.272,-20.5983,406.7963]]]]}}