{"type": "Feature","bbox": [31.4138,-17.0971,31.5196,-17.0288],"geometry": {"type": "MultiPolygon","coordinates": [[[[31.4344,-17.0931,1040.64],[31.4387,-17.0924,1049.4497],[31.4432,-17.0971,1040.3406],[31.4453,-17.0951,1043.3359],[31.4537,-17.0954,1027.1674],[31.4541,-17.0936,1039.0577],[31.4586,-17.0945,1038.2947],[31.463,-17.0925,1029.8884],[31.4674,-17.0933,1020.1268],[31.4702,-17.0916,1025.5533],[31.4728,-17.0954,1019.2588],[31.4754,-17.0962,1015.6279],[31.4765,-17.0948,1020.6915],[31.4787,-17.0971,1017.0806],[31.4788,-17.0959,1025.9119],[31.4815,-17.0959,1024.5779],[31.5045,-17.086,994.824],[31.5054,-17.082,997.387],[31.5091,-17.0825,995.161],[31.516,-17.0773,989.8657],[31.5196,-17.0764,993.4933],[31.5141,-17.0672,995.327],[31.514,-17.0632,999.7456],[31.5113,-17.0604,1026.8799],[31.5102,-17.0615,1008.8022],[31.5094,-17.0605,1012.2632],[31.5104,-17.0564,1022.0931],[31.5093,-17.0524,1062.5789],[31.5043,-17.0532,1028.3732],[31.5036,-17.0512,1052.6757],[31.5018,-17.0518,1035.4324],[31.4999,-17.0493,1048.1417],[31.4825,-17.0462,1097.3646],[31.4786,-17.0438,1103.3086],[31.4721,-17.0339,1255.4773],[31.4679,-17.032,1208.6293],[31.4372,-17.0288,1188.3748],[31.4269,-17.0488,1121.297],[31.4211,-17.0514,1094.4185],[31.4138,-17.0607,1079.6071],[31.414,-17.0693,1069.9025],[31.416,-17.0712,1069.7557],[31.4172,-17.0761,1063.3232],[31.4206,-17.0809,1057.5692],[31.4242,-17.0813,1058.8408],[31.4247,-17.0853,1046.9366],[31.4267,-17.0853,1056.9417],[31.4273,-17.0887,1049.724],[31.4301,-17.0878,1060.4242],[31.4344,-17.0931,1040.64]]]]}
,"properties": {"GID_3": "ZWE.4.10.29_2","GID_0": "ZWE","country": "Zimbabwe","GID_1": "ZWE.4_1","province": "MashonalandCentral","NL_NAME_1": "NA","GID_2": "ZWE.4.10_2","county": "Shamva","NL_NAME_2": "NA","city": "Ward9","VARNAME_3": "NA","NL_NAME_3": "NA","TYPE_3": "Ward","ENGTYPE_3": "Ward","CC_3": "NA","HASC_3": "NA","name": "Ward9.city","area_km2": 57.01581,"hist_schema_id": "Elevation0-9000","hist_area_km2": {"1000": 3.64813,"1025": 8.61367,"1050": 12.60646,"1075": 11.22866,"1100": 9.97259,"1125": 6.48654,"1150": 2.93935,"1175": 0.97305,"1200": 0.22299,"1225": 0.1419,"1250": 0.12163,"1275": 0.02027,"1300": 0.02027,"1325": 0.02027}}}