{"type":"Feature","properties":{"GID_3":"ZWE.10.5.12_2","GID_0":"ZWE","country":"Zimbabwe","GID_1":"ZWE.10_1","province":"Midlands","NL_NAME_1":"NA","GID_2":"ZWE.10.5_2","county":"Gweru","NL_NAME_2":"NA","city":"Ward2","VARNAME_3":"NA","NL_NAME_3":"NA","TYPE_3":"Ward","ENGTYPE_3":"Ward","CC_3":"NA","HASC_3":"NA","name":"Ward2.city"},
"geometry":{"type": "MultiPolygon","coordinates": [[[[29.3294,-19.328,1218.0676],[29.3296,-19.3255,1223.1615],[29.3352,-19.3232,1224.0676],[29.3339,-19.3222,1228.8484],[29.3348,-19.321,1232.1238],[29.3455,-19.3202,1231.5703],[29.3464,-19.3179,1235.6066],[29.3498,-19.3192,1238.6475],[29.3546,-19.3183,1242.0571],[29.363,-19.3146,1244.0896],[29.3698,-19.3099,1251.7874],[29.373,-19.3035,1261.0918],[29.3574,-19.2927,1290.1586],[29.3625,-19.2725,1326.4044],[29.354,-19.2623,1340.8163],[29.3572,-19.2565,1344.8877],[29.3559,-19.2531,1347.0833],[29.3384,-19.2471,1349.7628],[29.3294,-19.2244,1339.501],[29.3161,-19.22,1346.3397],[29.3088,-19.2147,1351.3848],[29.3079,-19.2128,1349.9844],[29.3101,-19.2112,1348.2957],[29.3094,-19.2091,1348.8806],[29.2978,-19.2031,1347.671],[29.3008,-19.1978,1345.1279],[29.2834,-19.1984,1341.3193],[29.2384,-19.2239,1285.6077],[29.2045,-19.2534,1193.9714],[29.2079,-19.2543,1197.4995],[29.2141,-19.2525,1206.6115],[29.223,-19.2592,1200.5985],[29.2329,-19.2623,1203.3484],[29.2376,-19.2674,1204.0978],[29.2513,-19.2758,1206.7449],[29.253,-19.2803,1202.4846],[29.262,-19.2834,1205.9067],[29.267,-19.2903,1208.6508],[29.2709,-19.2924,1213.299],[29.2769,-19.2921,1215.1136],[29.281,-19.2938,1214.4152],[29.285,-19.3019,1213.2091],[29.2958,-19.3053,1215.0292],[29.3034,-19.3099,1217.4122],[29.3088,-19.3157,1221.7721],[29.3237,-19.3235,1218.988],[29.3274,-19.3283,1226.0389],[29.3294,-19.328,1218.0676]]]]}}