{"type": "Feature","bbox": [32.7661,-19.8099,33.0028,-19.6797],"geometry": {"type": "MultiPolygon","coordinates": [[[[32.9557,-19.7169,1105.5875],[32.953,-19.7183,1038.2446],[32.9393,-19.7147,1068.3342],[32.9294,-19.715,1092.5077],[32.9269,-19.712,1111.167],[32.913,-19.7106,1168.9291],[32.9101,-19.6797,1554.219],[32.8897,-19.6847,1614.8594],[32.8764,-19.6853,1649.0433],[32.8727,-19.6829,1860.5524],[32.8501,-19.6846,2140.5068],[32.8379,-19.6802,1771.2115],[32.7867,-19.7112,1640.1323],[32.8076,-19.7266,1592.4806],[32.7915,-19.7368,1263.4192],[32.791,-19.7411,1267.7473],[32.7942,-19.7577,1557.37],[32.7661,-19.7696,1664.543],[32.7907,-19.7755,1585.1951],[32.7951,-19.7723,1565.4604],[32.8004,-19.7733,1629.6416],[32.8071,-19.7898,1543.9972],[32.8404,-19.8099,1469.7556],[32.8483,-19.773,1879.5684],[32.8804,-19.7721,1766.9099],[32.8833,-19.7817,1844.2134],[32.8804,-19.7858,1711.9326],[32.8826,-19.7938,1587.2472],[32.9161,-19.7896,1346.614],[32.917,-19.7851,1469.4042],[32.9235,-19.7831,1415.6028],[32.9303,-19.776,1385.353],[32.9758,-19.7697,1087.626],[32.9788,-19.7548,1277.5378],[32.9955,-19.7581,1601.228],[32.998,-19.7539,1752.3213],[33.0028,-19.7512,1873.7228],[32.9925,-19.7474,1714.2997],[32.9606,-19.7249,1142.6667],[32.9557,-19.7169,1105.5875]]]]}
,"properties": {"GID_3": "ZWE.3.2.3_2","GID_0": "ZWE","country": "Zimbabwe","GID_1": "ZWE.3_1","province": "Manicaland","NL_NAME_1": "NA","GID_2": "ZWE.3.2_2","county": "Chimanimani","NL_NAME_2": "NA","city": "Ward11","VARNAME_3": "NA","NL_NAME_3": "NA","TYPE_3": "Ward","ENGTYPE_3": "Ward","CC_3": "NA","HASC_3": "NA","name": "Ward11.city","area_km2": 185.8919,"hist_schema_id": "Elevation0-9000","hist_area_km2": {"1025": 0.1198,"1050": 0.3393,"1075": 0.8383,"1100": 0.8981,"1125": 1.5367,"1150": 1.4968,"1175": 2.3948,"1200": 2.7739,"1225": 3.7917,"1250": 5.3882,"1275": 6.1266,"1300": 6.0467,"1325": 6.4059,"1350": 5.867,"1375": 5.6674,"1400": 6.0067,"1425": 6.0665,"1450": 6.1462,"1475": 6.6651,"1500": 7.1839,"1525": 8.2016,"1550": 8.3016,"1575": 8.2019,"1600": 7.0046,"1625": 7.3042,"1650": 6.8252,"1675": 6.6057,"1700": 6.107,"1725": 5.8874,"1750": 5.5082,"1775": 4.5302,"1800": 4.4102,"1825": 4.6496,"1850": 5.0687,"1875": 3.8714,"1900": 3.6719,"1925": 2.5744,"1950": 2.0555,"1975": 1.9558,"2000": 0.2395,"2025": 0.2595,"2050": 0.2396,"2075": 0.1797,"2100": 0.2396,"2125": 0.1397,"2150": 0.0998}}}