{"type":"Feature","properties":{"GID_3":"ZWE.3.3.4_2","GID_0":"ZWE","country":"Zimbabwe","GID_1":"ZWE.3_1","province":"Manicaland","NL_NAME_1":"NA","GID_2":"ZWE.3.3_2","county":"Chipinge","NL_NAME_2":"NA","city":"Ward12","VARNAME_3":"NA","NL_NAME_3":"NA","TYPE_3":"Ward","ENGTYPE_3":"Ward","CC_3":"NA","HASC_3":"NA","name":"Ward12.city"},
"geometry":{"type": "MultiPolygon","coordinates": [[[[32.5456,-20.2365,1297.6992],[32.4999,-20.242,1081.8884],[32.4892,-20.2492,1069.5785],[32.4872,-20.3027,1124.8296],[32.5104,-20.2876,1139.2406],[32.5043,-20.3211,982.4949],[32.4851,-20.3396,1122.8193],[32.4981,-20.3476,1120.9041],[32.5004,-20.3471,1133.7688],[32.4998,-20.3487,1158.8407],[32.5278,-20.3572,1069.6469],[32.5634,-20.3393,1031.238],[32.5812,-20.3243,1039.9028],[32.6119,-20.323,1015.7167],[32.6146,-20.3213,1014.5574],[32.6183,-20.293,1010.6316],[32.6581,-20.2924,913.6331],[32.6608,-20.2998,921.525],[32.6864,-20.2851,811.3875],[32.6859,-20.2817,825.3862],[32.6789,-20.277,827.8897],[32.6789,-20.2736,838.1923],[32.6744,-20.2727,856.2827],[32.6713,-20.2701,872.1342],[32.6693,-20.2722,861.0989],[32.6647,-20.2728,878.6249],[32.6631,-20.2755,873.3837],[32.6522,-20.2721,878.4753],[32.6498,-20.2698,877.9376],[32.6498,-20.2672,906.4919],[32.6449,-20.2683,903.3423],[32.6403,-20.267,928.4],[32.62,-20.2773,957.5992],[32.6065,-20.273,991.1838],[32.592,-20.2678,1099.3383],[32.5769,-20.256,1171.287],[32.5686,-20.2528,1200.6257],[32.5427,-20.2489,1289.2639],[32.5456,-20.2365,1297.6992]]]]}}