{"type":"Feature","properties":{"GID_3":"ZWE.10.11.20_2","GID_0":"ZWE","country":"Zimbabwe","GID_1":"ZWE.10_1","province":"Midlands","NL_NAME_1":"NA","GID_2":"ZWE.10.11_2","county":"Shurugwi","NL_NAME_2":"NA","city":"Ward5","VARNAME_3":"NA","NL_NAME_3":"NA","TYPE_3":"Ward","ENGTYPE_3":"Ward","CC_3":"NA","HASC_3":"NA","name":"Ward5.city"},
"geometry":{"type": "MultiPolygon","coordinates": [[[[30.2773,-20.0035,1044.3413],[30.3221,-19.9996,1006.3529],[30.3342,-19.9928,1039.1422],[30.3523,-19.9969,1017.4789],[30.325,-19.9208,1049.8013],[30.2513,-19.9197,1110.209],[30.2502,-19.9653,1067.823],[30.2067,-19.9562,1048.8684],[30.2046,-19.9968,1014.563],[30.1727,-19.9886,1015.0913],[30.1445,-19.9861,968.3411],[30.139,-19.9925,968.6821],[30.1425,-19.9998,964.7545],[30.1425,-20.0056,963.53],[30.139,-20.0104,963.9395],[30.1466,-20.016,958.4198],[30.1442,-20.0199,957.6851],[30.1452,-20.0241,952.7179],[30.2198,-20.0168,999.5348],[30.2238,-20.0125,1010.1627],[30.2405,-20.0081,1004.1402],[30.2773,-20.0035,1044.3413]]]]}}