{"type":"Feature","properties":{"GID_3":"ZWE.4.4.23_2","GID_0":"ZWE","country":"Zimbabwe","GID_1":"ZWE.4_1","province":"MashonalandCentral","NL_NAME_1":"NA","GID_2":"ZWE.4.4_2","county":"Guruve","NL_NAME_2":"NA","city":"Ward8","VARNAME_3":"NA","NL_NAME_3":"NA","TYPE_3":"Ward","ENGTYPE_3":"Ward","CC_3":"NA","HASC_3":"NA","name":"Ward8.city"},
"geometry":{"type": "MultiPolygon","coordinates": [[[[30.8053,-16.7854,1337.8973],[30.8003,-16.7806,1331.876],[30.7977,-16.775,1336.0823],[30.7891,-16.7685,1319.2986],[30.7847,-16.7621,1310.7961],[30.7813,-16.7607,1302.8406],[30.7807,-16.7542,1304.9956],[30.7786,-16.7546,1294.0182],[30.7786,-16.7529,1289.6742],[30.7768,-16.7524,1289.6742],[30.7783,-16.7462,1286.4656],[30.7733,-16.7356,1289.1027],[30.7701,-16.7362,1277.2097],[30.7638,-16.733,1278.7887],[30.758,-16.7348,1249.2833],[30.7552,-16.7285,1249.3964],[30.7509,-16.7346,1255.9714],[30.7367,-16.7469,1298.0625],[30.734,-16.7513,1297.4558],[30.7192,-16.758,1279.0927],[30.715699999999998,-16.7563,1279.5547],[30.7092,-16.7627,1270.0063],[30.7046,-16.7637,1255.7263],[30.7034,-16.7662,1262.9783],[30.7037,-16.7717,1236.7046],[30.7082,-16.7732,1235.9395],[30.7106,-16.7782,1225.1692],[30.7211,-16.7791,1240.2092],[30.7292,-16.7774,1256.6055],[30.73,-16.7842,1255.8074],[30.7357,-16.7841,1276.6782],[30.7389,-16.7867,1282.926],[30.7424,-16.7982,1297.3699],[30.7465,-16.8029,1273.8146],[30.7478,-16.8101,1288.1665],[30.7546,-16.8146,1293.8359],[30.7628,-16.8171,1275.3743],[30.7677,-16.8234,1320.7266],[30.8053,-16.7854,1337.8973]]]]}}