{"type":"Feature","properties":{"GID_3":"ZWE.3.6.5_2","GID_0":"ZWE","country":"Zimbabwe","GID_1":"ZWE.3_1","province":"Manicaland","NL_NAME_1":"NA","GID_2":"ZWE.3.6_2","county":"Mutare","NL_NAME_2":"NA","city":"Ward13","VARNAME_3":"NA","NL_NAME_3":"NA","TYPE_3":"Ward","ENGTYPE_3":"Ward","CC_3":"NA","HASC_3":"NA","name":"Ward13.city"},
"geometry":{"type": "MultiPolygon","coordinates": [[[[32.4973,-19.2287,805.0615],[32.5183,-19.2307,1096.0713],[32.5597,-19.2392,1036.1884],[32.5614,-19.2338,1147.9556],[32.5561,-19.2311,982.8665],[32.5513,-19.2253,1022.2999],[32.5538,-19.2176,873.8939],[32.5628,-19.2159,895.053],[32.5617,-19.2104,1069.5446],[32.555,-19.2108,1058.292],[32.5475,-19.2078,1107.7964],[32.5449,-19.1974,1196.1746],[32.5376,-19.1943,935.067],[32.5336,-19.1883,921.4713],[32.5349,-19.1805,943.3511],[32.5352,-19.1794,946.2811],[32.542,-19.1828,1000.2553],[32.544,-19.1776,996.226],[32.5519,-19.1877,1173.6815],[32.5557,-19.1799,1212.1018],[32.5611,-19.1771,1170.7955],[32.5637,-19.1724,1131.469],[32.556,-19.1679,1000.6235],[32.5577,-19.1632,1085.5593],[32.564,-19.1598,1161.3665],[32.5707,-19.1633,1151.4414],[32.5714,-19.1691,1167.239],[32.5746,-19.1679,1177.7112],[32.5753,-19.1736,1199.3962],[32.5817,-19.1689,1200.359],[32.5782,-19.1665,1210.3585],[32.5788,-19.1557,1121.5186],[32.5755,-19.1526,1159.4396],[32.5714,-19.1566,1147.4296],[32.5715,-19.1518,1154.2798],[32.5734,-19.1482,1148.8765],[32.5756,-19.1492,1152.488],[32.5734,-19.1441,1114.0653],[32.5695,-19.1443,1118.4357],[32.5674,-19.1337,1071.2831],[32.5692,-19.1295,1116.5908],[32.5683,-19.1207,1170.5425],[32.5693,-19.1132,1169.8892],[32.5764,-19.1216,1134.1774],[32.5894,-19.1182,1116.7875],[32.5907,-19.0958,1588.017],[32.6041,-19.0906,1331.2836],[32.5913,-19.0789,1265.8492],[32.5799,-19.077,1250.6353],[32.5696,-19.08,1290.4486],[32.5599,-19.0874,1407.8517],[32.5593,-19.0951,1411.9349],[32.5536,-19.0971,1369.0919],[32.5481,-19.1106,1428.8418],[32.5101,-19.1232,1443.4113],[32.5069,-19.1272,1368.5964],[32.4885,-19.1408,843.951],[32.4853,-19.1574,829.3313],[32.4883,-19.1615,825.5034],[32.4891,-19.1722,830.5658],[32.5039,-19.1941,811.9601],[32.5009,-19.2043,819.4493],[32.5015,-19.2151,806.8321],[32.4973,-19.2287,805.0615]]]]}}