{"type":"Feature","properties":{"GID_3":"ZWE.8.7.5_2","GID_0":"ZWE","country":"Zimbabwe","GID_1":"ZWE.8_1","province":"MatabelelandNorth","NL_NAME_1":"NA","GID_2":"ZWE.8.7_2","county":"Tsholotsho","NL_NAME_2":"NA","city":"Ward13","VARNAME_3":"NA","NL_NAME_3":"NA","TYPE_3":"Ward","ENGTYPE_3":"Ward","CC_3":"NA","HASC_3":"NA","name":"Ward13.city"},
"geometry":{"type": "MultiPolygon","coordinates": [[[[27.7119,-19.8532,1120.5638],[27.7229,-19.8607,1124.8165],[27.7502,-19.8707,1136.8762],[27.7554,-19.8701,1134.4607],[27.7894,-19.8545,1128.4829],[27.8014,-19.8549,1114.0938],[27.8085,-19.8575,1115.6554],[27.8122,-19.8611,1119.4464],[27.8156,-19.8768,1122.0325],[27.8326,-19.8877,1106.7931],[27.9128,-19.8389,1087.6282],[27.9071,-19.8353,1085.0696],[27.9054,-19.8217,1079.9084],[27.9016,-19.8164,1079.7296],[27.9022,-19.81,1088.2667],[27.9007,-19.8086,1080.7644],[27.8934,-19.8092,1079.615],[27.8872,-19.8065,1078.6233],[27.8829,-19.8083,1080.0121],[27.8786,-19.8079,1079.9479],[27.8697,-19.8022,1072.5145],[27.8646,-19.8051,1078.2173],[27.8567,-19.8045,1073.7615],[27.856,-19.8019,1074.3403],[27.8581,-19.7965,1069.9729],[27.8525,-19.7957,1073.6205],[27.852,-19.7942,1075.3735],[27.8552,-19.7875,1069.6501],[27.8491,-19.7816,1068.1268],[27.8411,-19.7835,1069.8298],[27.8398,-19.7817,1066.6034],[27.8415,-19.7775,1065.1681],[27.8404,-19.7732,1067.869],[27.8268,-19.7692,1063.6826],[27.8258,-19.7607,1063.7052],[27.8279,-19.7569,1069.299],[27.8281,-19.7514,1080.0527],[27.8251,-19.7491,1065.4612],[27.8182,-19.7487,1063.6675],[27.8135,-19.7445,1059.2566],[27.8082,-19.7337,1057.9011],[27.8061,-19.7329,1059.6428],[27.8014,-19.7357,1057.6456],[27.7991,-19.7335,1058.1692],[27.7977,-19.7373,1053.4557],[27.7926,-19.7378,1062.4585],[27.7828,-19.7527,1070.9229],[27.7839,-19.7568,1080.4235],[27.7723,-19.7726,1094.1317],[27.7551,-19.7768,1093.5439],[27.7487,-19.769,1091.9202],[27.743,-19.7706,1091.5806],[27.7307,-19.7894,1095.6963],[27.7279,-19.807,1101.8451],[27.7144,-19.8308,1111.3093],[27.7119,-19.8532,1120.5638]]]]}}