{"type": "Feature","bbox": [30.6953,-18.6861,31.4092,-17.921],"geometry": {"type": "MultiPolygon","coordinates": [[[[30.7722,-18.6559,1355.239],[30.746,-18.6601,1367.937],[30.7477,-18.6421,1332.4131],[30.7544,-18.6435,1321.1892],[30.7581,-18.6358,1336.3804],[30.7618,-18.6349,1324.399],[30.7665,-18.6301,1338.5885],[30.7708,-18.631,1328.1698],[30.7735,-18.6274,1333.0173],[30.7848,-18.6203,1336.475],[30.7947,-18.6193,1336.7329],[30.7966,-18.6207,1333.8374],[30.798,-18.6184,1331.937],[30.8003,-18.6189,1328.405],[30.8022,-18.6153,1330.6927],[30.8073,-18.6138,1329.8086],[30.8109,-18.6084,1335.8556],[30.8252,-18.6115,1336.7437],[30.8303,-18.6149,1333.9561],[30.838,-18.6096,1334.5006],[30.8387,-18.6075,1335.9655],[30.8373,-18.6047,1340.864],[30.844,-18.6026,1336.6165],[30.8459,-18.5955,1345.3929],[30.8557,-18.5943,1337.5507],[30.8574,-18.592,1342.356],[30.8565,-18.5861,1340.0607],[30.8593,-18.5883,1343.186],[30.8645,-18.585,1345.9585],[30.8689,-18.585,1340.2885],[30.8697,-18.5781,1342.5729],[30.8714,-18.578,1341.1532],[30.8806,-18.5904,1363.5464],[30.8886,-18.5849,1357.9539],[30.8756,-18.5655,1368.2074],[30.8794,-18.5596,1372.5393],[30.916,-18.5566,1370.0767],[30.952,-18.5245,1388.9576],[30.9798,-18.5424,1390.6699],[31.0253,-18.5375,1407.1748],[31.0152,-18.4543,1397.7745],[31.0076,-18.4373,1385.1028],[31.0382,-18.4305,1389.0696],[31.0579,-18.4503,1379.3265],[31.0546,-18.4593,1383.6946],[31.0546,-18.4605,1384.6121],[31.0572,-18.4608,1385.7803],[31.0922,-18.4487,1402.4652],[31.1328,-18.4507,1409.7677],[31.1574,-18.4466,1421.5984],[31.2007,-18.4558,1442.3496],[31.2228,-18.4359,1479.2458],[31.2191,-18.4292,1473.5968],[31.2216,-18.4181,1472.4102],[31.2097,-18.4088,1465.7554],[31.1951,-18.4141,1464.7338],[31.1796,-18.4146,1451.5239],[31.1767,-18.4084,1439.4283],[31.1398,-18.4164,1397.667],[31.128,-18.4086,1386.4556],[31.1224,-18.3969,1393.9409],[31.1016,-18.384,1369.282],[31.1018,-18.3803,1373.6014],[31.0989,-18.3771,1365.1998],[31.0994,-18.3697,1361.5],[31.0972,-18.3584,1355.8197],[31.0931,-18.3519,1345.3363],[31.0875,-18.347,1352.9509],[31.065,-18.336,1343.4557],[31.0582,-18.3346,1332.149],[31.0486,-18.3367,1330.4343],[31.0346,-18.3345,1323.8639],[31.0257,-18.324,1325.1368],[31.0194,-18.3254,1319.6217],[31.0145,-18.3303,1312.6661],[31.0114,-18.3301,1315.5975],[30.9996,-18.3209,1321.376],[31.0675,-18.2618,1359.7618],[31.0747,-18.2318,1393.2871],[31.0837,-18.2034,1402.1702],[31.0946,-18.1804,1400.0962],[31.0896,-18.1589,1393.7175],[31.1554,-18.1502,1425.4971],[31.1628,-18.1592,1418.8287],[31.1637,-18.1693,1426.9319],[31.1682,-18.1748,1434.1309],[31.189,-18.1832,1449.6533],[31.1981,-18.1822,1454.4086],[31.2064,-18.1751,1467.9413],[31.2145,-18.1746,1467.2229],[31.2161,-18.171,1475.2097],[31.2213,-18.1706,1472.28],[31.2214,-18.1669,1474.897],[31.2231,-18.1658,1478.4956],[31.2363,-18.1622,1483.8966],[31.2429,-18.1624,1484.3113],[31.2472,-18.1574,1493.3032],[31.2511,-18.1554,1493.7626],[31.2618,-18.1541,1495.1095],[31.2781,-18.1693,1501.4048],[31.2858,-18.1703,1514.8151],[31.293,-18.1764,1510.4882],[31.3004,-18.1758,1522.2883],[31.3066,-18.1852,1526.4536],[31.3196,-18.1896,1524.5573],[31.3246,-18.2022,1538.9381],[31.3304,-18.2078,1544.0925],[31.3375,-18.21,1546.3798],[31.3464,-18.2096,1550.4951],[31.3571,-18.2038,1566.1102],[31.3705,-18.2044,1574.7103],[31.3647,-18.2144,1583.7422],[31.3629,-18.2324,1548.4224],[31.3988,-18.2354,1577.6631],[31.4036,-18.2258,1589.681],[31.3967,-18.2234,1580.8961],[31.3968,-18.2134,1592.0989],[31.4092,-18.2128,1615.6268],[31.3961,-18.1768,1595.0415],[31.4033,-18.1683,1573.1205],[31.407,-18.1661,1573.7319],[31.3932,-18.1583,1578.8138],[31.3887,-18.1588,1572.0459],[31.382,-18.1565,1561.7173],[31.3721,-18.1499,1559.6301],[31.3637,-18.151,1550.5454],[31.3575,-18.148,1546.0896],[31.3527,-18.1442,1535.4706],[31.3493,-18.137,1543.0009],[31.3422,-18.131,1541.95],[31.3377,-18.1324,1528.7297],[31.3268,-18.1313,1525.885],[31.3198,-18.1274,1524.4038],[31.3066,-18.1242,1524.219],[31.301,-18.1165,1522.3203],[31.2912,-18.1082,1520.254],[31.2804,-18.1121,1510.9182],[31.27,-18.1029,1506.5973],[31.2599,-18.1036,1494.2272],[31.2582,-18.0995,1504.2003],[31.2528,-18.0979,1502.3053],[31.2456,-18.0924,1500.8376],[31.2328,-18.0899,1492.3022],[31.227,-18.0826,1484.7095],[31.2268,-18.0759,1478.7769],[31.2249,-18.0717,1479.5793],[31.2273,-18.0688,1479.0752],[31.2264,-18.063,1470.5498],[31.2292,-18.0596,1469.9969],[31.2288,-18.0564,1473.342],[31.2241,-18.0519,1470.2885],[31.2201,-18.039,1475.2638],[31.2169,-18.0394,1461.3809],[31.2164,-18.0364,1463.1565],[31.2091,-18.0312,1465.881],[31.2088,-18.0269,1469.7769],[31.2068,-18.0266,1462.4607],[31.2065,-18.0236,1468.8552],[31.1965,-18.0262,1458.3552],[31.1967,-18.0212,1470.0508],[31.1913,-18.017,1468.9489],[31.1874,-18.016,1458.3481],[31.1835,-18.0117,1457.9486],[31.1825,-18.0075,1468.1371],[31.178,-18.0089,1462.7012],[31.1719,-18.0044,1458.085],[31.165,-18.0074,1456.0765],[31.1595,-18.0045,1456.6926],[31.1565,-18.0013,1451.489],[31.1578,-17.9974,1457.9341],[31.1567,-17.9958,1459.5487],[31.1405,-17.9958,1447.6304],[31.1272,-17.9917,1438.1558],[31.1229,-17.9929,1440.6467],[31.1156,-17.9915,1434.6121],[31.1135,-17.9945,1431.5],[31.1032,-17.9867,1421.4355],[31.0838,-17.9838,1423.6499],[31.068,-17.9834,1415.0869],[31.0649,-17.9801,1416.235],[31.0564,-17.9781,1410.542],[31.0568,-17.9838,1426.1923],[31.0659,-17.9892,1425.4661],[31.0736,-17.9998,1447.3816],[31.0965,-18.0035,1455.6249],[31.1271,-18.0197,1458.2223],[31.1159,-18.0311,1445.1691],[31.1118,-18.0334,1437.4626],[31.1002,-18.0352,1428.5796],[31.0963,-18.0349,1425.5188],[31.0943,-18.0326,1425.1638],[31.0912,-18.0335,1421.166],[31.0819,-18.0409,1412.7365],[31.0811,-18.0401,1412.3918],[31.0734,-18.0439,1405.781],[31.0709,-18.0476,1404.7014],[31.0639,-18.048,1394.3323],[31.0614,-18.0509,1392.3751],[31.062,-18.0498,1392.3751],[31.0591,-18.0477,1389.5095],[31.0595,-18.0457,1393.2234],[31.0561,-18.0446,1390.326],[31.0501,-18.0393,1388.6536],[31.0498,-18.0331,1387.267],[31.0422,-18.0314,1387.5206],[31.0398,-18.0266,1386.274],[31.0357,-18.0254,1385.3123],[31.034,-18.0203,1389.3256],[31.0253,-18.0181,1389.2844],[31.0184,-18.0129,1384.3337],[31.0118,-18.0155,1389.3639],[31.0096,-18.0128,1383.1799],[31.0071,-18.0146,1387.1626],[31.0054,-18.0122,1382.5947],[31.0028,-18.0116,1386.0869],[31.0026,-18.0055,1383.385],[30.9992,-18.0058,1385.7084],[30.9945,-18.0009,1388.6193],[30.9976,-18.0011,1383.9146],[31.0,-17.9994,1383.6699],[30.9997,-17.9977,1387.3674],[30.995,-17.9976,1379.4473],[30.9881,-17.9911,1384.863],[30.9886,-17.9871,1384.561],[30.9874,-17.9849,1379.6689],[30.9829,-17.9888,1379.5875],[30.9803,-17.988,1380.7482],[30.974,-17.9783,1378.0547],[30.9711,-17.9783,1385.187],[30.9678,-17.9827,1380.917],[30.9605,-17.9813,1382.6787],[30.9603,-17.9781,1379.1443],[30.951,-17.9775,1379.0494],[30.9477,-17.975,1377.005],[30.9472,-17.9713,1377.0236],[30.9417,-17.9715,1376.9895],[30.9366,-17.9692,1376.6552],[30.9222,-17.9601,1375.5737],[30.9116,-17.9597,1376.7339],[30.9076,-17.9642,1376.7167],[30.9055,-17.9641,1375.6328],[30.9043,-17.9617,1374.7603],[30.909,-17.9572,1374.4778],[30.9082,-17.9552,1377.6299],[30.9017,-17.9574,1374.0912],[30.882,-17.9353,1364.0276],[30.8733,-17.9316,1375.785],[30.8707,-17.9347,1369.114],[30.8628,-17.9277,1377.2863],[30.8637,-17.9253,1367.0057],[30.8618,-17.9238,1363.0],[30.858,-17.9268,1375.6814],[30.8447,-17.9244,1363.9434],[30.8472,-17.929,1380.3495],[30.8439,-17.932,1378.0579],[30.8442,-17.9445,1383.8352],[30.8411,-17.9451,1374.5566],[30.8374,-17.9297,1373.988],[30.8311,-17.921,1376.3821],[30.8085,-17.9469,1378.1667],[30.8166,-17.9812,1424.1436],[30.7723,-18.0222,1398.2112],[30.7747,-18.0324,1391.7477],[30.7843,-18.0442,1380.2039],[30.7833,-18.051,1374.1316],[30.7907,-18.0667,1368.1304],[30.7904,-18.0772,1358.5496],[30.7935,-18.082,1359.0105],[30.7993,-18.0847,1353.3755],[30.8001,-18.0867,1348.1564],[30.797,-18.0905,1356.6854],[30.7938,-18.0906,1356.9797],[30.7902,-18.0931,1343.7322],[30.7752,-18.094,1347.6296],[30.7702,-18.0968,1338.6416],[30.7651,-18.104,1325.8252],[30.7614,-18.1055,1332.1196],[30.7617,-18.126,1325.5828],[30.7566,-18.134,1329.5721],[30.7562,-18.1388,1317.5209],[30.7537,-18.142,1318.3577],[30.7525,-18.1463,1312.2046],[30.7548,-18.1485,1315.2816],[30.7515,-18.153,1308.6312],[30.7466,-18.1543,1312.4283],[30.7574,-18.1613,1309.2458],[30.7574,-18.1679,1301.2749],[30.7626,-18.1676,1304.3625],[30.7646,-18.1723,1297.9419],[30.7597,-18.1769,1297.8206],[30.7543,-18.1874,1289.9348],[30.7494,-18.1906,1291.1094],[30.7477,-18.1952,1286.9976],[30.7489,-18.1988,1283.3396],[30.7436,-18.2052,1283.3058],[30.7366,-18.2079,1282.7229],[30.7277,-18.2171,1274.373],[30.7218,-18.2204,1276.3293],[30.7175,-18.2283,1270.7539],[30.6979,-18.2366,1270.1448],[30.697,-18.2409,1266.504],[30.6973,-18.247,1264.017],[30.6996,-18.2502,1267.1213],[30.7012,-18.2581,1263.728],[30.6979,-18.2608,1275.6395],[30.6953,-18.2667,1260.761],[30.699,-18.2671,1262.7883],[30.6957,-18.2718,1260.842],[30.6993,-18.2796,1258.9926],[30.6992,-18.2875,1261.3801],[30.7049,-18.2903,1274.7734],[30.7089,-18.2954,1277.7125],[30.7092,-18.3063,1272.7341],[30.7181,-18.3084,1279.4927],[30.7197,-18.3143,1276.1493],[30.7234,-18.3151,1280.1936],[30.7221,-18.3194,1274.7424],[30.7229,-18.3229,1275.8141],[30.7253,-18.3238,1279.1824],[30.7273,-18.3277,1279.3909],[30.7342,-18.3297,1280.5358],[30.7342,-18.3321,1277.0698],[30.7403,-18.3325,1287.614],[30.7403,-18.3361,1281.2676],[30.7463,-18.3432,1278.4843],[30.7537,-18.3413,1281.7574],[30.7582,-18.3437,1288.7039],[30.7585,-18.3504,1280.9834],[30.7639,-18.3489,1282.4246],[30.7671,-18.3563,1286.3041],[30.767,-18.3602,1282.9362],[30.7727,-18.3611,1291.0854],[30.7759,-18.3666,1284.7047],[30.7833,-18.3737,1291.8342],[30.7815,-18.3778,1288.9829],[30.787,-18.3826,1297.4647],[30.7871,-18.386,1295.1038],[30.7905,-18.3901,1290.6891],[30.7881,-18.3942,1294.7793],[30.7888,-18.3986,1291.0614],[30.7858,-18.4035,1290.6562],[30.7793,-18.4059,1291.9548],[30.7743,-18.4115,1292.7909],[30.7709,-18.4131,1292.8635],[30.7697,-18.4542,1327.0422],[30.7661,-18.4857,1343.8291],[30.7667,-18.499,1344.3743],[30.765,-18.5034,1347.3301],[30.7667,-18.5327,1339.4707],[30.7662,-18.5707,1402.4008],[30.7039,-18.6343,1318.3313],[30.7052,-18.6364,1314.9126],[30.7091,-18.6347,1330.8448],[30.7089,-18.6371,1331.8767],[30.7069,-18.6382,1369.5],[30.7067,-18.6433,1409.9006],[30.7435,-18.6861,1501.1682],[30.7928,-18.6822,1368.2173],[30.7915,-18.673,1361.8711],[30.7743,-18.6769,1351.2162],[30.7722,-18.6559,1355.239]]]]}
,"properties": {"GID_2": "ZWE.5.10_2","GID_0": "ZWE","country": "Zimbabwe","GID_1": "ZWE.5_1","province": "MashonalandEast","NL_NAME_1": "NA","county": "Seke","VARNAME_2": "NA","NL_NAME_2": "NA","TYPE_2": "District","ENGTYPE_2": "District","CC_2": "NA","HASC_2": "NA","name": "Seke.county","area_km2": 2645.676,"hist_schema_id": "Elevation0-9000","hist_area_km2": {"1250": 1.691,"1275": 82.53,"1300": 303.375,"1325": 459.538,"1350": 482.344,"1375": 470.438,"1400": 369.724,"1425": 139.783,"1450": 91.577,"1475": 83.885,"1500": 40.866,"1525": 37.213,"1550": 37.591,"1575": 30.678,"1600": 14.281,"1625": 0.161}}}