{"type":"Feature","properties":{"GID_3":"ZWE.4.1.7_2","GID_0":"ZWE","country":"Zimbabwe","GID_1":"ZWE.4_1","province":"MashonalandCentral","NL_NAME_1":"NA","GID_2":"ZWE.4.1_2","county":"Bindura","NL_NAME_2":"NA","city":"Ward15","VARNAME_3":"NA","NL_NAME_3":"NA","TYPE_3":"Ward","ENGTYPE_3":"Ward","CC_3":"NA","HASC_3":"NA","name":"Ward15.city"},
"geometry":{"type": "MultiPolygon","coordinates": [[[[31.2991,-17.5216,1158.3892],[31.2977,-17.5291,1178.575],[31.2927,-17.5384,1199.5052],[31.2947,-17.5404,1173.3549],[31.3136,-17.5538,1312.4242],[31.3292,-17.5595,1380.0292],[31.3359,-17.5592,1344.0841],[31.337,-17.5556,1336.3448],[31.3435,-17.5568,1399.7974],[31.3435,-17.5676,1407.7798],[31.3374,-17.5756,1384.0809],[31.3393,-17.5831,1379.129],[31.3593,-17.5863,1308.5627],[31.3703,-17.5807,1292.7584],[31.3785,-17.5845,1276.0336],[31.3864,-17.5843,1264.655],[31.4019,-17.5926,1238.5991],[31.4082,-17.5911,1232.6956],[31.4123,-17.588,1222.0272],[31.4092,-17.5842,1236.3544],[31.4058,-17.5836,1239.8309],[31.4022,-17.578,1253.5619],[31.4031,-17.5664,1268.9214],[31.4048,-17.5646,1266.3635],[31.4155,-17.5643,1248.9211],[31.4121,-17.5594,1267.8367],[31.4265,-17.5413,1323.9379],[31.4151,-17.5372,1325.7507],[31.4018,-17.5397,1255.3434],[31.389,-17.5342,1221.6538],[31.3839,-17.5303,1198.2202],[31.3793,-17.5366,1320.6671],[31.3752,-17.5376,1405.6075],[31.3369,-17.5372,1320.8503],[31.3277,-17.5342,1273.8353],[31.319,-17.5342,1247.7379],[31.3185,-17.5317,1248.623],[31.3017,-17.5276,1218.6189],[31.2991,-17.5216,1158.3892]]]]}}