{"type": "Feature","bbox": [31.1912,-17.9231,31.2676,-17.8505],"geometry": {"type": "MultiPolygon","coordinates": [[[[31.2394,-17.9161,1515.0768],[31.2415,-17.9119,1521.7347],[31.2392,-17.9113,1525.0557],[31.2429,-17.8994,1543.4956],[31.252,-17.8972,1541.9609],[31.2523,-17.8998,1546.5476],[31.2636,-17.9124,1553.2668],[31.2676,-17.9094,1566.7228],[31.2586,-17.8991,1554.6224],[31.2626,-17.8942,1564.2185],[31.252,-17.8913,1551.4885],[31.2584,-17.8819,1546.2961],[31.2616,-17.8628,1571.233],[31.255,-17.8624,1570.8282],[31.2558,-17.8546,1549.9825],[31.2203,-17.8505,1540.5001],[31.1963,-17.8593,1524.1952],[31.1951,-17.8619,1519.0374],[31.2154,-17.8797,1508.3035],[31.2086,-17.8796,1519.5984],[31.2118,-17.8866,1507.9673],[31.2043,-17.8859,1502.9423],[31.1979,-17.8897,1496.4072],[31.1982,-17.8968,1495.6614],[31.192,-17.9032,1489.541],[31.1912,-17.9101,1491.8513],[31.2098,-17.9167,1498.4548],[31.2118,-17.9135,1503.8423],[31.2215,-17.9171,1519.4221],[31.2191,-17.9202,1506.1382],[31.2238,-17.9231,1504.8983],[31.2394,-17.9161,1515.0768]]]]}
,"properties": {"GID_2": "ZWE.5.9_2","GID_0": "ZWE","country": "Zimbabwe","GID_1": "ZWE.5_1","province": "MashonalandEast","NL_NAME_1": "NA","county": "Ruwa","VARNAME_2": "NA","NL_NAME_2": "NA","TYPE_2": "District","ENGTYPE_2": "District","CC_2": "NA","HASC_2": "NA","name": "Ruwa.county","area_km2": 40.5773,"hist_schema_id": "Elevation0-9000","hist_area_km2": {"1500": 4.88252,"1525": 14.62821,"1550": 18.86691,"1575": 2.19966}}}