{"type":"Feature","properties":{"GID_2":"ZWE.5.11_2","GID_0":"ZWE","country":"Zimbabwe","GID_1":"ZWE.5_1","province":"MashonalandEast","NL_NAME_1":"NA","county":"UzumbaMarambaPfungwe","VARNAME_2":"NA","NL_NAME_2":"NA","TYPE_2":"District","ENGTYPE_2":"District","CC_2":"NA","HASC_2":"NA","name":"Uzumba_Maramba_Pfungwe.county"},
"geometry":{"type": "MultiPolygon","coordinates": [[[[31.6885,-17.351,918.4265],[31.6803,-17.3629,954.245],[31.6727,-17.3688,991.4799],[31.6659,-17.3833,1016.438],[31.6725,-17.3879,1022.8551],[31.6843,-17.4014,1037.6074],[31.7012,-17.4136,1046.4553],[31.7002,-17.4177,1050.3541],[31.7056,-17.4207,1062.1404],[31.7102,-17.4272,1072.0781],[31.7163,-17.4315,1073.9674],[31.727,-17.4508,1087.2196],[31.7302,-17.4536,1092.8529],[31.7296,-17.4573,1092.9835],[31.7331,-17.4626,1105.8905],[31.7372,-17.4594,1117.0342],[31.747,-17.4623,1116.9523],[31.7513,-17.4724,1113.538],[31.7596,-17.4741,1150.0862],[31.7688,-17.482,1140.4668],[31.7944,-17.497,1165.3771],[31.7992,-17.496,1177.5858],[31.8032,-17.49,1183.0421],[31.8149,-17.4927,1198.8114],[31.817,-17.4915,1200.625],[31.8292,-17.4925,1205.3915],[31.8246,-17.4778,1289.4548],[31.8523,-17.4325,1251.2336],[31.8561,-17.4395,1197.4805],[31.8684,-17.4409,1182.0134],[31.8761,-17.4396,1157.0089],[31.8944,-17.4303,1146.8713],[31.9076,-17.4275,1111.9626],[31.9068,-17.4258,1113.0259],[31.9082,-17.4249,1113.0259],[31.915,-17.4249,1107.3456],[31.9257,-17.4288,1101.3149],[31.929,-17.4269,1096.8862],[31.9336,-17.4291,1091.0715],[31.943,-17.4294,1090.7622],[31.9484,-17.4335,1070.3492],[31.9502,-17.4319,1075.5094],[31.9593,-17.4309,1076.2678],[31.9688,-17.4338,1061.8396],[31.9757,-17.43,1046.4514],[31.9833,-17.421,1044.2676],[31.9958,-17.4153,1042.1844],[32.0023,-17.4166,1031.7921],[32.0052,-17.4192,1028.7087],[32.0117,-17.4178,1023.2595],[32.0179,-17.4195,1023.1298],[32.0219,-17.4187,1018.1055],[32.0244,-17.4163,1016.4432],[32.0261,-17.4172,1015.4072],[32.033,-17.4151,1007.3857],[32.0415,-17.4096,1009.8442],[32.0487,-17.411,1000.6976],[32.0574,-17.4055,986.6803],[32.0538,-17.3928,982.4204],[32.0539,-17.3789,984.2717],[32.0475,-17.3729,978.838],[32.0465,-17.37,979.4258],[32.0479,-17.3618,982.6947],[32.0633,-17.3441,1008.2618],[32.0679,-17.3461,969.9929],[32.0696,-17.3438,967.6562],[32.0728,-17.3465,955.2863],[32.0755,-17.3456,955.046],[32.0815,-17.34,946.9963],[32.0839,-17.3332,941.3134],[32.0809,-17.327,962.435],[32.0694,-17.3134,957.2474],[32.0669,-17.3072,935.7612],[32.0625,-17.3037,926.8007],[32.0591,-17.295,930.1732],[32.0394,-17.2752,906.7456],[32.0383,-17.2672,895.2266],[32.0394,-17.2603,886.4753],[32.0365,-17.2551,870.8102],[32.037,-17.2468,875.6185],[32.0377,-17.2439,963.5735],[32.0405,-17.2424,889.9023],[32.041,-17.2349,865.4695],[32.0296,-17.2212,769.4148],[32.029,-17.216,769.162],[32.0353,-17.1993,761.1396],[32.0361,-17.1905,742.4473],[32.0461,-17.1719,744.3894],[32.0491,-17.1614,749.5437],[32.0538,-17.1556,743.488],[32.059,-17.1448,744.0165],[32.0594,-17.1397,729.3699],[32.0687,-17.1217,744.744],[32.0754,-17.1139,718.3808],[32.0754,-17.1081,718.209],[32.0812,-17.092,734.9324],[32.0875,-17.0877,750.339],[32.0845,-17.0753,706.3715],[32.0882,-17.0613,704.2356],[32.09,-17.0601,727.1707],[32.0919,-17.0408,730.4088],[32.1083,-17.039,733.2459],[32.1198,-17.042,695.025],[32.1222,-17.0394,744.9076],[32.1316,-17.0426,714.6127],[32.1512,-17.0406,722.7864],[32.1665,-17.0348,681.8215],[32.1725,-17.034,678.4575],[32.1796,-17.0286,692.9218],[32.1885,-17.0251,676.7937],[32.2121,-16.9986,658.975],[32.2221,-16.9909,644.1365],[32.2238,-16.9854,644.6683],[32.2381,-16.9778,631.1934],[32.2392,-16.9736,647.3914],[32.243,-16.9728,652.8383],[32.2472,-16.9694,647.0072],[32.2543,-16.9684,627.6427],[32.2548,-16.9649,618.889],[32.2581,-16.9633,615.248],[32.2574,-16.9616,622.9979],[32.2601,-16.9562,632.8024],[32.296,-16.9458,611.0908],[32.2978,-16.9444,596.9373],[32.3007,-16.9362,616.6202],[32.3179,-16.9328,616.8531],[32.3211,-16.9307,619.8751],[32.3311,-16.9152,592.6931],[32.3347,-16.902,610.2216],[32.3422,-16.9012,597.212],[32.3442,-16.8955,616.1818],[32.3531,-16.8959,600.7114],[32.359,-16.8936,588.413],[32.3603,-16.8912,593.576],[32.3583,-16.8872,590.3375],[32.3709,-16.878,578.6558],[32.3753,-16.87,601.6395],[32.3832,-16.87,586.0216],[32.3889,-16.8657,583.9979],[32.3911,-16.8614,581.9364],[32.3933,-16.8488,572.9586],[32.3964,-16.8458,569.5629],[32.4037,-16.8464,586.0968],[32.4138,-16.8397,569.3123],[32.4195,-16.8394,573.5455],[32.4323,-16.8325,567.8788],[32.4525,-16.8256,557.8917],[32.4641,-16.818,537.4265],[32.4699,-16.8109,577.3991],[32.4908,-16.7937,568.2735],[32.5221,-16.7756,520.8719],[32.5271,-16.7697,507.0005],[32.5285,-16.7639,526.0352],[32.535,-16.7535,490.1441],[32.5362,-16.7464,492.355],[32.5393,-16.7398,514.8673],[32.5499,-16.7281,481.174],[32.5479,-16.7238,486.6956],[32.5443,-16.7218,499.4161],[32.5335,-16.721,503.0559],[32.5275,-16.719,500.6365],[32.5156,-16.7077,505.196],[32.503,-16.7023,513.9285],[32.4873,-16.7038,520.836],[32.4819,-16.6989,531.5837],[32.4742,-16.7024,520.3618],[32.4711,-16.7023,542.959],[32.4634,-16.6971,525.3024],[32.4602,-16.6969,528.5235],[32.4413,-16.7053,560.9973],[32.4264,-16.7049,542.8157],[32.4204,-16.7062,561.592],[32.408,-16.7132,545.6383],[32.3969,-16.7126,550.2052],[32.39,-16.7188,544.1763],[32.3709,-16.7159,549.0886],[32.3611,-16.7264,560.4519],[32.3531,-16.7294,557.8667],[32.3394,-16.7428,560.343],[32.3327,-16.7423,569.9131],[32.3267,-16.7444,567.3234],[32.3144,-16.7433,559.682],[32.2974,-16.747,571.2656],[32.2851,-16.7479,585.2328],[32.2723,-16.7473,580.2855],[32.2556,-16.767,581.3058],[32.2479,-16.7722,572.6284],[32.2344,-16.7736,587.1439],[32.2281,-16.7839,588.5967],[32.2259,-16.7833,584.0219],[32.2161,-16.7724,600.8922],[32.2005,-16.7669,603.14],[32.1808,-16.7737,594.1649],[32.1771,-16.7773,587.6108],[32.1629,-16.7786,596.8584],[32.1535,-16.7888,608.1603],[32.1454,-16.7886,609.0438],[32.1377,-16.7911,601.1028],[32.1311,-16.7891,615.6892],[32.125,-16.7893,622.0995],[32.1101,-16.7945,619.8983],[32.1043,-16.7998,610.7784],[32.1037,-16.8061,613.9802],[32.0984,-16.8056,637.9592],[32.0926,-16.8098,620.9314],[32.0737,-16.8027,623.8986],[32.0643,-16.8049,626.7],[32.0516,-16.8035,635.1247],[32.0426,-16.8091,623.1924],[32.0399,-16.8116,628.4825],[32.0419,-16.8217,614.2769],[32.0404,-16.8269,618.4138],[32.0332,-16.8289,681.2347],[32.0302,-16.8338,619.9995],[32.022,-16.8353,651.4891],[32.0114,-16.8401,633.3132],[32.0033,-16.8479,703.6271],[32.0007,-16.856,649.0762],[32.003,-16.8626,620.075],[32.0031,-16.8756,634.9497],[32.0043,-16.8804,629.4516],[32.0085,-16.8846,643.1504],[32.0098,-16.8888,639.2931],[32.0095,-16.8919,628.0916],[32.0038,-16.9012,646.8489],[32.0048,-16.9052,643.7424],[32.0014,-16.9098,641.1574],[31.9967,-16.9128,663.2964],[31.9925,-16.9135,660.4148],[31.9808,-16.9212,655.6708],[31.9764,-16.922,662.2293],[31.9677,-16.9202,662.3066],[31.9607,-16.9161,749.856],[31.9543,-16.9171,737.7451],[31.9513,-16.921,697.5891],[31.9442,-16.9387,663.813],[31.9447,-16.9461,649.1989],[31.941,-16.9534,694.6749],[31.9425,-16.9566,647.3501],[31.9318,-16.9637,697.8654],[31.9245,-16.9651,808.3724],[31.9096,-16.9727,712.0898],[31.9149,-16.9779,766.1653],[31.9122,-16.9882,694.1731],[31.9129,-17.0007,712.4406],[31.9077,-17.0021,724.7939],[31.8951,-17.0006,785.8741],[31.8961,-17.0107,714.4946],[31.8916,-17.0167,744.4998],[31.8943,-17.0206,735.1092],[31.9039,-17.0209,743.5156],[31.9064,-17.0224,737.1326],[31.9107,-17.0324,736.3646],[31.9094,-17.0396,726.4615],[31.8959,-17.0536,795.4008],[31.8753,-17.07,752.132],[31.8686,-17.0698,750.6378],[31.8561,-17.0793,753.3594],[31.8532,-17.0846,742.9175],[31.8551,-17.0895,761.7263],[31.8485,-17.1044,761.533],[31.839,-17.1183,779.8749],[31.8334,-17.1231,783.6304],[31.8351,-17.1314,780.5284],[31.8325,-17.1362,782.394],[31.841,-17.1428,813.873],[31.8481,-17.151,864.9474],[31.8113,-17.168,876.0665],[31.804,-17.1723,875.6887],[31.7985,-17.1778,828.4633],[31.7882,-17.1789,852.7941],[31.7826,-17.1852,822.7437],[31.772,-17.1844,856.9255],[31.7648,-17.1865,831.1],[31.7621,-17.1895,889.6248],[31.7619,-17.1953,813.4802],[31.7578,-17.1983,814.7537],[31.7498,-17.199,830.6608],[31.7449,-17.1955,855.2623],[31.7402,-17.1954,867.9374],[31.7331,-17.1975,880.2841],[31.728,-17.2021,852.8704],[31.7227,-17.216,839.6064],[31.7414,-17.2365,854.3627],[31.7438,-17.2476,886.2364],[31.7494,-17.2585,864.9398],[31.7482,-17.2691,879.9147],[31.7512,-17.2727,881.1053],[31.7542,-17.2805,903.9844],[31.7514,-17.2881,886.2336],[31.743,-17.2952,908.1681],[31.7374,-17.3025,899.2066],[31.721,-17.3152,963.0116],[31.7082,-17.3287,934.3334],[31.7036,-17.3301,920.2133],[31.6968,-17.3404,921.914],[31.6926,-17.3418,934.5687],[31.6885,-17.351,918.4265]]]]}}