{"type": "Feature","bbox": [28.0083,-18.2138,28.5549,-17.6497],"geometry": {"type": "MultiPolygon","coordinates": [[[[28.031,-18.0613,909.2604],[28.0376,-18.0634,896.9026],[28.0502,-18.0527,868.4146],[28.0709,-18.0594,881.1494],[28.0678,-18.0716,879.5601],[28.0687,-18.0944,894.641],[28.072,-18.1043,916.7032],[28.0688,-18.1088,918.3192],[28.0698,-18.1377,938.491],[28.0492,-18.15,1035.3534],[28.0469,-18.1607,997.1407],[28.0541,-18.1682,992.1597],[28.051,-18.1804,985.5585],[28.0733,-18.1818,1021.7828],[28.1019,-18.1862,972.3267],[28.1067,-18.19,932.2376],[28.1099,-18.19,889.9689],[28.1107,-18.1917,903.9052],[28.1245,-18.1968,874.2993],[28.1386,-18.2069,917.8947],[28.1522,-18.2034,890.5234],[28.1566,-18.2051,894.27],[28.1618,-18.2036,930.1106],[28.1743,-18.212,930.5401],[28.1851,-18.2138,919.0301],[28.2057,-18.1998,900.9253],[28.2078,-18.1964,894.3865],[28.2394,-18.1718,886.281],[28.2535,-18.1634,903.6273],[28.262,-18.1509,884.3888],[28.2659,-18.1422,907.1243],[28.2709,-18.1391,910.8896],[28.2733,-18.116,889.7542],[28.2779,-18.0989,911.8577],[28.2857,-18.0974,905.033],[28.2906,-18.0894,932.6851],[28.2883,-18.0815,945.7243],[28.291,-18.0757,950.2358],[28.2908,-18.0637,976.5731],[28.294,-18.0541,987.8677],[28.3219,-18.0333,991.7065],[28.3649,-18.0188,987.331],[28.3797,-18.0204,978.7804],[28.4048,-18.0342,1018.0541],[28.4128,-18.0482,1028.1345],[28.4289,-18.0571,1082.3489],[28.4363,-18.0588,1115.4434],[28.4395,-18.058,1161.5781],[28.4422,-18.0558,1139.4661],[28.4438,-18.0512,1077.592],[28.4455,-18.0509,1080.1665],[28.444,-18.0621,1184.6094],[28.4462,-18.0602,1126.9463],[28.4545,-18.0462,1003.5108],[28.4555,-18.0372,1002.8568],[28.459,-18.0342,981.5262],[28.4579,-18.0307,967.4152],[28.4627,-18.024,954.7505],[28.4609,-18.0235,958.5234],[28.4636,-18.017,942.2953],[28.4602,-18.0108,937.4427],[28.4563,-18.009,930.5469],[28.456,-18.0062,934.3096],[28.4616,-17.998,939.5298],[28.4652,-17.996,917.5036],[28.4663,-17.988,912.0806],[28.4642,-17.987,911.2275],[28.4636,-17.9833,910.7889],[28.4655,-17.9796,907.3772],[28.4673,-17.9807,907.9924],[28.4664,-17.9844,906.9991],[28.4697,-17.9812,907.5806],[28.4705,-17.9771,902.6993],[28.473,-17.979,902.629],[28.4788,-17.9759,902.848],[28.4763,-17.9619,891.4693],[28.4832,-17.9579,885.2172],[28.4796,-17.9541,886.4548],[28.4847,-17.9536,883.6165],[28.4889,-17.95,879.2617],[28.4899,-17.9505,879.2617],[28.4873,-17.9526,880.7091],[28.4879,-17.9538,882.3198],[28.4894,-17.9527,881.9642],[28.4913,-17.9538,874.2128],[28.4915,-17.9515,876.9939],[28.4953,-17.95,874.9202],[28.4991,-17.9528,865.0556],[28.5026,-17.95,869.0467],[28.5073,-17.9501,862.9963],[28.5094,-17.9464,863.6487],[28.5131,-17.9508,860.9122],[28.5152,-17.9506,854.6428],[28.5159,-17.9434,858.4062],[28.5181,-17.9441,854.2578],[28.5236,-17.9394,851.7226],[28.5266,-17.9413,846.9598],[28.5285,-17.9392,850.5331],[28.5282,-17.9361,849.593],[28.5261,-17.937,844.0963],[28.5274,-17.9333,842.1235],[28.5255,-17.934,842.1235],[28.5253,-17.9327,848.0622],[28.5284,-17.9232,838.1423],[28.5321,-17.9227,835.3192],[28.5309,-17.9182,830.3603],[28.5322,-17.9161,832.2031],[28.5306,-17.9122,832.6103],[28.537,-17.9016,825.6791],[28.5356,-17.8975,825.3777],[28.5322,-17.8962,817.4915],[28.5339,-17.8916,825.6897],[28.5326,-17.8878,810.2462],[28.5339,-17.8846,816.2853],[28.5308,-17.8818,808.8597],[28.5327,-17.8754,802.4907],[28.5287,-17.8712,817.5253],[28.534,-17.8721,803.3361],[28.5401,-17.8693,807.2118],[28.5367,-17.8627,797.1879],[28.542,-17.8613,803.9644],[28.5405,-17.8598,787.8242],[28.5411,-17.8527,790.6092],[28.5445,-17.8469,783.625],[28.5482,-17.8445,789.2097],[28.5483,-17.8326,777.0975],[28.5445,-17.8284,770.6544],[28.5448,-17.8233,772.6918],[28.5501,-17.8188,766.4727],[28.5508,-17.8163,769.4658],[28.5438,-17.809,767.8637],[28.5501,-17.8044,758.4076],[28.5549,-17.7961,758.2341],[28.5512,-17.7932,747.7876],[28.5498,-17.7795,739.9686],[28.5477,-17.7766,739.3419],[28.5495,-17.7646,731.3106],[28.5351,-17.7716,730.66],[28.5175,-17.7745,735.232],[28.517,-17.7659,727.5878],[28.5144,-17.7622,724.2322],[28.5132,-17.7563,721.6332],[28.515,-17.7515,729.2543],[28.5068,-17.7451,714.8938],[28.5093,-17.7419,712.2122],[28.5032,-17.7384,707.0384],[28.5037,-17.7351,707.5508],[28.5008,-17.7316,703.1982],[28.5016,-17.7279,700.5714],[28.4975,-17.7204,698.5741],[28.4981,-17.7108,716.2483],[28.5024,-17.7039,701.7755],[28.494,-17.6994,699.1111],[28.4894,-17.6943,691.8463],[28.4819,-17.6787,705.7943],[28.4817,-17.6765,715.5562],[28.4853,-17.674,693.3571],[28.4598,-17.6497,713.8123],[28.4336,-17.6633,742.0785],[28.4062,-17.6618,739.4358],[28.3958,-17.6699,742.4679],[28.376,-17.6779,754.8225],[28.3719,-17.6774,751.3637],[28.3617,-17.6832,774.9124],[28.3604,-17.6962,782.6169],[28.3622,-17.6996,790.9152],[28.3624,-17.7106,808.5342],[28.3548,-17.7175,810.6007],[28.3481,-17.7161,802.1479],[28.3453,-17.7169,802.8457],[28.3389,-17.7193,797.9396],[28.3364,-17.7243,814.1874],[28.3143,-17.7266,795.3772],[28.3045,-17.7329,775.7737],[28.2732,-17.7334,752.0705],[28.261,-17.7469,751.8114],[28.2549,-17.7685,777.05],[28.2535,-17.7863,818.1949],[28.2484,-17.7908,837.2032],[28.2335,-17.7925,795.0547],[28.2195,-17.8,778.3406],[28.2063,-17.8015,761.4623],[28.1955,-17.8046,748.6011],[28.186,-17.8136,754.0958],[28.1824,-17.8201,757.0311],[28.1752,-17.8226,764.1963],[28.1727,-17.8216,766.3283],[28.1631,-17.8239,771.414],[28.1553,-17.8221,776.7379],[28.1401,-17.825,800.1244],[28.1345,-17.8203,799.0636],[28.1254,-17.8189,779.7727],[28.1177,-17.8214,776.5002],[28.111,-17.8204,763.3076],[28.1088,-17.8214,763.3319],[28.0962,-17.8358,779.5659],[28.0915,-17.8376,786.5215],[28.0886,-17.8505,811.9691],[28.0862,-17.8537,810.8262],[28.0864,-17.8576,814.8807],[28.0817,-17.863,826.0666],[28.0809,-17.8692,832.0408],[28.0769,-17.8722,837.8737],[28.0796,-17.8912,843.3837],[28.0735,-17.8997,850.5297],[28.0735,-17.9038,852.7446],[28.0693,-17.9107,858.2776],[28.0687,-17.9197,862.7625],[28.0659,-17.9285,869.0097],[28.0685,-17.9366,869.1144],[28.0504,-17.9398,842.2996],[28.0433,-17.9604,817.6885],[28.023,-17.9832,848.8243],[28.0127,-17.9995,860.1293],[28.0083,-18.0181,856.3679],[28.0176,-18.0407,878.8906],[28.0256,-18.049,894.6829],[28.031,-18.0613,909.2604]]]]}
,"properties": {"GID_3": "ZWE.10.3.32_2","GID_0": "ZWE","country": "Zimbabwe","GID_1": "ZWE.10_1","province": "Midlands","NL_NAME_1": "NA","GID_2": "ZWE.10.3_2","county": "GokweSouth","NL_NAME_2": "NA","city": "Ward8","VARNAME_3": "NA","NL_NAME_3": "NA","TYPE_3": "Ward","ENGTYPE_3": "Ward","CC_3": "NA","HASC_3": "NA","name": "Ward8.city","area_km2": 1962.615,"hist_schema_id": "Elevation0-9000","hist_area_km2": {"675": 0.02,"700": 8.241,"725": 26.153,"750": 75.597,"775": 148.114,"800": 186.45,"825": 237.329,"850": 376.94,"875": 290.461,"900": 200.356,"925": 172.921,"950": 114.893,"975": 77.91,"1000": 31.952,"1025": 10.944,"1050": 2.52,"1075": 1.149,"1100": 0.423,"1125": 0.121,"1150": 0.06,"1175": 0.04,"1200": 0.02}}}