{"type":"Feature","properties":{"GID_3":"ZWE.3.6.14_2","GID_0":"ZWE","country":"Zimbabwe","GID_1":"ZWE.3_1","province":"Manicaland","NL_NAME_1":"NA","GID_2":"ZWE.3.6_2","county":"Mutare","NL_NAME_2":"NA","city":"Ward21","VARNAME_3":"NA","NL_NAME_3":"NA","TYPE_3":"Ward","ENGTYPE_3":"Ward","CC_3":"NA","HASC_3":"NA","name":"Ward21.city"},
"geometry":{"type": "MultiPolygon","coordinates": [[[[32.6112,-19.2493,867.7798],[32.6115,-19.2542,838.1942],[32.6055,-19.2578,836.3598],[32.603,-19.2643,842.6823],[32.6046,-19.2665,825.5671],[32.6075,-19.2666,819.5],[32.6076,-19.2681,819.5],[32.6007,-19.2792,820.8317],[32.6007,-19.2819,819.5],[32.596,-19.2859,819.5],[32.5948,-19.2911,796.5305],[32.587,-19.2976,791.8672],[32.5851,-19.3048,790.2065],[32.5766,-19.3186,769.3186],[32.5692,-19.3236,770.758],[32.6549,-19.3366,965.2284],[32.6539,-19.3184,1183.4377],[32.6429,-19.2537,1241.1812],[32.6477,-19.2461,1104.9832],[32.6605,-19.2166,1423.615],[32.6585,-19.2119,1087.2031],[32.6547,-19.2124,1020.2408],[32.6461,-19.2179,1003.9617],[32.6397,-19.216,981.6143],[32.6359,-19.2229,932.531],[32.6267,-19.2188,877.5887],[32.6213,-19.2295,864.8454],[32.6179,-19.2328,880.791],[32.6175,-19.2386,859.1854],[32.6112,-19.2493,867.7798]]]]}}