{"type": "Feature","bbox": [28.9216,-17.4733,29.0752,-17.2234],"geometry": {"type": "MultiPolygon","coordinates": [[[[28.9832,-17.2245,689.2869],[28.9807,-17.231,648.5254],[28.9751,-17.2364,659.1299],[28.9682,-17.2307,758.4968],[28.966,-17.2308,756.4079],[28.9633,-17.227,730.1801],[28.9607,-17.2299,697.0329],[28.9607,-17.2345,676.0173],[28.9513,-17.2326,765.6613],[28.9513,-17.2369,682.5994],[28.9564,-17.2381,722.8977],[28.9544,-17.2441,679.3094],[28.9473,-17.2424,717.441],[28.941,-17.2427,727.2621],[28.9394,-17.2441,707.5081],[28.9391,-17.2556,721.3479],[28.9348,-17.2654,741.8894],[28.9429,-17.2671,753.4103],[28.948,-17.2782,760.8071],[28.9477,-17.2852,746.9313],[28.9544,-17.2798,776.2432],[28.9603,-17.2785,785.2983],[28.9614,-17.2798,756.4454],[28.9612,-17.287,751.8354],[28.9591,-17.2901,757.2042],[28.9564,-17.2875,764.0317],[28.9543,-17.2912,763.0714],[28.9509,-17.2922,765.5839],[28.9498,-17.2972,758.8326],[28.942,-17.305,761.6528],[28.9421,-17.3094,759.809],[28.9372,-17.3121,763.1061],[28.9317,-17.3196,763.9999],[28.9281,-17.318,771.8306],[28.9216,-17.319,800.283],[28.9228,-17.3224,765.5634],[28.9276,-17.3232,779.6546],[28.9271,-17.3252,774.96],[28.9292,-17.3253,787.3389],[28.9266,-17.3287,769.3673],[28.9305,-17.3326,767.4058],[28.9334,-17.3398,769.3478],[28.9369,-17.3421,767.5778],[28.9376,-17.3474,770.0616],[28.9352,-17.3508,770.5551],[28.9335,-17.3622,769.2949],[28.9309,-17.3657,770.7993],[28.9379,-17.3679,777.5204],[28.9362,-17.3757,772.2247],[28.942,-17.3784,791.7714],[28.9427,-17.3842,777.9218],[28.9472,-17.3861,813.4849],[28.9394,-17.3906,785.1551],[28.9427,-17.3963,778.6353],[28.9397,-17.3987,778.8173],[28.9371,-17.4076,783.1334],[28.9411,-17.4082,783.3649],[28.9433,-17.4114,781.7202],[28.9478,-17.4112,787.0551],[28.9486,-17.4131,780.2423],[28.9551,-17.4156,782.8615],[28.9559,-17.4191,781.1917],[28.9584,-17.4207,782.0706],[28.9621,-17.4273,781.193],[28.9645,-17.427,790.571],[28.9635,-17.43,784.2385],[28.9656,-17.4303,782.4358],[28.9621,-17.4338,785.3187],[28.9627,-17.4368,785.2244],[28.9603,-17.4381,787.3021],[28.961,-17.4402,784.8082],[28.9582,-17.4432,785.7279],[28.9579,-17.4508,786.9154],[28.9549,-17.4514,787.7834],[28.9561,-17.4539,786.2265],[28.9529,-17.4553,789.9111],[28.9552,-17.4584,786.3666],[28.9495,-17.4627,794.4307],[28.9514,-17.4661,788.2496],[28.9484,-17.4688,791.0797],[28.951,-17.4733,790.53],[29.0388,-17.4364,819.89],[29.0381,-17.4342,817.506],[29.0417,-17.4302,813.1123],[29.0388,-17.4142,799.8195],[29.0393,-17.4071,796.786],[29.0467,-17.3978,789.8715],[29.0454,-17.3932,782.7515],[29.0484,-17.3831,772.1669],[29.0451,-17.3784,759.9529],[29.0459,-17.3707,755.537],[29.0405,-17.3607,745.6372],[29.0448,-17.355,741.2384],[29.0485,-17.3532,740.8146],[29.0505,-17.3476,740.1908],[29.0484,-17.3399,735.3948],[29.0501,-17.3366,737.077],[29.0486,-17.336,729.5191],[29.0454,-17.3384,737.7301],[29.0432,-17.3342,731.7576],[29.0446,-17.3316,736.6498],[29.0491,-17.3316,728.2869],[29.0496,-17.3282,727.621],[29.0478,-17.3255,726.452],[29.0444,-17.3262,724.4289],[29.0459,-17.3202,722.0364],[29.0444,-17.3178,723.9023],[29.0459,-17.3159,723.7487],[29.0437,-17.3144,720.0888],[29.0444,-17.3095,714.3495],[29.0411,-17.3092,715.558],[29.041,-17.3068,714.5723],[29.0427,-17.303,722.2314],[29.0459,-17.3056,717.9022],[29.0479,-17.3048,713.6224],[29.0484,-17.3027,713.7725],[29.0453,-17.2994,708.7678],[29.0458,-17.2958,711.309],[29.0469,-17.2933,712.2931],[29.0496,-17.2936,702.5084],[29.0503,-17.2897,711.5107],[29.0535,-17.2897,700.2267],[29.0551,-17.2866,703.944],[29.0576,-17.2876,694.4156],[29.0594,-17.283,695.5769],[29.0617,-17.2843,690.6962],[29.0637,-17.2822,704.0033],[29.0676,-17.2826,698.2441],[29.0745,-17.2794,688.058],[29.0752,-17.2776,705.7232],[29.0749,-17.2717,708.1558],[29.0706,-17.2682,660.8092],[29.0703,-17.2563,673.5891],[29.0667,-17.249,707.4316],[29.0578,-17.2483,685.5046],[29.0488,-17.2401,673.0137],[29.0443,-17.2385,771.8287],[29.0274,-17.2362,654.9266],[29.0216,-17.2276,689.6223],[29.0177,-17.2246,663.647],[29.0006,-17.2234,708.5056],[28.9832,-17.2245,689.2869]]]]}
,"properties": {"GID_3": "ZWE.10.2.11_2","GID_0": "ZWE","country": "Zimbabwe","GID_1": "ZWE.10_1","province": "Midlands","NL_NAME_1": "NA","GID_2": "ZWE.10.2_2","county": "GokweNorth","NL_NAME_2": "NA","city": "Ward19","VARNAME_3": "NA","NL_NAME_3": "NA","TYPE_3": "Ward","ENGTYPE_3": "Ward","CC_3": "NA","HASC_3": "NA","name": "Ward19.city","area_km2": 278.2865,"hist_schema_id": "Elevation0-9000","hist_area_km2": {"625": 0.4455,"650": 4.3335,"675": 5.7306,"700": 9.2537,"725": 20.4884,"750": 48.0127,"775": 73.4664,"800": 87.1489,"825": 23.1314,"850": 4.5144,"875": 1.4171,"900": 0.3442}}}