{"type":"Feature","properties":{"GID_3":"ZWE.3.6.36_2","GID_0":"ZWE","country":"Zimbabwe","GID_1":"ZWE.3_1","province":"Manicaland","NL_NAME_1":"NA","GID_2":"ZWE.3.6_2","county":"Mutare","NL_NAME_2":"NA","city":"Ward9","VARNAME_3":"NA","NL_NAME_3":"NA","TYPE_3":"Ward","ENGTYPE_3":"Ward","CC_3":"NA","HASC_3":"NA","name":"Ward9.city"},
"geometry":{"type": "MultiPolygon","coordinates": [[[[32.2736,-19.1731,940.3692],[32.2701,-19.1745,935.2301],[32.2665,-19.1736,931.9317],[32.2629,-19.1765,925.2025],[32.2558,-19.1774,916.0295],[32.253,-19.1813,912.5298],[32.2462,-19.1811,920.2095],[32.2427,-19.1827,906.0833],[32.2412,-19.1801,913.5802],[32.2432,-19.1768,924.1062],[32.2419,-19.1736,924.89],[32.2363,-19.168,896.8217],[32.2346,-19.1697,898.2919],[32.2303,-19.1697,894.4424],[32.2243,-19.1731,885.9711],[32.223,-19.1764,876.0035],[32.2174,-19.1761,875.0117],[32.2182,-19.1828,870.3503],[32.2159,-19.1859,865.3318],[32.2084,-19.1869,863.6334],[32.1767,-19.2016,835.5675],[32.1656,-19.2028,838.776],[32.1583,-19.21,825.0203],[32.1518,-19.2128,826.427],[32.1499,-19.2154,821.5719],[32.1504,-19.2199,822.8072],[32.1468,-19.2213,822.6039],[32.1478,-19.2248,821.0763],[32.1399,-19.2291,812.5742],[32.1389,-19.2427,808.6504],[32.1307,-19.2576,797.5662],[32.1309,-19.261,797.3609],[32.1344,-19.2613,786.0598],[32.136,-19.264,786.5763],[32.1273,-19.2729,799.25],[32.1282,-19.284,773.0884],[32.1304,-19.2865,764.2739],[32.1314,-19.285,764.4113],[32.1471,-19.2824,776.2812],[32.1511,-19.2791,791.6808],[32.1545,-19.2785,783.1302],[32.1631,-19.2653,802.703],[32.1809,-19.2525,820.9377],[32.1845,-19.2468,829.7404],[32.1845,-19.2443,832.296],[32.1866,-19.2431,830.1931],[32.1896,-19.2445,831.3444],[32.1926,-19.2435,836.2968],[32.1973,-19.2473,843.3334],[32.2004,-19.2455,850.2751],[32.2057,-19.2482,852.7701],[32.2113,-19.2459,869.084],[32.2165,-19.2461,870.1677],[32.2335,-19.2376,921.5919],[32.2388,-19.2332,930.3795],[32.242,-19.2331,935.4946],[32.2455,-19.2245,919.1278],[32.2442,-19.2217,914.9426],[32.2479,-19.2198,920.0739],[32.2619,-19.2224,939.6341],[32.2727,-19.2209,962.1969],[32.2749,-19.2153,978.9438],[32.2851,-19.2091,1010.2703],[32.2875,-19.2033,1014.4242],[32.2856,-19.1907,985.9303],[32.283,-19.184,976.3104],[32.2736,-19.1731,940.3692]]]]}}