{"type":"Feature","properties":{"GID_3":"ZWE.6.9.3_2","GID_0":"ZWE","country":"Zimbabwe","GID_1":"ZWE.6_1","province":"MashonalandWest","NL_NAME_1":"NA","GID_2":"ZWE.6.9_2","county":"Makonde","NL_NAME_2":"NA","city":"Ward11","VARNAME_3":"NA","NL_NAME_3":"NA","TYPE_3":"Ward","ENGTYPE_3":"Ward","CC_3":"NA","HASC_3":"NA","name":"Ward11.city"},
"geometry":{"type": "MultiPolygon","coordinates": [[[[30.0251,-16.8193,1014.2607],[30.026,-16.8229,1035.2471],[30.0313,-16.8245,1071.324],[30.0347,-16.8282,1040.6123],[30.0274,-16.8338,1017.4535],[30.0204,-16.8356,1056.2389],[30.0194,-16.8405,1022.0429],[30.0235,-16.8432,1039.1455],[30.0236,-16.846,1037.3474],[30.0153,-16.8459,1027.2628],[30.0125,-16.8491,1019.769],[30.0074,-16.8479,1025.665],[30.0107,-16.8557,1005.927],[30.0018,-16.8562,1027.2323],[30.0001,-16.8585,1020.1895],[30.0016,-16.862,1014.2355],[30.0007,-16.866,1009.1636],[29.9934,-16.8669,1014.179],[29.9969,-16.871,1017.3304],[30.0409,-16.8883,1071.9756],[30.0644,-16.8994,1107.1156],[30.1066,-16.8687,1173.5376],[30.1197,-16.8837,1181.2771],[30.1124,-16.9189,1179.6177],[30.1304,-16.9217,1154.7312],[30.1442,-16.9052,1131.7734],[30.1675,-16.9049,1197.4918],[30.175,-16.9122,1199.667],[30.1817,-16.9056,1170.8069],[30.1996,-16.9136,1257.1982],[30.2001,-16.9013,1260.325],[30.2236,-16.8633,1306.1383],[30.2044,-16.8585,1245.2671],[30.2076,-16.8564,1236.4124],[30.2162,-16.856,1233.885],[30.224,-16.8533,1220.6355],[30.2406,-16.8521,1207.8848],[30.242,-16.8437,1200.5594],[30.2389,-16.8334,1195.9766],[30.2386,-16.8114,1180.9307],[30.2423,-16.8062,1177.8037],[30.241,-16.8013,1175.8849],[30.2427,-16.7993,1172.1958],[30.243,-16.7915,1174.3933],[30.245,-16.7878,1165.0929],[30.2432,-16.7819,1163.7139],[30.2446,-16.7666,1161.6146],[30.2379,-16.7574,1150.516],[30.2381,-16.7516,1147.615],[30.2403,-16.7486,1153.3024],[30.238,-16.7475,1148.4043],[30.2381,-16.745,1155.8704],[30.2418,-16.7398,1146.5],[30.2408,-16.7383,1152.8789],[30.2418,-16.7354,1157.8717],[30.2475,-16.7335,1149.1782],[30.2454,-16.7308,1146.5],[30.2461,-16.7269,1138.1475],[30.2479,-16.7267,1145.1498],[30.2471,-16.7221,1148.7323],[30.2566,-16.7174,1124.7126],[30.2558,-16.7116,1126.9474],[30.2514,-16.7061,1140.2236],[30.2587,-16.7042,1117.546],[30.2554,-16.6958,1126.1299],[30.2603,-16.6921,1118.3281],[30.2409,-16.6793,1123.6031],[30.2087,-16.7099,1220.384],[30.1717,-16.6798,1145.0],[30.172,-16.6824,1145.0],[30.1678,-16.6871,1148.1217],[30.1658,-16.6932,1155.3918],[30.1668,-16.6998,1158.3804],[30.1384,-16.6797,1158.4196],[30.1278,-16.6814,1120.5],[30.1186,-16.6864,1096.3193],[30.1107,-16.6881,1084.991],[30.1526,-16.7397,1218.4362],[30.1443,-16.7421,1198.7379],[30.1252,-16.775,1226.688],[30.1163,-16.7636,1137.3755],[30.0401,-16.7669,1109.5092],[30.0326,-16.7725,1069.7629],[30.0304,-16.7768,1037.6045],[30.0324,-16.7829,985.8766],[30.0326,-16.7918,1011.1622],[30.0293,-16.807,1001.1448],[30.0326,-16.8124,1049.2941],[30.0252,-16.8161,1070.0649],[30.0251,-16.8193,1014.2607]]]]}}