{"type": "Feature","bbox": [31.1636,-16.885,31.2851,-16.7848],"geometry": {"type": "MultiPolygon","coordinates": [[[[31.2774,-16.8235,1014.8142],[31.2529,-16.8202,1161.6522],[31.2851,-16.7883,1065.1431],[31.2714,-16.7848,1196.2281],[31.1716,-16.8116,1279.2202],[31.1722,-16.817,1269.5526],[31.1778,-16.8211,1189.147],[31.1852,-16.8194,1153.9225],[31.1871,-16.8225,1145.0448],[31.1944,-16.8273,1133.6011],[31.1907,-16.8304,1128.6917],[31.1823,-16.8326,1180.0404],[31.1796,-16.8358,1158.8518],[31.1676,-16.8425,1222.5105],[31.1638,-16.8469,1205.0109],[31.1636,-16.8492,1215.9844],[31.1702,-16.8554,1306.7188],[31.1693,-16.8691,1324.8926],[31.176,-16.885,1179.816],[31.1952,-16.8813,1217.6284],[31.2029,-16.8819,1098.2925],[31.2132,-16.8769,1111.16],[31.2152,-16.8769,1110.3917],[31.2161,-16.8794,1092.2291],[31.2176,-16.8794,1082.0691],[31.2201,-16.8772,1088.4792],[31.2276,-16.8769,1073.8538],[31.2303,-16.8732,1083.1948],[31.2417,-16.8734,1068.3286],[31.2489,-16.8695,1072.4352],[31.2531,-16.8646,1067.8645],[31.2532,-16.8596,1064.6731],[31.2506,-16.8591,1066.7864],[31.2496,-16.8551,1077.7437],[31.2517,-16.8517,1079.6229],[31.2569,-16.8492,1063.2112],[31.2606,-16.8324,1042.7993],[31.2626,-16.8374,1031.024],[31.2657,-16.8394,1024.6271],[31.2729,-16.837,1027.3776],[31.2781,-16.8311,1021.1366],[31.2774,-16.8235,1014.8142]]]]}
,"properties": {"GID_3": "ZWE.4.5.12_2","GID_0": "ZWE","country": "Zimbabwe","GID_1": "ZWE.4_1","province": "MashonalandCentral","NL_NAME_1": "NA","GID_2": "ZWE.4.5_2","county": "Mazowe","NL_NAME_2": "NA","city": "Ward2","VARNAME_3": "NA","NL_NAME_3": "NA","TYPE_3": "Ward","ENGTYPE_3": "Ward","CC_3": "NA","HASC_3": "NA","name": "Ward2.city","area_km2": 83.87272,"hist_schema_id": "Elevation0-9000","hist_area_km2": {"1025": 0.95381,"1050": 3.28786,"1075": 8.44263,"1100": 10.24892,"1125": 10.75602,"1150": 10.14712,"1175": 7.14352,"1200": 4.58633,"1225": 3.30768,"1250": 3.26703,"1275": 4.20054,"1300": 3.59164,"1325": 2.53639,"1350": 1.68414,"1375": 1.66384,"1400": 1.60293,"1425": 1.92755,"1450": 1.76526,"1475": 1.40003,"1500": 0.52756,"1525": 0.46669,"1550": 0.18262,"1575": 0.18262}}}