{"type":"Feature","properties":{"GID_3":"ZWE.4.10.24_2","GID_0":"ZWE","country":"Zimbabwe","GID_1":"ZWE.4_1","province":"MashonalandCentral","NL_NAME_1":"NA","GID_2":"ZWE.4.10_2","county":"Shamva","NL_NAME_2":"NA","city":"Ward4","VARNAME_3":"NA","NL_NAME_3":"NA","TYPE_3":"Ward","ENGTYPE_3":"Ward","CC_3":"NA","HASC_3":"NA","name":"Ward4.city"},
"geometry":{"type": "MultiPolygon","coordinates": [[[[31.4504,-16.9197,1079.4216],[31.457,-16.9191,1077.1831],[31.4565,-16.9325,1090.2755],[31.4578,-16.9335,1082.3545],[31.4562,-16.9363,1088.8778],[31.4515,-16.9382,1100.5947],[31.4485,-16.9375,1101.0634],[31.4479,-16.9337,1096.8068],[31.4419,-16.9397,1102.5029],[31.4414,-16.9478,1107.026],[31.4473,-16.9563,1106.6836],[31.4459,-16.9651,1115.1687],[31.4472,-16.9677,1116.2047],[31.445,-16.9722,1127.8882],[31.4767,-16.9728,1119.7395],[31.4781,-16.9704,1118.207],[31.4773,-16.9549,1107.1819],[31.4791,-16.952,1102.0701],[31.489,-16.9561,1101.269],[31.4959,-16.9513,1127.0721],[31.4997,-16.9508,1129.7024],[31.5019,-16.945,1128.6051],[31.5008,-16.939,1121.8739],[31.5024,-16.9326,1095.3868],[31.4836,-16.9305,1124.1853],[31.4767,-16.9178,1102.2532],[31.4747,-16.8989,1176.9236],[31.4544,-16.9056,1075.089],[31.4518,-16.9087,1071.3835],[31.4533,-16.9159,1073.6432],[31.4503,-16.9176,1084.1062],[31.4504,-16.9197,1079.4216]]]]}}