{"type": "Feature","bbox": [28.1976,-19.962,28.5658,-19.6627],"geometry": {"type": "MultiPolygon","coordinates": [[[[28.5287,-19.7967,1156.4062],[28.5237,-19.7927,1156.953],[28.5206,-19.7927,1155.4891],[28.5197,-19.7898,1154.1757],[28.5087,-19.7932,1153.0432],[28.4987,-19.7807,1152.3936],[28.4933,-19.7774,1147.8973],[28.4944,-19.7708,1147.9005],[28.4925,-19.7682,1148.3219],[28.4865,-19.7661,1148.0745],[28.4849,-19.7625,1146.2736],[28.486,-19.7564,1146.0364],[28.4826,-19.7549,1145.1932],[28.4815,-19.7587,1144.3862],[28.4799,-19.7572,1144.3315],[28.479,-19.7528,1144.5852],[28.4729,-19.7489,1142.0569],[28.4742,-19.7458,1142.3837],[28.473,-19.74,1141.8616],[28.463,-19.7378,1141.2582],[28.4628,-19.7324,1138.6462],[28.4588,-19.728,1140.9771],[28.454,-19.7315,1138.7993],[28.4506,-19.7274,1146.0587],[28.4446,-19.7297,1136.5692],[28.4428,-19.7272,1137.9556],[28.446,-19.7246,1144.5598],[28.4398,-19.7236,1141.9049],[28.4355,-19.7194,1138.3564],[28.4284,-19.7211,1135.3687],[28.4288,-19.7175,1134.4565],[28.426,-19.7096,1133.468],[28.4166,-19.7056,1132.5636],[28.4106,-19.7083,1134.5887],[28.4022,-19.7025,1139.304],[28.3962,-19.7027,1134.0271],[28.3874,-19.6986,1131.1843],[28.3878,-19.6949,1129.1111],[28.3816,-19.6923,1129.0052],[28.3766,-19.6935,1127.4802],[28.3658,-19.6893,1124.9551],[28.3536,-19.6928,1125.6682],[28.351,-19.6885,1125.4222],[28.3512,-19.6814,1129.3203],[28.3394,-19.6864,1122.2074],[28.3335,-19.6776,1118.6558],[28.328,-19.673,1120.7711],[28.3252,-19.673,1122.011],[28.3215,-19.6767,1117.2852],[28.3191,-19.6766,1117.4232],[28.3158,-19.6672,1117.9121],[28.3095,-19.6627,1114.0291],[28.3058,-19.6641,1114.033],[28.3049,-19.6681,1112.7559],[28.2954,-19.6675,1111.5532],[28.2743,-19.7061,1149.575],[28.2305,-19.6973,1127.8911],[28.1976,-19.7429,1216.5332],[28.22,-19.7529,1224.1428],[28.2323,-19.7358,1194.5452],[28.251,-19.7427,1199.738],[28.2505,-19.7513,1202.4298],[28.2433,-19.7636,1210.7721],[28.2478,-19.7645,1212.8839],[28.2496,-19.7634,1212.8839],[28.3623,-19.7873,1247.3405],[28.3544,-19.8114,1231.7437],[28.3553,-19.8236,1216.8276],[28.3487,-19.8209,1213.2527],[28.3232,-19.8047,1255.9685],[28.3237,-19.8618,1275.3132],[28.352,-19.8616,1272.5771],[28.3936,-19.8757,1281.6499],[28.3906,-19.8896,1249.4021],[28.4217,-19.9144,1295.7622],[28.4204,-19.93,1281.3875],[28.4401,-19.9345,1304.0455],[28.4685,-19.962,1247.1965],[28.5013,-19.9247,1276.9644],[28.5087,-19.9145,1202.4213],[28.5177,-19.9176,1181.2413],[28.5185,-19.9167,1181.2413],[28.5182,-19.909,1181.4541],[28.5142,-19.9049,1180.1128],[28.5154,-19.9008,1181.1005],[28.5099,-19.8938,1178.5021],[28.5057,-19.8839,1174.1797],[28.5075,-19.8794,1170.8263],[28.5059,-19.8782,1173.9587],[28.507,-19.8761,1172.9943],[28.5092,-19.876,1170.3407],[28.5117,-19.8728,1171.9572],[28.5359,-19.8739,1198.9557],[28.5536,-19.8458,1180.6279],[28.5658,-19.8337,1179.3174],[28.5497,-19.8326,1176.0242],[28.5265,-19.804,1160.6642],[28.5287,-19.7967,1156.4062]]]]}
,"properties": {"GID_3": "ZWE.8.8.19_2","GID_0": "ZWE","country": "Zimbabwe","GID_1": "ZWE.8_1","province": "MatabelelandNorth","NL_NAME_1": "NA","GID_2": "ZWE.8.8_2","county": "Umguza","NL_NAME_2": "NA","city": "Ward9","VARNAME_3": "NA","NL_NAME_3": "NA","TYPE_3": "Ward","ENGTYPE_3": "Ward","CC_3": "NA","HASC_3": "NA","name": "Ward9.city","area_km2": 522.8383,"hist_schema_id": "Elevation0-9000","hist_area_km2": {"1100": 0.3394,"1125": 29.0041,"1150": 109.5618,"1175": 131.6901,"1200": 84.734,"1225": 70.3648,"1250": 42.9756,"1275": 34.9104,"1300": 19.258}}}