{"type":"Feature","properties":{"GID_3":"ZWE.3.9.29_2","GID_0":"ZWE","country":"Zimbabwe","GID_1":"ZWE.3_1","province":"Manicaland","NL_NAME_1":"NA","GID_2":"ZWE.3.9_2","county":"Nyanga","NL_NAME_2":"NA","city":"Ward7","VARNAME_3":"NA","NL_NAME_3":"NA","TYPE_3":"Ward","ENGTYPE_3":"Ward","CC_3":"NA","HASC_3":"NA","name":"Ward7.city"},
"geometry":{"type": "MultiPolygon","coordinates": [[[[32.5383,-17.7395,867.2283],[32.544,-17.7468,891.8962],[32.5543,-17.7542,896.2788],[32.5542,-17.757,893.5884],[32.5513,-17.761,894.7715],[32.5538,-17.7683,892.2322],[32.5488,-17.7774,901.1221],[32.5495,-17.7833,901.8179],[32.5473,-17.7864,905.4443],[32.5531,-17.7961,927.2387],[32.5564,-17.7969,930.5726],[32.5616,-17.8034,934.0981],[32.5643,-17.8044,947.0221],[32.5658,-17.803,948.7429],[32.5704,-17.8029,950.2356],[32.5726,-17.804,944.7776],[32.5808,-17.799,977.0089],[32.592,-17.7994,1017.2201],[32.6082,-17.7951,1128.6123],[32.6226,-17.7881,1160.0891],[32.6291,-17.7907,1148.989],[32.6377,-17.8024,1101.4912],[32.6386,-17.7928,1188.4944],[32.6519,-17.7838,1194.4264],[32.6563,-17.7783,1238.5354],[32.6723,-17.7709,1264.6112],[32.6848,-17.7552,1190.5461],[32.694,-17.7498,1219.5493],[32.7155,-17.7453,1437.9305],[32.7116,-17.7284,1734.218],[32.7101,-17.7281,1801.6243],[32.7385,-17.7217,1159.4163],[32.7391,-17.719,1102.5492],[32.7498,-17.7096,1006.8501],[32.7372,-17.7003,1065.8844],[32.723,-17.6864,1121.3075],[32.7224,-17.676,1288.457],[32.7247,-17.6703,1229.0896],[32.7285,-17.666,1116.4568],[32.7298,-17.6535,1080.83],[32.7286,-17.6502,1072.7644],[32.7055,-17.6537,1142.5441],[32.6961,-17.6667,1064.2059],[32.6917,-17.6673,1055.4589],[32.6853,-17.6623,1045.9918],[32.6664,-17.6527,1002.1962],[32.6476,-17.6365,1034.0027],[32.6456,-17.6364,955.7857],[32.6365,-17.6286,893.26],[32.6288,-17.6253,904.2011],[32.603,-17.6047,817.5837],[32.5926,-17.579,788.4197],[32.5879,-17.5875,809.6039],[32.5828,-17.5886,812.0748],[32.5811,-17.5936,818.0442],[32.5794,-17.6059,811.2609],[32.5806,-17.6218,817.6874],[32.5777,-17.6285,816.8018],[32.5781,-17.6337,824.2795],[32.5396,-17.6474,847.8223],[32.5408,-17.6696,846.5104],[32.5442,-17.6891,849.6259],[32.5498,-17.6977,864.5609],[32.5488,-17.7035,854.0381],[32.5397,-17.7193,907.4335],[32.5416,-17.7285,867.2111],[32.5383,-17.7395,867.2283]]]]}}