{"type":"Feature","properties":{"GID_3":"ZWE.7.4.2_2","GID_0":"ZWE","country":"Zimbabwe","GID_1":"ZWE.7_1","province":"Masvingo","NL_NAME_1":"NA","GID_2":"ZWE.7.4_2","county":"Chivi","NL_NAME_2":"NA","city":"Ward10","VARNAME_3":"NA","NL_NAME_3":"NA","TYPE_3":"Ward","ENGTYPE_3":"Ward","CC_3":"NA","HASC_3":"NA","name":"Ward10.city"},
"geometry":{"type": "MultiPolygon","coordinates": [[[[30.4301,-20.3406,868.406],[30.4322,-20.3357,879.8333],[30.4361,-20.3385,874.8083],[30.4389,-20.3385,877.515],[30.442,-20.3341,881.8126],[30.4456,-20.332,885.6872],[30.4461,-20.3279,890.4558],[30.4588,-20.3262,900.0497],[30.4665,-20.3184,915.8178],[30.4761,-20.3147,916.6251],[30.4708,-20.3075,921.5497],[30.4654,-20.3044,912.3717],[30.4434,-20.2835,889.0608],[30.4372,-20.2801,897.4232],[30.4269,-20.2778,894.2452],[30.4226,-20.2739,905.0287],[30.4213,-20.2656,912.2313],[30.4167,-20.2625,905.8818],[30.4172,-20.2581,911.6444],[30.4139,-20.2561,903.85],[30.4097,-20.256,904.4055],[30.4095,-20.2516,893.4008],[30.3993,-20.2442,883.9092],[30.3954,-20.2457,879.4996],[30.393,-20.2498,883.188],[30.3885,-20.2513,881.672],[30.3738,-20.2505,878.3517],[30.368,-20.2532,878.9321],[30.3609,-20.2525,865.3338],[30.3599,-20.2578,869.0698],[30.3471,-20.2636,850.6818],[30.3443,-20.2675,847.9315],[30.3511,-20.2686,857.928],[30.3613,-20.2665,867.1685],[30.3631,-20.2791,851.1836],[30.3688,-20.2804,854.4193],[30.3721,-20.2835,857.1179],[30.3594,-20.2961,847.1044],[30.3589,-20.3051,834.2123],[30.3559,-20.3071,832.7717],[30.3551,-20.3165,825.4172],[30.353,-20.3184,824.9315],[30.3525,-20.3223,823.1586],[30.3528,-20.3279,819.491],[30.3557,-20.3321,818.45],[30.3538,-20.3357,816.4953],[30.3546,-20.3414,811.4553],[30.3882,-20.35,933.5553],[30.3949,-20.354,925.2015],[30.4071,-20.3512,907.6666],[30.4212,-20.3386,865.0385],[30.4301,-20.3406,868.406]]]]}}