{"type":"Feature","properties":{"GID_3":"ZWE.8.7.13_2","GID_0":"ZWE","country":"Zimbabwe","GID_1":"ZWE.8_1","province":"MatabelelandNorth","NL_NAME_1":"NA","GID_2":"ZWE.8.7_2","county":"Tsholotsho","NL_NAME_2":"NA","city":"Ward20","VARNAME_3":"NA","NL_NAME_3":"NA","TYPE_3":"Ward","ENGTYPE_3":"Ward","CC_3":"NA","HASC_3":"NA","name":"Ward20.city"},
"geometry":{"type": "MultiPolygon","coordinates": [[[[27.8326,-19.8877,1106.7931],[27.8244,-19.8929,1114.8472],[27.906,-19.9922,1144.3787],[27.9407,-20.0537,1194.8918],[27.9926,-20.1225,1281.8197],[28.0334,-20.1026,1228.1455],[28.0919,-20.0974,1215.3767],[28.1347,-20.0862,1186.5142],[28.1318,-20.0754,1194.8871],[28.1279,-20.0685,1190.9922],[28.1039,-20.0501,1177.8088],[28.0864,-20.0419,1166.3667],[28.0512,-19.9978,1143.9043],[28.0412,-19.99,1128.7534],[28.035,-19.9816,1134.6897],[28.0331,-19.9802,1133.9106],[28.0251,-19.9807,1125.0959],[28.0235,-19.976,1133.8458],[28.0083,-19.9713,1122.2474],[28.0043,-19.9749,1122.1368],[27.9924,-19.9647,1111.4232],[27.9919,-19.9611,1115.7131],[27.9951,-19.9562,1122.303],[27.9937,-19.9539,1118.3167],[27.9884,-19.9527,1118.6605],[27.982,-19.9546,1108.0187],[27.9752,-19.9479,1120.2327],[27.9714,-19.9498,1109.1616],[27.9679,-19.9478,1112.2667],[27.9687,-19.9374,1112.9222],[27.9583,-19.9264,1105.6918],[27.9591,-19.9173,1102.9725],[27.9548,-19.9112,1098.1311],[27.9522,-19.8978,1099.615],[27.9459,-19.893,1097.6697],[27.9318,-19.8923,1094.7308],[27.9237,-19.8842,1090.6743],[27.9234,-19.87,1089.2993],[27.9213,-19.8633,1090.8876],[27.9085,-19.8501,1086.2883],[27.9087,-19.846,1087.2668],[27.9142,-19.8419,1085.5295],[27.9131,-19.8388,1087.6282],[27.8326,-19.8877,1106.7931]]]]}}