{"type": "Feature","bbox": [31.5595,-18.1786,31.584,-18.1643],"geometry": {"type": "MultiPolygon","coordinates": [[[[31.562,-18.178,1654.7635],[31.5666,-18.1743,1654.8027],[31.5715,-18.1741,1665.1914],[31.5723,-18.1775,1674.7203],[31.5748,-18.1786,1680.1213],[31.5824,-18.1729,1662.0925],[31.584,-18.1671,1672.9838],[31.5641,-18.1643,1631.9467],[31.5595,-18.1773,1657.4032],[31.562,-18.178,1654.7635]]]]}
,"properties": {"GID_3": "ZWE.5.5.7_2","GID_0": "ZWE","country": "Zimbabwe","GID_1": "ZWE.5_1","province": "MashonalandEast","NL_NAME_1": "NA","GID_2": "ZWE.5.5_2","county": "MaronderaUrban","NL_NAME_2": "NA","city": "Ward4","VARNAME_3": "NA","NL_NAME_3": "NA","TYPE_3": "Ward","ENGTYPE_3": "Ward","CC_3": "NA","HASC_3": "NA","name": "Ward4.city","area_km2": 2.538252,"hist_schema_id": "Elevation0-9000","hist_area_km2": {"1625": 0.261889,"1650": 1.712315,"1675": 0.564048}}}