{"type":"Feature","properties":{"GID_3":"ZWE.9.3.14_2","GID_0":"ZWE","country":"Zimbabwe","GID_1":"ZWE.9_1","province":"MatabelelandSouth","NL_NAME_1":"NA","GID_2":"ZWE.9.3_2","county":"Bulilima","NL_NAME_2":"NA","city":"Ward21","VARNAME_3":"NA","NL_NAME_3":"NA","TYPE_3":"Ward","ENGTYPE_3":"Ward","CC_3":"NA","HASC_3":"NA","name":"Ward21.city"},
"geometry":{"type": "MultiPolygon","coordinates": [[[[27.8282,-20.4185,1331.322],[27.827,-20.4166,1330.3987],[27.8223,-20.416,1325.0216],[27.8081,-20.4093,1317.5275],[27.806,-20.4045,1321.8484],[27.7936,-20.3964,1305.6034],[27.7899,-20.3868,1306.0096],[27.7839,-20.3797,1297.9309],[27.7784,-20.3796,1295.3525],[27.7708,-20.3768,1292.2512],[27.7643,-20.3793,1289.3469],[27.7622,-20.3669,1307.2078],[27.7693,-20.3668,1311.2318],[27.7723,-20.3688,1314.9977],[27.7849,-20.3705,1320.8759],[27.7954,-20.3786,1314.9844],[27.801,-20.3794,1324.8063],[27.8142,-20.3866,1338.6562],[27.8323,-20.3888,1356.4636],[27.8364,-20.392,1365.6044],[27.8313,-20.3631,1351.7487],[27.8273,-20.3605,1350.2554],[27.8263,-20.3541,1352.4797],[27.8171,-20.3568,1343.2957],[27.806,-20.353,1338.5779],[27.7901,-20.3531,1328.8977],[27.786,-20.3468,1326.1207],[27.779,-20.3468,1314.0912],[27.7713,-20.3433,1317.5037],[27.7682,-20.3344,1309.9355],[27.7596,-20.3338,1313.6946],[27.7534,-20.3281,1316.345],[27.7429,-20.3246,1310.3505],[27.7411,-20.3217,1311.1461],[27.7238,-20.3389,1290.4958],[27.7244,-20.3412,1288.2992],[27.7189,-20.3496,1281.3069],[27.7173,-20.357,1274.3779],[27.7101,-20.3619,1268.3186],[27.7098,-20.3645,1263.2845],[27.713,-20.3662,1268.3026],[27.7242,-20.3644,1270.5388],[27.7285,-20.3669,1274.7876],[27.7383,-20.3672,1278.4221],[27.7445,-20.3721,1282.8301],[27.7541,-20.3761,1287.6755],[27.7571,-20.3751,1290.321],[27.7603,-20.3768,1289.8405],[27.759,-20.3767,1286.9124],[27.737,-20.4083,1306.0465],[27.7312,-20.465699999999998,1330.3723],[27.7748,-20.4717,1372.9406],[27.7915,-20.452,1346.6301],[27.7985,-20.449,1349.2434],[27.8275,-20.4284,1346.9592],[27.8314,-20.4229,1328.5807],[27.8282,-20.4185,1331.322]]]]}}