{"type": "Feature","bbox": [32.5776,-19.7882,32.8179,-19.5405],"geometry": {"type": "MultiPolygon","coordinates": [[[[32.7271,-19.5424,1052.6821],[32.726,-19.5591,1575.0603],[32.6898,-19.5779,1149.9397],[32.6278,-19.5695,1164.6019],[32.6077,-19.5877,1101.2788],[32.5849,-19.6294,1179.1094],[32.5776,-19.6653,1181.6226],[32.5811,-19.6879,1145.3654],[32.596,-19.7123,973.234],[32.6346,-19.7533,1037.7476],[32.6693,-19.768,1004.3694],[32.7085,-19.7642,1144.5564],[32.7221,-19.7882,1451.359],[32.7942,-19.7577,1557.37],[32.791,-19.7411,1267.7473],[32.7915,-19.7368,1263.4192],[32.8076,-19.7266,1592.4806],[32.7867,-19.7112,1640.1323],[32.7725,-19.6892,1381.3165],[32.7838,-19.655,1910.3215],[32.8108,-19.6686,1606.6375],[32.8179,-19.6499,1815.1472],[32.8068,-19.647,1642.123],[32.8059,-19.6415,1613.2192],[32.7787,-19.6289,1723.371],[32.7708,-19.5873,1633.3964],[32.8118,-19.5703,1545.4717],[32.8093,-19.5453,1230.627],[32.8073,-19.5462,1218.292],[32.8004,-19.5445,1213.8826],[32.7948,-19.5464,1166.8073],[32.7879,-19.5442,1167.3447],[32.7823,-19.5465,1154.7001],[32.7755,-19.5434,1138.0839],[32.7738,-19.5465,1142.0593],[32.7682,-19.5473,1136.0078],[32.764,-19.5437,1115.2094],[32.7572,-19.541,1105.5742],[32.7502,-19.5405,1089.9064],[32.747,-19.5428,1085.5267],[32.7271,-19.5424,1052.6821]]]]}
,"properties": {"GID_3": "ZWE.3.2.21_2","GID_0": "ZWE","country": "Zimbabwe","GID_1": "ZWE.3_1","province": "Manicaland","NL_NAME_1": "NA","GID_2": "ZWE.3.2_2","county": "Chimanimani","NL_NAME_2": "NA","city": "Ward7","VARNAME_3": "NA","NL_NAME_3": "NA","TYPE_3": "Ward","ENGTYPE_3": "Ward","CC_3": "NA","HASC_3": "NA","name": "Ward7.city","area_km2": 459.8739,"hist_schema_id": "Elevation0-9000","hist_area_km2": {"850": 1.896,"875": 6.3868,"900": 8.9017,"925": 8.2431,"950": 7.9835,"975": 9.78,"1000": 11.5966,"1025": 14.4127,"1050": 24.278199999999998,"1075": 37.0604,"1100": 35.4845,"1125": 26.158,"1150": 19.5277,"1175": 19.1087,"1200": 14.2967,"1225": 14.1555,"1250": 12.9176,"1275": 12.1988,"1300": 12.2387,"1325": 12.4778,"1350": 12.3187,"1375": 11.3206,"1400": 11.0013,"1425": 11.4206,"1450": 11.0214,"1475": 10.8818,"1500": 10.4427,"1525": 9.8241,"1550": 9.3449,"1575": 7.8075,"1600": 7.049,"1625": 5.6114,"1650": 5.6313,"1675": 4.4927,"1700": 3.7138,"1725": 3.8736,"1750": 3.4344,"1775": 3.1349,"1800": 2.516,"1825": 2.0966,"1850": 1.3777,"1875": 1.0582,"1900": 1.1581,"1925": 0.2396}}}