{"type":"Feature","properties":{"GID_3":"ZWE.8.5.28_2","GID_0":"ZWE","country":"Zimbabwe","GID_1":"ZWE.8_1","province":"MatabelelandNorth","NL_NAME_1":"NA","GID_2":"ZWE.8.5_2","county":"Lupane","NL_NAME_2":"NA","city":"Ward9","VARNAME_3":"NA","NL_NAME_3":"NA","TYPE_3":"Ward","ENGTYPE_3":"Ward","CC_3":"NA","HASC_3":"NA","name":"Ward9.city"},
"geometry":{"type": "MultiPolygon","coordinates": [[[[27.9954,-18.6355,1119.3711],[27.9853,-18.6342,1115.1445],[27.9838,-18.612,1122.9224],[27.7557,-18.606,1086.9734],[27.7579,-18.6311,1081.6429],[27.7555,-18.6362,1077.2797],[27.7503,-18.6394,1070.3807],[27.7503,-18.6464,1036.0159],[27.7228,-18.6471,1026.7633],[27.7162,-18.6496,1026.9939],[27.6678,-18.7018,983.5793],[27.6538,-18.7104,957.3574],[27.6484,-18.716,951.4439],[27.6465,-18.7199,945.4214],[27.6484,-18.7258,942.142],[27.6469,-18.73,937.1884],[27.6511,-18.7411,939.2418],[27.6536,-18.7433,937.0814],[27.6596,-18.7425,935.5353],[27.6677,-18.7358,942.1813],[27.674,-18.7363,939.8972],[27.689,-18.7432,941.743],[27.6958,-18.7533,936.6472],[27.7046,-18.7578,944.1353],[27.7191,-18.7567,943.9915],[27.7477,-18.7674,949.1525],[27.7614,-18.7676,951.8816],[27.7664,-18.77,946.972],[27.7777,-18.7801,945.9927],[27.7874,-18.7843,951.9619],[27.8276,-18.7248,1042.9679],[27.8668,-18.6983,1082.8048],[27.9968,-18.6929,1106.1365],[27.9954,-18.6355,1119.3711]]]]}}