{"type": "Feature","bbox": [27.5154,-19.8532,27.7535,-19.6246],"geometry": {"type": "MultiPolygon","coordinates": [[[[27.5859,-19.7719,1077.8156],[27.5909,-19.7736,1077.6029],[27.6037,-19.7834,1081.3446],[27.7119,-19.8532,1120.5638],[27.7144,-19.8308,1111.3093],[27.7279,-19.807,1101.8451],[27.7307,-19.7894,1095.6963],[27.743,-19.7706,1091.5806],[27.7506,-19.7677,1091.186],[27.7483,-19.7623,1089.1798],[27.7397,-19.7574,1088.4764],[27.7376,-19.753,1087.6868],[27.7482,-19.7469,1085.2415],[27.7411,-19.7421,1084.6975],[27.7386,-19.738,1085.2219],[27.7291,-19.7348,1083.7418],[27.7502,-19.7325,1082.9342],[27.7535,-19.7202,1078.7446],[27.7519,-19.7075,1079.4725],[27.7469,-19.7058,1079.7249],[27.736,-19.6965,1078.6252],[27.7287,-19.6852,1075.9785],[27.7178,-19.6763,1072.342],[27.7154,-19.6761,1072.3545],[27.711,-19.681,1073.429],[27.7023,-19.677,1071.6891],[27.6911,-19.6608,1067.499],[27.6872,-19.6468,1065.5422],[27.6812,-19.6455,1063.8821],[27.6749,-19.6388,1062.8564],[27.6775,-19.6305,1060.7051],[27.6747,-19.6246,1060.5684],[27.6443,-19.6305,1058.832],[27.6487,-19.6371,1057.8751],[27.6476,-19.645,1057.637],[27.6528,-19.6503,1060.1193],[27.6559,-19.6611,1063.0197],[27.6563,-19.6652,1064.0382],[27.6546,-19.6674,1064.1461],[27.6434,-19.6784,1059.6979],[27.6326,-19.681,1057.7062],[27.6233,-19.6787,1055.6415],[27.6118,-19.672,1051.6602],[27.6115,-19.6813,1050.9907],[27.6053,-19.6985,1049.5446],[27.6012,-19.7045,1045.7489],[27.6029,-19.7111,1046.8997],[27.5884,-19.7142,1052.4731],[27.5779,-19.7111,1054.4192],[27.5744,-19.7125,1052.4622],[27.5693,-19.7205,1059.4072],[27.5668,-19.7283,1063.6228],[27.5577,-19.7328,1065.2729],[27.5506,-19.7329,1065.6912],[27.5386,-19.7383,1067.1406],[27.5248,-19.7498,1069.0021],[27.5205,-19.7548,1069.6833],[27.5159,-19.7653,1071.1279],[27.5154,-19.7705,1072.7595],[27.5859,-19.7719,1077.8156]]]]}
,"properties": {"GID_3": "ZWE.8.7.4_2","GID_0": "ZWE","country": "Zimbabwe","GID_1": "ZWE.8_1","province": "MatabelelandNorth","NL_NAME_1": "NA","GID_2": "ZWE.8.7_2","county": "Tsholotsho","NL_NAME_2": "NA","city": "Ward12","VARNAME_3": "NA","NL_NAME_3": "NA","TYPE_3": "Ward","ENGTYPE_3": "Ward","CC_3": "NA","HASC_3": "NA","name": "Ward12.city","area_km2": 286.4487,"hist_schema_id": "Elevation0-9000","hist_area_km2": {"1050": 43.9358,"1075": 185.0011,"1100": 55.7568,"1125": 1.755}}}