{"type": "Feature","bbox": [30.4758,-19.8067,30.6128,-19.6703],"geometry": {"type": "MultiPolygon","coordinates": [[[[30.5917,-19.7428,1140.7119],[30.6019,-19.7344,1155.8113],[30.6022,-19.7253,1166.7126],[30.6051,-19.7231,1176.1045],[30.606,-19.716,1184.3135],[30.6093,-19.7119,1188.0844],[30.6097,-19.6968,1210.3412],[30.6123,-19.6951,1207.0317],[30.6128,-19.6866,1228.8635],[30.6127,-19.6782,1261.1731],[30.6113,-19.6756,1265.8835],[30.6091,-19.6757,1264.6128],[30.6053,-19.6793,1250.2906],[30.6026,-19.6841,1248.2173],[30.5985,-19.6832,1269.1321],[30.5906,-19.6875,1212.8948],[30.5816,-19.6881,1202.4121],[30.5613,-19.6844,1155.9431],[30.5549,-19.6778,1173.5879],[30.5342,-19.6745,1200.5862],[30.5264,-19.6703,1170.52],[30.5167,-19.6777,1139.0715],[30.5166,-19.6913,1125.9867],[30.5255,-19.7036,1123.4442],[30.5217,-19.7059,1121.0863],[30.5197,-19.7153,1113.3154],[30.5149,-19.7152,1109.2731],[30.511,-19.7179,1104.9797],[30.5107,-19.7223,1105.3113],[30.5068,-19.7294,1091.8838],[30.5081,-19.7309,1096.075],[30.5062,-19.7373,1084.6038],[30.5002,-19.7402,1081.1132],[30.4965,-19.7358,1087.2913],[30.49,-19.7393,1071.6931],[30.4862,-19.7383,1066.2292],[30.4829,-19.743,1072.6895],[30.4787,-19.745,1067.2733],[30.4791,-19.7494,1057.7554],[30.4758,-19.7543,1064.2305],[30.478,-19.7541,1056.2419],[30.4844,-19.7654,1049.8662],[30.4885,-19.7672,1051.6062],[30.4812,-19.7751,1046.1301],[30.4774,-19.7858,1044.4275],[30.4766,-19.7973,1040.9037],[30.4799,-19.8028,1039.9934],[30.4796,-19.8063,1038.4554],[30.4815,-19.8067,1040.2788],[30.4868,-19.8001,1054.4686],[30.4965,-19.802,1059.9026],[30.5005,-19.8011,1068.8625],[30.507,-19.8053,1070.9478],[30.5223,-19.7932,1082.2769],[30.527,-19.7864,1090.2877],[30.5401,-19.7825,1096.3585],[30.5542,-19.7742,1097.7446],[30.5794,-19.7675,1117.4749],[30.5805,-19.7665,1117.4749],[30.5747,-19.7608,1113.4972],[30.5634,-19.7589,1105.4347],[30.5558,-19.7603,1096.8447],[30.5564,-19.7542,1101.8372],[30.5581,-19.7511,1105.5322],[30.5643,-19.7505,1110.8933],[30.566,-19.7469,1116.5302],[30.5695,-19.7449,1124.2006],[30.5804,-19.7431,1129.7686],[30.5872,-19.745,1135.1951],[30.5917,-19.7428,1140.7119]]]]}
,"properties": {"GID_3": "ZWE.10.1.19_2","GID_0": "ZWE","country": "Zimbabwe","GID_1": "ZWE.10_1","province": "Midlands","NL_NAME_1": "NA","GID_2": "ZWE.10.1_2","county": "Chirumhanzu","NL_NAME_2": "NA","city": "Ward3","VARNAME_3": "NA","NL_NAME_3": "NA","TYPE_3": "Ward","ENGTYPE_3": "Ward","CC_3": "NA","HASC_3": "NA","name": "Ward3.city","area_km2": 116.18861,"hist_schema_id": "Elevation0-9000","hist_area_km2": {"1025": 0.0399,"1050": 8.37929,"1075": 22.12736,"1100": 22.64895,"1125": 22.91176,"1150": 20.85823,"1175": 11.53763,"1200": 5.0304,"1225": 1.89646,"1250": 0.61887,"1275": 0.13975}}}