{"type": "Feature","bbox": [31.9432,-18.9382,32.0464,-18.7913],"geometry": {"type": "MultiPolygon","coordinates": [[[[31.9541,-18.9208,871.163],[31.9528,-18.9235,868.0028],[31.9608,-18.9312,1010.0615],[31.98,-18.9382,874.1302],[31.9847,-18.9331,890.1667],[31.9898,-18.9314,903.6001],[31.995,-18.932,904.129],[32.0075,-18.9252,932.5023],[32.0163,-18.9166,1019.6226],[32.0244,-18.8945,1268.0394],[32.0344,-18.8751,1019.2471],[32.0464,-18.8563,1095.8967],[32.035,-18.85,1148.6207],[32.027,-18.843,1044.8188],[32.0199,-18.8317,1147.4797],[32.0213,-18.8257,1118.3406],[32.0175,-18.8163,1110.3523],[32.0164,-18.8086,1092.2968],[32.0141,-18.8058,1076.5852],[32.013,-18.7984,1026.4004],[32.0084,-18.7913,1000.1671],[32.0,-18.7976,987.8237],[31.9842,-18.802,1009.5963],[31.9656,-18.8151,956.9048],[31.9651,-18.8302,956.6858],[31.971,-18.8433,945.4088],[31.9686,-18.851,938.6071],[31.9747,-18.8562,936.1475],[31.9757,-18.8601,929.168],[31.9617,-18.8714,938.5581],[31.9595,-18.874,958.0959],[31.9583,-18.8833,914.1823],[31.955,-18.8844,925.4852],[31.9432,-18.8983,911.0887],[31.9434,-18.9014,907.1568],[31.9503,-18.9086,907.4038],[31.9561,-18.9187,885.4583],[31.9541,-18.9208,871.163]]]]}
,"properties": {"GID_3": "ZWE.3.5.21_2","GID_0": "ZWE","country": "Zimbabwe","GID_1": "ZWE.3_1","province": "Manicaland","NL_NAME_1": "NA","GID_2": "ZWE.3.5_2","county": "Makoni","NL_NAME_2": "NA","city": "Ward28","VARNAME_3": "NA","NL_NAME_3": "NA","TYPE_3": "Ward","ENGTYPE_3": "Ward","CC_3": "NA","HASC_3": "NA","name": "Ward28.city","area_km2": 97.24403,"hist_schema_id": "Elevation0-9000","hist_area_km2": {"875": 0.82229,"900": 7.36086,"925": 14.86351,"950": 14.56453,"975": 14.26534,"1000": 10.73474,"1025": 9.06919,"1050": 6.31996,"1075": 3.95306,"1100": 4.29435,"1125": 3.87293,"1150": 2.70901,"1175": 1.66539,"1200": 1.22395,"1225": 0.70229,"1250": 0.58189,"1275": 0.16049,"1300": 0.08024}}}