{"type": "Feature","bbox": [31.3452,-19.8428,31.5076,-19.6917],"geometry": {"type": "MultiPolygon","coordinates": [[[[31.5076,-19.7313,1022.4006],[31.4981,-19.7132,1125.988],[31.4832,-19.7232,1033.1946],[31.4776,-19.7172,1040.7161],[31.4759,-19.7109,1042.9189],[31.4808,-19.7055,1056.8992],[31.4791,-19.6996,1043.557],[31.4836,-19.6954,1052.574],[31.4802,-19.6917,1040.4375],[31.4661,-19.7081,1064.0557],[31.4545,-19.7181,1265.6444],[31.3982,-19.7553,1153.6169],[31.4043,-19.7719,1176.8855],[31.4124,-19.7775,1173.2834],[31.4168,-19.7848,1157.5845],[31.409,-19.8047,1157.2841],[31.3824,-19.8147,1207.5906],[31.3717,-19.8057,1289.9368],[31.3582,-19.8081,1295.1376],[31.3568,-19.8119,1296.4941],[31.3456,-19.808,1259.9991],[31.3452,-19.8258,1283.3214],[31.3825,-19.8428,1245.1477],[31.3866,-19.8314,1250.5385],[31.3917,-19.8268,1242.3462],[31.3985,-19.8238,1185.2083],[31.4161,-19.8283,1222.7513],[31.4224,-19.8207,1212.7014],[31.4242,-19.808,1170.453],[31.4386,-19.8076,1185.6177],[31.4417,-19.7951,1220.0758],[31.4307,-19.788,1195.8586],[31.4234,-19.7743,1176.9939],[31.4303,-19.7744,1171.7728],[31.4432,-19.7835,1133.3628],[31.4467,-19.7802,1126.9382],[31.4438,-19.7719,1088.5784],[31.4448,-19.7651,1078.1521],[31.4474,-19.7609,1085.5396],[31.4505,-19.7748,1120.7444],[31.4488,-19.7809,1164.1511],[31.4674,-19.7789,1122.0233],[31.4683,-19.782,1128.6726],[31.4747,-19.785,1147.3406],[31.4814,-19.7804,1109.8721],[31.4811,-19.7657,1066.7679],[31.5069,-19.7643,1045.5562],[31.5076,-19.7313,1022.4006]]]]}
,"properties": {"GID_3": "ZWE.7.5.37_2","GID_0": "ZWE","country": "Zimbabwe","GID_1": "ZWE.7_1","province": "Masvingo","NL_NAME_1": "NA","GID_2": "ZWE.7.5_2","county": "Gutu","NL_NAME_2": "NA","city": "Ward42","VARNAME_3": "NA","NL_NAME_3": "NA","TYPE_3": "Ward","ENGTYPE_3": "Ward","CC_3": "NA","HASC_3": "NA","name": "Ward42.city","area_km2": 89.00918,"hist_schema_id": "Elevation0-9000","hist_area_km2": {"1025": 6.34629,"1050": 18.38006,"1075": 12.91097,"1100": 8.87961,"1125": 8.24034,"1150": 8.59892,"1175": 6.34408,"1200": 4.92728,"1225": 4.74735,"1250": 5.06642,"1275": 2.95214,"1300": 1.59577,"1325": 0.01996}}}