{"type": "Feature","bbox": [30.1256,-18.2161,30.3257,-18.0942],"geometry": {"type": "MultiPolygon","coordinates": [[[[30.1644,-18.1261,1168.7212],[30.1659,-18.1309,1172.3337],[30.1652,-18.136,1173.4679],[30.155,-18.1584,1187.7615],[30.1377,-18.1702,1200.7831],[30.148,-18.181,1207.2053],[30.1256,-18.2014,1206.1794],[30.128,-18.2161,1206.5656],[30.1623,-18.2029,1210.2772],[30.1682,-18.1981,1209.0057],[30.1738,-18.2099,1213.0461],[30.1948,-18.1923,1221.056],[30.2277,-18.2003,1202.8186],[30.2864,-18.2015,1211.4417],[30.3137,-18.2067,1188.5909],[30.3257,-18.2012,1198.6715],[30.3208,-18.1862,1182.5039],[30.3241,-18.1767,1179.4856],[30.3163,-18.1732,1182.6024],[30.3132,-18.177,1177.522],[30.309,-18.1791,1183.7302],[30.3044,-18.1784,1190.178],[30.3006,-18.1701,1174.1233],[30.2984,-18.1691,1180.1967],[30.2929,-18.169,1176.2102],[30.2871,-18.1731,1187.2644],[30.2827,-18.172,1181.6201],[30.2738,-18.1647,1176.2664],[30.2689,-18.1674,1176.2394],[30.2626,-18.1656,1172.9209],[30.2546,-18.1591,1174.1282],[30.2529,-18.156,1172.3539],[30.2556,-18.1489,1170.5961],[30.2526,-18.1379,1168.9346],[30.251,-18.1369,1173.7898],[30.2482,-18.1396,1175.9349],[30.242,-18.1416,1170.2084],[30.2368,-18.1399,1174.9541],[30.2368,-18.1383,1168.1454],[30.2405,-18.1366,1171.5291],[30.2407,-18.1338,1167.0409],[30.2346,-18.1266,1177.1611],[30.2282,-18.1253,1172.7628],[30.2245,-18.1211,1169.0815],[30.2266,-18.112,1168.1637],[30.2407,-18.0997,1167.1727],[30.241,-18.0984,1163.826],[30.2368,-18.0953,1167.4436],[30.2296,-18.0942,1170.3112],[30.2227,-18.0957,1166.4442],[30.216,-18.1094,1166.4075],[30.2109,-18.1126,1167.0514],[30.2064,-18.1121,1169.1147],[30.1996,-18.106,1164.5732],[30.1635,-18.1067,1164.1481],[30.1615,-18.11,1163.4885],[30.1644,-18.1261,1168.7212]]]]}
,"properties": {"GID_3": "ZWE.6.1.21_2","GID_0": "ZWE","country": "Zimbabwe","GID_1": "ZWE.6_1","province": "MashonalandWest","NL_NAME_1": "NA","GID_2": "ZWE.6.1_2","county": "Chegutu","NL_NAME_2": "NA","city": "Ward28","VARNAME_3": "NA","NL_NAME_3": "NA","TYPE_3": "Ward","ENGTYPE_3": "Ward","CC_3": "NA","HASC_3": "NA","name": "Ward28.city","area_km2": 133.7867,"hist_schema_id": "Elevation0-9000","hist_area_km2": {"1150": 0.3829,"1175": 43.8435,"1200": 77.5552,"1225": 11.9044,"1250": 0.1007}}}