{"type":"Feature","properties":{"GID_3":"ZWE.7.1.20_2","GID_0":"ZWE","country":"Zimbabwe","GID_1":"ZWE.7_1","province":"Masvingo","NL_NAME_1":"NA","GID_2":"ZWE.7.1_2","county":"Bikita","NL_NAME_2":"NA","city":"Ward27","VARNAME_3":"NA","NL_NAME_3":"NA","TYPE_3":"Ward","ENGTYPE_3":"Ward","CC_3":"NA","HASC_3":"NA","name":"Ward27.city"},
"geometry":{"type": "MultiPolygon","coordinates": [[[[32.2627,-19.9599,519.6132],[32.2226,-19.9743,561.0537],[32.2207,-19.9768,562.8607],[32.1969,-19.9831,583.3065],[32.1554,-19.9837,624.4391],[32.1237,-19.98,660.4922],[32.1072,-19.9681,693.4858],[32.0867,-19.9569,693.5357],[32.0571,-19.963,761.7758],[32.0541,-19.9649,768.9777],[32.0352,-19.9888,734.9239],[32.0338,-20.0011,719.2902],[32.0303,-20.0097,708.1385],[32.0324,-20.0182,704.929],[32.0344,-20.0201,704.1335],[32.0314,-20.0869,642.4793],[32.0241,-20.1211,685.3516],[32.0241,-20.1277,683.2267],[32.0319,-20.1632,632.8037],[32.0244,-20.1709,642.907],[32.0161,-20.1989,718.145],[32.0143,-20.2221,593.4156],[32.0074,-20.2444,593.6342],[32.0061,-20.28,658.9104],[32.0005,-20.2861,679.0795],[31.9954,-20.3063,603.8615],[31.992,-20.3427,554.9907],[31.9867,-20.3556,573.3375],[31.9789,-20.385,559.1404],[31.9653,-20.4075,552.137],[31.9616,-20.4183,518.059],[31.9694,-20.42,518.129],[31.974,-20.4159,536.0197],[31.9954,-20.4053,517.6934],[32.0005,-20.4057,521.0526],[32.0051,-20.4093,518.1093],[32.0164,-20.4131,516.5023],[32.0627,-20.4116,484.0087],[32.0708,-20.4093,501.6707],[32.1032,-20.4063,475.4409],[32.1365,-20.4078,463.9312],[32.1462,-20.4093,452.3743],[32.1746,-20.42,449.8041],[32.1819,-20.4284,457.7327],[32.1941,-20.4369,444.7998],[32.2379,-20.4445,441.6188],[32.2582,-20.4521,437.5408],[32.2844,-20.4552,423.1418],[32.2881,-20.4233,425.5],[32.2889,-20.3971,432.4297],[32.2912,-20.3884,433.1221],[32.2957,-20.3449,441.5287],[32.3063,-20.3098,445.8081],[32.3067,-20.302,447.7259],[32.312,-20.2857,449.9091],[32.3146,-20.269,452.5898],[32.3197,-20.2601,449.4142],[32.3222,-20.2437,451.5551],[32.3236,-20.2162,458.3352],[32.3269,-20.2054,459.558],[32.3272,-20.1875,456.5],[32.3391,-20.1575,462.8096],[32.3381,-20.1318,467.7157],[32.3408,-20.1142,471.6635],[32.339,-20.1056,472.4034],[32.3396,-20.096,471.198],[32.3404,-20.089,476.1497],[32.3451,-20.0766,471.5],[32.3391,-20.0559,473.5358],[32.3374,-20.0362,479.2439],[32.3436,-20.0143,478.267],[32.3401,-20.0028,485.667],[32.3406,-20.0,479.0],[32.3344,-19.9898,486.7192],[32.3294,-19.9855,485.587],[32.3184,-19.9817,487.7854],[32.2848,-19.9783,494.3989],[32.277,-19.9729,498.9399],[32.2712,-19.9637,508.6854],[32.2627,-19.9599,519.6132]]]]}}