{"type":"Feature","properties":{"GID_3":"ZWE.4.3.19_2","GID_0":"ZWE","country":"Zimbabwe","GID_1":"ZWE.4_1","province":"MashonalandCentral","NL_NAME_1":"NA","GID_2":"ZWE.4.3_2","county":"Centenary/Muzarabani","NL_NAME_2":"NA","city":"Ward26","VARNAME_3":"NA","NL_NAME_3":"NA","TYPE_3":"Ward","ENGTYPE_3":"Ward","CC_3":"NA","HASC_3":"NA","name":"Ward26.city"},
"geometry":{"type": "MultiPolygon","coordinates": [[[[31.0876,-16.6177,1052.5664],[31.0877,-16.6213,1048.7455],[31.0934,-16.6252,1042.6754],[31.0965,-16.6334,1043.9758],[31.0915,-16.6369,1056.1592],[31.0895,-16.6407,1046.0417],[31.0871,-16.6416,1072.6516],[31.0869,-16.6444,1055.6732],[31.0744,-16.6563,1095.1418],[31.0724,-16.6605,1071.8333],[31.0735,-16.6649,1067.5886],[31.0685,-16.6679,1113.2648],[31.0711,-16.6727,1118.63],[31.07,-16.6785,1083.5],[31.0649,-16.6833,1091.0592],[31.066,-16.6865,1086.5483],[31.0613,-16.6885,1091.4175],[31.0584,-16.692,1090.0244],[31.0594,-16.6947,1106.1222],[31.1025,-16.7281,1264.6642],[31.1128,-16.716,1188.5189],[31.1377,-16.7363,1180.2336],[31.1422,-16.7312,1189.479],[31.1593,-16.7452,1172.0356],[31.2006,-16.6816,1135.5585],[31.1952,-16.6807,1137.1462],[31.2003,-16.6293,1258.0739],[31.1658,-16.6294,1231.7756],[31.1664,-16.6225,1195.8843],[31.0876,-16.6177,1052.5664]]]]}}