{"type":"Feature","properties":{"GID_3":"ZWE.9.5.1_2","GID_0":"ZWE","country":"Zimbabwe","GID_1":"ZWE.9_1","province":"MatabelelandSouth","NL_NAME_1":"NA","GID_2":"ZWE.9.5_2","county":"GwandaUrban","NL_NAME_2":"NA","city":"Ward1","VARNAME_3":"NA","NL_NAME_3":"NA","TYPE_3":"Ward","ENGTYPE_3":"Ward","CC_3":"NA","HASC_3":"NA","name":"Ward1.city"},
"geometry":{"type": "MultiPolygon","coordinates": [[[[28.9886,-20.9433,986.8875],[28.99,-20.9465,980.738],[28.9946,-20.9477,960.0476],[28.9946,-20.9507,957.9623],[28.9997,-20.9505,960.7173],[29.0016,-20.9589,1084.8638],[29.0178,-20.9532,994.3266],[29.0106,-20.9468,983.4502],[29.0085,-20.9417,982.1599],[29.0067,-20.9411,988.8244],[28.9998,-20.9441,995.2064],[28.9943,-20.935,966.0784],[28.9886,-20.9433,986.8875]]]]}}