{"type":"Feature","properties":{"GID_3":"ZWE.9.3.6_2","GID_0":"ZWE","country":"Zimbabwe","GID_1":"ZWE.9_1","province":"MatabelelandSouth","NL_NAME_1":"NA","GID_2":"ZWE.9.3_2","county":"Bulilima","NL_NAME_2":"NA","city":"Ward14","VARNAME_3":"NA","NL_NAME_3":"NA","TYPE_3":"Ward","ENGTYPE_3":"Ward","CC_3":"NA","HASC_3":"NA","name":"Ward14.city"},
"geometry":{"type": "MultiPolygon","coordinates": [[[[27.2979,-20.3881,1209.5239],[27.2991,-20.4242,1240.5637],[27.2895,-20.4632,1229.1049],[27.2894,-20.4732,1225.9148],[27.2861,-20.4799,1229.7949],[27.2899,-20.4915,1237.6475],[27.2897,-20.497,1241.1221],[27.363,-20.4666,1310.1384],[27.3735,-20.4045,1208.0654],[27.3773,-20.3636,1205.7676],[27.4441,-20.3633,1239.6379],[27.5002,-20.3558,1278.9172],[27.4683,-20.3232,1247.4108],[27.4777,-20.3173,1247.9335],[27.4536,-20.2585,1219.0309],[27.4391,-20.2695,1204.3375],[27.4234,-20.2467,1191.1917],[27.4168,-20.2419,1182.5752],[27.4091,-20.2419,1180.3301],[27.4067,-20.2501,1171.0786],[27.4006,-20.2524,1169.7861],[27.3981,-20.2494,1169.8896],[27.3957,-20.2505,1162.9325],[27.393,-20.245,1165.98],[27.3831,-20.2453,1156.7466],[27.3758,-20.2358,1153.8335],[27.365,-20.2319,1156.5962],[27.3576,-20.2341,1144.7297],[27.3479,-20.233,1144.9233],[27.3456,-20.2352,1136.6641],[27.3435,-20.2336,1159.6648],[27.3413,-20.2341,1140.1187],[27.3388,-20.2314,1130.8589],[27.3273,-20.2322,1124.0732],[27.3267,-20.2294,1126.9493],[27.3232,-20.2303,1124.5178],[27.3172,-20.2267,1114.8024],[27.3188,-20.2233,1115.5083],[27.3159,-20.2218,1113.7914],[27.3162,-20.214,1109.5879],[27.313,-20.2121,1106.6399],[27.3145,-20.2092,1105.6488],[27.3079,-20.2056,1102.2825],[27.3077,-20.2004,1103.4296],[27.3039,-20.1995,1095.8063],[27.3057,-20.1978,1101.176],[27.303,-20.197,1096.3789],[27.3041,-20.1933,1099.1165],[27.2989,-20.1919,1104.2024],[27.294,-20.1821,1090.0455],[27.288,-20.1786,1086.5449],[27.2861,-20.1818,1089.5391],[27.2877,-20.1902,1089.2859],[27.2838,-20.1954,1089.9927],[27.2888,-20.1994,1097.9192],[27.2854,-20.2099,1096.4585],[27.2866,-20.215699999999998,1103.1714],[27.2814,-20.2174,1108.4321],[27.2794,-20.2207,1106.2662],[27.2857,-20.231,1109.8297],[27.2889,-20.2488,1122.0857],[27.2883,-20.256,1125.4678],[27.2921,-20.2633,1134.0996],[27.2903,-20.2749,1142.6643],[27.2937,-20.2849,1145.9882],[27.3011,-20.2962,1145.7064],[27.2999,-20.3046,1149.6782],[27.305,-20.3231,1152.7964],[27.3029,-20.3335,1196.0881],[27.3,-20.339,1165.1691],[27.3005,-20.3465,1174.9685],[27.2973,-20.3533,1180.0072],[27.2979,-20.3881,1209.5239]]]]}}