{"type":"Feature","properties":{"GID_3":"ZWE.7.8.8_2","GID_0":"ZWE","country":"Zimbabwe","GID_1":"ZWE.7_1","province":"Masvingo","NL_NAME_1":"NA","GID_2":"ZWE.7.8_2","county":"Mwenezi","NL_NAME_2":"NA","city":"Ward16","VARNAME_3":"NA","NL_NAME_3":"NA","TYPE_3":"Ward","ENGTYPE_3":"Ward","CC_3":"NA","HASC_3":"NA","name":"Ward16.city"},
"geometry":{"type": "MultiPolygon","coordinates": [[[[30.0804,-21.239,741.7634],[30.0131,-21.2746,717.5737],[29.9847,-21.3011,695.2699],[29.9372,-21.3111,670.647],[29.9481,-21.3489,669.2587],[29.9538,-21.3536,651.0098],[29.9991,-21.3713,647.6],[30.0077,-21.3811,633.879],[30.0188,-21.3878,635.5144],[30.0247,-21.4074,623.5148],[30.0272,-21.4109,630.7145],[30.0338,-21.4137,630.1246],[30.035,-21.4181,623.071],[30.0402,-21.423,621.646],[30.0391,-21.4276,616.7628],[30.0415,-21.4394,613.7526],[30.0459,-21.4438,621.1288],[30.0546,-21.4476,620.115],[30.0689,-21.4594,614.9024],[30.0696,-21.4725,606.2401],[30.0727,-21.4789,610.8511],[30.0814,-21.4791,605.4098],[30.0935,-21.4762,608.3871],[30.1087,-21.4834,602.1086],[30.107,-21.4875,601.9219],[30.097,-21.4928,602.6473],[30.0957,-21.4957,594.6437],[30.0961,-21.5007,601.0024],[30.1269,-21.4965,592.2693],[30.1335,-21.4982,588.778],[30.1414,-21.5045,587.5902],[30.1462,-21.5058,588.6803],[30.1658,-21.5005,584.9689],[30.1701,-21.5041,580.0521],[30.1661,-21.5162,572.9313],[30.1684,-21.5263,577.1965],[30.1725,-21.5319,577.0356],[30.1783,-21.5327,576.6053],[30.1852,-21.5285,570.5684],[30.193,-21.5287,574.599],[30.2086,-21.5387,568.2608],[30.2115,-21.5426,570.8901],[30.2144,-21.5514,562.939],[30.2183,-21.5539,570.2393],[30.2213,-21.5535,564.1415],[30.2308,-21.544,563.4649],[30.2375,-21.5468,556.5261],[30.2418,-21.552,559.3244],[30.2429,-21.5636,557.3586],[30.2397,-21.5758,552.9022],[30.2298,-21.5858,550.3539],[30.2302,-21.5915,556.168],[30.2334,-21.5944,557.2486],[30.2639,-21.5916,546.4819],[30.2757,-21.5969,547.828],[30.295,-21.5953,541.5325],[30.306,-21.6014,542.4128],[30.3282,-21.6002,537.4547],[30.3321,-21.6023,535.7758],[30.3383,-21.6111,537.5192],[30.345,-21.6072,532.3286],[30.3559,-21.5956,530.3666],[30.3608,-21.5948,530.0308],[30.3722,-21.601,526.8782],[30.3812,-21.6108,533.2858],[30.3878,-21.6111,530.0168],[30.3952,-21.6088,524.254],[30.4022,-21.6204,523.322],[30.4075,-21.6246,518.985],[30.4269,-21.6305,524.8227],[30.4434,-21.6312,513.4313],[30.4464,-21.6357,515.3168],[30.4461,-21.647,518.044],[30.4502,-21.6526,519.0759],[30.4704,-21.6516,508.7037],[30.4762,-21.656,507.5332],[30.4783,-21.6615,511.0391],[30.4825,-21.6632,509.5654],[30.4857,-21.6623,512.564],[30.4887,-21.6574,505.4723],[30.4921,-21.6565,503.2646],[30.5032,-21.658,502.5499],[30.5065,-21.6605,502.5168],[30.5084,-21.6648,501.4226],[30.5076,-21.6741,506.8533],[30.5053,-21.6777,506.8044],[30.5,-21.6796,502.1335],[30.4995,-21.6871,504.4663],[30.5019,-21.6914,497.8246],[30.4979,-21.7015,498.7737],[30.4994,-21.7075,498.1434],[30.5073,-21.7113,498.2623],[30.5184,-21.7114,493.9332],[30.5306,-21.672,510.2506],[30.5524,-21.6491,526.0412],[30.5897,-21.6057,531.7182],[30.5947,-21.5955,538.9872],[30.6172,-21.5351,512.1362],[30.6253,-21.5196,507.0411],[30.6591,-21.4651,514.3534],[30.6816,-21.4342,496.9139],[30.6989,-21.4131,478.5437],[30.7064,-21.4093,460.7405],[30.706,-21.3964,464.2233],[30.7015,-21.3838,465.5002],[30.7038,-21.3757,469.6437],[30.702,-21.3724,484.6559],[30.694,-21.3657,470.7031],[30.6939,-21.3564,470.937],[30.6898,-21.3415,480.7571],[30.6788,-21.3413,480.0014],[30.6767,-21.3399,483.5885],[30.6703,-21.3213,475.9976],[30.6523,-21.3079,498.857],[30.6395,-21.2939,496.0934],[30.6356,-21.2856,498.901],[30.6257,-21.2796,501.1226],[30.616,-21.2789,509.7103],[30.6124,-21.2811,497.7508],[30.5853,-21.2705,533.8817],[30.4885,-21.2458,593.6235],[30.3338,-21.2437,624.3284],[30.2811,-21.2589,736.6524],[30.2599,-21.2595,662.0786],[30.191,-21.2673,691.8653],[30.0804,-21.239,741.7634]]]]}}