{"type":"Feature","properties":{"GID_3":"ZWE.4.7.4_2","GID_0":"ZWE","country":"Zimbabwe","GID_1":"ZWE.4_1","province":"MashonalandCentral","NL_NAME_1":"NA","GID_2":"ZWE.4.7_2","county":"MountDarwin","NL_NAME_2":"NA","city":"Ward12","VARNAME_3":"NA","NL_NAME_3":"NA","TYPE_3":"Ward","ENGTYPE_3":"Ward","CC_3":"NA","HASC_3":"NA","name":"Ward12.city"},
"geometry":{"type": "MultiPolygon","coordinates": [[[[31.7368,-16.588,1103.3981],[31.7477,-16.5954,1125.0922],[31.8401,-16.5959,887.8005],[31.8297,-16.5761,921.341],[31.8308,-16.5568,925.2381],[31.8337,-16.5411,882.8187],[31.8391,-16.5268,866.65],[31.8429,-16.5246,873.851],[31.8448,-16.519,829.0544],[31.852,-16.5131,781.2269],[31.8515,-16.5092,789.4246],[31.8538,-16.5078,791.9287],[31.8534,-16.5064,791.9287],[31.8409,-16.5037,813.1077],[31.839,-16.5049,799.9921],[31.8388,-16.5084,791.8001],[31.8303,-16.51,810.4739],[31.8261,-16.5068,831.8091],[31.8179,-16.5073,819.1304],[31.8133,-16.5058,846.3818],[31.809,-16.507,815.7114],[31.7992,-16.502,836.34],[31.7963,-16.5029,827.4718],[31.7939,-16.499,905.4257],[31.7905,-16.5017,830.2123],[31.7847,-16.5001,866.4812],[31.7847,-16.5031,839.387],[31.7805,-16.5037,859.2444],[31.7709,-16.4993,913.4441],[31.7653,-16.4994,855.3911],[31.7652,-16.5024,847.546],[31.7627,-16.5014,848.8683],[31.7613,-16.5027,861.7199],[31.756,-16.4982,897.4996],[31.7459,-16.4999,893.7858],[31.7448,-16.5034,886.8277],[31.7368,-16.5092,908.5157],[31.7336,-16.5096,898.4115],[31.7319,-16.5061,922.2401],[31.7285,-16.5078,914.9386],[31.7298,-16.5132,907.2255],[31.7277,-16.522,917.4231],[31.728,-16.5272,958.4906],[31.7511,-16.5339,953.2314],[31.7615,-16.5426,917.513],[31.7632,-16.5471,909.8648],[31.7661,-16.5485,901.0202],[31.7597,-16.5562,918.392],[31.7514,-16.5584,931.2333],[31.7456,-16.5564,948.4891],[31.743,-16.5586,952.118],[31.7319,-16.5592,973.6812],[31.7286,-16.5618,969.8166],[31.7351,-16.5822,1041.8928],[31.7335,-16.5861,1059.3182],[31.7368,-16.588,1103.3981]]]]}}