{"type":"Feature","properties":{"GID_3":"ZWE.7.9.1_2","GID_0":"ZWE","country":"Zimbabwe","GID_1":"ZWE.7_1","province":"Masvingo","NL_NAME_1":"NA","GID_2":"ZWE.7.9_2","county":"Zaka","NL_NAME_2":"NA","city":"Ward1","VARNAME_3":"NA","NL_NAME_3":"NA","TYPE_3":"Ward","ENGTYPE_3":"Ward","CC_3":"NA","HASC_3":"NA","name":"Ward1.city"},
"geometry":{"type": "MultiPolygon","coordinates": [[[[31.4032,-20.0025,1165.4116],[31.3946,-20.0192,1176.2423],[31.3666,-20.0284,1047.0388],[31.3683,-20.0348,1044.9117],[31.3227,-20.0548,1118.9147],[31.3128,-20.0483,1085.3318],[31.3099,-20.0657,1102.2834],[31.3231,-20.1129,1071.9509],[31.3232,-20.1344,1040.6689],[31.3183,-20.1331,948.168],[31.3163,-20.142,936.5553],[31.3181,-20.1476,963.0083],[31.3197,-20.1483,935.542],[31.3218,-20.1459,1026.5359],[31.3281,-20.1444,949.465],[31.331,-20.1415,972.4698],[31.334,-20.1555,928.5161],[31.3396,-20.1627,931.2958],[31.3445,-20.1651,935.0629],[31.3552,-20.1625,911.2528],[31.3566,-20.1645,901.793],[31.364,-20.1539,933.2926],[31.3635,-20.1434,957.0433],[31.3656,-20.141,972.0575],[31.3723,-20.1415,963.7891],[31.363,-20.1327,965.0234],[31.3657,-20.1258,983.4932],[31.3633,-20.1236,978.7712],[31.3633,-20.1209,967.9955],[31.3685,-20.1186,980.5037],[31.3666,-20.1124,980.9089],[31.3686,-20.1109,998.4838],[31.3708,-20.1124,987.762],[31.3738,-20.112,986.7391],[31.3734,-20.1044,1009.1278],[31.3772,-20.1036,1003.7927],[31.3809,-20.0979,1003.2903],[31.3809,-20.0949,1012.2708],[31.3845,-20.0949,1021.3756],[31.3834,-20.0894,1023.8105],[31.4107,-20.083,1046.7822],[31.4117,-20.0786,1042.7953],[31.4101,-20.0718,1054.0837],[31.4129,-20.0622,1071.1702],[31.4244,-20.06,1122.7659],[31.4247,-20.0543,1234.6544],[31.4212,-20.0481,1366.5742],[31.422,-20.0364,1539.3735],[31.4032,-20.0025,1165.4116]]]]}}