{"type":"Feature","properties":{"GID_3":"ZWE.10.11.23_2","GID_0":"ZWE","country":"Zimbabwe","GID_1":"ZWE.10_1","province":"Midlands","NL_NAME_1":"NA","GID_2":"ZWE.10.11_2","county":"Shurugwi","NL_NAME_2":"NA","city":"Ward8","VARNAME_3":"NA","NL_NAME_3":"NA","TYPE_3":"Ward","ENGTYPE_3":"Ward","CC_3":"NA","HASC_3":"NA","name":"Ward8.city"},
"geometry":{"type": "MultiPolygon","coordinates": [[[[30.1586,-19.8887,1011.6091],[30.1627,-19.8984,1007.9812],[30.1592,-19.9017,1006.0756],[30.16,-19.9048,1007.9017],[30.1556,-19.9067,1004.3674],[30.1532,-19.9125,1002.7311],[30.1572,-19.9202,998.0789],[30.1525,-19.9338,988.2435],[30.1519,-19.9449,982.0102],[30.1956,-19.9261,1052.082],[30.1968,-19.9216,1042.0481],[30.1979,-19.887,1056.8541],[30.2296,-19.8723,1090.4426],[30.2234,-19.84,1086.5238],[30.2192,-19.8351,1085.2922],[30.211,-19.8311,1055.8232],[30.2144,-19.8291,1056.0265],[30.2107,-19.8165,1059.4954],[30.2118,-19.8138,1069.4341],[30.2152,-19.8136,1064.8022],[30.2158,-19.8047,1067.4753],[30.2136,-19.8007,1069.6139],[30.1984,-19.7994,1104.7847],[30.1879,-19.8037,1112.2554],[30.184,-19.809,1096.6384],[30.1806,-19.8048,1105.3105],[30.1768,-19.8048,1106.0472],[30.1766,-19.812,1099.3252],[30.1729,-19.8252,1070.6007],[30.1746,-19.8272,1076.8542],[30.1726,-19.8295,1066.2744],[30.1776,-19.834,1061.9174],[30.1812,-19.8438,1051.365],[30.1809,-19.847,1043.4768],[30.1846,-19.8495,1033.4147],[30.182,-19.8546,1034.6321],[30.1842,-19.8629,1031.6826],[30.1785,-19.876,1020.3207],[30.1688,-19.881,1026.5801],[30.1683,-19.8865,1012.7194],[30.1635,-19.8855,1016.1531],[30.1586,-19.8887,1011.6091]]]]}}