{"type": "Feature","bbox": [31.3687,-19.6727,31.5483,-19.5144],"geometry": {"type": "MultiPolygon","coordinates": [[[[31.4094,-19.5368,1089.7716],[31.4014,-19.5334,1100.0757],[31.3903,-19.5341,1140.0123],[31.3836,-19.537,1138.8237],[31.3777,-19.542,1140.7419],[31.3697,-19.5441,1147.7573],[31.3687,-19.5479,1137.3231],[31.3768,-19.5467,1129.1724],[31.3874,-19.5493,1133.1366],[31.3896,-19.5527,1131.1177],[31.3864,-19.5603,1121.8663],[31.3916,-19.5741,1101.5587],[31.4077,-19.5801,1081.6642],[31.4135,-19.5796,1073.9363],[31.417,-19.5759,1082.1781],[31.4209,-19.5789,1074.1216],[31.4245,-19.5785,1069.5824],[31.4249,-19.5759,1069.0551],[31.4281,-19.5741,1073.7224],[31.4287,-19.5776,1065.2706],[31.4353,-19.5833,1066.4666],[31.4339,-19.5908,1060.6028],[31.4364,-19.5924,1061.886],[31.4375,-19.5959,1059.6667],[31.4418,-19.5959,1063.033],[31.4404,-19.5988,1056.2551],[31.4456,-19.603,1058.3735],[31.4461,-19.6069,1055.1055],[31.4482,-19.6076,1054.094],[31.4467,-19.6114,1053.6906],[31.4473,-19.6143,1050.8848],[31.4545,-19.6204,1056.4155],[31.4546,-19.6262,1050.6613],[31.4643,-19.6255,1048.601],[31.4755,-19.6279,1040.5227],[31.4782,-19.6264,1037.4838],[31.4829,-19.627,1038.0796],[31.4869,-19.6232,1037.9243],[31.4922,-19.6275,1034.3849],[31.497,-19.6283,1045.1653],[31.4992,-19.6351,1037.5309],[31.5027,-19.6364,1041.4055],[31.5037,-19.6446,1025.8414],[31.5125,-19.6536,1024.2488],[31.5164,-19.6549,1034.2107],[31.5184,-19.6588,1024.7354],[31.5226,-19.6606,1028.2073],[31.5234,-19.6644,1020.1913],[31.5281,-19.6689,1022.5336],[31.5292,-19.6726,1018.7689],[31.5368,-19.6727,1017.0321],[31.5407,-19.6703,1013.8259],[31.5399,-19.6659,1015.1396],[31.5357,-19.659,1016.494],[31.5333,-19.643,1029.7367],[31.5386,-19.6301,1029.2019],[31.5364,-19.6249,1030.7664],[31.5367,-19.621,1032.3226],[31.5435,-19.6088,1035.2928],[31.5483,-19.5935,1041.1326],[31.5395,-19.5788,1052.7025],[31.5371,-19.5782,1049.3146],[31.536,-19.5752,1056.3628],[31.5171,-19.5577,1060.0781],[31.514,-19.5525,1055.2173],[31.5131,-19.5478,1063.2029],[31.5078,-19.5499,1069.5002],[31.502,-19.5499,1068.3077],[31.4972,-19.538,1085.8452],[31.4914,-19.5354,1083.9888],[31.4906,-19.5299,1085.714],[31.4839,-19.5311,1079.1443],[31.4777,-19.5256,1089.0425],[31.4705,-19.5267,1090.4816],[31.4639,-19.5179,1098.9878],[31.4586,-19.5182,1097.8297],[31.4546,-19.5144,1105.6013],[31.4438,-19.527,1116.0845],[31.4385,-19.5269,1126.0619],[31.4322,-19.5328,1133.9869],[31.4251,-19.5315,1139.6287],[31.4205,-19.5361,1136.3339],[31.4094,-19.5368,1089.7716]]]]}
,"properties": {"GID_3": "ZWE.7.5.3_2","GID_0": "ZWE","country": "Zimbabwe","GID_1": "ZWE.7_1","province": "Masvingo","NL_NAME_1": "NA","GID_2": "ZWE.7.5_2","county": "Gutu","NL_NAME_2": "NA","city": "Ward11","VARNAME_3": "NA","NL_NAME_3": "NA","TYPE_3": "Ward","ENGTYPE_3": "Ward","CC_3": "NA","HASC_3": "NA","name": "Ward11.city","area_km2": 142.2891,"hist_schema_id": "Elevation0-9000","hist_area_km2": {"1025": 5.9503,"1050": 28.4401,"1075": 47.0422,"1100": 41.795,"1125": 17.7428,"1150": 1.3187}}}