{"type":"Feature","properties":{"GID_3":"ZWE.4.7.21_2","GID_0":"ZWE","country":"Zimbabwe","GID_1":"ZWE.4_1","province":"MashonalandCentral","NL_NAME_1":"NA","GID_2":"ZWE.4.7_2","county":"MountDarwin","NL_NAME_2":"NA","city":"Ward28","VARNAME_3":"NA","NL_NAME_3":"NA","TYPE_3":"Ward","ENGTYPE_3":"Ward","CC_3":"NA","HASC_3":"NA","name":"Ward28.city"},
"geometry":{"type": "MultiPolygon","coordinates": [[[[31.7881,-16.7422,926.4843],[31.7897,-16.7515,1037.6847],[31.7983,-16.7494,896.954],[31.8048,-16.758,896.6215],[31.7995,-16.7646,907.1941],[31.7814,-16.7663,892.2001],[31.7838,-16.7725,883.9438],[31.8043,-16.7924,852.1248],[31.8022,-16.8173,815.7235],[31.7941,-16.8162,813.3007],[31.7954,-16.8322,768.3125],[31.7936,-16.8359,771.256],[31.7909,-16.834,773.9345],[31.7894,-16.8295,783.9893],[31.7859,-16.8273,778.4061],[31.7825,-16.8298,777.7354],[31.7752,-16.8231,795.4437],[31.774,-16.825,787.0127],[31.7694,-16.8249,791.4873],[31.7682,-16.8234,797.9436],[31.7605,-16.8241,802.7872],[31.757,-16.8215,798.655],[31.7551,-16.823,791.3354],[31.7428,-16.8222,816.6659],[31.7326,-16.8503,816.5576],[31.736,-16.8515,809.3831],[31.7372,-16.8489,823.1187],[31.7426,-16.8486,810.8811],[31.7515,-16.8516,800.6638],[31.7549,-16.8546,788.5846],[31.7575,-16.8513,813.4844],[31.7596,-16.851,815.7761],[31.768,-16.8562,799.1643],[31.7705,-16.8529,793.3787],[31.775,-16.8522,796.7564],[31.7776,-16.8532,786.934],[31.7756,-16.855,784.2853],[31.7759,-16.857,781.6677],[31.7808,-16.8611,785.2036],[31.7895,-16.8487,785.0247],[31.7918,-16.8482,793.2373],[31.796,-16.8502,768.7819],[31.7956,-16.8441,776.4883],[31.8014,-16.8459,756.9851],[31.8043,-16.841,766.0959],[31.8089,-16.843,755.1708],[31.8095,-16.8397,757.5161],[31.8226,-16.8268,768.6556],[31.8249,-16.8265,773.022],[31.8268,-16.8301,760.1749],[31.83,-16.8322,759.0461],[31.8387,-16.8341,739.1403],[31.839,-16.8306,750.8064],[31.8588,-16.8255,728.0295],[31.8591,-16.8206,773.5666],[31.8651,-16.8216,754.6165],[31.8679,-16.8247,730.9369],[31.8716,-16.825,729.4362],[31.872,-16.8186,728.218],[31.88,-16.8204,732.7229],[31.8797,-16.8273,715.1391],[31.8811,-16.8289,714.4204],[31.8831,-16.8285,721.2659],[31.8843,-16.8242,751.5021],[31.8875,-16.8258,748.9619],[31.891,-16.825,727.1205],[31.8942,-16.8281,717.8006],[31.8968,-16.8277,720.3498],[31.9011,-16.8239,736.5609],[31.9054,-16.8293,712.0582],[31.9099,-16.8267,713.2425],[31.9154,-16.8259,734.6109],[31.9191,-16.8286,688.7697],[31.9219,-16.8267,714.5478],[31.9299,-16.8293,694.7991],[31.9304,-16.7992,805.9347],[31.9282,-16.8003,822.163],[31.9204,-16.7959,803.4823],[31.9156,-16.7861,829.1067],[31.9138,-16.7817,832.7216],[31.9169,-16.7788,835.0995],[31.9182,-16.7716,841.0809],[31.9127,-16.7681,858.0607],[31.9139,-16.7634,867.1842],[31.912,-16.7604,864.4609],[31.8989,-16.76,853.0736],[31.8885,-16.7533,852.573],[31.8905,-16.747,855.8063],[31.8897,-16.7388,857.189],[31.887,-16.738,848.5204],[31.8776,-16.7254,862.4692],[31.8735,-16.725,864.6033],[31.8703,-16.7137,897.6434],[31.8736,-16.7014,901.1695],[31.8616,-16.7018,894.8306],[31.8526,-16.7042,897.4265],[31.8433,-16.7097,910.6094],[31.8455,-16.7209,880.4037],[31.8282,-16.7287,883.8712],[31.8272,-16.7243,888.4114],[31.8233,-16.7196,907.9558],[31.8181,-16.7178,911.7585],[31.8119,-16.7214,908.5071],[31.8009,-16.7211,900.9766],[31.7994,-16.7288,914.5748],[31.7881,-16.7422,926.4843]]]]}}