{"type":"Feature","properties":{"GID_3":"ZWE.6.11.10_2","GID_0":"ZWE","country":"Zimbabwe","GID_1":"ZWE.6_1","province":"MashonalandWest","NL_NAME_1":"NA","GID_2":"ZWE.6.11_2","county":"Norton","NL_NAME_2":"NA","city":"Ward6","VARNAME_3":"NA","NL_NAME_3":"NA","TYPE_3":"Ward","ENGTYPE_3":"Ward","CC_3":"NA","HASC_3":"NA","name":"Ward6.city"},
"geometry":{"type": "MultiPolygon","coordinates": [[[[30.653,-17.856,1360.4302],[30.6596,-17.8598,1351.5209],[30.6614,-17.8673,1358.8713],[30.6654,-17.8712,1357.6655],[30.6739,-17.8751,1360.7278],[30.6789,-17.8717,1354.7064],[30.6842,-17.8715,1353.4204],[30.6853,-17.8696,1352.0154],[30.6848,-17.8646,1348.6477],[30.6867,-17.8606,1346.241],[30.6858,-17.8579,1342.3586],[30.6829,-17.8535,1339.5],[30.68,-17.8528,1339.5],[30.6772,-17.8545,1340.7922],[30.674,-17.848,1339.5],[30.6721,-17.8478,1339.5],[30.666,-17.8534,1341.9607],[30.6677,-17.8459,1339.5],[30.653,-17.856,1360.4302]]]]}}