{"type":"Feature","properties":{"GID_3":"ZWE.9.4.21_2","GID_0":"ZWE","country":"Zimbabwe","GID_1":"ZWE.9_1","province":"MatabelelandSouth","NL_NAME_1":"NA","GID_2":"ZWE.9.4_2","county":"Gwanda","NL_NAME_2":"NA","city":"Ward6","VARNAME_3":"NA","NL_NAME_3":"NA","TYPE_3":"Ward","ENGTYPE_3":"Ward","CC_3":"NA","HASC_3":"NA","name":"Ward6.city"},
"geometry":{"type": "MultiPolygon","coordinates": [[[[28.9397,-20.7655,1018.8791],[28.9093,-20.7422,1053.9495],[28.8591,-20.7238,1070.1488],[28.8792,-20.6811,1072.5608],[28.8254,-20.659,1288.4667],[28.8151,-20.6593,1119.647],[28.7844,-20.623,1225.4874],[28.7518,-20.6447,1072.631],[28.7578,-20.6614,1062.3501],[28.7631,-20.6679,1099.375],[28.7684,-20.6703,1064.9919],[28.7713,-20.6816,1048.8643],[28.7745,-20.6832,1051.5295],[28.7757,-20.6893,1045.8978],[28.7853,-20.7028,1043.5339],[28.7867,-20.7057,1042.4386],[28.7868,-20.7155,1040.9301],[28.7888,-20.7209,1039.4922],[28.7949,-20.7256,1026.3959],[28.7961,-20.7327,1024.693],[28.7937,-20.7363,1021.4969],[28.792,-20.7482,1016.9454],[28.79,-20.7505,1015.0393],[28.7886,-20.7498,1013.568],[28.7902,-20.7569,1012.4432],[28.7895,-20.7674,1011.3289],[28.7987,-20.7702,1017.4724],[28.8084,-20.7701,1044.7477],[28.8279,-20.7733,1043.5391],[28.8372,-20.7764,1042.2822],[28.8413,-20.7801,1038.3158],[28.8436,-20.7792,1042.3026],[28.8461,-20.7824,1040.1732],[28.8523,-20.7856,1043.4221],[28.8622,-20.7882,1048.1694],[28.8698,-20.7752,1071.2015],[28.8883,-20.8227,1026.0477],[28.9426,-20.78,1016.0504],[28.9397,-20.7655,1018.8791]]]]}}