{"type":"Feature","properties":{"GID_3":"ZWE.5.3.8_2","GID_0":"ZWE","country":"Zimbabwe","GID_1":"ZWE.5_1","province":"MashonalandEast","NL_NAME_1":"NA","GID_2":"ZWE.5.3_2","county":"Hwedza","NL_NAME_2":"NA","city":"Ward2","VARNAME_3":"NA","NL_NAME_3":"NA","TYPE_3":"Ward","ENGTYPE_3":"Ward","CC_3":"NA","HASC_3":"NA","name":"Ward2.city"},
"geometry":{"type": "MultiPolygon","coordinates": [[[[31.42,-18.5783,1365.0311],[31.4602,-18.6417,1331.0803],[31.4808,-18.6317,1329.9318],[31.5073,-18.6271,1333.175],[31.5253,-18.6288,1332.8264],[31.5508,-18.6286,1362.8848],[31.5708,-18.5987,1428.8306],[31.5919,-18.5982,1409.3334],[31.5844,-18.5626,1382.1392],[31.6315,-18.5359,1315.1774],[31.6267,-18.5356,1315.729],[31.6091,-18.5187,1316.7968],[31.6351,-18.512,1349.1968],[31.6218,-18.4801,1382.9651],[31.58,-18.4752,1346.0],[31.5566,-18.4647,1437.0774],[31.5539,-18.4317,1382.9603],[31.4601,-18.4076,1483.1046],[31.4559,-18.4259,1494.7706],[31.4782,-18.45,1446.5227],[31.4356,-18.4731,1459.1584],[31.4021,-18.4944,1436.2411],[31.4,-18.4983,1433.792],[31.3972,-18.5141,1412.3595],[31.4014,-18.5491,1365.0942],[31.42,-18.5783,1365.0311]]]]}}