{"type":"Feature","properties":{"GID_3":"ZWE.9.3.16_2","GID_0":"ZWE","country":"Zimbabwe","GID_1":"ZWE.9_1","province":"MatabelelandSouth","NL_NAME_1":"NA","GID_2":"ZWE.9.3_2","county":"Bulilima","NL_NAME_2":"NA","city":"Ward3","VARNAME_3":"NA","NL_NAME_3":"NA","TYPE_3":"Ward","ENGTYPE_3":"Ward","CC_3":"NA","HASC_3":"NA","name":"Ward3.city"},
"geometry":{"type": "MultiPolygon","coordinates": [[[[27.7855,-20.1472,1175.2764],[27.7851,-20.1495,1172.0452],[27.787,-20.1517,1177.2747],[27.784,-20.154,1179.3169],[27.7817,-20.162,1181.3706],[27.7815,-20.1746,1190.267],[27.7804,-20.178,1195.5762],[27.7761,-20.1828,1195.9181],[27.7753,-20.1928,1200.2161],[27.776,-20.199,1202.9976],[27.7794,-20.2076,1213.6475],[27.7757,-20.2103,1217.387],[27.7772,-20.2138,1216.4724],[27.7752,-20.2177,1219.8882],[27.7763,-20.2205,1220.4062],[27.7754,-20.2261,1226.5228],[27.7762,-20.2316,1233.3053],[27.779,-20.2339,1233.4255],[27.776,-20.2413,1231.2284],[27.7786,-20.2442,1233.1808],[27.7787,-20.2508,1235.2394],[27.7816,-20.2527,1241.5128],[27.7816,-20.2593,1248.7047],[27.7829,-20.2608,1245.1594],[27.781,-20.2652,1244.0812],[27.7844,-20.2779,1251.3442],[27.7845,-20.2828,1254.2491],[27.7819,-20.2864,1257.2517],[27.7817,-20.2904,1259.224],[27.7912,-20.2928,1276.3362],[27.8303,-20.2917,1311.8688],[27.8311,-20.3181,1333.4733],[27.8287,-20.332,1338.5942],[27.8608,-20.33,1318.6],[27.8739,-20.3198,1310.2803],[27.877,-20.3154,1302.9313],[27.8847,-20.3148,1307.3785],[27.8997,-20.3089,1329.6156],[27.9061,-20.3077,1343.3666],[27.9276,-20.3105,1319.7218],[27.9333,-20.3099,1321.9009],[27.9312,-20.3057,1317.0803],[27.9327,-20.2975,1305.4222],[27.9301,-20.2886,1304.2],[27.9612,-20.2753,1320.2231],[27.9732,-20.2737,1329.339],[27.9576,-20.2508,1325.3577],[27.9575,-20.247,1326.4658],[27.9942,-20.1997,1296.1085],[27.9775,-20.2049,1288.9205],[27.9516,-20.2047,1281.8451],[27.9481,-20.2027,1283.8534],[27.947,-20.1922,1278.8655],[27.9442,-20.1905,1277.3564],[27.9304,-20.1961,1269.4207],[27.9288,-20.1959,1269.4207],[27.9263,-20.1905,1264.4071],[27.9131,-20.186,1257.5269],[27.9027,-20.1907,1254.3578],[27.8991,-20.1945,1256.4611],[27.8898,-20.1877,1267.0684],[27.8834,-20.1863,1236.8459],[27.8801,-20.1836,1239.9034],[27.8683,-20.1866,1236.0935],[27.8647,-20.1796,1228.3195],[27.8611,-20.177,1253.283],[27.8571,-20.1803,1220.2594],[27.8538,-20.1778,1227.3304],[27.8486,-20.1786,1217.6083],[27.8372,-20.1711,1223.6392],[27.8304,-20.1752,1203.7496],[27.8235,-20.174,1202.5029],[27.8187,-20.1749,1197.5491],[27.8125,-20.1714,1196.7017],[27.8051,-20.1514,1191.6729],[27.793,-20.1468,1192.5452],[27.7855,-20.1472,1175.2764]]]]}}