{"type":"Feature","properties":{"GID_3":"ZWE.5.1.24_2","GID_0":"ZWE","country":"Zimbabwe","GID_1":"ZWE.5_1","province":"MashonalandEast","NL_NAME_1":"NA","GID_2":"ZWE.5.1_2","county":"Chikomba","NL_NAME_2":"NA","city":"Ward30","VARNAME_3":"NA","NL_NAME_3":"NA","TYPE_3":"Ward","ENGTYPE_3":"Ward","CC_3":"NA","HASC_3":"NA","name":"Ward30.city"},
"geometry":{"type": "MultiPolygon","coordinates": [[[[31.6897,-19.043,933.5854],[31.6977,-19.0377,930.2831],[31.712,-19.0383,904.1252],[31.7122,-19.034,912.9182],[31.7202,-19.031,892.9528],[31.72,-19.0248,890.1473],[31.7053,-19.0072,892.8987],[31.7062,-19.0008,898.6935],[31.7027,-18.9997,895.085],[31.7012,-18.9928,900.5254],[31.7022,-18.9817,903.3329],[31.6983,-18.9759,908.9047],[31.6903,-18.9552,920.2894],[31.6813,-18.9411,913.3983],[31.6796,-18.929,944.9327],[31.6705,-18.9181,923.8835],[31.6618,-18.9159,979.0515],[31.6552,-18.9171,1145.3966],[31.6429,-18.9226,1169.0659],[31.6404,-18.939,1136.8009],[31.6357,-18.9479,1103.7726],[31.6387,-18.951,1097.311],[31.6364,-18.9564,1111.8905],[31.6289,-18.9569,1117.7867],[31.6223,-18.9549,1129.7434],[31.6131,-18.9616,1156.0236],[31.6051,-18.9633,1200.8074],[31.5941,-18.9557,1179.3529],[31.5899,-18.9643,1168.1239],[31.5895,-18.9725,1154.4723],[31.5852,-18.9864,1113.4718],[31.589,-18.9976,1149.6547],[31.5914,-19.0122,1079.2529],[31.5958,-19.0174,1072.4518],[31.6143,-19.0194,1070.8026],[31.6205,-19.0231,1063.9773],[31.6219,-19.0285,1048.6204],[31.6258,-19.0307,1055.7407],[31.6269,-19.0334,1041.5247],[31.6238,-19.0373,1041.8895],[31.6249,-19.0386,1035.8076],[31.6295,-19.0387,1029.6573],[31.6324,-19.0367,1024.1426],[31.6346,-19.0401,1018.6805],[31.64,-19.0406,1015.3669],[31.6496,-19.0375,1030.7216],[31.6543,-19.0405,1002.1239],[31.66,-19.0409,1001.5823],[31.6619,-19.0428,994.8066],[31.6663,-19.0413,975.4542],[31.6681,-19.043,956.1165],[31.6749,-19.0416,951.2867],[31.6813,-19.0432,943.6314],[31.6897,-19.043,933.5854]]]]}}