{"type":"Feature","properties":{"GID_3":"ZWE.7.5.35_2","GID_0":"ZWE","country":"Zimbabwe","GID_1":"ZWE.7_1","province":"Masvingo","NL_NAME_1":"NA","GID_2":"ZWE.7.5_2","county":"Gutu","NL_NAME_2":"NA","city":"Ward40","VARNAME_3":"NA","NL_NAME_3":"NA","TYPE_3":"Ward","ENGTYPE_3":"Ward","CC_3":"NA","HASC_3":"NA","name":"Ward40.city"},
"geometry":{"type": "MultiPolygon","coordinates": [[[[31.4567,-19.6857,1058.2328],[31.4532,-19.6924,1066.616],[31.4464,-19.6924,1060.6134],[31.4423,-19.6979,1080.8307],[31.4333,-19.7025,1063.259],[31.4306,-19.7084,1078.7728],[31.4246,-19.7111,1071.9546],[31.4255,-19.7135,1074.5984],[31.4205,-19.7253,1097.4205],[31.4227,-19.7283,1102.3408],[31.4186,-19.7304,1090.2205],[31.4155,-19.7265,1093.908],[31.403,-19.723,1104.1445],[31.3912,-19.7297,1115.5216],[31.384,-19.7318,1119.2412],[31.379,-19.7386,1128.6554],[31.3642,-19.7418,1132.2339],[31.3574,-19.7477,1141.3152],[31.3404,-19.7382,1173.1115],[31.3359,-19.7382,1184.184],[31.3314,-19.7407,1196.1812],[31.3288,-19.7487,1223.2054],[31.3729,-19.7695,1180.5874],[31.3809,-19.776,1164.3713],[31.3732,-19.784,1211.9935],[31.3562,-19.7728,1234.4895],[31.3512,-19.7766,1254.9315],[31.3405,-19.7714,1181.2084],[31.3359,-19.779,1196.0493],[31.3413,-19.7778,1186.2224],[31.3309,-19.7891,1195.5693],[31.3233,-19.8151,1286.8856],[31.3452,-19.8258,1283.3214],[31.3456,-19.808,1259.9991],[31.3568,-19.8119,1296.4941],[31.3582,-19.8081,1295.1376],[31.3717,-19.8057,1289.9368],[31.3824,-19.8147,1207.5906],[31.409,-19.8047,1157.2841],[31.4168,-19.7848,1157.5845],[31.4124,-19.7775,1173.2834],[31.4043,-19.7719,1176.8855],[31.3982,-19.7553,1153.6169],[31.4545,-19.7181,1265.6444],[31.4661,-19.7081,1064.0557],[31.4802,-19.6917,1040.4375],[31.4743,-19.6869,1048.5204],[31.4668,-19.6906,1062.6571],[31.4592,-19.6883,1051.3984],[31.4567,-19.6857,1058.2328]]]]}}