{"type": "Feature","bbox": [28.3236,-20.6649,28.7852,-20.222],"geometry": {"type": "MultiPolygon","coordinates": [[[[28.5683,-20.2254,1408.1753],[28.5526,-20.222,1397.04],[28.5388,-20.2587,1436.7795],[28.4966,-20.2355,1369.6887],[28.4811,-20.2367,1359.7682],[28.4617,-20.2597,1348.6577],[28.4588,-20.2654,1342.9353],[28.4384,-20.282,1361.5344],[28.4297,-20.2931,1371.3346],[28.4131,-20.2953,1359.5303],[28.3896,-20.2897,1399.8181],[28.3818,-20.2936,1406.9558],[28.3661,-20.3149,1363.7363],[28.3434,-20.3619,1379.1235],[28.3757,-20.3823,1385.7649],[28.403,-20.4174,1360.403],[28.4132,-20.4411,1348.804],[28.4429,-20.4183,1365.7046],[28.4759,-20.4114,1354.8716],[28.4891,-20.447,1313.8801],[28.4967,-20.4728,1406.1869],[28.4973,-20.5106,1428.2212],[28.4305,-20.5104,1399.0059],[28.4061,-20.4901,1381.1163],[28.3416,-20.5353,1294.1997],[28.3449,-20.5536,1376.5844],[28.3258,-20.5489,1316.4958],[28.3236,-20.5538,1330.6849],[28.3262,-20.5825,1315.031],[28.35,-20.5835,1346.1193],[28.3457,-20.5988,1330.9253],[28.351,-20.5986,1331.709],[28.3575,-20.6006,1372.4651],[28.3925,-20.5976,1315.7175],[28.4179,-20.6043,1347.301],[28.4273,-20.619,1221.667],[28.4485,-20.6198,1266.1963],[28.443,-20.5995,1328.1062],[28.4452,-20.5792,1300.7771],[28.5006,-20.6065,1317.3185],[28.5102,-20.6649,1252.9608],[28.5329,-20.66,1260.9429],[28.5357,-20.6503,1144.298],[28.5464,-20.6455,1170.0999],[28.5325,-20.6061,1260.8447],[28.5393,-20.5726,1245.7896],[28.5613,-20.5539,1358.697],[28.5995,-20.5859,1206.1958],[28.6092,-20.5913,1172.6932],[28.6211,-20.576,1269.573],[28.6542,-20.5885,1252.5081],[28.6564,-20.5843,1369.6381],[28.6682,-20.5929,1366.96],[28.6809,-20.5901,1279.6138],[28.6912,-20.5839,1203.4819],[28.7372,-20.6082,1104.1245],[28.7395,-20.6034,1131.2416],[28.7354,-20.595,1153.0457],[28.7255,-20.5827,1147.4019],[28.7245,-20.5786,1182.7367],[28.7179,-20.5723,1180.6807],[28.7171,-20.568,1183.2495],[28.7023,-20.5533,1187.537],[28.6997,-20.5471,1239.4712],[28.6922,-20.5425,1215.8743],[28.6917,-20.5373,1210.3812],[28.6805,-20.5152,1266.7258],[28.6816,-20.5073,1255.751],[28.6787,-20.501,1261.8334],[28.6779,-20.4971,1261.0643],[28.6793,-20.4958,1291.3203],[28.6748,-20.4924,1262.8324],[28.6753,-20.4904,1264.2795],[28.6707,-20.4855,1302.4486],[28.6668,-20.4828,1305.4781],[28.6473,-20.5031,1358.2303],[28.5825,-20.506,1424.1969],[28.5385,-20.4592,1484.3262],[28.5369,-20.4592,1457.0597],[28.5268,-20.4256,1367.3896],[28.6059,-20.4218,1458.0527],[28.6914,-20.4302,1518.4666],[28.7237,-20.4226,1446.5969],[28.6977,-20.4767,1466.2515],[28.734,-20.4815,1500.9408],[28.7356,-20.5053,1519.5291],[28.7728,-20.4883,1477.1091],[28.7788,-20.4741,1485.0645],[28.7822,-20.4595,1436.8536],[28.766,-20.4435,1480.3824],[28.7852,-20.3847,1245.3381],[28.7708,-20.3456,1198.5803],[28.7648,-20.3485,1218.1639],[28.751,-20.3515,1246.1443],[28.7506,-20.3504,1233.1926],[28.7178,-20.3598,1287.7258],[28.7133,-20.3313,1329.7427],[28.6781,-20.3117,1397.8318],[28.657,-20.2824,1400.7844],[28.6331,-20.2588,1457.0288],[28.6053,-20.2274,1453.3615],[28.5773,-20.2276,1427.5931],[28.5683,-20.2254,1408.1753]]]]}
,"properties": {"GID_3": "ZWE.9.8.18_2","GID_0": "ZWE","country": "Zimbabwe","GID_1": "ZWE.9_1","province": "MatabelelandSouth","NL_NAME_1": "NA","GID_2": "ZWE.9.8_2","county": "Matobo","NL_NAME_2": "NA","city": "Ward25","VARNAME_3": "NA","NL_NAME_3": "NA","TYPE_3": "Ward","ENGTYPE_3": "Ward","CC_3": "NA","HASC_3": "NA","name": "Ward25.city","area_km2": 1170.8143,"hist_schema_id": "Elevation0-9000","hist_area_km2": {"1100": 0.1191,"1125": 0.516,"1150": 4.723,"1175": 8.8915,"1200": 19.2736,"1225": 40.6045,"1250": 67.6792,"1275": 68.9962,"1300": 79.8725,"1325": 93.6812,"1350": 130.3871,"1375": 179.4842,"1400": 180.8608,"1425": 144.4409,"1450": 84.9014,"1475": 33.289,"1500": 20.1427,"1525": 11.1637,"1550": 1.7877}}}