{"type":"Feature","properties":{"GID_3":"ZWE.3.1.9_2","GID_0":"ZWE","country":"Zimbabwe","GID_1":"ZWE.3_1","province":"Manicaland","NL_NAME_1":"NA","GID_2":"ZWE.3.1_2","county":"Buhera","NL_NAME_2":"NA","city":"Ward18","VARNAME_3":"NA","NL_NAME_3":"NA","TYPE_3":"Ward","ENGTYPE_3":"Ward","CC_3":"NA","HASC_3":"NA","name":"Ward18.city"},
"geometry":{"type": "MultiPolygon","coordinates": [[[[31.8647,-19.277,842.6379],[31.8532,-19.2843,850.4264],[31.8539,-19.2908,854.1461],[31.8508,-19.2963,862.8782],[31.8421,-19.2996,868.9412],[31.8391,-19.2989,865.7137],[31.8273,-19.3145,879.5781],[31.8222,-19.3154,885.3453],[31.8198,-19.318,892.8563],[31.8173,-19.3167,892.6854],[31.8142,-19.318,894.808],[31.8078,-19.3233,909.0378],[31.815,-19.3293,921.6601],[31.8165,-19.3324,927.9448],[31.8217,-19.3343,918.7565],[31.8203,-19.3408,920.5315],[31.8175,-19.3446,927.8879],[31.8171,-19.3541,942.2549],[31.8143,-19.3567,951.434],[31.8162,-19.3585,948.4301],[31.825,-19.3605,948.401],[31.832,-19.3586,960.8644],[31.8347,-19.3561,944.9993],[31.8384,-19.3566,940.4215],[31.8414,-19.36,924.7313],[31.8523,-19.3643,909.0714],[31.8565,-19.3607,903.0919],[31.8603,-19.3616,896.0305],[31.8654,-19.3639,890.1241],[31.8709,-19.3721,877.8691],[31.8812,-19.3793,866.5253],[31.8933,-19.3748,856.3561],[31.8941,-19.3709,853.6292],[31.8991,-19.3681,850.6638],[31.9028,-19.3688,848.6493],[31.9137,-19.3633,844.8471],[31.9173,-19.3638,842.1644],[31.9212,-19.3604,838.1651],[31.9283,-19.361,837.1031],[31.9331,-19.3567,831.0682],[31.9379,-19.3553,827.3488],[31.9427,-19.3493,825.9193],[31.9513,-19.3439,823.5089],[31.9591,-19.3484,818.7843],[31.9607,-19.3471,812.4225],[31.9655,-19.3474,809.2184],[31.9685,-19.3369,808.2905],[31.9873,-19.3217,790.1881],[31.9885,-19.3229,790.1881],[32.005,-19.3198,777.7864],[32.013,-19.3145,779.9015],[32.0235,-19.3113,770.9443],[32.0227,-19.3082,771.5431],[32.0241,-19.3068,767.6279],[32.0281,-19.3073,765.2822],[32.0306,-19.3051,769.718],[32.0402,-19.3025,762.5391],[32.0506,-19.3013,753.1187],[32.0551,-19.2964,750.7797],[32.0494,-19.2917,747.756],[32.0458,-19.278199999999998,749.6808],[32.0352,-19.2692,755.3757],[32.0324,-19.2682,758.7185],[32.0241,-19.2703,760.9295],[32.0177,-19.2656,762.8696],[32.0042,-19.2605,770.9667],[32.0001,-19.2566,768.6274],[31.9959,-19.2563,772.8657],[31.9859,-19.2609,774.238],[31.9731,-19.2588,777.3113],[31.9663,-19.2619,779.1569],[31.9522,-19.2621,789.871],[31.9393,-19.2718,794.6674],[31.9251,-19.2702,800.3687],[31.9145,-19.2719,808.1498],[31.9061,-19.2803,815.9045],[31.9002,-19.2743,816.5457],[31.8962,-19.2738,819.0178],[31.8919,-19.2751,837.0817],[31.884,-19.2733,836.1313],[31.8812,-19.2751,835.2532],[31.8647,-19.277,842.6379]]]]}}