{"type": "Feature","bbox": [29.1249,-21.4648,29.3338,-21.3376],"geometry": {"type": "MultiPolygon","coordinates": [[[[29.1519,-21.4316,817.1273],[29.171,-21.4263,809.1995],[29.1826,-21.4252,804.0018],[29.1878,-21.4266,798.4234],[29.1966,-21.4428,783.3455],[29.1998,-21.4461,779.9139],[29.2047,-21.4471,775.1934],[29.2088,-21.4449,771.5937],[29.2148,-21.4485,770.9272],[29.2218,-21.4495,766.9274],[29.2336,-21.4567,757.6096],[29.2486,-21.4598,753.2631],[29.3338,-21.4648,705.6599],[29.3149,-21.3875,714.1077],[29.2541,-21.3843,736.6548],[29.2398,-21.3548,747.5513],[29.211,-21.3556,764.8311],[29.1249,-21.3376,792.754],[29.1519,-21.4316,817.1273]]]]}
,"properties": {"GID_3": "ZWE.9.4.7_2","GID_0": "ZWE","country": "Zimbabwe","GID_1": "ZWE.9_1","province": "MatabelelandSouth","NL_NAME_1": "NA","GID_2": "ZWE.9.4_2","county": "Gwanda","NL_NAME_2": "NA","city": "Ward15","VARNAME_3": "NA","NL_NAME_3": "NA","TYPE_3": "Ward","ENGTYPE_3": "Ward","CC_3": "NA","HASC_3": "NA","name": "Ward15.city","area_km2": 179.0584,"hist_schema_id": "Elevation0-9000","hist_area_km2": {"700": 1.3225,"725": 31.8163,"750": 59.4158,"775": 57.3858,"800": 27.0259,"825": 2.0922}}}