{"type":"Feature","properties":{"GID_3":"ZWE.9.8.2_2","GID_0":"ZWE","country":"Zimbabwe","GID_1":"ZWE.9_1","province":"MatabelelandSouth","NL_NAME_1":"NA","GID_2":"ZWE.9.8_2","county":"Matobo","NL_NAME_2":"NA","city":"Ward10","VARNAME_3":"NA","NL_NAME_3":"NA","TYPE_3":"Ward","ENGTYPE_3":"Ward","CC_3":"NA","HASC_3":"NA","name":"Ward10.city"},
"geometry":{"type": "MultiPolygon","coordinates": [[[[28.3446,-21.0285,1016.4909],[28.3103,-21.1049,998.1309],[28.3139,-21.1113,992.0624],[28.3131,-21.1146,991.4486],[28.3149,-21.1159,990.7023],[28.3145,-21.1183,987.5183],[28.317,-21.1195,988.9674],[28.317,-21.124,983.1349],[28.3199,-21.1282,980.6249],[28.3202,-21.1312,978.5776],[28.3182,-21.1324,977.4315],[28.3219,-21.1344,976.6658],[28.3229,-21.1369,974.7446],[28.3266,-21.1366,973.7493],[28.3271,-21.1387,971.7187],[28.3318,-21.1422,968.7633],[28.3439,-21.1457,964.563],[28.3582,-21.1455,957.6779],[28.3723,-21.148,946.5735],[28.3766,-21.1447,947.1164],[28.3869,-21.149,937.9538],[28.3948,-21.146,935.5],[28.402,-21.1542,929.0808],[28.4095,-21.1514,926.477],[28.412,-21.1537,928.3653],[28.4205,-21.1515,922.8497],[28.4376,-21.1587,920.4587],[28.4323,-21.1453,923.515],[28.4357,-21.1409,921.5624],[28.4351,-21.1353,923.9409],[28.4427,-21.1268,929.8041],[28.4442,-21.1227,931.933],[28.4448,-21.101,944.7996],[28.4414,-21.0958,945.3105],[28.4427,-21.0905,948.9836],[28.4377,-21.087,948.8415],[28.4342,-21.0877,953.097],[28.4324,-21.0839,957.6002],[28.4222,-21.085,958.4594],[28.4167,-21.081,968.1638],[28.4118,-21.0819,960.6569],[28.4098,-21.0778,967.2474],[28.4055,-21.0787,963.2544],[28.4046,-21.0746,970.5063],[28.3998,-21.0731,968.6148],[28.3961,-21.066,974.9293],[28.3927,-21.0651,972.9562],[28.3923,-21.0618,975.2551],[28.3863,-21.0587,977.4459],[28.3809,-21.0515,981.3378],[28.3736,-21.0471,985.8854],[28.3604,-21.0443,993.9922],[28.3582,-21.0402,996.7643],[28.35,-21.0349,1010.8351],[28.3446,-21.0285,1016.4909]]]]}}