{"type":"Feature","properties":{"GID_3":"ZWE.3.5.29_2","GID_0":"ZWE","country":"Zimbabwe","GID_1":"ZWE.3_1","province":"Manicaland","NL_NAME_1":"NA","GID_2":"ZWE.3.5_2","county":"Makoni","NL_NAME_2":"NA","city":"Ward35","VARNAME_3":"NA","NL_NAME_3":"NA","TYPE_3":"Ward","ENGTYPE_3":"Ward","CC_3":"NA","HASC_3":"NA","name":"Ward35.city"},
"geometry":{"type": "MultiPolygon","coordinates": [[[[32.257,-17.7756,1009.0363],[32.2489,-17.7852,1004.5436],[32.2392,-17.7894,1017.6993],[32.2314,-17.796,1026.8016],[32.227,-17.7975,1027.1808],[32.216,-17.811,1027.7318],[32.2053,-17.8164,1040.241],[32.2029,-17.8201,1031.2878],[32.1911,-17.8199,1043.8479],[32.1842,-17.8277,1033.316],[32.175,-17.8287,1058.3584],[32.1637,-17.8337,1053.4836],[32.1606,-17.8335,1058.3539],[32.1556,-17.8399,1042.5353],[32.1487,-17.8425,1065.1765],[32.1476,-17.8451,1052.1138],[32.1497,-17.8485,1065.8522],[32.1514,-17.858,1068.5872],[32.1488,-17.8599,1078.2883],[32.1429,-17.8744,1090.7716],[32.1462,-17.8956,1092.5244],[32.1436,-17.9023,1094.2466],[32.1411,-17.9045,1096.8149],[32.1409,-17.9079,1102.4761],[32.1421,-17.9102,1099.5044],[32.1471,-17.9121,1128.1603],[32.1481,-17.9146,1114.0908],[32.1529,-17.9164,1139.7397],[32.1756,-17.9518,1222.1377],[32.205,-18.0049,1201.7063],[32.2105,-18.0105,1172.4409],[32.2338,-18.0527,1359.4508],[32.2569,-18.0675,1321.8317],[32.2863,-18.0673,1479.4974],[32.329,-18.0408,1090.3943],[32.3288,-18.0284,1079.7189],[32.3217,-17.9989,1065.6396],[32.3178,-17.9884,1058.2108],[32.3117,-17.9796,1072.2925],[32.3131,-17.9706,1053.1704],[32.3111,-17.9653,1057.9102],[32.3129,-17.9574,1052.8806],[32.3093,-17.9539,1045.7188],[32.305,-17.934,1043.4552],[32.3054,-17.9256,1049.0145],[32.3098,-17.9181,1030.24],[32.309,-17.9132,1034.8618],[32.3077,-17.9111,1054.1113],[32.304,-17.9102,1048.2661],[32.2955,-17.9138,1049.8329],[32.294,-17.9095,1065.8961],[32.2872,-17.9069,1063.5377],[32.2859,-17.9036,1069.239],[32.2804,-17.9042,1075.6863],[32.2634,-17.861,1096.9812],[32.28,-17.8216,1099.9385],[32.257,-17.7756,1009.0363]]]]}}