{"type":"Feature","properties":{"GID_3":"ZWE.8.5.24_2","GID_0":"ZWE","country":"Zimbabwe","GID_1":"ZWE.8_1","province":"MatabelelandNorth","NL_NAME_1":"NA","GID_2":"ZWE.8.5_2","county":"Lupane","NL_NAME_2":"NA","city":"Ward5","VARNAME_3":"NA","NL_NAME_3":"NA","TYPE_3":"Ward","ENGTYPE_3":"Ward","CC_3":"NA","HASC_3":"NA","name":"Ward5.city"},
"geometry":{"type": "MultiPolygon","coordinates": [[[[27.4914,-18.5661,949.0058],[27.5004,-18.5917,977.9867],[27.5177,-18.6031,976.8704],[27.5304,-18.603,981.1451],[27.5496,-18.615,978.4977],[27.5656,-18.6195,971.5228],[27.5814,-18.6294,981.8059],[27.5935,-18.6349,975.874],[27.5948,-18.615,1013.1627],[27.6016,-18.6077,1057.114],[27.622,-18.5971,1067.7148],[27.668,-18.5792,1078.9811],[27.6785,-18.5776,1080.9349],[27.6828,-18.5737,1051.1754],[27.7446,-18.5611,1056.0659],[27.7474,-18.5615,1070.5383],[27.7557,-18.606,1086.9734],[27.9838,-18.612,1122.9224],[27.9829,-18.5943,1112.4436],[27.9539,-18.5886,1084.8606],[27.9423,-18.582,1066.9333],[27.9183,-18.563,1036.0283],[27.914,-18.553,1023.6393],[27.9154,-18.5474,1022.4375],[27.9103,-18.5468,1018.8542],[27.9016,-18.5411,1027.7844],[27.8984,-18.5416,1024.6233],[27.9009,-18.5441,1017.7004],[27.8928,-18.5454,1019.42],[27.8878,-18.5439,1025.9519],[27.8857,-18.5454,1016.7122],[27.8816,-18.5414,1018.2081],[27.8816,-18.5438,1013.3958],[27.8781,-18.5429,1018.8573],[27.8764,-18.544,1012.4128],[27.8735,-18.5411,1017.1301],[27.8725,-18.543,1011.8504],[27.8682,-18.543,1011.2655],[27.8672,-18.5406,1018.1147],[27.8625,-18.5417,1008.959],[27.861,-18.5398,1010.2084],[27.8616,-18.5368,1023.3776],[27.8594,-18.5375,1021.0457],[27.8583,-18.5354,1025.0481],[27.8572,-18.5373,1017.5787],[27.8522,-18.5384,1014.1591],[27.8495,-18.5363,1017.2695],[27.8431,-18.535,1010.9872],[27.831,-18.5356,1007.7087],[27.8289,-18.533,1013.3605],[27.8184,-18.5354,1006.4911],[27.811,-18.5349,1002.9221],[27.8009,-18.5301,1006.7131],[27.785,-18.5307,999.131],[27.7799,-18.5279,994.1097],[27.7786,-18.5241,1043.864],[27.7721,-18.5258,1018.2898],[27.7621,-18.522,1016.5835],[27.7603,-18.524,996.6772],[27.7563,-18.5218,999.984],[27.7499,-18.5234,993.7855],[27.748,-18.5273,989.3232],[27.7441,-18.5247,995.7047],[27.7274,-18.5303,986.9955],[27.7148,-18.5291,990.9408],[27.7124,-18.5293,995.4962],[27.7108,-18.5317,982.5201],[27.7069,-18.5291,994.2537],[27.6934,-18.537,978.8691],[27.6914,-18.5372,980.1622],[27.6918,-18.5357,989.616],[27.6852,-18.5363,979.8293],[27.6793,-18.5401,973.8314],[27.6737,-18.5401,978.719],[27.6704,-18.5376,978.5516],[27.6643,-18.5371,971.0574],[27.6612,-18.5391,972.8867],[27.6543,-18.5386,974.8326],[27.6462,-18.5419,964.7542],[27.6427,-18.5401,972.5876],[27.6415,-18.5425,962.6655],[27.6389,-18.5403,967.5061],[27.6277,-18.5415,963.4603],[27.6239,-18.5397,962.1846],[27.6226,-18.5412,962.1846],[27.6155,-18.5369,974.2448],[27.611,-18.5401,958.3887],[27.5943,-18.5419,963.2043],[27.5928,-18.5444,960.4657],[27.5905,-18.5443,956.3881],[27.5902,-18.5416,972.8592],[27.5856,-18.5405,966.5921],[27.5815,-18.5448,951.4369],[27.5733,-18.545,953.8938],[27.5712,-18.5476,948.4345],[27.5677,-18.5484,950.6366],[27.5513,-18.5448,957.9731],[27.5482,-18.5481,942.705],[27.5381,-18.5496,939.2233],[27.5247,-18.5433,936.5482],[27.5128,-18.54,935.8047],[27.4954,-18.5646,953.106],[27.4914,-18.5661,949.0058]]]]}}