{"type": "Feature","bbox": [30.5143,-19.2711,30.5215,-19.261],"geometry": {"type": "MultiPolygon","coordinates": [[[[30.5143,-19.264,1357.9534],[30.5193,-19.2711,1367.8501],[30.5209,-19.2702,1369.5319],[30.5201,-19.2684,1367.4958],[30.5215,-19.2679,1363.5488],[30.5193,-19.261,1356.155],[30.5143,-19.264,1357.9534]]]]}
,"properties": {"GID_3": "ZWE.10.1.6_2","GID_0": "ZWE","country": "Zimbabwe","GID_1": "ZWE.10_1","province": "Midlands","NL_NAME_1": "NA","GID_2": "ZWE.10.1_2","county": "Chirumhanzu","NL_NAME_2": "NA","city": "Ward14","VARNAME_3": "NA","NL_NAME_3": "NA","TYPE_3": "Ward","ENGTYPE_3": "Ward","CC_3": "NA","HASC_3": "NA","name": "Ward14.city","area_km2": 0.4002971,"hist_schema_id": "Elevation0-9000","hist_area_km2": {"1350": 0.260195,"1375": 0.140102}}}