{"type":"Feature","properties":{"GID_3":"ZWE.6.9.15_2","GID_0":"ZWE","country":"Zimbabwe","GID_1":"ZWE.6_1","province":"MashonalandWest","NL_NAME_1":"NA","GID_2":"ZWE.6.9_2","county":"Makonde","NL_NAME_2":"NA","city":"Ward5","VARNAME_3":"NA","NL_NAME_3":"NA","TYPE_3":"Ward","ENGTYPE_3":"Ward","CC_3":"NA","HASC_3":"NA","name":"Ward5.city"},
"geometry":{"type": "MultiPolygon","coordinates": [[[[29.8004,-17.1781,1194.0096],[29.8197,-17.1988,1180.571],[29.8378,-17.214,1151.9618],[29.8199,-17.2237,1170.0165],[29.8085,-17.2321,1177.0553],[29.8184,-17.2362,1178.8809],[29.8268,-17.2431,1194.7609],[29.8462,-17.2546,1215.6437],[29.8595,-17.2605,1255.4661],[29.8778,-17.2619,1215.743],[29.877,-17.2416,1204.4594],[29.9102,-17.251,1199.1495],[29.927,-17.2599,1226.8159],[29.9659,-17.2621,1156.3748],[29.9958,-17.2547,1124.4192],[29.9932,-17.2453,1116.6182],[29.9899,-17.243,1124.8887],[29.9918,-17.2413,1116.4712],[29.9916,-17.2373,1118.3043],[29.9936,-17.233,1117.9435],[29.9911,-17.2304,1115.822],[29.9898,-17.2231,1111.434],[29.9909,-17.2154,1110.7588],[29.9892,-17.2127,1115.4576],[29.9912,-17.2127,1110.501],[29.9908,-17.2089,1112.718],[29.9887,-17.207,1114.772],[29.9907,-17.202,1109.0713],[29.9938,-17.1991,1108.1169],[29.9918,-17.1954,1108.9139],[29.9821,-17.194,1136.2756],[29.981,-17.1952,1107.3022],[29.9793,-17.1933,1106.5],[29.9991,-17.1819,1129.6278],[30.046,-17.1596,1149.1132],[30.094,-17.1515,1156.2761],[30.0797,-17.1187,1127.7987],[30.097,-17.1052,1118.8912],[30.0934,-17.1027,1115.4357],[30.0931,-17.0968,1114.6754],[30.0899,-17.0926,1111.4316],[30.0891,-17.0738,1105.7053],[30.0904,-17.0707,1107.243],[30.0877,-17.0704,1106.319],[30.0848,-17.066,1103.526],[30.086,-17.0586,1103.2244],[30.0822,-17.0577,1101.4441],[30.0805,-17.055,1099.6826],[30.0797,-17.0495,1099.0487],[30.077,-17.0455,1098.8146],[30.0783,-17.0439,1095.9688],[30.0769,-17.0428,1099.3845],[30.0158,-17.0916,1221.2195],[30.0151,-17.064,1181.3541],[30.0219,-17.058,1120.9397],[30.0102,-17.0429,1128.6531],[30.0068,-17.0068,1090.6079],[30.0361,-16.9651,1072.54],[30.0356,-16.9591,1068.8193],[30.0394,-16.9532,1060.1949],[30.0383,-16.9493,1060.0671],[30.0396,-16.9449,1084.019],[30.0339,-16.9435,1059.3326],[30.0381,-16.936,1075.901],[30.035,-16.935,1054.7406],[30.0337,-16.9305,1144.8691],[30.0311,-16.9319,1109.3588],[30.0307,-16.9358,1057.9125],[30.0283,-16.9337,1059.6555],[30.0256,-16.9339,1050.8135],[30.0283,-16.9312,1064.2307],[30.0269,-16.9298,1051.8008],[30.0245,-16.9298,1069.1519],[30.0237,-16.9327,1052.9596],[30.02,-16.9348,1053.1871],[30.0171,-16.9328,1045.8423],[30.018,-16.9307,1054.6819],[30.0147,-16.927,1060.9326],[30.0088,-16.9249,1050.1252],[30.0062,-16.9295,1046.1935],[30.0006,-16.9281,1047.7771],[29.9985,-16.9291,1049.3271],[29.9976,-16.9318,1037.6353],[29.9944,-16.93,1056.1152],[29.993,-16.9349,1037.4712],[29.9883,-16.9354,1037.83],[29.9868,-16.9334,1039.8025],[29.9925,-16.9283,1045.4241],[29.9858,-16.9249,1046.8741],[29.9841,-16.9276,1049.1775],[29.985,-16.9311,1029.4883],[29.9824,-16.9324,1039.6216],[29.9843,-16.9343,1029.9414],[29.9761,-16.9416,1032.6864],[29.9777,-16.9435,1032.0162],[29.9849,-16.9456,1048.7931],[29.9902,-16.9514,1040.2568],[29.9846,-16.96,1046.6316],[29.985,-16.9673,1038.1313],[29.9805,-16.9681,1050.3143],[29.9808,-16.9698,1038.7054],[29.9833,-16.9701,1039.7878],[29.9833,-16.9724,1040.3313],[29.9814,-16.9749,1042.8237],[29.9776,-16.9762,1061.4824],[29.9778,-16.9781,1074.0579],[29.98,-16.9787,1042.3856],[29.9759,-16.9837,1073.285],[29.9768,-16.9883,1045.8204],[29.973,-16.9909,1059.822],[29.9747,-16.9994,1048.9309],[29.9688,-17.0059,1053.874],[29.9713,-17.0145,1048.4606],[29.9673,-17.0188,1054.3774],[29.9687,-17.0222,1052.7687],[29.9623,-17.0302,1052.4725],[29.9623,-17.0338,1053.4133],[29.9564,-17.0353,1067.8156],[29.9564,-17.0401,1061.9197],[29.9603,-17.0451,1067.0024],[29.9618,-17.0501,1060.2001],[29.9585,-17.0524,1068.4281],[29.9577,-17.0571,1063.7649],[29.9537,-17.0569,1064.688],[29.9529,-17.0596,1075.6663],[29.96,-17.068,1072.2831],[29.962,-17.0731,1068.0345],[29.9587,-17.0749,1069.0078],[29.9576,-17.0711,1073.9872],[29.9528,-17.0728,1070.0635],[29.9537,-17.0753,1068.5178],[29.9519,-17.0845,1069.1604],[29.9533,-17.0849,1071.7629],[29.9547,-17.0901,1073.3676],[29.9535,-17.0939,1078.8646],[29.9477,-17.0909,1110.3732],[29.9451,-17.0931,1132.097],[29.946,-17.0952,1077.0204],[29.9485,-17.0942,1077.412],[29.9486,-17.097,1079.7598],[29.9443,-17.1076,1081.9866],[29.942,-17.1085,1092.7058],[29.935,-17.1045,1106.3606],[29.9284,-17.1081,1090.0798],[29.9187,-17.106,1091.092],[29.913,-17.1109,1089.0468],[29.9076,-17.1082,1091.8132],[29.9073,-17.1055,1102.9192],[29.9051,-17.1065,1093.9146],[29.8992,-17.1041,1106.5498],[29.8853,-17.0829,1161.5347],[29.8812,-17.0687,1133.6719],[29.8363,-17.1013,1199.429],[29.856,-17.1288,1154.8492],[29.8004,-17.1781,1194.0096]]]]}}