{"type": "Feature","bbox": [31.9957,-18.7966,32.1275,-18.6709],"geometry": {"type": "MultiPolygon","coordinates": [[[[31.9957,-18.7529,1016.6675],[31.9957,-18.7578,1018.365],[32.0016,-18.7677,1028.1375],[32.0002,-18.7766,1003.0289],[32.0021,-18.7871,1015.3842],[32.0008,-18.7966,987.8237],[32.0066,-18.7937,1014.9399],[32.0098,-18.7899,1005.0917],[32.0209,-18.7862,1014.9586],[32.0232,-18.7882,1013.781],[32.0233,-18.7905,1013.5883],[32.0289,-18.7878,1094.9756],[32.0321,-18.7922,1034.0557],[32.0361,-18.7927,1068.5114],[32.0386,-18.7947,1075.6636],[32.0667,-18.7887,1120.3405],[32.071,-18.7901,1115.5221],[32.0783,-18.7892,1121.3108],[32.0851,-18.7854,1136.6914],[32.0894,-18.7866,1114.3618],[32.0933,-18.7818,1133.8815],[32.1022,-18.7768,1130.2153],[32.1047,-18.7768,1124.5249],[32.1155,-18.7647,1139.8536],[32.1221,-18.7616,1142.1425],[32.1275,-18.7464,1185.3224],[32.1211,-18.6709,1252.5088],[32.1136,-18.6719,1254.8873],[32.1108,-18.677,1239.4473],[32.1032,-18.6799,1228.1528],[32.0996,-18.6797,1234.4655],[32.0988,-18.6829,1230.9141],[32.0951,-18.6844,1236.7462],[32.0909,-18.6826,1243.7754],[32.0867,-18.6833,1218.8219],[32.0829,-18.6764,1217.2966],[32.0796,-18.68,1216.447],[32.0738,-18.6791,1226.6206],[32.0661,-18.6878,1210.4586],[32.0678,-18.6923,1205.8291],[32.0623,-18.6961,1209.2987],[32.0591,-18.6937,1207.2573],[32.0556,-18.6869,1224.5905],[32.0507,-18.6824,1204.0292],[32.0487,-18.6826,1198.0989],[32.0439,-18.6928,1125.4175],[32.0456,-18.7042,1111.4783],[32.0422,-18.7073,1115.6296],[32.0449,-18.7119,1121.7904],[32.0445,-18.7177,1109.3489],[32.0171,-18.7175,1071.7446],[32.0055,-18.724,1069.8442],[32.0038,-18.7299,1053.1272],[31.9992,-18.7246,1057.7643],[31.9963,-18.7249,1035.0812],[31.9957,-18.7272,1030.3788],[32.0007,-18.7408,1017.2302],[31.9963,-18.7487,1048.9374],[31.9957,-18.7529,1016.6675]]]]}
,"properties": {"GID_3": "ZWE.3.5.19_2","GID_0": "ZWE","country": "Zimbabwe","GID_1": "ZWE.3_1","province": "Manicaland","NL_NAME_1": "NA","GID_2": "ZWE.3.5_2","county": "Makoni","NL_NAME_2": "NA","city": "Ward26","VARNAME_3": "NA","NL_NAME_3": "NA","TYPE_3": "Ward","ENGTYPE_3": "Ward","CC_3": "NA","HASC_3": "NA","name": "Ward26.city","area_km2": 131.9747,"hist_schema_id": "Elevation0-9000","hist_area_km2": {"1000": 0.562,"1025": 3.8745,"1050": 5.0188,"1075": 7.2074,"1100": 8.7736,"1125": 12.0863,"1150": 16.9846,"1175": 18.2302,"1200": 17.007,"1225": 17.4304,"1250": 15.4226,"1275": 5.4219,"1300": 1.7469,"1325": 0.7429,"1350": 0.502,"1375": 0.2811,"1400": 0.5622,"1425": 0.1205}}}