{"type": "Feature","bbox": [28.8445,-16.7041,30.3348,-15.6077],"geometry": {"type": "MultiPolygon","coordinates": [[[[28.8648,-16.3777,688.3047],[28.9315,-16.3763,1045.8376],[28.9972,-16.3731,875.8503],[28.9989,-16.372,828.6071],[29.1553,-16.3656,1105.7084],[29.2144,-16.4592,1084.5209],[29.144,-16.616,681.5443],[29.1495,-16.616,681.8916],[29.145,-16.6232,684.6495],[29.146,-16.625,644.8718],[29.1514,-16.6291,825.3404],[29.1554,-16.6276,797.7715],[29.1553,-16.6317,721.4355],[29.1606,-16.6403,784.7642],[29.1678,-16.6456,853.2267],[29.1684,-16.6488,817.0737],[29.1723,-16.6498,852.0563],[29.1706,-16.6546,805.782],[29.1792,-16.6606,891.2078],[29.1799,-16.6652,853.283],[29.1837,-16.6651,892.9847],[29.1837,-16.6667,838.6344],[29.1809,-16.6685,938.2969],[29.182,-16.6718,834.3332],[29.1797,-16.6764,839.5206],[29.1804,-16.6782,837.4122],[29.1728,-16.6829,893.202],[29.1849,-16.6889,900.8172],[29.1845,-16.6958,870.0926],[29.1863,-16.6993,880.4973],[29.1906,-16.6997,874.6328],[29.1956,-16.7041,957.7078],[29.1983,-16.7035,984.3674],[29.1973,-16.6994,996.8877],[29.2015,-16.6935,1038.1167],[29.2087,-16.6911,1058.2686],[29.2138,-16.6852,1079.5857],[29.2284,-16.6822,1042.2334],[29.2358,-16.6828,1046.6906],[29.2462,-16.6712,1002.9095],[29.2468,-16.6674,1010.2892],[29.2525,-16.6667,1014.4966],[29.2665,-16.6608,1057.764],[29.2823,-16.6426,1096.3029],[29.2972,-16.6408,1119.4386],[29.305,-16.6358,1142.2588],[29.3047,-16.632,1117.6034],[29.3063,-16.6304,1110.8837],[29.318,-16.6275,1145.4724],[29.3311,-16.6197,1141.1528],[29.3014,-16.58,1188.4438],[29.3276,-16.5505,1071.8571],[29.3595,-16.5399,1146.2098],[29.3521,-16.5104,1121.4537],[29.3603,-16.4938,1180.0015],[29.3775,-16.4861,1180.7927],[29.3975,-16.4883,1191.5958],[29.4095,-16.4724,1149.3865],[29.4294,-16.4658,1117.4979],[29.4449,-16.4683,1126.3254],[29.4508,-16.4387,1158.3066],[29.4751,-16.4178,1052.2047],[29.5009,-16.4153,1142.1057],[29.5527,-16.3926,1107.5247],[29.6074,-16.3931,1206.2954],[29.6125,-16.365,1110.8523],[29.6132,-16.3497,1124.1697],[29.5733,-16.3185,1118.1876],[29.5284,-16.2804,1060.3993],[29.5351,-16.2802,1070.1226],[29.537,-16.278,1046.1464],[29.5433,-16.2784,1023.1857],[29.552,-16.2728,1055.1866],[29.5533,-16.2693,1053.6235],[29.552,-16.2662,1025.7711],[29.5556,-16.2615,1077.5782],[29.563,-16.2603,1042.2257],[29.5655,-16.262,1005.6868],[29.5735,-16.2604,1006.0594],[29.5841,-16.248,903.932],[29.5942,-16.2484,942.0538],[29.597,-16.2515,953.5227],[29.6038,-16.2547,955.9282],[29.6108,-16.2534,876.4348],[29.6127,-16.2564,897.146],[29.6171,-16.2575,960.5284],[29.6202,-16.2565,984.0561],[29.6211,-16.2581,963.4041],[29.6268,-16.2595,1001.0013],[29.6293,-16.2578,983.8542],[29.6312,-16.2604,996.9586],[29.6339,-16.2585,1026.4249],[29.6363,-16.2596,1039.619],[29.6374,-16.258,1030.7535],[29.6405,-16.2581,1072.3688],[29.6411,-16.2541,1106.8625],[29.6454,-16.2511,1122.8586],[29.6488,-16.2529,1114.9124],[29.6568,-16.2518,1093.0387],[29.6595,-16.2528,1115.4879],[29.6607,-16.2554,1093.3751],[29.6637,-16.2541,1042.3138],[29.669,-16.2576,1050.3042],[29.6722,-16.2554,988.2985],[29.6772,-16.256,969.626],[29.6848,-16.2626,952.4508],[29.684,-16.2666,938.9887],[29.6864,-16.2739,1032.4061],[29.6872,-16.2727,1006.8398],[29.6892,-16.2742,1034.4375],[29.692,-16.2731,1019.8941],[29.6986,-16.2791,1003.0818],[29.6971,-16.2846,1015.8784],[29.6936,-16.2866,1029.2406],[29.6971,-16.2911,1004.9808],[29.7022,-16.2942,971.813],[29.7034,-16.2924,982.7382],[29.7115,-16.2898,938.1968],[29.7107,-16.292,938.0091],[29.7196,-16.3004,972.3531],[29.7228,-16.3009,996.5209],[29.7253,-16.3036,989.2513],[29.7309,-16.304,959.914],[29.7326,-16.3011,935.3029],[29.7375,-16.3028,977.0484],[29.7381,-16.306,966.2339],[29.7422,-16.308,976.0857],[29.7444,-16.3111,988.7569],[29.7436,-16.3134,980.7236],[29.7538,-16.324,1081.9065],[29.755,-16.3209,1138.5964],[29.7581,-16.3225,1119.2596],[29.7608,-16.321,1144.1165],[29.7609,-16.3238,1103.2874],[29.776,-16.3254,1133.5432],[29.7772,-16.3286,1154.9336],[29.7864,-16.3315,1166.6359],[29.7888,-16.3358,1143.7544],[29.7884,-16.3395,1119.6896],[29.7807,-16.342,1026.5594],[29.781,-16.3446,988.187],[29.7911,-16.3514,935.394],[29.7955,-16.3514,951.0633],[29.7961,-16.3537,915.1371],[29.8028,-16.3561,962.0794],[29.8059,-16.359,914.9333],[29.8144,-16.3578,931.6592],[29.8146,-16.363,862.8735],[29.8171,-16.3629,887.3478],[29.8184,-16.3647,867.4643],[29.822,-16.3746,831.0717],[29.8271,-16.3803,813.585],[29.826,-16.3867,798.1978],[29.831,-16.393,807.9609],[29.8321,-16.3925,792.1008],[29.8326,-16.3952,793.5438],[29.8397,-16.3958,787.6092],[29.8527,-16.3934,761.4275],[29.8552,-16.3907,784.7057],[29.865,-16.3904,757.1224],[29.8722,-16.3862,757.2596],[29.8766,-16.3861,754.8026],[29.8768,-16.3879,734.8052],[29.8861,-16.3863,722.5004],[29.8907,-16.3851,721.049],[29.8923,-16.382,745.9376],[29.8965,-16.3843,709.8116],[29.8986,-16.3811,727.709],[29.904,-16.3836,706.549],[29.9073,-16.3798,709.477],[29.9127,-16.3817,700.7856],[29.9148,-16.3798,709.045],[29.9163,-16.3811,709.045],[29.9241,-16.3804,702.9755],[29.9322,-16.3841,688.7759],[29.9319,-16.3801,705.3813],[29.9424,-16.3783,710.9904],[29.9465,-16.3797,676.297],[29.9545,-16.3779,715.0705],[29.9556,-16.3818,667.8688],[29.9604,-16.3825,675.646],[29.9609,-16.3789,705.713],[29.9655,-16.3782,666.576],[29.9675,-16.3761,664.0883],[29.9671,-16.3737,724.0856],[29.9691,-16.3729,768.7654],[29.9776,-16.3762,663.3459],[29.9773,-16.378,656.986],[29.9701,-16.3798,666.3029],[29.9852,-16.3858,643.2728],[29.9859,-16.3837,651.427],[29.9878,-16.3834,654.7044],[29.9941,-16.3918,625.0504],[29.9983,-16.3915,630.9379],[29.9987,-16.3892,667.0032],[30.0024,-16.3894,692.0671],[30.0063,-16.394,648.7086],[30.0261,-16.3937,647.0681],[30.0463,-16.3959,579.1089],[30.0459,-16.3941,627.7473],[30.0491,-16.3901,567.6855],[30.0512,-16.3826,541.9749],[30.0495,-16.3758,509.7892],[30.0503,-16.3656,515.9477],[30.0546,-16.3618,501.3314],[30.0542,-16.358,530.9982],[30.0582,-16.3541,502.4815],[30.0584,-16.3455,552.2028],[30.0651,-16.343,488.7579],[30.0657,-16.3378,492.6341],[30.0636,-16.3328,496.3116],[30.0741,-16.3205,497.0349],[30.0858,-16.3176,479.2952],[30.0891,-16.3085,495.1932],[30.0917,-16.307,489.5741],[30.0893,-16.303,479.4428],[30.0941,-16.2934,461.5869],[30.0904,-16.2879,482.4833],[30.0949,-16.2835,463.1854],[30.0952,-16.2745,454.9333],[30.0904,-16.26,435.2034],[30.0932,-16.2488,430.6228],[30.0901,-16.228,440.4113],[30.0956,-16.2279,443.6252],[30.1078,-16.2142,444.4446],[30.1121,-16.213,423.0627],[30.1199,-16.203,428.4379],[30.1236,-16.1921,434.9656],[30.1272,-16.1889,433.2511],[30.1352,-16.1858,424.7891],[30.1415,-16.1778,418.4507],[30.1384,-16.1677,416.8722],[30.1397,-16.1611,428.5511],[30.1337,-16.1656,422.481],[30.1303,-16.1624,443.6511],[30.1279,-16.1624,443.2942],[30.1245,-16.1685,426.1804],[30.1286,-16.1711,438.4362],[30.1247,-16.1728,424.8244],[30.1205,-16.172,434.7891],[30.1139,-16.1672,441.3727],[30.1137,-16.1643,446.4352],[30.1178,-16.1649,435.3383],[30.1189,-16.1636,433.5154],[30.112,-16.1581,434.2343],[30.1098,-16.1469,442.756],[30.1016,-16.137,451.0453],[30.0991,-16.1311,457.5231],[30.1027,-16.1283,441.7843],[30.0985,-16.1262,447.2418],[30.1042,-16.1247,465.2939],[30.1001,-16.1212,465.0849],[30.0932,-16.1222,450.3273],[30.0875,-16.1184,456.2648],[30.085,-16.1136,470.3594],[30.0869,-16.1091,459.3619],[30.0858,-16.1047,483.1584],[30.0814,-16.1047,464.2911],[30.0783,-16.1013,476.3938],[30.0809,-16.0941,473.3079],[30.0788,-16.092,481.7929],[30.0881,-16.0796,495.1645],[30.0891,-16.0748,516.4598],[30.094,-16.0751,499.7174],[30.099,-16.0729,495.8986],[30.0943,-16.0671,522.2444],[30.0954,-16.0623,518.4157],[30.1005,-16.0633,515.3979],[30.0998,-16.0602,520.9183],[30.1012,-16.0582,530.5708],[30.0994,-16.0494,554.9402],[30.1079,-16.0471,511.9041],[30.1101,-16.0441,534.7822],[30.1079,-16.0433,532.2626],[30.0986,-16.0454,534.083],[30.0936,-16.0443,529.6183],[30.0935,-16.0416,545.4529],[30.0961,-16.0394,551.2476],[30.0926,-16.034,596.5554],[30.0873,-16.0389,547.8654],[30.0867,-16.034,587.0495],[30.0824,-16.0366,580.0767],[30.074,-16.0329,581.2695],[30.0722,-16.0298,575.3812],[30.0742,-16.0276,622.384],[30.065,-16.0235,576.2313],[30.0631,-16.0204,578.4891],[30.0636,-16.0163,609.0815],[30.0589,-16.0163,603.2737],[30.062,-16.0128,578.8257],[30.0633,-16.0056,586.664],[30.0612,-16.0008,646.1478],[30.058,-16.0,622.9957],[30.0553,-16.0033,588.5535],[30.0463,-16.0023,588.67],[30.052,-15.9939,593.5928],[30.0515,-15.9883,595.8815],[30.1513,-15.9189,763.4402],[30.3348,-15.7491,543.2976],[30.3131,-15.7168,780.0637],[30.2863,-15.7017,1005.5715],[30.2847,-15.6675,894.2072],[30.2854,-15.6446,350.9783],[30.2705,-15.6371,380.8451],[30.2638,-15.6253,328.3442],[30.2575,-15.6248,332.0956],[30.2347,-15.6473,362.8585],[30.223,-15.6556,348.0839],[30.215,-15.6566,412.3342],[30.2058,-15.6537,411.4673],[30.2013,-15.6502,455.5159],[30.1751,-15.6178,522.1658],[30.1619,-15.6139,437.9649],[30.1425,-15.6143,428.6559],[30.1169,-15.6223,392.4404],[30.0828,-15.6216,398.5405],[30.0602,-15.6279,590.5575],[30.0165,-15.6319,484.5231],[29.9817,-15.6369,400.7667],[29.974,-15.6364,373.7675],[29.9565,-15.6303,382.206],[29.9481,-15.6239,350.2018],[29.9432,-15.6221,348.1847],[29.9216,-15.6174,347.1776],[29.9041,-15.6174,349.2814],[29.8956,-15.6156,382.2587],[29.8831,-15.61,378.2681],[29.862,-15.6084,346.7289],[29.7972,-15.6077,349.6466],[29.7868,-15.6109,340.7489],[29.7682,-15.6215,342.6358],[29.7437,-15.6319,341.0],[29.7273,-15.6363,341.5],[29.6863,-15.6422,344.8672],[29.6576,-15.6542,344.3186],[29.6174,-15.6565,345.0],[29.6033,-15.654,345.5],[29.5874,-15.6539,346.0],[29.5634,-15.6597,352.6203],[29.5427,-15.671,353.9725],[29.5126,-15.6832,352.0788],[29.496,-15.6867,349.0],[29.4632,-15.6812,352.7505],[29.4527,-15.6805,350.5],[29.4447,-15.6824,350.5],[29.4156,-15.6937,354.0087],[29.3896,-15.7088,353.2167],[29.3656,-15.7157,354.3313],[29.3547,-15.7167,353.5],[29.3083,-15.7388,355.6577],[29.2871,-15.7547,355.5],[29.2639,-15.7632,356.0],[29.2408,-15.7685,359.3089],[29.2244,-15.7754,370.7897],[29.1895,-15.7964,359.933],[29.1687,-15.8117,361.3951],[29.1472,-15.8345,365.6761],[29.1297,-15.848,366.1562],[29.1179,-15.8549,362.8911],[29.0952,-15.8648,364.6449],[29.0654,-15.8947,377.341],[29.0571,-15.9054,386.1062],[29.0467,-15.9239,377.1706],[29.0334,-15.9384,390.609],[29.0235,-15.9457,381.5181],[29.0138,-15.9463,363.5],[28.996,-15.9419,364.0],[28.9744,-15.9413,364.5],[28.9542,-15.9444,364.5],[28.9392,-15.9557,378.2592],[28.9351,-15.9565,373.0854],[28.9193,-15.9715,378.4918],[28.9099,-15.9837,381.4706],[28.8995,-16.0011,386.9703],[28.8973,-16.011,387.0435],[28.8943,-16.0163,382.9749],[28.8833,-16.0263,389.5015],[28.8741,-16.031,375.0409],[28.8697,-16.0373,380.9311],[28.8679,-16.0459,389.5281],[28.8685,-16.0599,435.5781],[28.8707,-16.071,382.4061],[28.8741,-16.0769,385.3234],[28.8791,-16.096,389.8101],[28.8807,-16.1178,388.8279],[28.8755,-16.1383,395.1503],[28.8719,-16.1463,395.3346],[28.8653,-16.1529,388.4608],[28.8541,-16.1595,386.2776],[28.8511,-16.1684,384.8412],[28.8511,-16.1792,394.9408],[28.8553,-16.1921,404.4488],[28.8553,-16.2248,422.5004],[28.8609,-16.235,394.0414],[28.8687,-16.2437,403.1419],[28.8727,-16.2514,410.2825],[28.8727,-16.2569,398.7292],[28.8571,-16.2751,393.696],[28.8533,-16.2829,396.7613],[28.8459,-16.3025,397.9586],[28.8445,-16.3161,400.9553],[28.8475,-16.324,391.2151],[28.8585,-16.3352,405.9045],[28.8589,-16.3529,400.4351],[28.8655,-16.3711,599.1248],[28.8648,-16.3777,688.3047]]]]}
,"properties": {"GID_3": "ZWE.6.4.24_2","GID_0": "ZWE","country": "Zimbabwe","GID_1": "ZWE.6_1","province": "MashonalandWest","NL_NAME_1": "NA","GID_2": "ZWE.6.4_2","county": "Hurungwe","NL_NAME_2": "NA","city": "Ward7","VARNAME_3": "NA","NL_NAME_3": "NA","TYPE_3": "Ward","ENGTYPE_3": "Ward","CC_3": "NA","HASC_3": "NA","name": "Ward7.city","area_km2": 10472.221,"hist_schema_id": "Elevation0-9000","hist_area_km2": {"325": 21.438,"350": 248.552,"375": 480.564,"400": 765.21,"425": 913.941,"450": 863.969,"475": 782.956,"500": 701.747,"525": 624.918,"550": 492.526,"575": 366.611,"600": 282.405,"625": 230.175,"650": 178.818,"675": 149.15,"700": 142.108,"725": 150.257,"750": 159.146,"775": 163.5,"800": 174.288,"825": 182.836,"850": 188.176,"875": 193.539,"900": 200.387,"925": 215.275,"950": 211.519,"975": 221.122,"1000": 232.401,"1025": 222.047,"1050": 196.804,"1075": 170.744,"1100": 132.021,"1125": 98.657,"1150": 59.595,"1175": 35.448,"1200": 14.713,"1225": 3.134,"1250": 0.712,"1275": 0.529,"1300": 0.264}}}