{"type": "Feature","bbox": [30.9004,-17.863,30.9465,-17.8161],"geometry": {"type": "MultiPolygon","coordinates": [[[[30.9413,-17.8189,1463.4177],[30.9341,-17.8161,1465.993],[30.9218,-17.8185,1444.3619],[30.922,-17.8239,1440.3942],[30.9251,-17.826,1446.631],[30.926,-17.8309,1436.2643],[30.9236,-17.8305,1433.1149],[30.9238,-17.8359,1426.8142],[30.9047,-17.8363,1409.0024],[30.9004,-17.8406,1407.4885],[30.9009,-17.8451,1403.7675],[30.928,-17.8446,1413.7991],[30.9272,-17.8518,1407.7249],[30.9208,-17.8568,1404.2032],[30.9192,-17.8591,1403.0706],[30.9195,-17.8626,1404.0676],[30.9226,-17.863,1409.4471],[30.9234,-17.8598,1409.1058],[30.927,-17.8574,1410.4712],[30.9327,-17.8558,1411.2031],[30.9375,-17.8516,1412.2079],[30.9465,-17.8487,1417.323],[30.9417,-17.8431,1428.0562],[30.9412,-17.8353,1440.3524],[30.9433,-17.8267,1451.5813],[30.9413,-17.8189,1463.4177]]]]}
,"properties": {"GID_3": "ZWE.2.3.30_2","GID_0": "ZWE","country": "Zimbabwe","GID_1": "ZWE.2_1","province": "Harare","NL_NAME_1": "NA","GID_2": "ZWE.2.3_2","county": "Harare","NL_NAME_2": "NA","city": "Ward37","VARNAME_3": "NA","NL_NAME_3": "NA","TYPE_3": "Ward","ENGTYPE_3": "Ward","CC_3": "NA","HASC_3": "NA","name": "Ward37.city","area_km2": 10.43461,"hist_schema_id": "Elevation0-9000","hist_area_km2": {"1400": 1.997984,"1425": 5.75208,"1450": 2.442325,"1475": 0.242222}}}