{"type":"Feature","properties":{"GID_3":"ZWE.10.2.12_2","GID_0":"ZWE","country":"Zimbabwe","GID_1":"ZWE.10_1","province":"Midlands","NL_NAME_1":"NA","GID_2":"ZWE.10.2_2","county":"GokweNorth","NL_NAME_2":"NA","city":"Ward2","VARNAME_3":"NA","NL_NAME_3":"NA","TYPE_3":"Ward","ENGTYPE_3":"Ward","CC_3":"NA","HASC_3":"NA","name":"Ward2.city"},
"geometry":{"type": "MultiPolygon","coordinates": [[[[28.2172,-17.5753,701.1854],[28.2214,-17.5735,680.6965],[28.223,-17.5696,723.7223],[28.2296,-17.5766,690.2325],[28.2327,-17.5772,703.4918],[28.2377,-17.5751,714.9038],[28.2352,-17.5821,700.3736],[28.2424,-17.5828,701.0576],[28.2455,-17.5883,711.4883],[28.2502,-17.5905,718.8557],[28.2509,-17.5937,691.6944],[28.2554,-17.5969,733.6796],[28.2564,-17.6017,721.8004],[28.2501,-17.6166,700.4716],[28.2528,-17.6266,702.4243],[28.2583,-17.6232,704.644],[28.2653,-17.6271,707.2413],[28.2684,-17.6237,708.6199],[28.2705,-17.6244,708.3833],[28.2722,-17.6208,711.9755],[28.2802,-17.6211,715.2526],[28.2846,-17.6249,711.5553],[28.2874,-17.6244,715.7667],[28.2935,-17.6289,718.868],[28.298,-17.6346,723.5996],[28.3015,-17.636,726.7112],[28.3025,-17.6403,723.436],[28.3134,-17.6465,732.4308],[28.3165,-17.6533,738.2659],[28.3158,-17.6552,739.7468],[28.3181,-17.6636,743.6335],[28.3209,-17.6682,743.9014],[28.3192,-17.6819,753.5841],[28.3218,-17.683,756.6241],[28.327,-17.6926,769.8841],[28.333,-17.6968,777.5607],[28.3325,-17.699,778.9283],[28.3369,-17.7083,787.4081],[28.3455,-17.7168,802.8457],[28.3548,-17.7175,810.6007],[28.3624,-17.7106,808.5342],[28.3622,-17.6996,790.9152],[28.3604,-17.6962,782.6169],[28.3617,-17.6832,774.9124],[28.3719,-17.6774,751.3637],[28.3795,-17.6765,755.3667],[28.382,-17.6681,744.0563],[28.3874,-17.6589,740.505],[28.3903,-17.6433,744.2322],[28.4008,-17.6377,733.0692],[28.408,-17.6407,721.7325],[28.4104,-17.6402,713.8033],[28.4156,-17.6325,711.0121],[28.4216,-17.6299,707.0272],[28.4251,-17.6221,704.91],[28.4297,-17.6195,699.4117],[28.4424,-17.617,692.4807],[28.4516,-17.6074,691.8016],[28.4524,-17.6035,698.335],[28.4518,-17.596,698.8745],[28.4461,-17.5949,707.5119],[28.4386,-17.5881,716.6456],[28.4312,-17.5855,721.4734],[28.4252,-17.5756,736.915],[28.4165,-17.5663,745.874],[28.4147,-17.5602,744.0715],[28.4081,-17.5502,755.3494],[28.394,-17.5324,774.1401],[28.3888,-17.5286,819.6699],[28.3818,-17.5295,924.8977],[28.3769,-17.5283,863.2066],[28.3765,-17.5312,824.7603],[28.3832,-17.5364,806.4968],[28.3741,-17.5385,815.2575],[28.366,-17.5337,906.1576],[28.3628,-17.536,817.3698],[28.3617,-17.5319,922.5601],[28.3557,-17.5289,917.1136],[28.3482,-17.5307,823.084],[28.3452,-17.5277,887.8816],[28.3423,-17.5303,820.6211],[28.3392,-17.53,829.3815],[28.3408,-17.5391,788.8061],[28.337,-17.5417,884.504],[28.3247,-17.535,879.8402],[28.3173,-17.5354,866.1193],[28.3103,-17.5319,798.8206],[28.3101,-17.5296,795.8407],[28.3132,-17.5294,790.5225],[28.3125,-17.5258,786.029],[28.3148,-17.5264,793.1185],[28.317,-17.5231,795.0446],[28.3215,-17.5211,848.6371],[28.3173,-17.5166,813.499],[28.3147,-17.5188,810.7526],[28.3093,-17.5164,809.645],[28.3066,-17.5257,787.2232],[28.301,-17.5333,805.7284],[28.2976,-17.5276,818.8561],[28.2957,-17.5307,814.2399],[28.2914,-17.5317,814.6033],[28.2886,-17.5282,829.3585],[28.2863,-17.5299,823.6815],[28.2859,-17.5325,810.2424],[28.2834,-17.5328,806.2863],[28.2842,-17.5294,879.5083],[28.2809,-17.5314,819.5656],[28.2793,-17.5303,909.3911],[28.2802,-17.5279,905.4783],[28.2778,-17.5262,899.7504],[28.2802,-17.5246,902.7592],[28.2797,-17.5234,898.2272],[28.2682,-17.5281,912.5402],[28.271,-17.5199,884.1559],[28.2702,-17.5182,878.9067],[28.2685,-17.5208,903.0754],[28.2663,-17.521,892.8204],[28.2674,-17.5225,902.6088],[28.2624,-17.53,909.8745],[28.2603,-17.5291,893.1461],[28.2556,-17.5317,900.735],[28.2531,-17.5296,916.2473],[28.259,-17.5269,913.8559],[28.2602,-17.525,886.8505],[28.2591,-17.5232,877.2321],[28.2523,-17.5273,885.1269],[28.2499,-17.5267,886.5968],[28.2471,-17.5298,903.819],[28.2482,-17.5261,884.6134],[28.2457,-17.5266,888.9537],[28.2461,-17.5242,875.0707],[28.2391,-17.5278,911.0151],[28.2405,-17.5223,896.7612],[28.2391,-17.5222,890.3476],[28.2313,-17.5334,930.6683],[28.2329,-17.5256,870.4563],[28.226,-17.5319,892.1617],[28.2239,-17.5375,894.1984],[28.2194,-17.5407,904.0391],[28.2191,-17.5338,905.1035],[28.222,-17.5289,902.0908],[28.2264,-17.5261,927.891],[28.227,-17.5198,876.4952],[28.2254,-17.519,848.6644],[28.2228,-17.5237,872.6671],[28.2163,-17.5294,851.0722],[28.2166,-17.5329,858.8599],[28.2143,-17.5371,893.2886],[28.2133,-17.5332,861.0817],[28.2096,-17.541,790.9825],[28.2045,-17.5448,671.746],[28.2086,-17.553,831.5574],[28.2078,-17.5578,733.8046],[28.2098,-17.5615,756.4573],[28.2022,-17.5765,726.382],[28.2072,-17.5746,925.6043],[28.2172,-17.5753,701.1854]]]]}}