{"type": "Feature","bbox": [31.4087,-17.3852,31.5684,-17.2674],"geometry": {"type": "MultiPolygon","coordinates": [[[[31.471,-17.2723,951.8588],[31.4606,-17.3239,1020.5849],[31.4321,-17.327,1063.551],[31.4087,-17.381,1029.9456],[31.4126,-17.3816,1029.0089],[31.4126,-17.3848,1024.5],[31.4147,-17.3847,1024.5],[31.416,-17.3823,1029.0566],[31.4222,-17.3852,1017.1577],[31.4224,-17.3831,1011.0396],[31.4249,-17.3834,1008.2339],[31.4245,-17.3734,1008.1045],[31.4307,-17.3674,1003.0137],[31.4285,-17.3643,1006.0796],[31.4294,-17.3584,1007.3184],[31.4252,-17.3574,997.637],[31.4253,-17.356,1003.8904],[31.4314,-17.3545,993.6097],[31.4314,-17.3521,991.6903],[31.436,-17.3516,989.1105],[31.4421,-17.3566,992.0844],[31.4467,-17.3561,991.3555],[31.463,-17.3602,986.2142],[31.4697,-17.3602,984.7433],[31.4665,-17.3507,982.6581],[31.4682,-17.3482,980.1257],[31.4803,-17.3424,984.8617],[31.4825,-17.3431,984.8573],[31.4842,-17.3464,975.5417],[31.4869,-17.347,972.7122],[31.4903,-17.3386,977.3138],[31.4952,-17.3355,976.666],[31.4988,-17.3354,973.863],[31.5031,-17.3186,963.9282],[31.5072,-17.312,963.4645],[31.5109,-17.3099,956.8959],[31.5215,-17.3064,953.7557],[31.5251,-17.3082,948.54],[31.5246,-17.3095,948.54],[31.5292,-17.3078,949.6635],[31.5366,-17.3079,944.577],[31.5384,-17.3048,957.7209],[31.5357,-17.3013,935.7707],[31.5373,-17.3005,935.4884],[31.5339,-17.2929,933.0214],[31.5353,-17.2885,927.7648],[31.544,-17.2881,928.0833],[31.5477,-17.2833,924.9078],[31.5518,-17.2847,924.6284],[31.5647,-17.2812,918.7145],[31.567,-17.2786,920.8593],[31.5652,-17.2755,910.6318],[31.5684,-17.2681,903.4648],[31.5652,-17.2681,909.7731],[31.562,-17.2716,915.6438],[31.5538,-17.2702,909.5797],[31.5496,-17.2723,914.1033],[31.5456,-17.2679,919.5278],[31.5428,-17.2675,916.0197],[31.5391,-17.2696,916.9125],[31.5391,-17.2718,920.1595],[31.5304,-17.2722,920.5039],[31.5245,-17.2752,918.7675],[31.5208,-17.2726,926.9356],[31.5158,-17.2743,925.5242],[31.5149,-17.2717,929.8241],[31.5121,-17.2703,929.6639],[31.4951,-17.2707,944.9669],[31.4951,-17.2718,942.9577],[31.4936,-17.2713,939.8772],[31.4941,-17.2674,942.8181],[31.4834,-17.2742,947.6385],[31.4747,-17.2741,949.0266],[31.471,-17.2723,951.8588]]]]}
,"properties": {"GID_3": "ZWE.4.10.10_2","GID_0": "ZWE","country": "Zimbabwe","GID_1": "ZWE.4_1","province": "MashonalandCentral","NL_NAME_1": "NA","GID_2": "ZWE.4.10_2","county": "Shamva","NL_NAME_2": "NA","city": "Ward18","VARNAME_3": "NA","NL_NAME_3": "NA","TYPE_3": "Ward","ENGTYPE_3": "Ward","CC_3": "NA","HASC_3": "NA","name": "Ward18.city","area_km2": 69.125,"hist_schema_id": "Elevation0-9000","hist_area_km2": {"900": 0.48591,"925": 7.2276,"950": 12.99698,"975": 16.67933,"1000": 21.4133,"1025": 7.95368,"1050": 1.43705,"1075": 0.62751,"1100": 0.2834,"1125": 0.02024}}}