{"type": "Feature","bbox": [31.5548,-18.1851,31.5625,-18.1769],"geometry": {"type": "MultiPolygon","coordinates": [[[[31.5625,-18.1781,1654.7635],[31.5583,-18.1769,1661.3113],[31.5548,-18.1851,1679.3539],[31.5588,-18.1843,1667.981],[31.5599,-18.1805,1660.1096],[31.5609,-18.181,1658.9485],[31.5625,-18.1781,1654.7635]]]]}
,"properties": {"GID_3": "ZWE.5.5.1_2","GID_0": "ZWE","country": "Zimbabwe","GID_1": "ZWE.5_1","province": "MashonalandEast","NL_NAME_1": "NA","GID_2": "ZWE.5.5_2","county": "MaronderaUrban","NL_NAME_2": "NA","city": "Ward1","VARNAME_3": "NA","NL_NAME_3": "NA","TYPE_3": "Ward","ENGTYPE_3": "Ward","CC_3": "NA","HASC_3": "NA","name": "Ward1.city","area_km2": 0.3021562,"hist_schema_id": "Elevation0-9000","hist_area_km2": {"1650": 0.1410075,"1675": 0.1611487}}}