{"type": "Feature","bbox": [28.8339,-19.0861,28.9366,-18.9445],"geometry": {"type": "MultiPolygon","coordinates": [[[[28.8729,-18.9445,1108.1498],[28.8712,-18.9483,1106.252],[28.8743,-18.9543,1106.8142],[28.8692,-18.9629,1110.6133],[28.8698,-18.965,1114.8469],[28.8679,-18.9663,1113.9834],[28.869,-18.9705,1114.0662],[28.8607,-18.9825,1122.2944],[28.8605,-18.9877,1124.2552],[28.8575,-18.9914,1127.782],[28.8565,-19.003,1135.5577],[28.8605,-19.0101,1139.8378],[28.8609,-19.0147,1146.7196],[28.856,-19.0231,1148.8324],[28.8339,-19.0376,1167.2234],[28.8339,-19.0407,1166.8416],[28.8416,-19.0517,1198.0447],[28.8612,-19.0689,1211.4541],[28.8729,-19.0747,1211.2024],[28.8868,-19.0845,1221.0178],[28.9003,-19.0861,1222.8525],[28.9031,-19.0853,1223.1157],[28.9051,-19.0737,1197.5763],[28.9146,-19.0478,1171.8857],[28.9285,-19.0265,1141.8092],[28.9366,-19.0107,1125.8727],[28.9213,-18.998,1125.1824],[28.9155,-18.9863,1119.093],[28.9021,-18.9768,1120.3469],[28.9019,-18.9675,1114.0043],[28.8968,-18.9596,1116.0637],[28.8906,-18.9547,1110.1788],[28.8881,-18.9469,1108.4143],[28.8729,-18.9445,1108.1498]]]]}
,"properties": {"GID_3": "ZWE.8.6.22_2","GID_0": "ZWE","country": "Zimbabwe","GID_1": "ZWE.8_1","province": "MatabelelandNorth","NL_NAME_1": "NA","GID_2": "ZWE.8.6_2","county": "Nkayi","NL_NAME_2": "NA","city": "Ward29","VARNAME_3": "NA","NL_NAME_3": "NA","TYPE_3": "Ward","ENGTYPE_3": "Ward","CC_3": "NA","HASC_3": "NA","name": "Ward29.city","area_km2": 88.53678,"hist_schema_id": "Elevation0-9000","hist_area_km2": {"1100": 1.72453,"1125": 26.36414,"1150": 25.01607,"1175": 13.88927,"1200": 19.07816,"1225": 2.46461}}}