{"type": "Feature","bbox": [28.955,-21.0563,29.8756,-19.4806],"geometry": {"type": "MultiPolygon","coordinates": [[[[29.5857,-20.926,991.0352],[29.6243,-20.8912,1134.2419],[29.6375,-20.8285,1074.8265],[29.6506,-20.7557,1024.745],[29.6668,-20.7127,1155.6528],[29.6754,-20.6705,1103.2457],[29.6636,-20.655,1027.5122],[29.6617,-20.6547,1023.3035],[29.6079,-20.6682,1030.9878],[29.5968,-20.6506,1037.5862],[29.5845,-20.6043,1048.8016],[29.6203,-20.5952,1045.8928],[29.6053,-20.5753,1098.5831],[29.7011,-20.5162,1125.1465],[29.7077,-20.4988,1103.2603],[29.7134,-20.4736,1108.2881],[29.7312,-20.4556,1120.4182],[29.7309,-20.3915,1085.1454],[29.778199999999998,-20.2846,1117.9232],[29.7874,-20.2487,1125.3259],[29.7922,-20.2392,1169.5415],[29.7921,-20.2155,1135.2947],[29.816,-20.1592,1180.5551],[29.8408,-20.106,1181.6489],[29.8734,-20.0614,1101.5444],[29.8756,-20.0057,1162.506],[29.8094,-20.0001,1171.8326],[29.8004,-20.0032,1176.5753],[29.8014,-19.9541,1187.2666],[29.7982,-19.9526,1180.3392],[29.7977,-19.9449,1208.7732],[29.7528,-19.9551,1206.4584],[29.711,-19.9729,1234.3923],[29.6952,-19.9722,1247.9552],[29.6874,-19.9289,1251.2576],[29.6802,-19.9051,1259.9014],[29.6639,-19.9083,1251.8523],[29.6541,-19.9122,1271.0338],[29.6185,-19.9322,1264.9076],[29.6061,-19.935,1272.2786],[29.5985,-19.9342,1278.6039],[29.5822,-19.9182,1296.905],[29.5622,-19.8861,1340.0081],[29.5429,-19.8749,1348.4672],[29.5176,-19.8635,1400.1801],[29.5024,-19.8614,1389.2014],[29.4724,-19.8478,1415.0929],[29.4454,-19.8638,1425.0044],[29.4138,-19.8871,1446.2269],[29.4032,-19.8427,1371.5435],[29.4037,-19.8183,1354.5314],[29.4128,-19.8068,1349.5508],[29.4155,-19.7726,1334.4644],[29.4184,-19.7659,1329.499],[29.416,-19.7652,1331.8748],[29.416,-19.7636,1330.5138],[29.4211,-19.7586,1328.9885],[29.4234,-19.7583,1332.6914],[29.4235,-19.7565,1329.7598],[29.4168,-19.7504,1333.3125],[29.4153,-19.7505,1332.1616],[29.4151,-19.7524,1325.4873],[29.4121,-19.752,1326.6326],[29.4095,-19.7478,1331.6814],[29.4136,-19.7435,1319.0261],[29.413,-19.7333,1320.3975],[29.4075,-19.7272,1313.0959],[29.4065,-19.7221,1314.72],[29.4035,-19.7193,1310.4247],[29.4036,-19.7171,1311.5848],[29.4064,-19.7144,1318.9597],[29.404,-19.713,1305.6268],[29.4041,-19.7095,1307.6093],[29.4007,-19.7032,1303.9089],[29.4014,-19.6989,1314.9565],[29.3922,-19.6936,1317.6521],[29.3892,-19.6938,1305.3834],[29.3867,-19.6904,1304.1028],[29.3769,-19.6882,1300.927],[29.3703,-19.6777,1307.5076],[29.3631,-19.6791,1300.1417],[29.3597,-19.669,1293.4974],[29.3599,-19.6624,1293.2627],[29.3618,-19.6606,1302.4426],[29.3567,-19.6549,1292.1616],[29.3588,-19.6523,1289.7721],[29.3588,-19.6496,1289.6929],[29.3563,-19.6468,1287.1301],[29.3564,-19.6444,1286.0569],[29.3544,-19.6432,1290.5515],[29.3568,-19.6414,1295.4506],[29.3459,-19.6303,1292.1475],[29.3429,-19.63,1291.8617],[29.34,-19.6271,1287.7124],[29.322,-19.6185,1284.0591],[29.3173,-19.6184,1279.8535],[29.3153,-19.6141,1271.4572],[29.3167,-19.6092,1280.9613],[29.3128,-19.6036,1277.031],[29.307,-19.6011,1269.9739],[29.3076,-19.5953,1276.5039],[29.2955,-19.5835,1268.5],[29.2956,-19.5812,1270.5295],[29.3007,-19.577,1269.3682],[29.3015,-19.5743,1283.52],[29.2959,-19.5728,1267.8888],[29.292,-19.5687,1266.595],[29.2853,-19.5677,1260.4202],[29.2823,-19.5651,1256.1511],[29.2795,-19.5455,1249.3143],[29.2798,-19.5323,1259.0548],[29.2748,-19.526,1257.406],[29.2711,-19.524,1255.6775],[29.2651,-19.5149,1253.452],[29.2579,-19.512,1247.0725],[29.2538,-19.5026,1244.7388],[29.246,-19.4981,1244.4358],[29.2437,-19.49,1239.8965],[29.2399,-19.4841,1239.8479],[29.2328,-19.4806,1244.9762],[29.2338,-19.4824,1239.4686],[29.2155,-19.5296,1280.2537],[29.1719,-19.4977,1261.0154],[29.1073,-19.4903,1247.7036],[29.1027,-19.4918,1248.1643],[29.0964,-19.5006,1251.0636],[29.0921,-19.5015,1251.4924],[29.0903,-19.5065,1251.7139],[29.0821,-19.5097,1255.6895],[29.0835,-19.5193,1260.7644],[29.0944,-19.5342,1304.886],[29.1271,-19.5347,1307.7485],[29.1951,-19.5647,1314.8616],[29.1157,-19.6013,1327.267],[29.0692,-19.6544,1330.198],[29.0417,-19.6573,1347.8269],[29.1029,-19.7093,1356.6672],[29.1035,-19.7754,1401.4998],[29.0858,-19.8072,1387.9786],[29.0979,-19.814,1401.0417],[29.072,-19.83,1393.9578],[29.0466,-19.8532,1403.2849],[28.955,-19.8217,1373.5404],[28.9914,-19.9427,1368.9866],[28.9833,-19.9568,1371.2338],[29.0147,-19.9744,1340.2289],[29.0199,-20.0063,1341.3374],[29.0402,-20.003,1320.1287],[29.0566,-20.101,1251.0543],[29.0892,-20.1081,1249.0911],[29.0887,-20.1485,1234.7462],[29.158,-20.1912,1204.5914],[29.2102,-20.1914,1183.5077],[29.1938,-20.2249,1186.8035],[29.1871,-20.2662,1200.082],[29.1995,-20.2871,1174.5958],[29.1936,-20.3201,1221.7689],[29.2317,-20.378,1163.3741],[29.177,-20.4057,1072.7778],[29.1218,-20.411,1013.9857],[29.121,-20.4215,1011.6293],[29.1224,-20.424,1010.3123],[29.1259,-20.4227,1015.7343],[29.13,-20.4244,1012.0233],[29.1274,-20.429,1009.9864],[29.1279,-20.4399,1005.8861],[29.1348,-20.456,1007.1265],[29.1327,-20.4592,997.6687],[29.1282,-20.4602,1005.632],[29.1279,-20.4711,999.9263],[29.1268,-20.4743,997.3765],[29.1236,-20.4767,1000.3567],[29.1275,-20.4829,989.7065],[29.1249,-20.4887,984.5652],[29.1283,-20.499,979.364],[29.1261,-20.4995,984.1458],[29.1261,-20.501,986.1448],[29.1298,-20.5136,982.1131],[29.127,-20.525,970.3891],[29.1367,-20.5332,976.1837],[29.1535,-20.5562,971.2177],[29.1828,-20.5605,941.7889],[29.181,-20.5685,943.364],[29.1821,-20.5947,939.452],[29.184,-20.5971,947.6661],[29.186,-20.6063,930.1163],[29.1854,-20.6137,926.7274],[29.1908,-20.6266,927.4714],[29.1938,-20.6434,922.9433],[29.1978,-20.653,920.9623],[29.1999,-20.6711,923.9775],[29.2161,-20.7117,915.3518],[29.2226,-20.7221,923.4056],[29.2351,-20.7568,908.4817],[29.2389,-20.7698,906.4107],[29.2404,-20.7844,901.8468],[29.2457,-20.7946,905.5974],[29.2485,-20.8065,896.7706],[29.2576,-20.8174,900.6371],[29.2581,-20.8283,898.2083],[29.2702,-20.8379,896.8192],[29.269,-20.8444,892.3179],[29.2713,-20.8474,897.21],[29.2853,-20.8561,893.5073],[29.2899,-20.8704,889.7435],[29.2898,-20.8854,890.1251],[29.2976,-20.903199999999998,887.5193],[29.3019,-20.9066,885.9678],[29.3122,-20.9063,877.4005],[29.3277,-20.9129,880.6002],[29.3374,-20.923,874.006],[29.3492,-20.9311,869.1133],[29.356,-20.9447,859.6779],[29.3551,-20.9543,857.34],[29.3526,-20.9613,854.538],[29.3472,-20.9678,860.5698],[29.3458,-20.9741,849.8867],[29.3499,-21.0007,849.545],[29.3467,-21.0075,845.85],[29.3579,-21.0185,844.3365],[29.3573,-21.0307,842.8397],[29.4395,-21.0563,906.7021],[29.4986,-21.028199999999998,996.2617],[29.4578,-21.0156,884.9686],[29.4894,-20.9953,888.1127],[29.5414,-20.9534,956.1666],[29.5857,-20.926,991.0352]]]]}
,"properties": {"GID_2": "ZWE.9.6_2","GID_0": "ZWE","country": "Zimbabwe","GID_1": "ZWE.9_1","province": "MatabelelandSouth","NL_NAME_1": "NA","county": "Insiza","VARNAME_2": "NA","NL_NAME_2": "NA","TYPE_2": "District","ENGTYPE_2": "District","CC_2": "NA","HASC_2": "NA","name": "Insiza.county","area_km2": 8246.5,"hist_schema_id": "Elevation0-9000","hist_area_km2": {"850": 9.678,"875": 64.251,"900": 111.109,"925": 150.942,"950": 168.324,"975": 194.327,"1000": 257.094,"1025": 349.01,"1050": 414.248,"1075": 429.661,"1100": 392.832,"1125": 425.123,"1150": 476.036,"1175": 535.084,"1200": 568.343,"1225": 538.645,"1250": 503.565,"1275": 465.061,"1300": 371.298,"1325": 365.053,"1350": 405.962,"1375": 325.086,"1400": 260.324,"1425": 195.218,"1450": 141.864,"1475": 95.635,"1500": 31.828,"1525": 0.897}}}