{"type":"Feature","properties":{"GID_3":"ZWE.10.9.19_2","GID_0":"ZWE","country":"Zimbabwe","GID_1":"ZWE.10_1","province":"Midlands","NL_NAME_1":"NA","GID_2":"ZWE.10.9_2","county":"Mberengwa","NL_NAME_2":"NA","city":"Ward26","VARNAME_3":"NA","NL_NAME_3":"NA","TYPE_3":"Ward","ENGTYPE_3":"Ward","CC_3":"NA","HASC_3":"NA","name":"Ward26.city"},
"geometry":{"type": "MultiPolygon","coordinates": [[[[30.0688,-20.9664,723.8731],[30.0817,-20.9566,743.3899],[30.1014,-20.9449,775.5849],[30.1083,-20.9459,764.4757],[30.1293,-20.9572,754.6058],[30.1533,-20.957,763.9586],[30.1564,-20.9529,755.7751],[30.1568,-20.948,748.9904],[30.1709,-20.9314,727.5214],[30.1879,-20.9307,716.8501],[30.1945,-20.9251,708.5],[30.2016,-20.923,721.3106],[30.2057,-20.9236,719.1044],[30.2137,-20.9192,704.6863],[30.2241,-20.9213,692.3202],[30.2243,-20.9185,694.887],[30.2196,-20.9118,698.9302],[30.2229,-20.9075,706.457],[30.222,-20.9051,712.1622],[30.2064,-20.889,724.195],[30.2037,-20.8765,726.739],[30.213,-20.8724,735.5258],[30.2107,-20.8674,750.0996],[30.2046,-20.8624,740.7339],[30.2068,-20.8602,740.496],[30.2059,-20.8586,740.0433],[30.1874,-20.8429,752.8217],[30.1816,-20.8424,752.0745],[30.1687,-20.8328,770.0],[30.1659,-20.827,770.0],[30.1509,-20.8374,776.5038],[30.1354,-20.8446,772.892],[30.1279,-20.8585,775.0575],[30.1301,-20.8766,768.2482],[30.1268,-20.8933,826.6873],[30.1186,-20.9066,772.2343],[30.1016,-20.9174,770.4067],[30.0916,-20.9208,765.0588],[30.0858,-20.9245,753.7715],[30.0861,-20.931,751.3492],[30.0833,-20.9343,748.199],[30.0837,-20.9368,748.4855],[30.0804,-20.9391,747.3801],[30.0786,-20.9385,747.4408],[30.0777,-20.9428,746.8482],[30.0747,-20.9435,745.0358],[30.0734,-20.9469,741.0876],[30.0686,-20.9471,743.2587],[30.0696,-20.9489,742.6373],[30.0664,-20.9514,737.7656],[30.066,-20.9561,734.6884],[30.0595,-20.9603,734.6478],[30.0688,-20.9664,723.8731]]]]}}