{"type": "Feature","bbox": [28.867,-20.4507,29.0349,-20.393],"geometry": {"type": "MultiPolygon","coordinates": [[[[29.0338,-20.4018,1052.8389],[29.0209,-20.3995,1074.1825],[29.0169,-20.3964,1059.6249],[29.0123,-20.3981,1056.7775],[28.9919,-20.3958,1073.5857],[28.9901,-20.4043,1098.3977],[28.9462,-20.3999,1131.658],[28.9397,-20.4002,1129.1194],[28.9358,-20.4027,1143.0179],[28.9223,-20.3962,1145.9799],[28.8969,-20.393,1145.718],[28.8873,-20.3938,1167.7571],[28.8854,-20.3944,1153.9498],[28.8837,-20.3977,1162.0236],[28.8837,-20.4015,1163.2015],[28.8872,-20.4047,1150.6107],[28.8937,-20.407,1151.1473],[28.8925,-20.4101,1142.1243],[28.8904,-20.4124,1129.7893],[28.8834,-20.4149,1140.1854],[28.8752,-20.4232,1165.9313],[28.8708,-20.4242,1166.176],[28.8676,-20.4277,1174.4476],[28.867,-20.4307,1182.0756],[28.8944,-20.4282,1163.5613],[28.9043,-20.4461,1189.8827],[28.9252,-20.4507,1140.0615],[28.9823,-20.4403,1090.7065],[29.0068,-20.4156,1134.8093],[29.0349,-20.4147,1089.421],[29.0338,-20.4018,1052.8389]]]]}
,"properties": {"GID_3": "ZWE.9.10.16_2","GID_0": "ZWE","country": "Zimbabwe","GID_1": "ZWE.9_1","province": "MatabelelandSouth","NL_NAME_1": "NA","GID_2": "ZWE.9.10_2","county": "Umzingwane","NL_NAME_2": "NA","city": "Ward5","VARNAME_3": "NA","NL_NAME_3": "NA","TYPE_3": "Ward","ENGTYPE_3": "Ward","CC_3": "NA","HASC_3": "NA","name": "Ward5.city","area_km2": 65.43165,"hist_schema_id": "Elevation0-9000","hist_area_km2": {"1050": 1.47055,"1075": 5.70279,"1100": 17.76369,"1125": 18.89649,"1150": 14.06798,"1175": 5.52353,"1200": 1.31126,"1225": 0.23841,"1250": 0.25828,"1275": 0.17881,"1300": 0.01987}}}