{"type":"Feature","properties":{"GID_3":"ZWE.7.7.10_2","GID_0":"ZWE","country":"Zimbabwe","GID_1":"ZWE.7_1","province":"Masvingo","NL_NAME_1":"NA","GID_2":"ZWE.7.7_2","county":"MasvingoUrban","NL_NAME_2":"NA","city":"Ward9","VARNAME_3":"NA","NL_NAME_3":"NA","TYPE_3":"Ward","ENGTYPE_3":"Ward","CC_3":"NA","HASC_3":"NA","name":"Ward9.city"},
"geometry":{"type": "MultiPolygon","coordinates": [[[[30.8396,-20.0275,1077.0519],[30.8369,-20.0269,1072.3007],[30.8123,-20.0343,1108.161],[30.81,-20.0381,1108.2583],[30.8238,-20.0639,1087.9729],[30.8308,-20.0697,1082.4197],[30.8321,-20.0667,1085.9061],[30.8373,-20.0681,1073.9675],[30.8419,-20.0663,1067.5013],[30.8448,-20.0613,1073.7269],[30.8439,-20.0455,1072.6632],[30.8385,-20.0387,1078.7043],[30.8396,-20.0275,1077.0519]]]]}}