{"type":"Feature","properties":{"GID_3":"ZWE.4.7.25_2","GID_0":"ZWE","country":"Zimbabwe","GID_1":"ZWE.4_1","province":"MashonalandCentral","NL_NAME_1":"NA","GID_2":"ZWE.4.7_2","county":"MountDarwin","NL_NAME_2":"NA","city":"Ward31","VARNAME_3":"NA","NL_NAME_3":"NA","TYPE_3":"Ward","ENGTYPE_3":"Ward","CC_3":"NA","HASC_3":"NA","name":"Ward31.city"},
"geometry":{"type": "MultiPolygon","coordinates": [[[[31.4628,-16.1575,404.8204],[31.4611,-16.1588,397.1318],[31.4568,-16.1558,405.6818],[31.4525,-16.1592,397.3829],[31.4511,-16.1581,399.4249],[31.4517,-16.1549,400.6749],[31.4463,-16.1538,397.8502],[31.4321,-16.1562,390.6329],[31.4268,-16.1591,392.5597],[31.432,-16.1646,393.982],[31.4352,-16.1721,396.4185],[31.4369,-16.1825,398.749],[31.4427,-16.1907,400.8585],[31.4452,-16.2029,404.991],[31.4534,-16.2149,409.6895],[31.4545,-16.2244,417.0201],[31.5202,-16.2516,435.9587],[31.5389,-16.2561,441.9939],[31.5389,-16.2586,443.0935],[31.5475,-16.267,447.0484],[31.5469,-16.2724,450.9346],[31.554,-16.2783,456.6049],[31.5651,-16.2823,460.9443],[31.5666,-16.2901,462.7696],[31.5761,-16.298,469.0563],[31.5758,-16.3175,479.7646],[31.5886,-16.313,488.0532],[31.5998,-16.3038,488.7206],[31.6218,-16.2979,484.8463],[31.633,-16.299,487.8355],[31.6486,-16.2975,493.8923],[31.6589,-16.3038,500.4986],[31.6653,-16.3048,505.9194],[31.6739,-16.3019,499.5946],[31.6722,-16.2987,498.5132],[31.6717,-16.3002,496.1336],[31.6696,-16.2992,494.4305],[31.6703,-16.2966,495.2787],[31.6687,-16.2915,493.0769],[31.6661,-16.2928,492.6609],[31.6624,-16.2915,490.3709],[31.6633,-16.2896,488.51],[31.66,-16.2851,484.8753],[31.6646,-16.2848,487.3425],[31.6605,-16.2816,482.2645],[31.6591,-16.2761,480.9674],[31.6546,-16.2755,478.5518],[31.6527,-16.2697,477.37],[31.6502,-16.2704,476.2849],[31.6507,-16.2725,476.6577],[31.6493,-16.2727,476.6577],[31.6449,-16.2671,472.0181],[31.6413,-16.2678,472.0301],[31.6373,-16.2655,468.6003],[31.6353,-16.2665,467.7643],[31.633,-16.2633,466.8284],[31.6304,-16.2641,464.8934],[31.6279,-16.2616,465.084],[31.6239,-16.2629,462.0453],[31.6258,-16.2552,461.1638],[31.6217,-16.2557,459.7791],[31.6233,-16.253,460.5235],[31.6224,-16.2508,459.313],[31.617,-16.2512,457.4715],[31.6142,-16.2475,457.7353],[31.616,-16.2451,456.8838],[31.6153,-16.2426,453.7489],[31.6113,-16.2449,455.0449],[31.6123,-16.239,452.3943],[31.6098,-16.2319,449.2076],[31.6056,-16.2337,447.2678],[31.6044,-16.2271,445.851],[31.601,-16.2279,444.8602],[31.5955,-16.2232,442.6564],[31.5941,-16.2241,442.6564],[31.5925,-16.2198,440.6989],[31.5871,-16.2159,437.3274],[31.5881,-16.2132,438.2883],[31.5801,-16.2088,433.7554],[31.5792,-16.1962,428.1741],[31.5766,-16.1952,430.6663],[31.5771,-16.1895,426.96],[31.5451,-16.1842,419.0314],[31.4993,-16.1707,406.5952],[31.4814,-16.1569,402.9149],[31.4659,-16.159,398.7041],[31.4628,-16.1575,404.8204]]]]}}