{"type": "Feature","bbox": [28.3371,-20.6955,28.5079,-20.5792],"geometry": {"type": "MultiPolygon","coordinates": [[[[28.5079,-20.6488,1308.9895],[28.5006,-20.6065,1317.3185],[28.4452,-20.5792,1300.7771],[28.443,-20.5995,1328.1062],[28.4485,-20.6198,1266.1963],[28.4273,-20.619,1221.667],[28.4179,-20.6043,1347.301],[28.3925,-20.5976,1315.7175],[28.3575,-20.6006,1372.4651],[28.351,-20.5986,1331.709],[28.3457,-20.5988,1330.9253],[28.35,-20.5835,1346.1193],[28.3383,-20.583,1285.7648],[28.3371,-20.593,1274.0736],[28.34,-20.6054,1266.0671],[28.3392,-20.6166,1250.6987],[28.3418,-20.6393,1203.4312],[28.3523,-20.6533,1182.8036],[28.3512,-20.656,1169.3298],[28.3571,-20.6638,1161.537],[28.3679,-20.6839,1143.5328],[28.3798,-20.6732,1253.3704],[28.4052,-20.6833,1217.8137],[28.4419,-20.695,1142.1432],[28.4496,-20.6955,1133.9875],[28.4738,-20.6814,1169.2324],[28.4959,-20.6829,1126.7944],[28.4934,-20.68,1135.853],[28.4949,-20.6727,1135.2869],[28.4936,-20.6689,1139.4843],[28.4829,-20.6594,1156.6298],[28.4803,-20.6491,1238.0071],[28.5079,-20.6488,1308.9895]]]]}
,"properties": {"GID_3": "ZWE.9.8.9_2","GID_0": "ZWE","country": "Zimbabwe","GID_1": "ZWE.9_1","province": "MatabelelandSouth","NL_NAME_1": "NA","GID_2": "ZWE.9.8_2","county": "Matobo","NL_NAME_2": "NA","city": "Ward17","VARNAME_3": "NA","NL_NAME_3": "NA","TYPE_3": "Ward","ENGTYPE_3": "Ward","CC_3": "NA","HASC_3": "NA","name": "Ward17.city","area_km2": 147.8779,"hist_schema_id": "Elevation0-9000","hist_area_km2": {"1125": 3.9278,"1150": 14.6009,"1175": 18.9864,"1200": 16.7248,"1225": 15.2771,"1250": 16.5089,"1275": 20.2007,"1300": 16.0734,"1325": 12.2432,"1350": 10.4574,"1375": 2.6987,"1400": 0.1786}}}