{"type": "Feature","bbox": [28.5098,-20.1439,28.5254,-20.1208],"geometry": {"type": "MultiPolygon","coordinates": [[[[28.5201,-20.1208,1351.8905],[28.5103,-20.1236,1357.3075],[28.5098,-20.1343,1374.8453],[28.5173,-20.1439,1390.6108],[28.5254,-20.1222,1356.3032],[28.5201,-20.1208,1351.8905]]]]}
,"properties": {"GID_3": "ZWE.1.1.6_2","GID_0": "ZWE","country": "Zimbabwe","GID_1": "ZWE.1_1","province": "Bulawayo","NL_NAME_1": "NA","GID_2": "ZWE.1.1_2","county": "Bulawayo","NL_NAME_2": "NA","city": "Ward14","VARNAME_3": "NA","NL_NAME_3": "NA","TYPE_3": "Ward","ENGTYPE_3": "Ward","CC_3": "NA","HASC_3": "NA","name": "Ward14.city","area_km2": 2.448563,"hist_schema_id": "Elevation0-9000","hist_area_km2": {"1350": 0.696772,"1375": 1.4532,"1400": 0.298591}}}