{"type":"Feature","properties":{"GID_2":"ZWE.9.4_2","GID_0":"ZWE","country":"Zimbabwe","GID_1":"ZWE.9_1","province":"MatabelelandSouth","NL_NAME_1":"NA","county":"Gwanda","VARNAME_2":"NA","NL_NAME_2":"NA","TYPE_2":"District","ENGTYPE_2":"District","CC_2":"NA","HASC_2":"NA","name":"Gwanda.county"},
"geometry":{"type": "MultiPolygon","coordinates": [[[[29.077,-21.8145,605.8655],[29.0783,-21.8166,596.1458],[29.0759,-21.8188,598.5139],[29.0768,-21.8199,605.343],[29.0638,-21.8301,637.511],[29.0395,-21.8623,644.0126],[29.0337,-21.8759,646.802],[29.0326,-21.8843,647.3962],[29.0272,-21.8936,655.5439],[29.024,-21.9098,669.0089],[29.022,-21.9323,671.1373],[29.0234,-21.9511,659.1531],[29.0301,-21.9803,667.1684],[29.0377,-21.9968,659.4785],[29.1881,-21.8977,575.2512],[29.1873,-21.8943,585.7081],[29.183,-21.8901,582.1757],[29.1817,-21.8808,582.7575],[29.1784,-21.8742,585.277],[29.18,-21.8721,584.3563],[29.1836,-21.8716,584.3724],[29.1905,-21.8634,589.4232],[29.2009,-21.8583,607.6907],[29.1988,-21.85,594.0784],[29.2045,-21.8406,610.1927],[29.2077,-21.8393,608.8698],[29.2129,-21.8411,607.342],[29.2159,-21.8393,607.9149],[29.2151,-21.8344,613.5335],[29.208,-21.8289,613.3683],[29.2062,-21.8207,627.5519],[29.2085,-21.8179,621.5923],[29.2172,-21.8167,619.6157],[29.218,-21.8123,623.2693],[29.2217,-21.8095,626.0942],[29.2231,-21.8046,627.3054],[29.2259,-21.8028,629.5383],[29.2262,-21.7922,638.4841],[29.224,-21.7868,637.8185],[29.2282,-21.7832,641.884],[29.2289,-21.7774,646.728],[29.2329,-21.7767,647.8251],[29.2349,-21.7686,651.4865],[29.2322,-21.7679,656.1888],[29.2375,-21.7576,661.485],[29.2479,-21.7474,678.8269],[29.2987,-21.6539,718.7186],[29.3599,-21.5612,719.7314],[29.4299,-21.5468,662.0991],[29.4526,-21.5399,633.0493],[29.4671,-21.5332,657.063],[29.5198,-21.5147,681.0867],[29.4959,-21.454,714.056],[29.8035,-21.4989,900.0201],[29.8502,-21.4265,724.9048],[29.8964,-21.3593,750.7443],[29.8907,-21.3285,708.8513],[29.8548,-21.3103,737.0835],[29.9063,-21.2694,695.4617],[29.8998,-21.268,697.9742],[29.8915,-21.2698,686.244],[29.8893,-21.2652,694.4454],[29.8865,-21.2634,691.898],[29.8924,-21.251,705.8337],[29.8874,-21.246,708.4607],[29.8862,-21.2317,710.2031],[29.8934,-21.2289,714.1783],[29.8948,-21.2274,712.0605],[29.8938,-21.2254,714.1693],[29.8878,-21.2214,725.1278],[29.8857,-21.217,720.2635],[29.8808,-21.2143,717.7249],[29.8791,-21.21,724.1707],[29.8745,-21.21,723.2199],[29.8497,-21.2034,731.2467],[29.8467,-21.2003,733.6675],[29.8472,-21.1928,737.113],[29.8457,-21.189,741.1135],[29.8448,-21.1878,748.0614],[29.8422,-21.1884,733.2472],[29.8385,-21.179,755.9542],[29.8313,-21.1751,754.0],[29.8314,-21.1649,778.623],[29.8434,-21.1585,763.5966],[29.8411,-21.1514,772.3674],[29.8388,-21.1499,771.6738],[29.8341,-21.1501,773.919],[29.8204,-21.1422,777.7483],[29.8159,-21.1422,777.1904],[29.8128,-21.1394,785.3043],[29.8077,-21.1391,781.4272],[29.804,-21.1358,782.0493],[29.8013,-21.1356,783.5514],[29.7915,-21.128,784.3015],[29.786,-21.1195,790.3307],[29.7772,-21.1123,790.3926],[29.7743,-21.1116,791.1699],[29.7707,-21.1074,800.725],[29.7701,-21.1022,796.439],[29.7655,-21.098,797.2595],[29.766,-21.0889,804.204],[29.7567,-21.0909,811.8945],[29.7547,-21.0878,817.892],[29.7521,-21.0873,811.8858],[29.7474,-21.0773,809.5529],[29.7478,-21.0732,817.9328],[29.7361,-21.0429,869.6409],[29.731,-21.0333,834.31],[29.7321,-21.0312,852.588],[29.7307,-21.0229,870.6164],[29.6896,-21.0213,992.6275],[29.5925,-21.0405,949.1686],[29.5345,-21.0368,992.8748],[29.4986,-21.028199999999998,996.2617],[29.4395,-21.0563,906.7021],[29.3573,-21.0307,842.8397],[29.3579,-21.0185,844.3365],[29.3467,-21.0072,845.85],[29.3499,-21.0007,849.545],[29.3458,-20.9731,849.8867],[29.3472,-20.9678,860.5698],[29.3526,-20.9613,854.538],[29.3557,-20.9525,860.6365],[29.3561,-20.945,859.6779],[29.3534,-20.9381,862.2896],[29.3492,-20.9311,869.1133],[29.3374,-20.923,874.006],[29.3248,-20.9109,884.3878],[29.3115,-20.9061,882.5996],[29.3019,-20.9066,885.9678],[29.2976,-20.903199999999998,887.5193],[29.2898,-20.8854,890.1251],[29.2899,-20.8704,889.7435],[29.2853,-20.8561,893.5073],[29.2713,-20.8474,897.21],[29.269,-20.8444,892.3179],[29.2702,-20.8379,896.8192],[29.2581,-20.8283,898.2083],[29.2576,-20.8174,900.6371],[29.2485,-20.8065,896.7706],[29.2457,-20.7946,905.5974],[29.2404,-20.7844,901.8468],[29.2389,-20.7698,906.4107],[29.2351,-20.7568,908.4817],[29.2226,-20.7221,923.4056],[29.2161,-20.7117,915.3518],[29.1999,-20.6711,923.9775],[29.1978,-20.653,920.9623],[29.1938,-20.6434,922.9433],[29.1908,-20.6266,927.4714],[29.1854,-20.6137,926.7274],[29.186,-20.6063,930.1163],[29.184,-20.5971,947.6661],[29.1821,-20.5947,939.452],[29.181,-20.5685,943.364],[29.1829,-20.5608,941.7889],[29.1587,-20.5574,968.2241],[29.1337,-20.5881,1002.0681],[29.0481,-20.6049,1115.6855],[28.9762,-20.6111,1112.6052],[28.957,-20.5972,1122.2031],[28.9232,-20.6992,1078.9553],[28.8254,-20.659,1288.4667],[28.8151,-20.6593,1119.647],[28.7844,-20.623,1225.4874],[28.748,-20.6471,1122.5963],[28.7331,-20.6798,1229.7308],[28.6795,-20.6927,1093.6062],[28.6553,-20.6935,1060.7124],[28.7061,-20.8538,1052.8279],[28.6991,-20.9487,1047.1411],[28.7623,-20.9945,928.1674],[28.7426,-21.0155,952.0535],[28.7629,-21.0516,971.5242],[28.7199,-21.07,916.032],[28.7,-21.0361,925.8772],[28.6753,-21.0547,1006.0564],[28.6892,-21.0828,913.0779],[28.6338,-21.1394,1018.9805],[28.657,-21.1892,941.2169],[28.6204,-21.2277,983.8219],[28.6951,-21.2399,978.1642],[28.6811,-21.2708,927.0321],[28.747,-21.3293,853.5226],[28.7668,-21.4592,832.7626],[28.7239,-21.6053,740.2438],[28.7306,-21.6259,735.8602],[28.7419,-21.6294,735.0671],[28.7421,-21.6316,733.4866],[28.7394,-21.6343,735.8654],[28.7341,-21.6349,733.9731],[28.7316,-21.6386,727.9935],[28.7321,-21.6427,728.7093],[28.7383,-21.6467,724.9708],[28.7434,-21.6542,721.1963],[28.749,-21.656,723.2041],[28.7553,-21.6553,721.6552],[28.7567,-21.6608,716.2203],[28.7635,-21.6625,716.3365],[28.7642,-21.6679,715.4222],[28.7745,-21.6768,709.9207],[28.7737,-21.6932,692.1759],[28.7798,-21.7007,685.997],[28.7751,-21.7163,676.6808],[28.7945,-21.7285,664.044],[28.8213,-21.7302,689.4453],[28.8282,-21.732,656.3574],[28.847,-21.7422,647.5956],[28.8601,-21.7523,647.262],[28.8895,-21.7562,682.4235],[28.9021,-21.7613,635.9534],[28.9174,-21.7621,634.3502],[28.9592,-21.7722,628.4626],[28.9788,-21.7673,624.0153],[28.9901,-21.7673,614.7338],[29.0172,-21.7884,617.2642],[29.0322,-21.7914,614.5064],[29.0534,-21.7989,605.9886],[29.0585,-21.7992,605.1285],[29.0717,-21.8068,611.2025],[29.077,-21.8145,605.8655]],
[[29.0308,-20.9472,996.6513],[29.0016,-20.9589,1084.8638],[28.9997,-20.9505,960.7173],[28.9946,-20.9507,957.9623],[28.9946,-20.9477,960.0476],[28.99,-20.9465,980.738],[28.9884,-20.9429,991.4271],[28.9737,-20.9396,1050.3042],[28.9501,-20.9272,1009.9007],[28.9497,-20.9198,1018.5842],[28.9922,-20.9306,966.9409],[28.9885,-20.9238,969.5401],[28.9896,-20.9158,1004.0902],[28.995,-20.9173,1008.2389],[28.9963,-20.9102,1027.4922],[29.0056,-20.9124,1009.4464],[29.0044,-20.9162,1013.488],[29.0356,-20.9244,1022.9561],[29.0344,-20.9352,1001.5203],[29.0308,-20.9472,996.6513]]]]}}