{"type": "Feature","bbox": [28.5338,-19.2396,28.729,-19.0094],"geometry": {"type": "MultiPolygon","coordinates": [[[[28.638,-19.2232,1202.8765],[28.6812,-19.2396,1195.4399],[28.693,-19.2289,1226.0643],[28.6961,-19.2196,1226.9906],[28.7075,-19.2076,1224.8044],[28.7165,-19.1941,1221.458],[28.7239,-19.1861,1207.698],[28.7278,-19.1733,1190.5403],[28.725,-19.1605,1186.2959],[28.729,-19.1333,1206.1592],[28.7288,-19.1256,1205.1611],[28.721,-19.11,1246.9232],[28.7176,-19.0931,1241.3727],[28.7154,-19.0797,1201.293],[28.7148,-19.0487,1205.0314],[28.7106,-19.0316,1247.6781],[28.7019,-19.0222,1240.8564],[28.6572,-19.0094,1234.4709],[28.6569,-19.0106,1235.0468],[28.6521,-19.0109,1234.7876],[28.6482,-19.0132,1234.0005],[28.6393,-19.026,1192.0585],[28.629,-19.0323,1175.1735],[28.6228,-19.0339,1166.5876],[28.6141,-19.0401,1146.9462],[28.5994,-19.0718,1233.0537],[28.5893,-19.0797,1230.9769],[28.5856,-19.0933,1174.4633],[28.5728,-19.1171,1122.8101],[28.5514,-19.1405,1197.1544],[28.5474,-19.1513,1219.9243],[28.5416,-19.1563,1213.2957],[28.5338,-19.1781,1184.5911],[28.638,-19.2232,1202.8765]]]]}
,"properties": {"GID_3": "ZWE.8.6.16_2","GID_0": "ZWE","country": "Zimbabwe","GID_1": "ZWE.8_1","province": "MatabelelandNorth","NL_NAME_1": "NA","GID_2": "ZWE.8.6_2","county": "Nkayi","NL_NAME_2": "NA","city": "Ward23","VARNAME_3": "NA","NL_NAME_3": "NA","TYPE_3": "Ward","ENGTYPE_3": "Ward","CC_3": "NA","HASC_3": "NA","name": "Ward23.city","area_km2": 330.679,"hist_schema_id": "Elevation0-9000","hist_area_km2": {"1125": 5.4086,"1150": 29.6275,"1175": 74.5827,"1200": 78.7252,"1225": 101.4907,"1250": 40.8444}}}