{"type": "Feature","bbox": [32.6965,-18.659,32.8137,-18.5796],"geometry": {"type": "MultiPolygon","coordinates": [[[[32.6965,-18.6158,1038.1261],[32.7232,-18.6158,1050.1157],[32.7228,-18.6184,1024.9189],[32.7163,-18.6244,1158.2068],[32.7201,-18.6329,1263.5099],[32.7333,-18.6358,1449.5989],[32.7372,-18.6399,1514.0042],[32.7431,-18.6402,1556.4769],[32.7522,-18.6491,1293.114],[32.7576,-18.6489,1224.6027],[32.7559,-18.6556,1459.6252],[32.7589,-18.659,1633.6803],[32.8123,-18.6555,1510.7799],[32.8137,-18.6486,1310.3066],[32.8103,-18.6438,1180.4459],[32.8107,-18.6376,1086.1932],[32.8036,-18.6304,1041.3154],[32.794,-18.6243,962.7201],[32.7925,-18.6203,955.5012],[32.7929,-18.6081,925.5805],[32.7948,-18.6042,899.8915],[32.7943,-18.5952,885.2031],[32.7984,-18.5862,843.4637],[32.7952,-18.5868,875.4097],[32.7918,-18.5924,885.3226],[32.782,-18.6003,927.7088],[32.7807,-18.6049,939.3682],[32.7701,-18.6093,1010.909],[32.7704,-18.6045,954.1709],[32.7679,-18.6008,919.3022],[32.7723,-18.59,887.769],[32.7668,-18.5851,875.683],[32.766,-18.581,830.0258],[32.7639,-18.5796,837.2165],[32.762,-18.5822,834.6561],[32.7543,-18.5857,857.3038],[32.7494,-18.5848,876.6085],[32.738,-18.5919,873.0775],[32.7351,-18.592,904.9108],[32.7235,-18.6025,896.1931],[32.709,-18.6026,988.1588],[32.6996,-18.6089,1006.2697],[32.6965,-18.6158,1038.1261]]]]}
,"properties": {"GID_3": "ZWE.3.8.2_2","GID_0": "ZWE","country": "Zimbabwe","GID_1": "ZWE.3_1","province": "Manicaland","NL_NAME_1": "NA","GID_2": "ZWE.3.8_2","county": "Mutasa","NL_NAME_2": "NA","city": "Ward10","VARNAME_3": "NA","NL_NAME_3": "NA","TYPE_3": "Ward","ENGTYPE_3": "Ward","CC_3": "NA","HASC_3": "NA","name": "Ward10.city","area_km2": 56.53914,"hist_schema_id": "Elevation0-9000","hist_area_km2": {"825": 0.14068,"850": 0.90434,"875": 2.65263,"900": 3.57692,"925": 3.97867,"950": 3.69723,"975": 3.75744,"1000": 3.67695,"1025": 3.37549,"1050": 3.19459,"1075": 2.97358,"1100": 2.95347,"1125": 2.37078,"1150": 2.4712,"1175": 1.82828,"1200": 1.92869,"1225": 1.62732,"1250": 1.34605,"1275": 1.46658,"1300": 1.46657,"1325": 1.08483,"1350": 0.92411,"1375": 0.88392,"1400": 0.78347,"1425": 0.68303,"1450": 0.66293,"1475": 0.56249,"1500": 0.38168,"1525": 0.30133,"1550": 0.24107,"1575": 0.16071,"1600": 0.10044,"1625": 0.06026,"1650": 0.08035,"1675": 0.12053,"1700": 0.04018,"1750": 0.04018,"1775": 0.02009,"1800": 0.02009}}}