{"type":"Feature","properties":{"GID_3":"ZWE.10.7.28_2","GID_0":"ZWE","country":"Zimbabwe","GID_1":"ZWE.10_1","province":"Midlands","NL_NAME_1":"NA","GID_2":"ZWE.10.7_2","county":"Kwekwe","NL_NAME_2":"NA","city":"Ward4","VARNAME_3":"NA","NL_NAME_3":"NA","TYPE_3":"Ward","ENGTYPE_3":"Ward","CC_3":"NA","HASC_3":"NA","name":"Ward4.city"},
"geometry":{"type": "MultiPolygon","coordinates": [[[[29.7295,-18.8985,1148.6315],[29.732,-18.8894,1151.9747],[29.7286,-18.8824,1139.2588],[29.7294,-18.8765,1149.3093],[29.7279,-18.8737,1172.1237],[29.7214,-18.8732,1141.679],[29.7174,-18.867,1136.545],[29.7202,-18.8614,1133.118],[29.7232,-18.8608,1136.318],[29.7235,-18.8579,1133.1747],[29.7223,-18.855,1137.8323],[29.7181,-18.8583,1135.8181],[29.7154,-18.856,1128.0841],[29.7201,-18.8481,1127.7631],[29.7216,-18.8398,1128.5436],[29.7145,-18.8264,1121.6091],[29.7156,-18.8155,1124.1095],[29.7123,-18.8117,1130.0208],[29.7062,-18.8088,1116.2932],[29.7042,-18.8041,1121.6475],[29.6976,-18.8007,1116.4807],[29.6871,-18.7908,1108.8259],[29.6808,-18.778,1101.3442],[29.6713,-18.7707,1088.3906],[29.6675,-18.7651,1087.1104],[29.657,-18.7664,1084.3948],[29.6466,-18.7624,1080.9587],[29.6457,-18.7528,1082.5413],[29.6519,-18.7465,1075.5662],[29.6527,-18.7437,1083.4254],[29.6364,-18.7495,1107.2716],[29.604,-18.7675,1135.3623],[29.6164,-18.7887,1114.6331],[29.5804,-18.794,1139.2869],[29.5404,-18.7688,1140.7372],[29.5236,-18.7527,1099.844],[29.5225,-18.7596,1102.7021],[29.5264,-18.7586,1116.3318],[29.5286,-18.7619,1109.2922],[29.5254,-18.7669,1114.2732],[29.5252,-18.771,1109.9412],[29.5233,-18.7724,1116.7834],[29.5189,-18.7708,1125.809],[29.5169,-18.7766,1118.7343],[29.5126,-18.7774,1121.4675],[29.5103,-18.7808,1121.0771],[29.512,-18.7839,1131.6483],[29.5081,-18.7855,1126.3447],[29.5094,-18.7885,1127.9747],[29.5078,-18.7929,1129.3391],[29.5033,-18.7948,1133.729],[29.5023,-18.8003,1134.8298],[29.4987,-18.7995,1143.2285],[29.4957,-18.8025,1138.2905],[29.4943,-18.8045,1140.2805],[29.4956,-18.8065,1140.2443],[29.4902,-18.8088,1147.2014],[29.4871,-18.8083,1148.8042],[29.4846,-18.8154,1148.7494],[29.4802,-18.8156,1155.1399],[29.4775,-18.8179,1156.4196],[29.4703,-18.8159,1160.7292],[29.469,-18.8195,1156.9996],[29.466,-18.8213,1159.8926],[29.4641,-18.8205,1161.5259],[29.4616,-18.823,1162.7106],[29.4564,-18.8194,1169.718],[29.4533,-18.8191,1169.6871],[29.442,-18.8293,1171.2257],[29.4383,-18.83,1173.9739],[29.4367,-18.8276,1177.5496],[29.4348,-18.8277,1178.6047],[29.4318,-18.8313,1177.3599],[29.4302,-18.831,1177.4534],[29.4283,-18.835,1180.8385],[29.4254,-18.8347,1181.7334],[29.4211,-18.838,1182.6622],[29.4208,-18.8393,1182.6622],[29.4839,-18.9079,1217.9446],[29.4868,-18.9157,1214.6545],[29.4203,-18.9189,1263.9674],[29.4364,-18.9651,1264.9672],[29.417,-18.9713,1266.095],[29.4243,-19.0064,1234.1361],[29.4318,-19.0071,1239.5658],[29.4356,-19.0381,1264.8994],[29.4554,-19.0357,1267.0371],[29.4419,-18.9811,1255.8358],[29.5206,-18.9772,1246.5396],[29.505,-18.9648,1242.6694],[29.5495,-18.9546,1238.2145],[29.5655,-18.979,1254.0077],[29.6059,-18.9713,1241.9463],[29.6017,-18.945,1224.0511],[29.6201,-18.9434,1209.5853],[29.6256,-18.9434,1224.266],[29.6219,-18.9632,1220.6139],[29.6281,-18.9655,1217.1107],[29.6455,-18.9573,1207.7847],[29.6492,-18.954,1204.911],[29.6644,-18.952,1197.9989],[29.6707,-18.9466,1192.0095],[29.6928,-18.9375,1177.2054],[29.7097,-18.9366,1181.5713],[29.7165,-18.9244,1191.2074],[29.7291,-18.9175,1175.5874],[29.7316,-18.9176,1171.7518],[29.7327,-18.9194,1166.7635],[29.7433,-18.9164,1153.8337],[29.7483,-18.9133,1153.0154],[29.748,-18.9104,1156.5916],[29.7374,-18.9093,1152.7068],[29.7361,-18.9037,1169.0731],[29.7295,-18.902,1154.1565],[29.7295,-18.8985,1148.6315]]]]}}