{"type":"Feature","properties":{"GID_3":"ZWE.4.3.2_2","GID_0":"ZWE","country":"Zimbabwe","GID_1":"ZWE.4_1","province":"MashonalandCentral","NL_NAME_1":"NA","GID_2":"ZWE.4.3_2","county":"Centenary/Muzarabani","NL_NAME_2":"NA","city":"Ward10","VARNAME_3":"NA","NL_NAME_3":"NA","TYPE_3":"Ward","ENGTYPE_3":"Ward","CC_3":"NA","HASC_3":"NA","name":"Ward10.city"},
"geometry":{"type": "MultiPolygon","coordinates": [[[[31.2879,-16.478,1235.6486],[31.3522,-16.4522,979.6541],[31.3734,-16.4665,1139.2683],[31.3928,-16.4677,1221.8407],[31.3954,-16.4658,1190.4442],[31.4021,-16.4648,1217.6448],[31.4072,-16.4674,1197.293],[31.4134,-16.4659,1195.4236],[31.4257,-16.469,1238.5693],[31.4396,-16.4671,1236.1292],[31.4611,-16.4683,1030.3087],[31.4714,-16.4723,1169.6523],[31.4868,-16.4709,956.8475],[31.4986,-16.4725,988.3262],[31.5118,-16.4802,1140.6593],[31.4997,-16.456,685.199],[31.4993,-16.4505,636.0755],[31.4661,-16.4507,594.743],[31.4203,-16.4479,587.0079],[31.362,-16.4403,533.8608],[31.3167,-16.43,538.3219],[31.2845,-16.4208,480.4583],[31.213,-16.4183,481.528],[31.1877,-16.4227,494.2476],[31.1789,-16.4265,527.6295],[31.1806,-16.4314,540.3248],[31.179,-16.4449,623.9324],[31.1853,-16.4525,720.4978],[31.1838,-16.457,778.4603],[31.1854,-16.4608,881.9603],[31.1841,-16.4647,954.3599],[31.186,-16.4674,981.8991],[31.1835,-16.4723,1012.2162],[31.1869,-16.4781,1078.1355],[31.1848,-16.4806,1112.8472],[31.1863,-16.4831,1142.2648],[31.1868,-16.4928,1162.3501],[31.2147,-16.4947,1283.3789],[31.2879,-16.478,1235.6486]]]]}}