{"type": "Feature","bbox": [30.9537,-17.9272,30.9731,-17.905],"geometry": {"type": "MultiPolygon","coordinates": [[[[30.9672,-17.9213,1399.1409],[30.9686,-17.9196,1398.7323],[30.9677,-17.9116,1411.5989],[30.9715,-17.9097,1414.494],[30.9731,-17.905,1422.2843],[30.9566,-17.9071,1412.3843],[30.956,-17.9092,1411.5846],[30.9576,-17.9109,1412.7891],[30.9537,-17.916,1413.3174],[30.9569,-17.9192,1419.7605],[30.9539,-17.9224,1415.5402],[30.961,-17.9272,1403.1294],[30.9645,-17.9216,1403.2664],[30.9672,-17.9213,1399.1409]]]]}
,"properties": {"GID_3": "ZWE.2.3.20_2","GID_0": "ZWE","country": "Zimbabwe","GID_1": "ZWE.2_1","province": "Harare","NL_NAME_1": "NA","GID_2": "ZWE.2.3_2","county": "Harare","NL_NAME_2": "NA","city": "Ward28","VARNAME_3": "NA","NL_NAME_3": "NA","TYPE_3": "Ward","ENGTYPE_3": "Ward","CC_3": "NA","HASC_3": "NA","name": "Ward28.city","area_km2": 2.824389,"hist_schema_id": "Elevation0-9000","hist_area_km2": {"1400": 0.726254,"1425": 2.098136}}}