{"type": "Feature","bbox": [32.6785,-16.9402,32.9474,-16.6989],"geometry": {"type": "MultiPolygon","coordinates": [[[[32.7551,-16.7035,410.0573],[32.7486,-16.7099,418.392],[32.7482,-16.713,405.9127],[32.7328,-16.7241,418.1073],[32.7202,-16.7284,449.191],[32.7091,-16.729,490.286],[32.6967,-16.7378,432.2402],[32.6839,-16.7416,430.4912],[32.6854,-16.7469,441.6562],[32.6785,-16.7532,455.9075],[32.6859,-16.7648,460.962],[32.6947,-16.7675,478.5629],[32.685,-16.7766,519.0599],[32.6862,-16.7848,555.1631],[32.6947,-16.7909,502.3493],[32.6998,-16.7914,491.2078],[32.6995,-16.7972,528.8111],[32.6893,-16.8035,529.9221],[32.6901,-16.8114,539.5706],[32.6955,-16.8131,530.8505],[32.6941,-16.8191,536.2663],[32.6895,-16.8232,530.4135],[32.683,-16.8243,539.9678],[32.6792,-16.8304,548.5336],[32.6787,-16.8362,549.2297],[32.6824,-16.839,543.6334],[32.6804,-16.8415,556.742],[32.682,-16.8574,574.6984],[32.6886,-16.8585,563.2007],[32.6946,-16.8665,576.0162],[32.7045,-16.872,583.4939],[32.7057,-16.8711,582.2397],[32.7057,-16.875,589.4404],[32.702,-16.8788,598.6127],[32.7085,-16.8989,607.1116],[32.711,-16.9019,611.2399],[32.7116,-16.9109,618.667],[32.7181,-16.92,624.8492],[32.7201,-16.9274,638.3643],[32.7224,-16.9288,640.9266],[32.7258,-16.925,653.1602],[32.7384,-16.9336,656.7068],[32.7442,-16.9402,661.3617],[32.7584,-16.9266,707.9749],[32.7651,-16.9129,744.6639],[32.7781,-16.9118,762.4047],[32.7911,-16.9065,915.3341],[32.8044,-16.9077,718.6086],[32.8094,-16.9041,704.1526],[32.8168,-16.9026,678.6919],[32.819,-16.8999,674.1793],[32.8277,-16.8956,670.2117],[32.8318,-16.8959,663.0838],[32.8353,-16.8937,660.5145],[32.8399,-16.8947,645.0858],[32.8447,-16.8924,640.2523],[32.8577,-16.8838,619.0362],[32.8636,-16.8778,626.8428],[32.8657,-16.8809,613.209],[32.8688,-16.8777,626.089],[32.8743,-16.8799,604.1222],[32.8782,-16.8772,606.8796],[32.8828,-16.8768,594.9309],[32.8837,-16.8698,593.2211],[32.8807,-16.8669,604.6456],[32.8834,-16.8663,594.2423],[32.8861,-16.8611,575.6232],[32.8863,-16.8569,582.4565],[32.889,-16.8581,574.3944],[32.8934,-16.855,572.2756],[32.8908,-16.8511,563.8467],[32.8922,-16.8467,562.0869],[32.8904,-16.8439,551.6079],[32.892,-16.8398,567.6102],[32.8893,-16.8344,547.0447],[32.8843,-16.8331,539.1978],[32.8885,-16.8228,534.8998],[32.8877,-16.8191,526.1067],[32.8833,-16.8153,526.0708],[32.8876,-16.8142,525.0514],[32.8897,-16.809,512.8913],[32.8869,-16.8058,513.2162],[32.8892,-16.8031,512.697],[32.8874,-16.8006,504.0398],[32.889,-16.7946,502.7859],[32.8867,-16.7906,496.3947],[32.8881,-16.7873,496.4453],[32.8865,-16.7831,493.9047],[32.8889,-16.7793,490.0565],[32.8876,-16.7712,545.5247],[32.8904,-16.7698,516.0366],[32.8959,-16.7712,479.1248],[32.8944,-16.7661,495.5263],[32.8978,-16.7613,558.2654],[32.9021,-16.7625,546.9474],[32.9037,-16.7669,475.461],[32.9065,-16.7631,479.9117],[32.9052,-16.7569,507.1919],[32.9084,-16.7591,474.8034],[32.9145,-16.7588,450.0987],[32.9157,-16.7553,480.2618],[32.9208,-16.7551,461.9167],[32.9241,-16.7531,447.4421],[32.9226,-16.7482,436.2002],[32.9202,-16.7469,530.3786],[32.9251,-16.7452,421.5523],[32.9257,-16.7379,446.3654],[32.9199,-16.7297,399.054],[32.9252,-16.7313,378.3954],[32.9305,-16.7267,358.5116],[32.9327,-16.719,378.0782],[32.9358,-16.717,348.2075],[32.9319,-16.7142,340.2137],[32.9328,-16.7114,379.3329],[32.941,-16.7113,341.2547],[32.9474,-16.7051,304.5907],[32.9469,-16.7034,303.9659],[32.9276,-16.7039,345.8461],[32.9233,-16.7013,322.2446],[32.92,-16.702,324.1899],[32.9123,-16.7086,344.8612],[32.907,-16.7106,355.2466],[32.9015,-16.7163,350.0656],[32.8934,-16.7202,324.6537],[32.8862,-16.7194,315.7327],[32.8687,-16.7085,358.1424],[32.8534,-16.708,393.8665],[32.8428,-16.6989,370.6724],[32.8327,-16.7005,376.5929],[32.8255,-16.7091,408.6819],[32.8089,-16.7053,383.4113],[32.8039,-16.7078,462.8284],[32.781,-16.707,396.8422],[32.7698,-16.7094,409.6574],[32.7551,-16.7035,410.0573]]]]}
,"properties": {"GID_3": "ZWE.5.6.9_2","GID_0": "ZWE","country": "Zimbabwe","GID_1": "ZWE.5_1","province": "MashonalandEast","NL_NAME_1": "NA","GID_2": "ZWE.5.6_2","county": "Mudzi","NL_NAME_2": "NA","city": "Ward17","VARNAME_3": "NA","NL_NAME_3": "NA","TYPE_3": "Ward","ENGTYPE_3": "Ward","CC_3": "NA","HASC_3": "NA","name": "Ward17.city","area_km2": 472.874,"hist_schema_id": "Elevation0-9000","hist_area_km2": {"300": 0.1015,"325": 0.7513,"350": 2.0712,"375": 5.6045,"400": 10.011,"425": 15.615,"450": 24.9545,"475": 21.2579,"500": 22.1692,"525": 35.4622,"550": 55.3909,"575": 63.0589,"600": 49.984,"625": 40.525,"650": 31.0875,"675": 23.3159,"700": 16.4578,"725": 14.2457,"750": 10.0252,"775": 7.8334,"800": 5.7836,"825": 4.0182,"850": 3.6323,"875": 2.699,"900": 2.151,"925": 1.5829,"950": 0.7914,"975": 0.9334,"1000": 0.4465,"1025": 0.5276,"1050": 0.2638,"1075": 0.0811,"1100": 0.0406}}}