{"type": "Feature","bbox": [29.7237,-19.0124,29.7384,-19.0028],"geometry": {"type": "MultiPolygon","coordinates": [[[[29.7237,-19.0037,1201.9313],[29.7376,-19.0124,1182.5015],[29.7384,-19.0116,1182.5015],[29.7365,-19.0086,1189.2512],[29.7279,-19.0028,1205.7384],[29.7237,-19.0037,1201.9313]]]]}
,"properties": {"GID_3": "ZWE.10.10.6_2","GID_0": "ZWE","country": "Zimbabwe","GID_1": "ZWE.10_1","province": "Midlands","NL_NAME_1": "NA","GID_2": "ZWE.10.10_2","county": "Redcliff","NL_NAME_2": "NA","city": "Ward6","VARNAME_3": "NA","NL_NAME_3": "NA","TYPE_3": "Ward","ENGTYPE_3": "Ward","CC_3": "NA","HASC_3": "NA","name": "Ward6.city","area_km2": 0.4610635,"hist_schema_id": "Elevation0-9000","hist_area_km2": {"1200": 0.4610635}}}