{"type":"Feature","properties":{"GID_3":"ZWE.5.3.9_2","GID_0":"ZWE","country":"Zimbabwe","GID_1":"ZWE.5_1","province":"MashonalandEast","NL_NAME_1":"NA","GID_2":"ZWE.5.3_2","county":"Hwedza","NL_NAME_2":"NA","city":"Ward3","VARNAME_3":"NA","NL_NAME_3":"NA","TYPE_3":"Ward","ENGTYPE_3":"Ward","CC_3":"NA","HASC_3":"NA","name":"Ward3.city"},
"geometry":{"type": "MultiPolygon","coordinates": [[[[31.7509,-18.6013,1281.7065],[31.7462,-18.5986,1281.729],[31.7462,-18.5934,1300.548],[31.7448,-18.5917,1346.292],[31.7378,-18.5911,1294.4246],[31.733,-18.588,1291.2808],[31.7322,-18.5831,1288.2861],[31.7342,-18.5784,1287.2292],[31.7153,-18.5811,1294.8574],[31.7033,-18.5806,1290.9276],[31.6949,-18.5736,1291.8418],[31.685,-18.5767,1293.2632],[31.6762,-18.5764,1295.3757],[31.6715,-18.5697,1292.6813],[31.662,-18.5649,1297.3167],[31.6559,-18.5489,1305.9528],[31.644,-18.5476,1301.141],[31.639,-18.5396,1312.4773],[31.6334,-18.5392,1309.7823],[31.6315,-18.5359,1315.1774],[31.5844,-18.5626,1382.1392],[31.5919,-18.5982,1409.3334],[31.6073,-18.5971,1428.9501],[31.6639,-18.6169,1346.8416],[31.7038,-18.623,1375.9807],[31.734,-18.6452,1430.4412],[31.7585,-18.6249,1280.7274],[31.7567,-18.6223,1273.9756],[31.7586,-18.6167,1278.999],[31.7583,-18.6117,1280.875],[31.7524,-18.6053,1285.8074],[31.7509,-18.6013,1281.7065]]]]}}