{"type":"Feature","properties":{"GID_3":"ZWE.3.8.24_2","GID_0":"ZWE","country":"Zimbabwe","GID_1":"ZWE.3_1","province":"Manicaland","NL_NAME_1":"NA","GID_2":"ZWE.3.8_2","county":"Mutasa","NL_NAME_2":"NA","city":"Ward30","VARNAME_3":"NA","NL_NAME_3":"NA","TYPE_3":"Ward","ENGTYPE_3":"Ward","CC_3":"NA","HASC_3":"NA","name":"Ward30.city"},
"geometry":{"type": "MultiPolygon","coordinates": [[[[32.9696,-18.3831,670.2539],[32.963,-18.3803,692.9304],[32.9568,-18.3812,711.1949],[32.9524,-18.3856,686.8766],[32.9486,-18.3862,712.0798],[32.9427,-18.3928,727.1836],[32.941,-18.3976,709.647],[32.9378,-18.3939,735.6309],[32.9326,-18.3998,700.4364],[32.9235,-18.4021,721.5217],[32.9265,-18.4042,717.1329],[32.9266,-18.4063,702.4637],[32.9222,-18.4096,706.4641],[32.9168,-18.4106,777.4203],[32.9132,-18.4179,712.7286],[32.9068,-18.4247,715.4049],[32.9073,-18.4348,766.1265],[32.9118,-18.4422,814.5256],[32.9211,-18.4456,970.4956],[32.9272,-18.4497,1108.3937],[32.9294,-18.4452,1233.7933],[32.9436,-18.4412,759.4658],[32.9502,-18.448,689.2769],[32.956,-18.448,686.9033],[32.9573,-18.4407,701.9364],[32.9814,-18.4234,653.7939],[32.9836,-18.419,647.5234],[32.9829,-18.4153,647.6678],[32.9856,-18.4153,641.4923],[32.9911,-18.4099,633.9844],[32.9846,-18.4096,633.8816],[32.9821,-18.397,654.4753],[32.978,-18.396,677.0212],[32.9742,-18.3989,657.3225],[32.9722,-18.398,689.8109],[32.9726,-18.3929,686.1669],[32.9691,-18.3931,671.4534],[32.968,-18.3899,698.0543],[32.9702,-18.3873,682.8232],[32.9696,-18.3831,670.2539]]]]}}