{"type": "Feature","bbox": [31.1907,-16.7055,31.3231,-16.5618],"geometry": {"type": "MultiPolygon","coordinates": [[[[31.2003,-16.6293,1258.0739],[31.1952,-16.6807,1137.1462],[31.2006,-16.6816,1135.5585],[31.1907,-16.6967,1172.1079],[31.2113,-16.7051,1127.2162],[31.2206,-16.7055,1121.4802],[31.23,-16.7028,1096.6819],[31.256,-16.7023,1082.6042],[31.2625,-16.6998,1078.6821],[31.2632,-16.6944,1075.8479],[31.2622,-16.693,1084.3656],[31.255,-16.6923,1080.5892],[31.2536,-16.6881,1081.5854],[31.2518,-16.6884,1099.9988],[31.2522,-16.6842,1085.8025],[31.254,-16.6829,1084.896],[31.249,-16.6783,1099.0],[31.2461,-16.6783,1099.0],[31.2426,-16.6661,1103.1344],[31.2788,-16.648,1140.0166],[31.2803,-16.6477,1134.2111],[31.2793,-16.648,1140.0166],[31.3003,-16.6804,1081.4082],[31.3111,-16.6701,1077.3394],[31.2966,-16.6502,1120.6785],[31.3162,-16.633,1044.7888],[31.3158,-16.6316,1044.8428],[31.3205,-16.6264,1051.5157],[31.3231,-16.6175,1083.3281],[31.3152,-16.6145,1079.3441],[31.3152,-16.6126,1098.0356],[31.3016,-16.6124,1074.9846],[31.2977,-16.6077,1106.1069],[31.2915,-16.609,1088.1882],[31.2891,-16.6024,1091.0919],[31.2897,-16.5986,1087.8649],[31.2834,-16.5954,1121.8248],[31.2774,-16.5992,1101.2136],[31.2773,-16.5958,1116.5872],[31.2807,-16.5927,1108.7306],[31.2786,-16.5889,1120.0194],[31.2801,-16.5846,1118.4921],[31.2716,-16.5838,1126.2341],[31.2677,-16.5819,1145.6648],[31.2642,-16.5827,1123.627],[31.2629,-16.5759,1156.0963],[31.2593,-16.5748,1137.3545],[31.2571,-16.5718,1157.3765],[31.2541,-16.5713,1151.6527],[31.2543,-16.5679,1192.2355],[31.2523,-16.5666,1172.9519],[31.2503,-16.5618,1197.264],[31.2152,-16.5773,1254.2592],[31.2134,-16.5803,1272.0751],[31.2198,-16.5994,1223.3516],[31.2311,-16.6069,1145.2278],[31.2017,-16.6211,1220.7139],[31.2003,-16.6293,1258.0739]]]]}
,"properties": {"GID_3": "ZWE.4.3.4_2","GID_0": "ZWE","country": "Zimbabwe","GID_1": "ZWE.4_1","province": "MashonalandCentral","NL_NAME_1": "NA","GID_2": "ZWE.4.3_2","county": "Centenary/Muzarabani","NL_NAME_2": "NA","city": "Ward12","VARNAME_3": "NA","NL_NAME_3": "NA","TYPE_3": "Ward","ENGTYPE_3": "Ward","CC_3": "NA","HASC_3": "NA","name": "Ward12.city","area_km2": 121.17705,"hist_schema_id": "Elevation0-9000","hist_area_km2": {"1050": 0.7517,"1075": 5.28185,"1100": 15.45808,"1125": 28.92645,"1150": 32.60437,"1175": 21.59526,"1200": 7.80189,"1225": 4.89682,"1250": 3.1901,"1275": 0.67055}}}