{"type":"Feature","properties":{"GID_3":"ZWE.4.4.21_2","GID_0":"ZWE","country":"Zimbabwe","GID_1":"ZWE.4_1","province":"MashonalandCentral","NL_NAME_1":"NA","GID_2":"ZWE.4.4_2","county":"Guruve","NL_NAME_2":"NA","city":"Ward6","VARNAME_3":"NA","NL_NAME_3":"NA","TYPE_3":"Ward","ENGTYPE_3":"Ward","CC_3":"NA","HASC_3":"NA","name":"Ward6.city"},
"geometry":{"type": "MultiPolygon","coordinates": [[[[30.7395,-16.6583,1187.6044],[30.7347,-16.6601,1173.6589],[30.7322,-16.659,1178.2635],[30.7253,-16.6628,1178.1825],[30.7239,-16.6586,1179.5642],[30.7188,-16.6592,1167.118],[30.7167,-16.6578,1162.6036],[30.7103,-16.6491,1156.5],[30.7078,-16.6494,1167.9811],[30.7023,-16.6545,1147.4434],[30.6931,-16.6451,1155.7555],[30.694,-16.6558,1130.7297],[30.6915,-16.6565,1128.1682],[30.689,-16.6547,1125.7786],[30.6893,-16.6631,1136.1294],[30.6838,-16.6696,1132.8831],[30.6845,-16.671,1139.6012],[30.6906,-16.6721,1149.1528],[30.6896,-16.6733,1140.4768],[30.6916,-16.6734,1148.1274],[30.6928,-16.6796,1154.3922],[30.6978,-16.6777,1155.7233],[30.6991,-16.6818,1157.4426],[30.7041,-16.6849,1170.6583],[30.7061,-16.6824,1196.4618],[30.7086,-16.6856,1166.8993],[30.712,-16.6834,1193.9626],[30.7127,-16.6906,1178.6549],[30.7115,-16.6917,1179.0624],[30.7153,-16.6951,1187.4579],[30.7199,-16.6947,1216.46],[30.7228,-16.6968,1200.4491],[30.7234,-16.6993,1205.4426],[30.728,-16.6991,1216.3864],[30.7353,-16.7022,1210.8861],[30.7371,-16.7005,1223.5034],[30.742,-16.7075,1219.7168],[30.7481,-16.707,1235.6978],[30.7469,-16.7097,1219.5698],[30.7552,-16.7051,1250.3999],[30.7604,-16.6993,1280.1102],[30.7564,-16.6928,1245.8759],[30.757,-16.6863,1236.78],[30.7555,-16.6848,1226.2515],[30.7575,-16.6819,1225.4542],[30.7571,-16.6744,1189.1825],[30.7592,-16.671,1188.4001],[30.7579,-16.6698,1199.8936],[30.7604,-16.6653,1205.7728],[30.7568,-16.6638,1199.3944],[30.7526,-16.6582,1201.9534],[30.7502,-16.6599,1193.2948],[30.7469,-16.6597,1176.1608],[30.7465,-16.6569,1184.5416],[30.7447,-16.6589,1187.9795],[30.7395,-16.6583,1187.6044]]]]}}