{"type": "Feature","bbox": [28.5268,-20.506,28.7237,-20.4218],"geometry": {"type": "MultiPolygon","coordinates": [[[[28.6668,-20.4828,1305.4781],[28.6579,-20.4731,1374.0496],[28.6977,-20.4767,1466.2515],[28.7237,-20.4226,1446.5969],[28.6914,-20.4302,1518.4666],[28.6059,-20.4218,1458.0527],[28.5268,-20.4256,1367.3896],[28.5369,-20.4592,1457.0597],[28.5385,-20.4592,1484.3262],[28.5825,-20.506,1424.1969],[28.6473,-20.5031,1358.2303],[28.6668,-20.4828,1305.4781]]]]}
,"properties": {"GID_3": "ZWE.9.8.7_2","GID_0": "ZWE","country": "Zimbabwe","GID_1": "ZWE.9_1","province": "MatabelelandSouth","NL_NAME_1": "NA","GID_2": "ZWE.9.8_2","county": "Matobo","NL_NAME_2": "NA","city": "Ward15","VARNAME_3": "NA","NL_NAME_3": "NA","TYPE_3": "Ward","ENGTYPE_3": "Ward","CC_3": "NA","HASC_3": "NA","name": "Ward15.city","area_km2": 131.7044,"hist_schema_id": "Elevation0-9000","hist_area_km2": {"1275": 0.1986,"1300": 1.6088,"1325": 1.9464,"1350": 3.317,"1375": 7.4287,"1400": 17.5795,"1425": 25.4665,"1450": 30.255,"1475": 29.2631,"1500": 11.9989,"1525": 2.5825,"1550": 0.0596}}}