{"type": "Feature","bbox": [31.5483,-16.7982,31.6032,-16.7597],"geometry": {"type": "MultiPolygon","coordinates": [[[[31.5545,-16.7627,979.8505],[31.5484,-16.7731,990.9038],[31.5483,-16.7807,1002.5762],[31.5567,-16.7806,1030.4611],[31.5673,-16.7982,948.082],[31.5717,-16.7914,946.8582],[31.5733,-16.7848,942.6696],[31.5771,-16.7833,947.5099],[31.5898,-16.786,938.9133],[31.5952,-16.7834,947.9169],[31.5982,-16.7864,934.7273],[31.6017,-16.7857,935.7485],[31.6032,-16.7824,931.9197],[31.6029,-16.7746,929.5336],[31.5979,-16.7731,930.6281],[31.5979,-16.769,936.5909],[31.5945,-16.7664,929.9079],[31.5946,-16.7597,928.2817],[31.5751,-16.7598,963.1949],[31.5731,-16.7611,960.5768],[31.5724,-16.7644,968.0569],[31.5545,-16.7627,979.8505]]]]}
,"properties": {"GID_3": "ZWE.4.7.19_2","GID_0": "ZWE","country": "Zimbabwe","GID_1": "ZWE.4_1","province": "MashonalandCentral","NL_NAME_1": "NA","GID_2": "ZWE.4.7_2","county": "MountDarwin","NL_NAME_2": "NA","city": "Ward26","VARNAME_3": "NA","NL_NAME_3": "NA","TYPE_3": "Ward","ENGTYPE_3": "Ward","CC_3": "NA","HASC_3": "NA","name": "Ward26.city","area_km2": 14.35208,"hist_schema_id": "Elevation0-9000","hist_area_km2": {"925": 1.78644,"950": 6.55686,"975": 4.8517,"1000": 1.09618,"1025": 0.0406,"1050": 0.0203}}}