{"type": "Feature","bbox": [31.4969,-18.923,31.6705,-18.7775],"geometry": {"type": "MultiPolygon","coordinates": [[[[31.4969,-18.8837,1404.8876],[31.5236,-18.8852,1252.9058],[31.5231,-18.8895,1261.3229],[31.526,-18.8936,1272.6025],[31.5329,-18.893,1268.0443],[31.5381,-18.8948,1252.3641],[31.5417,-18.8972,1284.1064],[31.5449,-18.9029,1230.0516],[31.5508,-18.8908,1236.7737],[31.5526,-18.8902,1232.5669],[31.5571,-18.8973,1259.9751],[31.5669,-18.9037,1285.2476],[31.5735,-18.9012,1251.314],[31.582,-18.9019,1189.9249],[31.5849,-18.904,1181.8689],[31.5864,-18.908,1152.6964],[31.590699999999998,-18.9103,1145.2087],[31.5888,-18.8994,1168.9592],[31.5943,-18.8991,1186.2236],[31.5964,-18.9045,1200.1479],[31.5994,-18.9033,1202.3458],[31.6019,-18.9047,1210.9531],[31.6071,-18.9133,1160.6204],[31.6234,-18.9177,1199.5387],[31.6286,-18.9175,1199.1471],[31.6429,-18.923,1172.6511],[31.6579,-18.9164,1032.8453],[31.6705,-18.9181,923.8835],[31.6689,-18.9066,935.0149],[31.6566,-18.8795,964.4629],[31.65,-18.8565,1093.9358],[31.6424,-18.8402,1041.7759],[31.6362,-18.8322,1026.2258],[31.6199,-18.7874,1043.5074],[31.609,-18.7811,1042.6815],[31.6034,-18.7822,1086.998],[31.5947,-18.7775,1070.7767],[31.585,-18.7818,1143.1165],[31.5783,-18.7953,1129.4619],[31.5583,-18.7893,1195.8322],[31.5494,-18.7923,1208.8809],[31.5431,-18.7968,1193.7253],[31.534,-18.7993,1209.6265],[31.528,-18.7979,1206.6129],[31.5231,-18.8083,1206.5281],[31.5223,-18.8137,1200.585],[31.5241,-18.8197,1224.5133],[31.5239,-18.8366,1235.2947],[31.5294,-18.8451,1246.6301],[31.5294,-18.8474,1246.0789],[31.5241,-18.8551,1267.6803],[31.5121,-18.862,1346.9469],[31.5094,-18.8728,1298.8574],[31.4969,-18.8817,1390.9003],[31.4969,-18.8837,1404.8876]]]]}
,"properties": {"GID_3": "ZWE.5.1.22_2","GID_0": "ZWE","country": "Zimbabwe","GID_1": "ZWE.5_1","province": "MashonalandEast","NL_NAME_1": "NA","GID_2": "ZWE.5.1_2","county": "Chikomba","NL_NAME_2": "NA","city": "Ward29","VARNAME_3": "NA","NL_NAME_3": "NA","TYPE_3": "Ward","ENGTYPE_3": "Ward","CC_3": "NA","HASC_3": "NA","name": "Ward29.city","area_km2": 171.6531,"hist_schema_id": "Elevation0-9000","hist_area_km2": {"925": 1.2637,"950": 1.2637,"975": 0.8425,"1000": 1.1233,"1025": 3.3709,"1050": 5.097,"1075": 5.9202,"1100": 6.6827,"1125": 6.9032,"1150": 8.2273,"1175": 14.2866,"1200": 21.971,"1225": 26.4648,"1250": 27.0663,"1275": 25.1796,"1300": 10.9547,"1325": 2.6884,"1350": 1.1636,"1375": 0.6821,"1400": 0.2809,"1425": 0.1806,"1450": 0.0401}}}