{"type": "Feature","bbox": [31.1664,-18.3139,31.2959,-18.214],"geometry": {"type": "MultiPolygon","coordinates": [[[[31.2959,-18.283,1513.5409],[31.291,-18.2779,1518.4514],[31.2719,-18.268,1499.7706],[31.2655,-18.2561,1491.7897],[31.2639,-18.2464,1489.8792],[31.2586,-18.239,1492.8428],[31.2554,-18.238,1487.1477],[31.2518,-18.2326,1491.3201],[31.2486,-18.2323,1488.0524],[31.246,-18.2286,1491.5856],[31.2431,-18.2285,1480.1935],[31.24,-18.2224,1486.3571],[31.2323,-18.218,1478.5538],[31.2289,-18.2141,1482.4902],[31.2267,-18.214,1479.4822],[31.2255,-18.215699999999998,1474.6526],[31.222,-18.2282,1480.7474],[31.2164,-18.2344,1495.0229],[31.2247,-18.2483,1496.6436],[31.209,-18.2499,1477.5677],[31.2045,-18.252,1468.9569],[31.1945,-18.2508,1459.5662],[31.1911,-18.2533,1454.7765],[31.1806,-18.2501,1450.4128],[31.1788,-18.2553,1443.4934],[31.1664,-18.2696,1429.6476],[31.1718,-18.2742,1438.9207],[31.1762,-18.2754,1442.5995],[31.185,-18.2853,1445.7898],[31.1963,-18.2868,1453.3969],[31.208,-18.285,1463.2295],[31.2204,-18.2952,1476.1992],[31.2349,-18.301,1488.1127],[31.2366,-18.3036,1491.4064],[31.236,-18.3123,1486.2537],[31.2419,-18.3139,1490.8435],[31.2501,-18.3126,1495.0432],[31.2581,-18.3081,1498.4741],[31.2651,-18.3064,1499.4272],[31.2693,-18.2987,1510.4952],[31.2775,-18.3005,1514.4043],[31.293,-18.2998,1522.8638],[31.2959,-18.283,1513.5409]]]]}
,"properties": {"GID_3": "ZWE.5.4.8_2","GID_0": "ZWE","country": "Zimbabwe","GID_1": "ZWE.5_1","province": "MashonalandEast","NL_NAME_1": "NA","GID_2": "ZWE.5.4_2","county": "Marondera","NL_NAME_2": "NA","city": "Ward16","VARNAME_3": "NA","NL_NAME_3": "NA","TYPE_3": "Ward","ENGTYPE_3": "Ward","CC_3": "NA","HASC_3": "NA","name": "Ward16.city","area_km2": 70.32591,"hist_schema_id": "Elevation0-9000","hist_area_km2": {"1425": 0.14094,"1450": 5.57704,"1475": 15.60401,"1500": 36.78387,"1525": 12.22006}}}