{"type": "Feature","bbox": [29.4527,-18.692,29.5539,-18.5529],"geometry": {"type": "MultiPolygon","coordinates": [[[[29.547,-18.5539,993.7216],[29.5453,-18.5529,1014.434],[29.541,-18.5595,1006.9646],[29.5355,-18.5604,1005.5695],[29.5224,-18.5674,1020.2709],[29.5224,-18.5768,1020.1122],[29.5191,-18.5771,1034.3922],[29.5145,-18.5746,1038.1664],[29.5101,-18.5761,1037.6829],[29.5059,-18.5868,1039.5298],[29.5017,-18.5889,1045.0133],[29.4986,-18.5928,1045.0934],[29.4949,-18.5989,1043.5676],[29.4947,-18.6089,1049.0885],[29.4907,-18.6159,1050.9642],[29.4527,-18.6714,1095.3035],[29.4607,-18.692,1114.9071],[29.5239,-18.6722,1066.5906],[29.5279,-18.6687,1067.0194],[29.5224,-18.6604,1055.5051],[29.521,-18.6554,1057.7153],[29.5262,-18.6548,1047.4479],[29.5355,-18.6473,1047.0426],[29.5393,-18.6422,1046.5969],[29.5324,-18.6382,1040.675],[29.5307,-18.6327,1044.8198],[29.5271,-18.6292,1039.6324],[29.5312,-18.6253,1034.859],[29.5302,-18.6217,1034.7349],[29.5317,-18.6186,1030.186],[29.5297,-18.6136,1025.6152],[29.532,-18.6073,1034.5369],[29.5257,-18.6036,1029.8942],[29.5253,-18.6011,1030.8304],[29.5287,-18.5988,1026.1743],[29.5407,-18.5967,1015.4359],[29.5414,-18.5937,1018.8954],[29.536,-18.5857,1010.304],[29.5422,-18.5797,1013.4111],[29.5469,-18.5791,1009.8265],[29.5513,-18.5729,1007.3838],[29.5539,-18.5727,994.8832],[29.547,-18.5539,993.7216]]]]}
,"properties": {"GID_3": "ZWE.10.7.26_2","GID_0": "ZWE","country": "Zimbabwe","GID_1": "ZWE.10_1","province": "Midlands","NL_NAME_1": "NA","GID_2": "ZWE.10.7_2","county": "Kwekwe","NL_NAME_2": "NA","city": "Ward32","VARNAME_3": "NA","NL_NAME_3": "NA","TYPE_3": "Ward","ENGTYPE_3": "Ward","CC_3": "NA","HASC_3": "NA","name": "Ward32.city","area_km2": 68.8318,"hist_schema_id": "Elevation0-9000","hist_area_km2": {"1000": 2.83393,"1025": 10.08838,"1050": 17.44031,"1075": 25.47294,"1100": 12.61463,"1125": 0.38161}}}