{"type": "Feature","bbox": [30.6953,-18.4115,30.896,-18.2398],"geometry": {"type": "MultiPolygon","coordinates": [[[[30.8539,-18.2615,1285.9274],[30.8479,-18.2646,1284.073],[30.8435,-18.265,1284.02],[30.8416,-18.2625,1287.2902],[30.8387,-18.2631,1282.4987],[30.8351,-18.2583,1283.9369],[30.8312,-18.2568,1283.1555],[30.8282,-18.2589,1280.8158],[30.8273,-18.2639,1278.6084],[30.8244,-18.2648,1283.418],[30.8187,-18.2603,1277.8508],[30.8142,-18.259,1282.8645],[30.8113,-18.2642,1281.8021],[30.7989,-18.2641,1281.1416],[30.7946,-18.2721,1277.3663],[30.7928,-18.2725,1277.0209],[30.7908,-18.27,1274.584],[30.7907,-18.2631,1274.4675],[30.7731,-18.2627,1275.9463],[30.7624,-18.2532,1276.9041],[30.7521,-18.2532,1277.5472],[30.751,-18.255,1273.5317],[30.7481,-18.2512,1267.4707],[30.7499,-18.2477,1269.434],[30.7493,-18.2437,1272.6851],[30.743,-18.2398,1273.0422],[30.7384,-18.2431,1272.5239],[30.7331,-18.2418,1271.1741],[30.7265,-18.2457,1270.5615],[30.7223,-18.2451,1269.866],[30.6979,-18.2608,1275.6395],[30.6953,-18.2667,1260.761],[30.699,-18.2671,1262.7883],[30.6957,-18.2718,1260.842],[30.6993,-18.2796,1258.9926],[30.6992,-18.2875,1261.3801],[30.7049,-18.2903,1274.7734],[30.7089,-18.2954,1277.7125],[30.7092,-18.3063,1272.7341],[30.7181,-18.3084,1279.4927],[30.7197,-18.3143,1276.1493],[30.7234,-18.3151,1280.1936],[30.7221,-18.3194,1274.7424],[30.7229,-18.3229,1275.8141],[30.7253,-18.3238,1279.1824],[30.7273,-18.3277,1279.3909],[30.7342,-18.3297,1280.5358],[30.7342,-18.3321,1277.0698],[30.7403,-18.3325,1287.614],[30.7403,-18.3361,1281.2676],[30.7463,-18.3432,1278.4843],[30.7537,-18.3413,1281.7574],[30.7582,-18.3437,1288.7039],[30.7585,-18.3504,1280.9834],[30.7639,-18.3489,1282.4246],[30.7671,-18.3563,1286.3041],[30.767,-18.3602,1282.9362],[30.7727,-18.3611,1291.0854],[30.7759,-18.3666,1284.7047],[30.7833,-18.3737,1291.8342],[30.7813,-18.3772,1288.9829],[30.787,-18.3826,1297.4647],[30.7869,-18.3854,1291.0159],[30.7905,-18.3915,1289.0648],[30.7881,-18.3942,1294.7793],[30.7888,-18.3986,1291.0614],[30.7858,-18.4035,1290.6562],[30.7793,-18.4059,1291.9548],[30.7743,-18.4115,1292.7909],[30.8256,-18.4012,1329.4386],[30.8651,-18.3909,1310.0212],[30.8556,-18.3715,1331.4397],[30.8672,-18.3628,1310.642],[30.8667,-18.3562,1313.5695],[30.8599,-18.342,1314.2404],[30.8698,-18.3442,1322.6936],[30.886,-18.3367,1333.642],[30.8888,-18.3344,1334.7445],[30.8889,-18.3281,1329.1445],[30.8579,-18.3226,1309.7269],[30.8687,-18.3036,1319.7681],[30.8459,-18.287,1303.0839],[30.8549,-18.2791,1298.2212],[30.8544,-18.2745,1295.6635],[30.8842,-18.2868,1310.6121],[30.896,-18.2751,1290.0939],[30.8947,-18.2695,1290.6046],[30.892,-18.2658,1290.4109],[30.8833,-18.2607,1288.4551],[30.8761,-18.2593,1286.8611],[30.8733,-18.2554,1290.0333],[30.8699,-18.2554,1295.4532],[30.8668,-18.2579,1288.3833],[30.8628,-18.2575,1288.9785],[30.8539,-18.2615,1285.9274]]]]}
,"properties": {"GID_3": "ZWE.5.10.6_2","GID_0": "ZWE","country": "Zimbabwe","GID_1": "ZWE.5_1","province": "MashonalandEast","NL_NAME_1": "NA","GID_2": "ZWE.5.10_2","county": "Seke","NL_NAME_2": "NA","city": "Ward14","VARNAME_3": "NA","NL_NAME_3": "NA","TYPE_3": "Ward","ENGTYPE_3": "Ward","CC_3": "NA","HASC_3": "NA","name": "Ward14.city","area_km2": 220.0997,"hist_schema_id": "Elevation0-9000","hist_area_km2": {"1250": 1.6912,"1275": 50.3316,"1300": 123.805,"1325": 44.1109,"1350": 0.161}}}