{"type": "Feature","bbox": [31.1657,-20.7535,31.3357,-20.5624],"geometry": {"type": "MultiPolygon","coordinates": [[[[31.2533,-20.744,475.4681],[31.262,-20.7039,500.371],[31.2706,-20.6985,516.5486],[31.2716,-20.6883,515.4563],[31.269,-20.6832,503.2117],[31.274,-20.6777,517.4205],[31.2783,-20.6616,512.1346],[31.2829,-20.651,521.3951],[31.2902,-20.6442,529.2212],[31.3097,-20.6355,541.1498],[31.3297,-20.631,544.3298],[31.3331,-20.5977,574.1833],[31.3357,-20.5928,574.0095],[31.3332,-20.5905,587.9677],[31.3263,-20.5884,583.462],[31.3277,-20.5752,582.3433],[31.322,-20.5751,631.6423],[31.3165,-20.5684,644.2216],[31.309,-20.5626,656.227],[31.3026,-20.5624,641.0575],[31.294,-20.5653,623.3804],[31.2921,-20.5702,617.8578],[31.2832,-20.5776,617.9608],[31.2791,-20.5886,600.8519],[31.276,-20.5926,590.6403],[31.273,-20.5927,591.4584],[31.269,-20.5902,569.442],[31.2688,-20.6014,573.7532],[31.2606,-20.609,583.7712],[31.2375,-20.6197,580.2596],[31.1875,-20.6388,591.8647],[31.1771,-20.6448,562.623],[31.1804,-20.6499,547.154],[31.1804,-20.6539,549.04],[31.1657,-20.6656,531.5633],[31.1661,-20.6678,531.0],[31.1713,-20.6711,540.3738],[31.1725,-20.6736,531.0],[31.1692,-20.683,531.0],[31.1914,-20.6934,531.0],[31.2011,-20.693,531.0],[31.226,-20.6865,543.1158],[31.2316,-20.6878,531.0],[31.2377,-20.7182,501.9993],[31.2383,-20.7406,486.7668],[31.2409,-20.7454,491.2599],[31.2415,-20.7525,486.582],[31.2434,-20.7535,480.5823],[31.2497,-20.7516,475.6601],[31.2533,-20.744,475.4681]]]]}
,"properties": {"GID_3": "ZWE.7.9.20_2","GID_0": "ZWE","country": "Zimbabwe","GID_1": "ZWE.7_1","province": "Masvingo","NL_NAME_1": "NA","GID_2": "ZWE.7.9_2","county": "Zaka","NL_NAME_2": "NA","city": "Ward27","VARNAME_3": "NA","NL_NAME_3": "NA","TYPE_3": "Ward","ENGTYPE_3": "Ward","CC_3": "NA","HASC_3": "NA","name": "Ward27.city","area_km2": 138.7245,"hist_schema_id": "Elevation0-9000","hist_area_km2": {"475": 0.9716,"500": 7.0004,"525": 10.3142,"550": 18.3501,"575": 26.6057,"600": 22.9768,"625": 20.2011,"650": 12.4423,"675": 5.4765,"700": 4.4247,"725": 3.3533,"750": 1.9644,"775": 1.2501,"800": 1.2105,"825": 0.7937,"850": 0.4763,"875": 0.2183,"900": 0.2381,"925": 0.1786,"950": 0.0595,"975": 0.1191,"1000": 0.0595,"1025": 0.0397}}}