{"type":"Feature","properties":{"GID_3":"ZWE.10.2.23_2","GID_0":"ZWE","country":"Zimbabwe","GID_1":"ZWE.10_1","province":"Midlands","NL_NAME_1":"NA","GID_2":"ZWE.10.2_2","county":"GokweNorth","NL_NAME_2":"NA","city":"Ward3","VARNAME_3":"NA","NL_NAME_3":"NA","TYPE_3":"Ward","ENGTYPE_3":"Ward","CC_3":"NA","HASC_3":"NA","name":"Ward3.city"},
"geometry":{"type": "MultiPolygon","coordinates": [[[[28.4395,-17.3711,637.8265],[28.4382,-17.3787,613.6389],[28.4409,-17.3829,622.801],[28.4425,-17.3942,614.4047],[28.4399,-17.3973,621.4561],[28.433,-17.4003,646.165],[28.4328,-17.4017,647.7452],[28.4348,-17.4038,619.4694],[28.4457,-17.4069,636.6986],[28.4505,-17.4052,687.4576],[28.4513,-17.4061,687.4576],[28.4517,-17.4117,622.998],[28.4442,-17.4158,661.571],[28.4442,-17.427,632.8132],[28.4513,-17.425,658.3435],[28.4537,-17.4347,623.2391],[28.4597,-17.4285,624.9386],[28.4673,-17.4273,640.2671],[28.4754,-17.4356,628.8993],[28.4797,-17.4352,630.0063],[28.4823,-17.4387,630.6901],[28.4862,-17.4565,635.3447],[28.4883,-17.4598,636.0244],[28.4931,-17.4617,642.2503],[28.5018,-17.4599,663.027],[28.5059,-17.482,641.3477],[28.5127,-17.4878,640.0778],[28.5092,-17.4994,645.1744],[28.5093,-17.511,646.2077],[28.5072,-17.5167,648.4178],[28.5181,-17.5366,652.4857],[28.514,-17.5452,653.7464],[28.5084,-17.5494,656.3308],[28.5069,-17.5544,658.6892],[28.5141,-17.5608,663.4745],[28.5092,-17.5769,664.0386],[28.5133,-17.6041,673.2863],[28.5115,-17.609,671.2001],[28.5091,-17.611,669.8993],[28.5048,-17.6101,672.4496],[28.5031,-17.612,671.288],[28.5043,-17.6173,673.7665],[28.4998,-17.629,674.2231],[28.4992,-17.6409,677.3333],[28.502,-17.6455,677.6573],[28.5,-17.6506,678.9185],[28.4948,-17.6564,682.1261],[28.4951,-17.6636,682.2335],[28.4912,-17.6702,684.3679],[28.4817,-17.6766,715.5562],[28.4894,-17.6943,691.8463],[28.494,-17.6994,699.1111],[28.5024,-17.7039,701.7755],[28.4974,-17.7131,701.6201],[28.4989,-17.7238,712.3459],[28.5245,-17.721,769.3361],[28.5362,-17.7092,808.0865],[28.5424,-17.7063,792.5253],[28.5472,-17.6996,792.4635],[28.5685,-17.6897,813.1183],[28.5899,-17.6722,835.5379],[28.6011,-17.67,871.5387],[28.599,-17.6657,843.0106],[28.6006,-17.6584,815.8289],[28.5971,-17.6522,781.9105],[28.5927,-17.649,763.0838],[28.5837,-17.6495,748.132],[28.5713,-17.6365,728.6906],[28.568,-17.6315,718.0555],[28.5638,-17.6144,702.1592],[28.5588,-17.6088,698.3049],[28.5632,-17.6036,694.8217],[28.5636,-17.5998,694.2782],[28.5676,-17.5948,690.2247],[28.5705,-17.5867,684.0299],[28.5692,-17.5855,682.9551],[28.5717,-17.579,681.0679],[28.5694,-17.567,672.1289],[28.5709,-17.5653,675.5999],[28.5689,-17.5599,673.1354],[28.571,-17.5601,676.38],[28.5671,-17.5542,667.668],[28.568,-17.5524,667.0074],[28.5731,-17.5506,665.5974],[28.5684,-17.5471,662.8551],[28.5717,-17.546,660.8741],[28.5682,-17.5433,657.0336],[28.5627,-17.5293,658.8965],[28.5544,-17.5226,652.1569],[28.5546,-17.5142,660.4429],[28.5429,-17.5126,650.3109],[28.5358,-17.5073,647.5468],[28.5267,-17.503,646.9165],[28.5247,-17.5001,645.6832],[28.5261,-17.4948,646.3665],[28.5312,-17.491,660.7985],[28.54,-17.488,676.356],[28.5492,-17.4872,692.8174],[28.5531,-17.4848,712.4014],[28.561,-17.477,739.5164],[28.5679,-17.4638,794.6255],[28.5583,-17.4613,795.29],[28.5576,-17.4578,783.455],[28.5496,-17.4447,775.8703],[28.5463,-17.4349,763.0621],[28.5484,-17.4217,735.8351],[28.5447,-17.4109,711.091],[28.5375,-17.4141,706.6012],[28.5299,-17.4111,728.1157],[28.5271,-17.4133,692.9605],[28.5245,-17.411,705.0618],[28.523,-17.413,683.7705],[28.5175,-17.4057,671.4453],[28.509,-17.4008,661.9658],[28.5077,-17.3979,668.2367],[28.5046,-17.3988,674.6082],[28.5031,-17.3907,676.8296],[28.4992,-17.3859,678.9244],[28.4861,-17.3863,654.3273],[28.4804,-17.383,662.407],[28.4744,-17.3843,645.42],[28.4769,-17.3792,669.0037],[28.4732,-17.3782,657.6909],[28.4687,-17.3734,662.4732],[28.4636,-17.372,664.4441],[28.4665,-17.3673,643.1524],[28.465699999999998,-17.3656,651.5596],[28.456,-17.3704,632.1832],[28.4588,-17.3747,638.426],[28.4589,-17.378,629.8531],[28.4395,-17.3711,637.8265]]]]}}