{"type": "Feature","bbox": [32.2555,-19.9572,32.3966,-19.7223],"geometry": {"type": "MultiPolygon","coordinates": [[[[32.2744,-19.8777,568.7481],[32.2852,-19.882,556.3475],[32.2917,-19.8805,551.4501],[32.2996,-19.8896,541.8289],[32.3022,-19.89,541.795],[32.3025,-19.8936,539.2734],[32.3051,-19.8939,540.7013],[32.3057,-19.8954,540.5686],[32.3054,-19.8979,538.147],[32.3089,-19.9,532.678],[32.3131,-19.8976,530.4348],[32.3157,-19.9012,538.0027],[32.3217,-19.9052,523.4803],[32.322,-19.907,522.3979],[32.3294,-19.9122,516.4432],[32.3294,-19.918,513.3671],[32.3374,-19.9274,504.5665],[32.3348,-19.9362,501.6344],[32.3351,-19.9417,496.1589],[32.3331,-19.9444,493.84],[32.3373,-19.9554,490.8756],[32.3414,-19.9572,483.75],[32.3405,-19.9499,491.5123],[32.3416,-19.947,487.6183],[32.3537,-19.9366,493.0017],[32.3635,-19.9314,491.9659],[32.3671,-19.9253,491.632],[32.3662,-19.9191,491.9765],[32.3701,-19.9062,492.0],[32.375,-19.8934,496.1317],[32.3847,-19.8756,501.1213],[32.3919,-19.8535,497.5],[32.3935,-19.843,498.5],[32.3928,-19.8302,502.2801],[32.395,-19.8172,503.7166],[32.3935,-19.8105,505.5641],[32.3962,-19.8011,503.25],[32.3946,-19.791,508.1019],[32.3966,-19.7853,505.5969],[32.3909,-19.7779,505.875],[32.3873,-19.7553,510.4086],[32.383,-19.7484,513.2029],[32.3533,-19.7401,531.1276],[32.3253,-19.7362,540.2312],[32.3233,-19.7327,544.7359],[32.3193,-19.7315,542.1729],[32.3151,-19.7277,557.88],[32.3021,-19.7223,558.5604],[32.3004,-19.729,554.6883],[32.3016,-19.7321,565.5412],[32.2982,-19.732,563.3201],[32.2946,-19.7348,571.6733],[32.2946,-19.7395,577.2085],[32.29,-19.7432,585.7599],[32.2896,-19.7474,595.1042],[32.2872,-19.7504,595.0208],[32.2842,-19.7513,598.4362],[32.2797,-19.7617,617.1923],[32.2738,-19.7691,622.6617],[32.2704,-19.7818,636.9376],[32.2653,-19.7882,649.0202],[32.2573,-19.7935,653.9523],[32.262,-19.8,642.3379],[32.262,-19.805,638.2543],[32.2593,-19.8134,628.2581],[32.2601,-19.8169,626.0004],[32.2574,-19.8237,621.9742],[32.2608,-19.8274,628.7011],[32.2578,-19.8324,610.7087],[32.2584,-19.8353,608.5464],[32.2555,-19.8362,609.2401],[32.2577,-19.840699999999998,603.2173],[32.2561,-19.8436,600.7694],[32.2577,-19.8468,597.1224],[32.2609,-19.8471,597.1813],[32.2645,-19.8508,598.4258],[32.2694,-19.8607,580.9269],[32.2729,-19.8619,583.3817],[32.271,-19.873,569.3849],[32.2738,-19.8736,571.1177],[32.2744,-19.8777,568.7481]]]]}
,"properties": {"GID_3": "ZWE.3.1.23_2","GID_0": "ZWE","country": "Zimbabwe","GID_1": "ZWE.3_1","province": "Manicaland","NL_NAME_1": "NA","GID_2": "ZWE.3.1_2","county": "Buhera","NL_NAME_2": "NA","city": "Ward30","VARNAME_3": "NA","NL_NAME_3": "NA","TYPE_3": "Ward","ENGTYPE_3": "Ward","CC_3": "NA","HASC_3": "NA","name": "Ward30.city","area_km2": 238.3704,"hist_schema_id": "Elevation0-9000","hist_area_km2": {"475": 0.0997,"500": 20.0779,"525": 38.0301,"550": 52.6754,"575": 39.395,"600": 41.2534,"625": 32.9749,"650": 12.0488,"675": 1.1768,"700": 0.4588,"725": 0.0998,"750": 0.0399,"775": 0.0399}}}