{"type": "Feature","bbox": [27.9975,-18.6129,29.4152,-17.6497],"geometry": {"type": "MultiPolygon","coordinates": [[[[28.8011,-18.5725,1121.3137],[28.9414,-18.5754,1173.7144],[29.0086,-18.5805,1201.6509],[29.0903,-18.5786,1210.1505],[29.129,-18.6129,1172.9783],[29.1918,-18.6046,1118.8586],[29.2026,-18.6069,1122.1478],[29.2069,-18.605,1127.9285],[29.218,-18.6061,1121.9012],[29.2277,-18.6031,1121.1644],[29.2339,-18.6052,1119.374],[29.2495,-18.5996,1102.1069],[29.2546,-18.601,1101.5364],[29.2641,-18.598,1099.4976],[29.2785,-18.5995,1101.3411],[29.2815,-18.5982,1100.6687],[29.2868,-18.6002,1091.3302],[29.2964,-18.5956,1091.4799],[29.3014,-18.5949,1086.4883],[29.3146,-18.5943,1087.5586],[29.322,-18.5975,1077.2456],[29.328,-18.5971,1077.5553],[29.3341,-18.5945,1070.8431],[29.3372,-18.59,1072.6294],[29.339,-18.5904,1069.6499],[29.3454,-18.5867,1064.1121],[29.3456,-18.5775,1061.5463],[29.3499,-18.575,1061.1787],[29.3538,-18.5768,1059.936],[29.3581,-18.5746,1058.3694],[29.3606,-18.5587,1055.197],[29.3686,-18.551,1049.3015],[29.3677,-18.541,1037.9218],[29.3716,-18.5376,1039.4879],[29.3723,-18.535,1045.859],[29.3747,-18.5362,1043.3467],[29.38,-18.5331,1039.1827],[29.3807,-18.5284,1038.7104],[29.3787,-18.526,1035.8538],[29.3811,-18.5143,1034.1575],[29.3846,-18.5115,1034.666],[29.3841,-18.5075,1032.8193],[29.3918,-18.496,1029.4763],[29.3973,-18.4927,1020.1613],[29.398,-18.4862,1019.6003],[29.4019,-18.4786,1021.2661],[29.4078,-18.4755,1016.9296],[29.4085,-18.4717,1018.9929],[29.4141,-18.4662,1017.0221],[29.4121,-18.4616,1014.5],[29.4152,-18.4472,1000.1884],[29.4147,-18.4452,1012.179],[29.4075,-18.4399,996.9476],[29.414,-18.4326,994.4069],[29.4091,-18.4277,983.435],[29.4125,-18.4205,988.1767],[29.4057,-18.4104,976.746],[29.4097,-18.4035,986.9081],[29.4044,-18.401,970.7431],[29.4044,-18.3976,979.2604],[29.3942,-18.3859,966.8475],[29.3909,-18.3749,955.517],[29.3883,-18.373,952.1265],[29.3903,-18.366,947.9402],[29.3892,-18.3631,946.9823],[29.3805,-18.3532,940.6544],[29.3803,-18.3518,951.0878],[29.3855,-18.3481,940.1348],[29.3841,-18.3438,938.0004],[29.3859,-18.3372,947.2275],[29.3799,-18.33,921.174],[29.3829,-18.3176,917.1976],[29.3791,-18.3082,955.291],[29.3892,-18.3066,912.088],[29.3906,-18.3,921.4583],[29.3967,-18.297,916.9156],[29.3971,-18.2932,935.2072],[29.4011,-18.2935,940.523],[29.4028,-18.2907,966.0261],[29.3998,-18.2851,964.2686],[29.4039,-18.2826,906.0248],[29.4034,-18.2781,907.5206],[29.4091,-18.2748,897.5308],[29.4127,-18.2687,904.7396],[29.4056,-18.2653,888.4279],[29.3928,-18.2555,902.3243],[29.3856,-18.2565,905.6791],[29.3767,-18.2604,891.4653],[29.3659,-18.262,900.3942],[29.3608,-18.2604,895.5305],[29.3588,-18.258,907.2502],[29.3547,-18.2387,874.4274],[29.3478,-18.225,877.3036],[29.3476,-18.2171,886.7758],[29.3259,-18.2134,879.9406],[29.3183,-18.2098,887.9318],[29.3038,-18.1949,878.4599],[29.2852,-18.1821,881.2089],[29.2728,-18.1757,877.9355],[29.2712,-18.1682,877.9825],[29.2634,-18.1505,872.7662],[29.2591,-18.1467,853.3431],[29.2506,-18.1275,847.8382],[29.2523,-18.118,853.0231],[29.2449,-18.109,868.9998],[29.2444,-18.0993,866.6177],[29.238,-18.0928,872.5023],[29.2303,-18.0904,870.3425],[29.2275,-18.0876,870.7981],[29.2264,-18.08,840.8676],[29.2236,-18.0744,837.1324],[29.2233,-18.0679,856.2331],[29.217,-18.0532,860.9231],[29.2135,-18.0403,832.5778],[29.213,-18.0298,855.6484],[29.2063,-18.02,845.9295],[29.2046,-18.0149,839.4236],[29.2048,-18.0069,831.3638],[29.2079,-17.9976,850.3459],[29.2174,-17.9916,829.8994],[29.2128,-17.976,834.9891],[29.2131,-17.9707,836.7222],[29.2219,-17.9642,836.0828],[29.2268,-17.9632,833.1799],[29.2292,-17.957,846.4186],[29.2222,-17.9538,840.4816],[29.2201,-17.9492,842.5605],[29.2127,-17.9491,843.3157],[29.212,-17.9507,838.4374],[29.2149,-17.9538,830.0612],[29.2115,-17.9553,830.2711],[29.2081,-17.9527,838.8235],[29.2054,-17.9638,833.8758],[29.2025,-17.9599,837.5674],[29.198,-17.9625,836.4818],[29.1963,-17.962,836.4818],[29.1868,-17.9526,854.9352],[29.184,-17.9551,843.9534],[29.1819,-17.9539,855.1719],[29.1816,-17.9563,842.939],[29.178,-17.9539,857.4075],[29.1753,-17.9563,849.5515],[29.1699,-17.9577,855.9644],[29.1741,-17.9578,849.5515],[29.1728,-17.9603,847.8678],[29.1741,-17.962,847.0051],[29.1684,-17.9605,849.7699],[29.1677,-17.9677,856.2176],[29.1649,-17.9666,849.7199],[29.1628,-17.9601,862.2167],[29.1597,-17.9604,864.2567],[29.1617,-17.9637,847.104],[29.1604,-17.9656,847.5006],[29.1545,-17.9623,857.7825],[29.1512,-17.9695,850.5892],[29.1536,-17.9733,852.4815],[29.1492,-17.9754,850.6391],[29.1462,-17.9731,855.0607],[29.1458,-17.966,853.0277],[29.1423,-17.9647,860.3266],[29.1439,-17.9616,854.8322],[29.1475,-17.9622,864.2054],[29.1484,-17.9603,867.8436],[29.1468,-17.9587,870.8389],[29.1429,-17.9587,871.2718],[29.1405,-17.9604,870.5416],[29.1405,-17.9708,856.1118],[29.1355,-17.962,868.8632],[29.1286,-17.9607,872.3804],[29.1266,-17.9617,870.3936],[29.1242,-17.9642,866.649],[29.1274,-17.9665,865.7952],[29.1262,-17.9682,858.7568],[29.1218,-17.9648,863.2821],[29.1221,-17.9601,870.3492],[29.1201,-17.9596,865.8063],[29.119,-17.9631,863.7209],[29.1169,-17.9633,866.118],[29.1161,-17.9688,864.9538],[29.1133,-17.9704,865.3864],[29.1114,-17.976,862.2939],[29.1088,-17.9778,863.6036],[29.1045,-17.9766,863.6349],[29.1016,-17.9735,870.8928],[29.1024,-17.9702,865.3844],[29.105,-17.9701,873.4216],[29.1039,-17.9675,867.7252],[29.0969,-17.9669,878.4039],[29.0958,-17.9684,875.4612],[29.0971,-17.9703,866.2626],[29.0932,-17.9709,878.5855],[29.0921,-17.9727,872.8723],[29.088,-17.9721,871.2844],[29.0864,-17.9696,882.9269],[29.0844,-17.9734,871.5612],[29.0794,-17.9744,871.7181],[29.0791,-17.9701,879.9782],[29.0739,-17.971,878.1478],[29.0739,-17.9735,872.2611],[29.071,-17.9747,875.7822],[29.073,-17.977,874.5392],[29.0712,-17.9764,877.298],[29.0719,-17.978,877.1841],[29.0664,-17.9801,883.326],[29.0653,-17.9845,881.6113],[29.0609,-17.9849,886.0895],[29.0594,-17.9834,888.9308],[29.0572,-17.9868,890.253],[29.0558,-17.9858,893.2206],[29.0548,-17.9894,887.0259],[29.0506,-17.9909,892.593],[29.0493,-17.9895,896.9547],[29.0493,-17.9916,891.3248],[29.0473,-17.9909,893.8336],[29.0439,-17.9935,895.9366],[29.0422,-17.9924,900.1045],[29.0413,-17.9951,899.0888],[29.0381,-17.9967,902.5732],[29.036,-17.9954,905.343],[29.0312,-17.9959,1007.5488],[29.0297,-17.9943,1048.6255],[29.0307,-17.9919,974.644],[29.0284,-17.9905,941.9285],[29.0129,-17.9926,1039.787],[29.0105,-17.9903,1099.3019],[29.0159,-17.9895,1112.0754],[29.0201,-17.9853,1096.7222],[29.0243,-17.9839,1111.5659],[29.0318,-17.9781,1088.5413],[29.0346,-17.9728,934.9573],[29.0277,-17.9747,989.6964],[29.0235,-17.9732,1015.6993],[29.0241,-17.9705,1103.1113],[29.0315,-17.9622,975.1962],[29.0288,-17.96,931.9917],[29.0187,-17.9632,960.7644],[29.0125,-17.963,975.7667],[29.0043,-17.9715,1034.8376],[29.0023,-17.9771,1038.0424],[28.9989,-17.9723,975.0989],[28.9934,-17.9728,1103.4502],[29.002,-17.9639,953.9488],[28.9999,-17.9597,988.2992],[28.992,-17.9606,1051.4729],[28.9917,-17.9578,1101.7623],[28.9989,-17.9552,1123.9766],[29.0039,-17.9567,1091.0862],[29.0065,-17.9542,1050.566],[29.0025,-17.9488,1040.2996],[29.001,-17.9398,1101.2893],[29.0041,-17.9397,1113.6976],[29.0152,-17.9458,1127.293],[29.0183,-17.9452,1030.3815],[29.0185,-17.9436,1000.0039],[29.0147,-17.9343,969.469],[29.0089,-17.9302,966.5702],[29.0031,-17.9297,1006.6104],[28.9988,-17.9267,1006.4326],[28.999,-17.9228,980.0182],[28.9961,-17.9184,1068.998],[29.0017,-17.9151,1084.6788],[29.0062,-17.918,1053.1871],[29.0115,-17.9187,1092.5688],[29.0171,-17.9137,1106.3468],[29.0169,-17.9096,1000.8762],[29.0118,-17.9078,962.7224],[28.9982,-17.9124,1015.9945],[28.9941,-17.907,1055.327],[28.9838,-17.9151,1060.0397],[28.9801,-17.9247,1024.7086],[28.9816,-17.9297,1109.8557],[28.9774,-17.9305,1011.28],[28.9764,-17.9374,1074.9785],[28.9688,-17.9397,1027.0149],[28.973,-17.9468,1100.0455],[28.9672,-17.9477,1004.003],[28.9685,-17.9526,1104.6667],[28.9649,-17.9573,1065.1782],[28.9648,-17.9513,1021.8819],[28.9637,-17.9492,1014.137],[28.9606,-17.9484,1048.7345],[28.9585,-17.9505,1040.8975],[28.9581,-17.9546,1082.8148],[28.9551,-17.9533,1006.8339],[28.9515,-17.9561,1015.0957],[28.9541,-17.9591,1101.5543],[28.9496,-17.9567,1036.3007],[28.9478,-17.9579,1021.5634],[28.9508,-17.9669,1102.5864],[28.9495,-17.9671,1102.5864],[28.9445,-17.9613,1029.3757],[28.9428,-17.9659,1066.1426],[28.9395,-17.9673,1047.6987],[28.9371,-17.9637,1067.0658],[28.9403,-17.9559,1055.2922],[28.9389,-17.9533,1080.3855],[28.9348,-17.9534,1010.2199],[28.9316,-17.9586,1070.5476],[28.9313,-17.9635,1125.0712],[28.9274,-17.9654,999.6246],[28.9278,-17.9676,1038.7955],[28.9335,-17.9664,1112.8208],[28.9347,-17.9679,1112.8208],[28.9338,-17.9722,1040.9985],[28.935,-17.9739,1101.4492],[28.9299,-17.9773,1010.5767],[28.929,-17.9834,1090.6183],[28.9272,-17.9847,974.774],[28.9181,-17.9819,968.6184],[28.9152,-17.9856,976.5281],[28.9148,-17.9921,1011.4456],[28.9109,-17.9921,1002.2812],[28.9085,-17.9943,990.3615],[28.904,-17.9932,961.1208],[28.8942,-17.9805,920.3335],[28.8795,-17.9688,909.1748],[28.8551,-17.9575,942.8475],[28.85,-17.9578,948.9937],[28.8489,-17.9544,936.5838],[28.8373,-17.9485,926.1193],[28.836,-17.9444,924.3514],[28.8321,-17.9426,931.7711],[28.8304,-17.9433,926.6703],[28.8203,-17.9385,899.3365],[28.817,-17.9387,901.1398],[28.8089,-17.9334,892.1694],[28.8039,-17.9346,921.8514],[28.7961,-17.9308,909.0485],[28.7948,-17.9265,900.6069],[28.7902,-17.9211,903.3425],[28.7905,-17.9166,904.4418],[28.7884,-17.9149,904.4922],[28.7869,-17.91,904.1356],[28.7802,-17.9084,897.546],[28.7665,-17.9016,878.8382],[28.7567,-17.892,877.8802],[28.7525,-17.8817,876.8732],[28.7471,-17.878,865.8424],[28.7439,-17.8778,861.464],[28.7415,-17.8683,860.6095],[28.7434,-17.8641,863.6105],[28.7384,-17.8576,848.1513],[28.7405,-17.8537,832.8715],[28.7392,-17.8478,832.7811],[28.7363,-17.8428,820.8762],[28.7362,-17.8377,815.9771],[28.7306,-17.8238,799.5795],[28.7228,-17.8179,798.4349],[28.7233,-17.813,806.4981],[28.7195,-17.8128,796.5303],[28.7084,-17.8178,782.7425],[28.7017,-17.8119,781.8646],[28.7006,-17.805,773.9503],[28.697,-17.802,769.6586],[28.6934,-17.7934,772.6737],[28.7004,-17.7899,791.8899],[28.7055,-17.7767,804.8018],[28.6981,-17.7684,818.9812],[28.6948,-17.7689,829.1609],[28.6892,-17.7616,818.2417],[28.6834,-17.7602,823.0255],[28.682,-17.7579,809.7413],[28.6826,-17.7547,812.5178],[28.6805,-17.7516,819.4463],[28.6791,-17.7431,811.0659],[28.6835,-17.7361,791.1201],[28.6801,-17.7312,790.0858],[28.6815,-17.7272,781.7485],[28.6783,-17.7182,782.5242],[28.6923,-17.6946,756.4407],[28.693,-17.6877,774.3495],[28.6869,-17.6877,750.5698],[28.6859,-17.6851,745.715],[28.6887,-17.6756,742.4623],[28.6881,-17.6726,754.3503],[28.6859,-17.669,736.3106],[28.6648,-17.667,821.1286],[28.6528,-17.662,815.5886],[28.6459,-17.6649,832.3079],[28.6308,-17.6649,861.1456],[28.5899,-17.6722,835.5379],[28.5685,-17.6897,813.1183],[28.5472,-17.6996,792.4635],[28.5424,-17.7063,792.5253],[28.5362,-17.7092,808.0865],[28.5245,-17.721,769.3361],[28.5,-17.7246,703.8669],[28.4975,-17.7204,698.5741],[28.4974,-17.7131,701.6201],[28.5024,-17.7039,701.7755],[28.494,-17.6994,699.1111],[28.4894,-17.6943,691.8463],[28.4819,-17.6787,705.7943],[28.4817,-17.6765,715.5562],[28.4853,-17.674,693.3571],[28.4598,-17.6497,713.8123],[28.4336,-17.6633,742.0785],[28.4062,-17.6618,739.4358],[28.3958,-17.6699,742.4679],[28.376,-17.6779,754.8225],[28.3719,-17.6774,751.3637],[28.3617,-17.6832,774.9124],[28.3604,-17.6962,782.6169],[28.3622,-17.6996,790.9152],[28.3624,-17.7106,808.5342],[28.3575,-17.7161,803.9406],[28.3548,-17.7175,810.6007],[28.3481,-17.7161,802.1479],[28.3389,-17.7193,797.9396],[28.3364,-17.7243,814.1874],[28.3143,-17.7266,795.3772],[28.3045,-17.7329,775.7737],[28.2732,-17.7334,752.0705],[28.261,-17.7469,751.8114],[28.2549,-17.7685,777.05],[28.2535,-17.7863,818.1949],[28.2501,-17.79,836.7463],[28.2335,-17.7925,795.0547],[28.2195,-17.8,778.3406],[28.2063,-17.8015,761.4623],[28.1955,-17.8046,748.6011],[28.186,-17.8136,754.0958],[28.1824,-17.8201,757.0311],[28.1752,-17.8226,764.1963],[28.1727,-17.8216,766.3283],[28.1631,-17.8239,771.414],[28.1553,-17.8221,776.7379],[28.1401,-17.825,800.1244],[28.1319,-17.8197,795.0229],[28.1253,-17.8189,779.7727],[28.1177,-17.8214,776.5002],[28.1105,-17.8204,763.3076],[28.0962,-17.8358,779.5659],[28.0916,-17.8376,786.5215],[28.0886,-17.8505,811.9691],[28.0862,-17.8537,810.8262],[28.0864,-17.8576,814.8807],[28.0817,-17.863,826.0666],[28.0809,-17.8692,832.0408],[28.0768,-17.8724,837.2389],[28.0796,-17.8912,843.3837],[28.0735,-17.8997,850.5297],[28.0735,-17.9038,852.7446],[28.0693,-17.9107,858.2776],[28.0687,-17.9197,862.7625],[28.0659,-17.9285,869.0097],[28.0685,-17.9366,869.1144],[28.0522,-17.9389,846.4115],[28.0499,-17.9405,839.9169],[28.0433,-17.9604,817.6885],[28.023,-17.9832,848.8243],[28.0127,-17.9995,860.1293],[28.0083,-18.0181,856.3679],[28.0176,-18.0407,878.8906],[28.0256,-18.049,894.6829],[28.0304,-18.0611,907.843],[28.0376,-18.0634,896.9026],[28.0502,-18.0527,868.4146],[28.0709,-18.0594,881.1494],[28.0678,-18.0716,879.5601],[28.0687,-18.0944,894.641],[28.072,-18.1043,916.7032],[28.0688,-18.1088,918.3192],[28.0698,-18.1377,938.491],[28.0492,-18.15,1035.3534],[28.0469,-18.1607,997.1407],[28.0541,-18.1682,992.1597],[28.051,-18.1804,985.5585],[28.0733,-18.1818,1021.7828],[28.1019,-18.1862,972.3267],[28.1067,-18.19,932.2376],[28.1099,-18.19,889.9689],[28.1068,-18.1961,879.2777],[28.0981,-18.2052,882.5989],[28.0901,-18.2068,884.7086],[28.0599,-18.2024,899.9952],[28.0273,-18.2056,931.8806],[28.002,-18.2232,966.7093],[27.9975,-18.2372,967.412],[27.9987,-18.2382,961.2969],[27.9988,-18.3489,1052.5901],[28.0012,-18.3502,1058.9535],[28.0013,-18.3631,1063.5643],[27.9999,-18.4632,1081.2297],[28.0013,-18.4807,1100.366],[27.9999,-18.4978,1132.5989],[28.0013,-18.4989,1131.8737],[28.002,-18.518,1127.3811],[27.999,-18.5212,1126.1488],[28.0009,-18.532,1072.2688],[27.9995,-18.5467,1041.9767],[28.0087,-18.55,1038.6525],[28.0155,-18.5486,1041.6483],[28.0303,-18.5514,1041.2434],[28.0353,-18.5482,1049.1747],[28.0423,-18.5466,1046.714],[28.0483,-18.5469,1053.7068],[28.0501,-18.5484,1049.3442],[28.0586,-18.547,1057.7644],[28.063,-18.5483,1052.5439],[28.065,-18.5522,1050.8396],[28.0711,-18.5529,1051.6469],[28.0862,-18.541,1069.3221],[28.0957,-18.5433,1051.0981],[28.1002,-18.5386,1057.2205],[28.1048,-18.5392,1063.7249],[28.108,-18.5414,1053.5778],[28.1112,-18.5383,1064.4097],[28.1137,-18.5403,1057.0369],[28.1165,-18.5398,1059.7151],[28.12,-18.545,1053.6426],[28.1334,-18.5453,1065.3287],[28.1422,-18.5488,1065.1184],[28.1523,-18.5581,1064.0911],[28.1637,-18.5517,1063.5173],[28.1736,-18.5533,1064.2957],[28.1791,-18.5521,1077.3252],[28.1865,-18.5543,1082.3264],[28.1889,-18.5574,1071.701],[28.1975,-18.5598,1067.6582],[28.2025,-18.5573,1081.3563],[28.207,-18.5572,1079.062],[28.2098,-18.5598,1067.0833],[28.2129,-18.5599,1071.6694],[28.2171,-18.5645,1074.0546],[28.2218,-18.5658,1072.3276],[28.2266,-18.564,1085.2134],[28.2287,-18.5659,1075.1503],[28.236,-18.5641,1076.7156],[28.2429,-18.5673,1076.0469],[28.2445,-18.5646,1080.9939],[28.2472,-18.5656,1080.4932],[28.2582,-18.5625,1084.8979],[28.259,-18.5608,1089.5906],[28.2714,-18.5657,1084.8715],[28.2811,-18.564,1085.8057],[28.2869,-18.5646,1083.0365],[28.2892,-18.5667,1082.5471],[28.2936,-18.5641,1086.8552],[28.3,-18.5657,1084.9736],[28.3052,-18.5633,1087.9868],[28.3141,-18.563,1089.8582],[28.3296,-18.5698,1089.3489],[28.3333,-18.5663,1090.8374],[28.3359,-18.566,1093.8236],[28.3373,-18.5683,1091.0906],[28.3427,-18.5678,1096.4706],[28.3514,-18.5643,1100.3516],[28.3624,-18.5649,1094.616],[28.3669,-18.5633,1095.6986],[28.3682,-18.565,1097.0801],[28.3716,-18.5626,1103.4606],[28.378,-18.5636,1101.8882],[28.3835,-18.5615,1102.5975],[28.3889,-18.5643,1099.4727],[28.395,-18.5599,1104.9531],[28.3963,-18.5611,1104.4215],[28.4065,-18.5607,1101.8226],[28.4074,-18.5584,1103.5837],[28.4108,-18.5595,1108.0642],[28.4114,-18.5613,1103.1302],[28.4295,-18.5657,1105.3384],[28.4384,-18.5639,1112.6294],[28.4424,-18.5664,1108.7456],[28.4511,-18.5627,1111.8606],[28.458,-18.5677,1110.9634],[28.4604,-18.5632,1115.0361],[28.4639,-18.5644,1113.0746],[28.4652,-18.5628,1115.6765],[28.4729,-18.5655,1112.7738],[28.476,-18.5611,1119.7108],[28.4846,-18.5648,1115.1464],[28.4878,-18.5611,1117.9958],[28.4985,-18.5622,1118.9915],[28.5026,-18.5598,1120.8206],[28.51,-18.559,1128.3955],[28.5121,-18.5601,1122.4714],[28.5415,-18.5584,1132.5649],[28.5516,-18.5597,1132.2919],[28.5552,-18.5572,1136.2653],[28.5672,-18.5579,1139.4302],[28.5716,-18.5553,1139.1019],[28.5748,-18.5596,1142.0116],[28.5819,-18.5616,1141.4143],[28.5886,-18.559,1143.2177],[28.5948,-18.5628,1148.2002],[28.5997,-18.5627,1149.099],[28.6086,-18.5588,1148.1794],[28.6135,-18.5609,1147.252],[28.6188,-18.5605,1150.224],[28.6237,-18.5574,1152.7139],[28.6324,-18.5578,1156.7161],[28.6447,-18.5619,1154.8368],[28.6495,-18.5607,1156.761],[28.652,-18.5568,1159.5903],[28.6567,-18.5537,1164.7896],[28.6628,-18.5519,1165.2607],[28.6807,-18.5507,1175.6454],[28.6926,-18.5558,1176.2308],[28.7116,-18.5585,1187.9507],[28.7423,-18.5699,1219.7368],[28.8011,-18.5725,1121.3137]],
[[28.9468,-18.2368,1303.6511],[28.9317,-18.2392,1290.5664],[28.9231,-18.2365,1272.587],[28.9173,-18.2324,1275.1349],[28.913,-18.22,1282.2208],[28.9134,-18.2045,1224.843],[28.9147,-18.2014,1219.8105],[28.924,-18.2026,1222.3348],[28.9384,-18.2077,1231.9597],[28.9408,-18.2102,1241.7684],[28.9417,-18.2069,1230.7012],[28.9646,-18.2113,1241.3997],[28.9636,-18.216,1260.5631],[28.9713,-18.2175,1253.7766],[28.9771,-18.2216,1268.9805],[28.9768,-18.2257,1294.2361],[28.9678,-18.2326,1306.1674],[28.9642,-18.2328,1306.2931],[28.96,-18.2303,1303.5968],[28.9468,-18.2368,1303.6511]]]]}
,"properties": {"GID_2": "ZWE.10.3_2","GID_0": "ZWE","country": "Zimbabwe","GID_1": "ZWE.10_1","province": "Midlands","NL_NAME_1": "NA","county": "GokweSouth","VARNAME_2": "NA","NL_NAME_2": "NA","TYPE_2": "District","ENGTYPE_2": "District","CC_2": "NA","HASC_2": "NA","name": "Gokwe_South.county","area_km2": 11158.409,"hist_schema_id": "Elevation0-9000","hist_area_km2": {"700": 15.754,"725": 82.087,"750": 199.725,"775": 306.876,"800": 328.246,"825": 382.045,"850": 572.051,"875": 586.908,"900": 628.94,"925": 598.086,"950": 508.209,"975": 464.257,"1000": 353.159,"1025": 362.95,"1050": 391.558,"1075": 436.006,"1100": 538.616,"1125": 789.938,"1150": 802.837,"1175": 618.289,"1200": 616.106,"1225": 498.407,"1250": 371.828,"1275": 376.939,"1300": 259.461,"1325": 69.01,"1350": 0.101}}}