{"type": "Feature","bbox": [32.9885,-18.3414,33.0342,-18.1949],"geometry": {"type": "MultiPolygon","coordinates": [[[[33.0129,-18.3183,668.692],[33.0058,-18.3093,649.5445],[33.0093,-18.3196,640.1814],[33.012,-18.3207,641.2439],[33.0109,-18.3235,647.8239],[33.0143,-18.3303,632.3447],[33.0124,-18.333,651.9225],[33.0153,-18.3329,636.6356],[33.0133,-18.3414,669.4105],[33.0336,-18.3335,665.2738],[33.0342,-18.3277,637.897],[33.0314,-18.3248,646.3385],[33.0129,-18.3183,668.692]]],
[[[32.998,-18.2013,1398.2668],[32.9967,-18.195,1336.8807],[32.9892,-18.1949,1201.6976],[32.9885,-18.2964,688.9586],[33.0003,-18.2952,668.7571],[32.9999,-18.2828,789.8083],[32.9976,-18.2727,756.3273],[33.0005,-18.2589,809.5261],[33.0088,-18.2404,912.8568],[33.0084,-18.2287,981.5999],[33.0022,-18.2169,1043.829],[32.998,-18.2013,1398.2668]]]]}
,"properties": {"GID_3": "ZWE.3.8.21_2","GID_0": "ZWE","country": "Zimbabwe","GID_1": "ZWE.3_1","province": "Manicaland","NL_NAME_1": "NA","GID_2": "ZWE.3.8_2","county": "Mutasa","NL_NAME_2": "NA","city": "Ward28","VARNAME_3": "NA","NL_NAME_3": "NA","TYPE_3": "Ward","ENGTYPE_3": "Ward","CC_3": "NA","HASC_3": "NA","name": "Ward28.city","area_km2": 20.03376,"hist_schema_id": "Elevation0-9000","hist_area_km2": {"625": 0.6038,"650": 1.26798,"675": 1.46933,"700": 1.16748,"725": 1.02662,"750": 0.76497,"775": 0.48319,"800": 0.50332,"825": 0.46307,"850": 0.50335,"875": 0.34229,"900": 0.34229,"925": 0.46312,"950": 0.64435,"975": 0.38259,"1000": 0.7048,"1025": 0.78535,"1050": 0.7048,"1075": 1.00686,"1100": 0.76523,"1125": 0.46316,"1150": 0.62428,"1175": 0.58402,"1200": 0.36251,"1225": 0.52363,"1250": 0.64446,"1275": 0.42294,"1300": 0.46323,"1325": 0.4028,"1350": 0.34239,"1375": 0.24168,"1400": 0.26181,"1425": 0.10069,"1450": 0.14097,"1475": 0.04028,"1500": 0.02014}}}