{"type": "Feature","bbox": [28.1119,-21.505,28.3214,-21.194],"geometry": {"type": "MultiPolygon","coordinates": [[[[28.2334,-21.505,864.8956],[28.2361,-21.4965,870.2072],[28.2498,-21.4796,881.6662],[28.2605,-21.4701,892.6191],[28.2612,-21.4655,889.7084],[28.2682,-21.4604,884.7167],[28.27,-21.4565,881.3618],[28.2781,-21.4573,875.8242],[28.2866,-21.4602,870.3801],[28.3,-21.4602,861.0347],[28.3116,-21.463,858.2381],[28.3214,-21.4624,839.5674],[28.316,-21.4568,847.7399],[28.3048,-21.4542,850.9399],[28.2977,-21.4398,851.6788],[28.2891,-21.4347,854.0135],[28.2876,-21.4246,852.681],[28.2828,-21.418,859.7172],[28.2851,-21.4085,858.6918],[28.2817,-21.4075,862.049],[28.2754,-21.4098,857.7787],[28.2724,-21.4091,861.1527],[28.2712,-21.3999,862.2585],[28.2672,-21.3964,862.4219],[28.2602,-21.3842,868.9985],[28.2592,-21.3677,871.8356],[28.25,-21.3594,875.0453],[28.2401,-21.3531,878.0153],[28.2363,-21.3464,877.4191],[28.2286,-21.3419,882.1313],[28.2157,-21.3243,896.8112],[28.2036,-21.321,894.0182],[28.1969,-21.3142,891.7542],[28.1969,-21.3092,892.8671],[28.2031,-21.299,895.5922],[28.2087,-21.2977,897.053],[28.2117,-21.2953,898.8126],[28.2126,-21.2922,898.051],[28.2124,-21.289,899.8666],[28.2081,-21.2831,899.3669],[28.2054,-21.2749,903.5351],[28.1996,-21.2678,904.2303],[28.2,-21.2654,906.7175],[28.206,-21.2615,905.5594],[28.2038,-21.254,908.58],[28.2108,-21.2481,912.1083],[28.2092,-21.2437,915.317],[28.2038,-21.24,911.2538],[28.2085,-21.2324,917.1671],[28.2073,-21.224,915.0267],[28.2108,-21.2126,922.1103],[28.209,-21.2067,922.4608],[28.2029,-21.1972,922.9306],[28.1966,-21.2007,926.7744],[28.1416,-21.2128,950.0029],[28.1282,-21.194,961.4088],[28.1119,-21.2119,965.5416],[28.1236,-21.2401,951.6757],[28.1286,-21.2679,938.565],[28.1279,-21.3174,939.1602],[28.1413,-21.3377,932.1315],[28.1837,-21.3374,911.1395],[28.1977,-21.3468,900.1122],[28.2149,-21.3519,894.2538],[28.2169,-21.354,894.3171],[28.2163,-21.4018,915.0768],[28.2114,-21.4039,908.1206],[28.2074,-21.4098,911.0741],[28.1968,-21.4048,907.7159],[28.1921,-21.4092,915.845],[28.1771,-21.4127,922.8462],[28.1683,-21.4127,928.5187],[28.1664,-21.4143,929.9747],[28.1574,-21.4088,930.7885],[28.1545,-21.4093,933.2821],[28.1778,-21.4583,891.3457],[28.1853,-21.4691,890.9244],[28.1883,-21.4785,886.194],[28.1931,-21.4836,877.5547],[28.2334,-21.505,864.8956]]]]}
,"properties": {"GID_3": "ZWE.9.7.2_2","GID_0": "ZWE","country": "Zimbabwe","GID_1": "ZWE.9_1","province": "MatabelelandSouth","NL_NAME_1": "NA","GID_2": "ZWE.9.7_2","county": "Mangwe","NL_NAME_2": "NA","city": "Ward10","VARNAME_3": "NA","NL_NAME_3": "NA","TYPE_3": "Ward","ENGTYPE_3": "Ward","CC_3": "NA","HASC_3": "NA","name": "Ward10.city","area_km2": 260.3442,"hist_schema_id": "Elevation0-9000","hist_area_km2": {"850": 8.2689,"875": 51.1975,"900": 82.2247,"925": 86.876,"950": 27.923,"975": 3.8343,"1000": 0.0197}}}