{"type": "Feature","bbox": [31.5089,-18.2339,31.6009,-18.1582],"geometry": {"type": "MultiPolygon","coordinates": [[[[31.5571,-18.1806,1666.402],[31.5542,-18.1804,1676.9879],[31.5533,-18.1756,1651.6923],[31.5509,-18.1751,1650.5363],[31.5566,-18.1633,1625.1079],[31.5251,-18.1582,1637.8583],[31.5089,-18.1726,1663.6089],[31.5361,-18.1831,1641.0818],[31.5357,-18.1884,1654.7576],[31.5395,-18.1918,1659.2556],[31.5366,-18.1941,1657.432],[31.5443,-18.1953,1649.6061],[31.545,-18.1995,1650.349],[31.5562,-18.1996,1635.7751],[31.5553,-18.2084,1620.0123],[31.5724,-18.2221,1671.6736],[31.5681,-18.2321,1653.5372],[31.5693,-18.2339,1662.8562],[31.5871,-18.2287,1631.5056],[31.5992,-18.2308,1615.3684],[31.6009,-18.2056,1632.0466],[31.5678,-18.1857,1683.535],[31.5548,-18.1851,1679.3539],[31.5571,-18.1806,1666.402]]]]}
,"properties": {"GID_3": "ZWE.5.5.3_2","GID_0": "ZWE","country": "Zimbabwe","GID_1": "ZWE.5_1","province": "MashonalandEast","NL_NAME_1": "NA","GID_2": "ZWE.5.5_2","county": "MaronderaUrban","NL_NAME_2": "NA","city": "Ward11","VARNAME_3": "NA","NL_NAME_3": "NA","TYPE_3": "Ward","ENGTYPE_3": "Ward","CC_3": "NA","HASC_3": "NA","name": "Ward11.city","area_km2": 29.62897,"hist_schema_id": "Elevation0-9000","hist_area_km2": {"1600": 1.3296,"1625": 6.12372,"1650": 10.59467,"1675": 10.85585,"1700": 0.72512}}}