{"type": "Feature","bbox": [29.394,-16.9276,29.5001,-16.7702],"geometry": {"type": "MultiPolygon","coordinates": [[[[29.4907,-16.8677,1211.1757],[29.4867,-16.8473,1272.6055],[29.4716,-16.8021,1320.6775],[29.4549,-16.7845,1265.1244],[29.4481,-16.7702,1193.0458],[29.4377,-16.7719,1189.5214],[29.4361,-16.7763,1193.3391],[29.4361,-16.7814,1210.8024],[29.4375,-16.7826,1206.8881],[29.4319,-16.7862,1236.5931],[29.4299,-16.7834,1231.3018],[29.4234,-16.7888,1202.6997],[29.414,-16.7914,1173.9501],[29.418,-16.7968,1182.6753],[29.4206,-16.7977,1211.6128],[29.4144,-16.8015,1192.136],[29.4177,-16.8028,1193.1617],[29.4243,-16.8021,1207.5782],[29.4249,-16.8033,1210.8427],[29.4208,-16.8116,1195.5101],[29.4133,-16.8167,1181.7981],[29.4121,-16.8243,1179.5098],[29.4063,-16.8304,1165.541],[29.4093,-16.8348,1150.7968],[29.405,-16.8342,1157.394],[29.4044,-16.838,1146.8694],[29.4014,-16.8368,1145.2136],[29.394,-16.8391,1136.8204],[29.3996,-16.8441,1130.7184],[29.409,-16.8451,1142.8818],[29.4151,-16.848,1142.5568],[29.418,-16.8468,1154.7672],[29.4167,-16.8537,1141.5771],[29.4127,-16.8562,1144.1035],[29.4119,-16.8612,1142.8291],[29.4234,-16.8711,1162.0771],[29.421,-16.8779,1155.9174],[29.4246,-16.8783,1170.6851],[29.4267,-16.8811,1169.0],[29.4316,-16.8832,1170.2837],[29.4308,-16.8863,1169.0],[29.4344,-16.8912,1177.3147],[29.4329,-16.894,1172.2521],[29.4399,-16.8989,1188.2576],[29.4468,-16.9083,1211.5259],[29.4523,-16.9114,1230.0881],[29.4547,-16.9142,1227.0984],[29.4537,-16.9208,1224.7692],[29.4573,-16.92,1236.0049],[29.4599,-16.9252,1228.269],[29.4634,-16.9276,1231.9159],[29.4685,-16.9267,1240.2152],[29.4714,-16.9237,1247.1967],[29.4747,-16.9229,1251.8649],[29.4923,-16.9226,1261.5544],[29.5001,-16.9252,1267.6179],[29.4941,-16.8956,1247.0475],[29.4907,-16.8677,1211.1757]]]]}
,"properties": {"GID_3": "ZWE.6.4.2_2","GID_0": "ZWE","country": "Zimbabwe","GID_1": "ZWE.6_1","province": "MashonalandWest","NL_NAME_1": "NA","GID_2": "ZWE.6.4_2","county": "Hurungwe","NL_NAME_2": "NA","city": "Ward10","VARNAME_3": "NA","NL_NAME_3": "NA","TYPE_3": "Ward","ENGTYPE_3": "Ward","CC_3": "NA","HASC_3": "NA","name": "Ward10.city","area_km2": 103.32517,"hist_schema_id": "Elevation0-9000","hist_area_km2": {"1125": 0.2841,"1150": 5.74267,"1175": 19.76427,"1200": 27.4345,"1225": 20.61615,"1250": 20.24892,"1275": 6.43368,"1300": 2.76027,"1325": 0.04059}}}