{"type":"Feature","properties":{"GID_3":"ZWE.6.4.17_2","GID_0":"ZWE","country":"Zimbabwe","GID_1":"ZWE.6_1","province":"MashonalandWest","NL_NAME_1":"NA","GID_2":"ZWE.6.4_2","county":"Hurungwe","NL_NAME_2":"NA","city":"Ward24","VARNAME_3":"NA","NL_NAME_3":"NA","TYPE_3":"Ward","ENGTYPE_3":"Ward","CC_3":"NA","HASC_3":"NA","name":"Ward24.city"},
"geometry":{"type": "MultiPolygon","coordinates": [[[[29.1753,-17.1096,880.549],[29.1734,-17.1097,989.3668],[29.1721,-17.1075,978.1833],[29.1317,-16.965,1000.0728],[29.1247,-16.9459,946.7432],[29.1223,-16.946,948.245],[29.1191,-16.9536,928.7335],[29.1174,-16.9536,930.4063],[29.115,-16.9501,934.6394],[29.1098,-16.9526,923.1805],[29.1081,-16.9478,934.7613],[29.1066,-16.9483,934.0742],[29.1068,-16.9515,921.5657],[29.0997,-16.954,924.1863],[29.097,-16.9517,913.4055],[29.0985,-16.946,923.3081],[29.0901,-16.9487,910.2782],[29.0859,-16.9463,937.5797],[29.0815,-16.9467,917.2562],[29.0796,-16.9478,911.9188],[29.0788,-16.9512,908.1402],[29.0769,-16.9515,913.5087],[29.0754,-16.9502,908.9691],[29.0776,-16.9467,909.6467],[29.0769,-16.9434,906.9069],[29.0746,-16.9467,907.9878],[29.0688,-16.9487,906.6312],[29.0669,-16.947,899.894],[29.0696,-16.9422,894.2482],[29.0682,-16.9404,912.4814],[29.0582,-16.9453,939.8667],[29.0558,-16.9475,933.2151],[29.056,-16.9514,892.2638],[29.0532,-16.9485,944.4767],[29.0296,-16.9619,882.5497],[29.0233,-16.9636,895.5986],[29.0194,-16.9676,877.2704],[29.0101,-16.9725,872.0009],[29.0075,-16.9723,870.2615],[29.006,-16.9674,866.2129],[29.0026,-16.9674,873.4299],[28.9989,-16.965,879.4713],[28.993,-16.9709,846.5662],[28.989,-16.9711,862.3372],[28.9867,-16.9737,846.3757],[28.9842,-16.9693,857.699],[28.9811,-16.9691,866.8228],[28.978,-16.9706,828.8289],[28.9773,-16.9742,827.9401],[28.9758,-16.9745,821.4635],[28.9708,-16.9689,826.0632],[28.9682,-16.9763,810.5698],[28.9657,-16.9763,841.7358],[28.966,-16.9796,813.903],[28.9586,-16.9811,820.0751],[28.9607,-16.9836,801.0182],[28.9596,-16.9852,826.4454],[28.9536,-16.9844,821.7213],[28.9518,-16.9807,831.212],[28.9503,-16.9805,801.7769],[28.9483,-16.9824,815.4736],[28.9512,-16.9874,786.5803],[28.9471,-16.9889,792.1815],[28.9437,-16.9934,777.8933],[28.9403,-16.993,772.2401],[28.9392,-16.9903,776.8629],[28.9368,-16.9905,828.456],[28.9382,-16.9948,772.7966],[28.9365,-16.9989,779.9067],[28.9321,-16.9996,810.6247],[28.9283,-17.003,764.7862],[28.9282,-17.0059,741.7188],[28.9253,-17.0065,782.6307],[28.9251,-17.0092,747.1281],[28.9208,-17.0136,715.0125],[28.9202,-17.0187,751.2649],[28.9181,-17.0203,725.1074],[28.9144,-17.0194,757.7319],[28.9141,-17.0235,663.6824],[28.9083,-17.0222,736.326],[28.904,-17.0239,660.6014],[28.898,-17.0223,674.1027],[28.896,-17.0197,718.8474],[28.8927,-17.021,707.8918],[28.8863,-17.0202,662.6008],[28.8835,-17.0223,647.689],[28.8821,-17.0202,700.3455],[28.876,-17.0228,692.8793],[28.874,-17.0215,664.8831],[28.8704,-17.0265,595.9972],[28.8689,-17.0247,650.2449],[28.8628,-17.0279,568.4125],[28.8621,-17.0299,543.1294],[28.8544,-17.0363,618.4619],[28.8547,-17.0403,566.3607],[28.8573,-17.0442,646.8248],[28.868,-17.0485,610.1185],[28.8705,-17.051,590.5077],[28.8731,-17.06,561.6553],[28.8866,-17.056,689.8015],[28.8896,-17.0615,565.0421],[28.9014,-17.0668,628.6018],[28.9077,-17.0797,609.8073],[28.9124,-17.0826,704.8509],[28.9154,-17.0876,622.2189],[28.9209,-17.0988,638.8885],[28.9217,-17.1075,591.243],[28.9259,-17.105,596.4013],[28.927,-17.1019,601.8701],[28.9298,-17.1015,610.449],[28.9307,-17.1034,610.2941],[28.9287,-17.1084,619.2306],[28.93,-17.1142,600.0989],[28.9407,-17.1068,627.3112],[28.9406,-17.1041,652.3256],[28.9466,-17.101,688.8594],[28.9486,-17.104,675.3489],[28.9526,-17.1024,697.9111],[28.9511,-17.1059,716.1963],[28.9539,-17.1055,689.1226],[28.9538,-17.1036,685.205],[28.957,-17.1016,697.1591],[28.9618,-17.1039,721.9575],[28.9642,-17.0985,718.0892],[28.969,-17.1008,720.3567],[28.9721,-17.0969,736.9052],[28.9701,-17.0923,724.5729],[28.9832,-17.0868,731.8671],[28.9884,-17.0798,739.7725],[28.9959,-17.0797,749.734],[28.9967,-17.0763,761.2106],[28.9987,-17.0778,761.2106],[29.0011,-17.0758,767.6282],[29.0003,-17.0743,778.4242],[29.0035,-17.0747,766.7163],[29.0035,-17.0777,754.3971],[29.0087,-17.0781,774.8057],[29.0123,-17.0815,762.6377],[29.0179,-17.0811,770.2632],[29.0171,-17.0772,791.1531],[29.0226,-17.0714,778.2703],[29.0229,-17.0622,791.0293],[29.0273,-17.0587,784.4784],[29.0273,-17.0571,791.7129],[29.0329,-17.059,791.3647],[29.038,-17.0563,801.2354],[29.0388,-17.0516,814.9285],[29.0408,-17.0505,817.2479],[29.0424,-17.0504,808.0378],[29.0436,-17.0527,808.0834],[29.0456,-17.0535,805.7988],[29.046,-17.0519,817.9439],[29.0496,-17.055,806.7182],[29.0548,-17.0561,815.694],[29.0569,-17.0595,812.305],[29.0597,-17.0606,813.4558],[29.0641,-17.0541,830.0131],[29.0689,-17.0556,836.6372],[29.0741,-17.0597,830.2824],[29.073,-17.0617,829.9661],[29.0742,-17.0655,832.4197],[29.081,-17.0627,852.5107],[29.0826,-17.065,848.2778],[29.0826,-17.0639,845.9067],[29.087,-17.0627,858.4865],[29.0971,-17.063,859.6289],[29.0995,-17.061,864.2989],[29.0983,-17.0599,864.2989],[29.0995,-17.0583,872.0865],[29.1051,-17.059,880.6091],[29.1047,-17.0633,868.5623],[29.1067,-17.0632,870.3925],[29.1075,-17.0609,877.2169],[29.1095,-17.0613,872.5966],[29.1095,-17.0632,872.7373],[29.1111,-17.0617,874.9811],[29.1099,-17.0586,881.3768],[29.1115,-17.0578,892.693],[29.1163,-17.0597,884.5021],[29.1171,-17.057,883.0176],[29.1206,-17.0543,888.9332],[29.1226,-17.0554,891.2344],[29.1191,-17.0585,886.1686],[29.1204,-17.0727,905.7287],[29.1132,-17.0732,888.2469],[29.1049,-17.0813,891.4496],[29.1031,-17.0913,871.4718],[29.0995,-17.0944,869.6794],[29.0972,-17.1006,875.0528],[29.0805,-17.1085,864.2438],[29.0784,-17.105,857.9381],[29.0668,-17.1048,850.3177],[29.057,-17.1206,856.2913],[29.0642,-17.1213,834.4319],[29.0687,-17.1328,806.7839],[29.076,-17.1366,790.9947],[29.0781,-17.1508,782.9984],[29.0762,-17.1558,771.1201],[29.0759,-17.1654,757.2566],[29.0819,-17.1665,768.8929],[29.0875,-17.1649,777.494],[29.0903,-17.1661,781.2209],[29.0904,-17.1714,785.7715],[29.0813,-17.1831,776.8181],[29.0869,-17.1876,780.3639],[29.0954,-17.191,807.6942],[29.1122,-17.1923,832.2994],[29.1202,-17.1896,821.4866],[29.1225,-17.1846,833.6771],[29.1316,-17.1795,878.2938],[29.1376,-17.1736,940.4929],[29.1464,-17.1747,863.7494],[29.1515,-17.1704,846.4348],[29.1595,-17.1692,829.8786],[29.1643,-17.1653,821.4366],[29.1648,-17.1616,839.9633],[29.1686,-17.1593,827.9183],[29.1718,-17.1534,835.9344],[29.1648,-17.133,862.4444],[29.1677,-17.1304,857.7846],[29.1696,-17.1251,852.7165],[29.1753,-17.122,896.1656],[29.1757,-17.1152,889.0728],[29.1793,-17.1152,868.0723],[29.1819,-17.1106,911.6996],[29.179,-17.1075,911.4946],[29.1753,-17.1096,880.549]]]]}}