{"type":"Feature","properties":{"GID_3":"ZWE.6.1.18_2","GID_0":"ZWE","country":"Zimbabwe","GID_1":"ZWE.6_1","province":"MashonalandWest","NL_NAME_1":"NA","GID_2":"ZWE.6.1_2","county":"Chegutu","NL_NAME_2":"NA","city":"Ward25","VARNAME_3":"NA","NL_NAME_3":"NA","TYPE_3":"Ward","ENGTYPE_3":"Ward","CC_3":"NA","HASC_3":"NA","name":"Ward25.city"},
"geometry":{"type": "MultiPolygon","coordinates": [[[[30.0801,-18.2434,1199.3436],[30.0868,-18.2835,1201.698],[30.0971,-18.2729,1211.5728],[30.1161,-18.299,1212.339],[30.1214,-18.2969,1246.417],[30.1257,-18.3095,1190.316],[30.1108,-18.3273,1197.0825],[30.0951,-18.3508,1160.6957],[30.1913,-18.3451,1175.0244],[30.2217,-18.3387,1181.8055],[30.2341,-18.3421,1185.8694],[30.2545,-18.3333,1186.4423],[30.2374,-18.3158,1201.457],[30.2289,-18.299,1198.6111],[30.2359,-18.2846,1232.3079],[30.2211,-18.268,1193.7062],[30.2495,-18.2591,1211.0969],[30.2738,-18.2538,1220.2314],[30.271,-18.2262,1210.2769],[30.3066,-18.2235,1205.3673],[30.3072,-18.227,1236.1162],[30.3106,-18.2238,1204.53],[30.3057,-18.2186,1197.2788],[30.3137,-18.2067,1188.5909],[30.2864,-18.2015,1211.4417],[30.2277,-18.2003,1202.8186],[30.1948,-18.1923,1221.056],[30.1738,-18.2099,1213.0461],[30.1682,-18.1981,1209.0057],[30.1623,-18.2029,1210.2772],[30.128,-18.2161,1206.5656],[30.1304,-18.2389,1241.8845],[30.0801,-18.2434,1199.3436]]]]}}