{"type": "Feature","bbox": [31.2336,-17.4865,31.3852,-17.3534],"geometry": {"type": "MultiPolygon","coordinates": [[[[31.3065,-17.4865,1137.4725],[31.3098,-17.4758,1128.699],[31.3082,-17.4674,1140.15],[31.3119,-17.4592,1123.0219],[31.3146,-17.447,1120.7183],[31.3181,-17.4407,1117.8043],[31.3164,-17.4355,1120.6863],[31.3211,-17.4224,1114.0057],[31.3213,-17.4141,1111.6997],[31.3251,-17.4102,1098.0764],[31.3235,-17.4052,1099.5826],[31.3264,-17.393,1096.3096],[31.3339,-17.39,1099.0096],[31.3426,-17.384,1102.4546],[31.3574,-17.3811,1141.099],[31.366,-17.3821,1089.929],[31.3676,-17.3789,1130.7053],[31.3743,-17.3789,1077.7888],[31.3852,-17.3699,1047.2516],[31.3794,-17.3689,1024.5],[31.3677,-17.3615,1026.766],[31.3647,-17.3624,1025.0583],[31.3601,-17.3604,1025.3616],[31.3596,-17.358,1027.1432],[31.356,-17.3594,1025.1481],[31.354,-17.3569,1028.4811],[31.3433,-17.3573,1030.3408],[31.340699999999998,-17.3598,1041.5602],[31.3346,-17.3578,1053.637],[31.3228,-17.3601,1041.098],[31.3198,-17.3586,1042.5388],[31.3187,-17.3601,1044.0491],[31.3009,-17.355,1056.2563],[31.2978,-17.356,1060.0684],[31.2983,-17.3579,1050.3346],[31.2958,-17.3579,1060.9739],[31.2897,-17.3534,1068.5229],[31.2825,-17.3568,1063.6191],[31.2631,-17.3567,1072.0566],[31.2579,-17.3605,1079.6648],[31.2508,-17.3595,1120.8347],[31.2457,-17.3614,1079.962],[31.2426,-17.3604,1086.3147],[31.2395,-17.3623,1095.085],[31.2365,-17.3618,1099.0255],[31.2342,-17.3646,1088.744],[31.2336,-17.3739,1191.1606],[31.2351,-17.3764,1232.2887],[31.234,-17.3847,1273.1937],[31.2373,-17.3922,1270.3328],[31.2531,-17.3888,1240.6848],[31.2619,-17.3938,1213.3934],[31.2658,-17.4007,1185.2812],[31.2602,-17.4022,1199.9844],[31.2565,-17.4061,1197.4937],[31.26,-17.4179,1315.9658],[31.2655,-17.4287,1320.4382],[31.2666,-17.4277,1317.6066],[31.2665,-17.4336,1347.3379],[31.269,-17.4361,1367.8811],[31.2793,-17.4352,1317.2257],[31.2863,-17.4431,1338.8488],[31.2918,-17.4564,1336.2273],[31.2913,-17.4598,1319.3617],[31.2943,-17.4618,1319.5876],[31.2978,-17.4788,1295.1414],[31.3016,-17.4862,1239.6035],[31.3065,-17.4865,1137.4725]]]]}
,"properties": {"GID_3": "ZWE.4.1.2_2","GID_0": "ZWE","country": "Zimbabwe","GID_1": "ZWE.4_1","province": "MashonalandCentral","NL_NAME_1": "NA","GID_2": "ZWE.4.1_2","county": "Bindura","NL_NAME_2": "NA","city": "Ward10","VARNAME_3": "NA","NL_NAME_3": "NA","TYPE_3": "Ward","ENGTYPE_3": "Ward","CC_3": "NA","HASC_3": "NA","name": "Ward10.city","area_km2": 93.67573,"hist_schema_id": "Elevation0-9000","hist_area_km2": {"1025": 1.84147,"1050": 5.56491,"1075": 6.11124,"1100": 7.34514,"1125": 12.40262,"1150": 7.54661,"1175": 8.67974,"1200": 7.02073,"1225": 5.42223,"1250": 4.79489,"1275": 5.32084,"1300": 7.04011,"1325": 5.1182,"1350": 2.83211,"1375": 2.12405,"1400": 1.86106,"1425": 1.39575,"1450": 0.64725,"1475": 0.6068}}}