{"type": "Feature","bbox": [31.209,-18.9368,31.3745,-18.6395],"geometry": {"type": "MultiPolygon","coordinates": [[[[31.2943,-18.9324,1482.3997],[31.2958,-18.9368,1475.8523],[31.3396,-18.9262,1419.7817],[31.3437,-18.905,1357.0823],[31.3449,-18.8849,1353.7589],[31.3742,-18.6772,1265.5511],[31.3745,-18.6723,1269.4042],[31.3705,-18.6667,1269.7675],[31.369,-18.6606,1270.1254],[31.3542,-18.6561,1280.7451],[31.3515,-18.6483,1281.1641],[31.349,-18.6475,1280.6902],[31.346,-18.6487,1287.9885],[31.3383,-18.6464,1279.2434],[31.3317,-18.6395,1289.9092],[31.3244,-18.6471,1296.5137],[31.3225,-18.6444,1296.8845],[31.3146,-18.6455,1306.8008],[31.307,-18.6444,1309.5763],[31.3046,-18.6423,1307.208],[31.308,-18.66,1332.05],[31.2935,-18.6701,1342.7085],[31.2847,-18.6688,1352.7002],[31.2796,-18.6728,1357.0005],[31.2888,-18.6855,1361.2122],[31.2892,-18.6945,1347.4791],[31.2812,-18.6956,1348.697],[31.2747,-18.705,1346.3575],[31.2717,-18.7048,1344.2983],[31.2742,-18.7222,1360.6459],[31.2528,-18.738,1378.3976],[31.2478,-18.7457,1356.7798],[31.2383,-18.751,1405.3003],[31.2377,-18.7534,1395.4716],[31.2414,-18.7599,1400.6782],[31.25,-18.7672,1414.2703],[31.2343,-18.7795,1454.2484],[31.2274,-18.7789,1453.4144],[31.2242,-18.7848,1461.4756],[31.2091,-18.8009,1477.5824],[31.209,-18.809,1492.8267],[31.2251,-18.8235,1477.3237],[31.2295,-18.8199,1478.8773],[31.255,-18.8327,1435.9009],[31.2512,-18.8418,1444.8602],[31.2516,-18.845,1443.8354],[31.2561,-18.8504,1457.7903],[31.2599,-18.8622,1457.6057],[31.2746,-18.8748,1472.6072],[31.2797,-18.8862,1493.3308],[31.2741,-18.8871,1493.9584],[31.2792,-18.9199,1475.2494],[31.2828,-18.9256,1477.6185],[31.2943,-18.9324,1482.3997]]]]}
,"properties": {"GID_3": "ZWE.5.1.23_2","GID_0": "ZWE","country": "Zimbabwe","GID_1": "ZWE.5_1","province": "MashonalandEast","NL_NAME_1": "NA","GID_2": "ZWE.5.1_2","county": "Chikomba","NL_NAME_2": "NA","city": "Ward3","VARNAME_3": "NA","NL_NAME_3": "NA","TYPE_3": "Ward","ENGTYPE_3": "Ward","CC_3": "NA","HASC_3": "NA","name": "Ward3.city","area_km2": 320.5018,"hist_schema_id": "Elevation0-9000","hist_area_km2": {"1275": 7.4918,"1300": 32.4743,"1325": 56.8281,"1350": 45.1135,"1375": 24.649,"1400": 24.5643,"1425": 31.2838,"1450": 42.52,"1475": 39.0653,"1500": 16.5116}}}