{"type": "Feature","bbox": [29.2147,-18.3732,29.6695,-18.0231],"geometry": {"type": "MultiPolygon","coordinates": [[[[29.6295,-18.372,956.8732],[29.6334,-18.3663,987.7425],[29.6502,-18.3642,1041.2919],[29.6673,-18.3514,1056.4557],[29.6406,-18.3089,1041.1731],[29.6473,-18.3042,1042.4438],[29.6523,-18.3054,1039.4357],[29.6621,-18.3018,1047.2332],[29.6647,-18.3038,1043.6558],[29.6695,-18.3007,1044.1832],[29.651,-18.2636,1045.3772],[29.6501,-18.2533,1036.1007],[29.6517,-18.2521,1037.4902],[29.6517,-18.249,1038.85],[29.6459,-18.2489,1048.1113],[29.6458,-18.2516,1043.4421],[29.6428,-18.2558,1032.725],[29.6427,-18.2599,1036.1797],[29.6296,-18.2597,1029.3374],[29.6297,-18.2541,1022.8999],[29.6239,-18.254,1021.5084],[29.6238,-18.2568,1022.1112],[29.6194,-18.2623,1035.0312],[29.599,-18.262,1013.1631],[29.5961,-18.2591,1011.5529],[29.5962,-18.2563,1015.7415],[29.5947,-18.2563,1005.5334],[29.5946,-18.2633,1019.6049],[29.5916,-18.2674,1019.9846],[29.5639,-18.2669,1001.1841],[29.5639,-18.2655,1007.049],[29.5552,-18.2654,1006.9567],[29.5507,-18.2694,992.7261],[29.5506,-18.275,1007.2038],[29.5419,-18.2749,983.5519],[29.5405,-18.2734,979.9887],[29.5086,-18.2742,986.6406],[29.5087,-18.26,965.2537],[29.5036,-18.2069,1007.0488],[29.4321,-18.1923,994.9518],[29.4061,-18.1464,966.1921],[29.3977,-18.138,968.0309],[29.3214,-18.0231,930.7626],[29.2497,-18.0359,910.2751],[29.2147,-18.0449,856.4419],[29.2233,-18.0679,856.2331],[29.2236,-18.0744,837.1324],[29.2264,-18.08,840.8676],[29.2275,-18.0876,870.7981],[29.2303,-18.0904,870.3425],[29.238,-18.0928,872.5023],[29.2444,-18.0993,866.6177],[29.2449,-18.109,868.9998],[29.2523,-18.118,853.0231],[29.2506,-18.1275,847.8382],[29.2591,-18.1467,853.3431],[29.2634,-18.1505,872.7662],[29.2712,-18.1682,877.9825],[29.2728,-18.1757,877.9355],[29.2852,-18.1821,881.2089],[29.3038,-18.1949,878.4599],[29.3183,-18.2098,887.9318],[29.3259,-18.2134,879.9406],[29.3476,-18.2171,886.7758],[29.3478,-18.225,877.3036],[29.3547,-18.2387,874.4274],[29.3588,-18.258,907.2502],[29.3608,-18.2604,895.5305],[29.3659,-18.262,900.3942],[29.3767,-18.2604,891.4653],[29.3856,-18.2565,905.6791],[29.3928,-18.2555,902.3243],[29.4056,-18.2653,888.4279],[29.4128,-18.2687,904.7396],[29.4241,-18.2784,892.5669],[29.4284,-18.2841,902.4081],[29.4418,-18.2852,923.182],[29.4607,-18.2977,918.7822],[29.4714,-18.2988,918.5491],[29.4814,-18.3051,902.1464],[29.4856,-18.3051,911.2424],[29.499,-18.3196,942.809],[29.5332,-18.337,937.0456],[29.5379,-18.3425,930.866],[29.5428,-18.3524,958.9964],[29.5478,-18.3564,918.8936],[29.5533,-18.3559,927.8802],[29.5585,-18.3578,930.806],[29.5675,-18.3541,931.3505],[29.5713,-18.3553,939.3989],[29.5752,-18.3586,928.6235],[29.5775,-18.3688,936.0519],[29.5828,-18.3694,938.9902],[29.5871,-18.3732,933.2598],[29.5994,-18.368,960.0457],[29.6062,-18.3671,960.3331],[29.6128,-18.3678,993.5629],[29.6179,-18.3703,977.4471],[29.6273,-18.3705,980.8479],[29.6295,-18.372,956.8732]]]]}
,"properties": {"GID_3": "ZWE.6.12.14_2","GID_0": "ZWE","country": "Zimbabwe","GID_1": "ZWE.6_1","province": "MashonalandWest","NL_NAME_1": "NA","GID_2": "ZWE.6.12_2","county": "Sanyati","NL_NAME_2": "NA","city": "Ward5","VARNAME_3": "NA","NL_NAME_3": "NA","TYPE_3": "Ward","ENGTYPE_3": "Ward","CC_3": "NA","HASC_3": "NA","name": "Ward5.city","area_km2": 580.3181,"hist_schema_id": "Elevation0-9000","hist_area_km2": {"825": 0.1008,"850": 2.6808,"875": 36.2123,"900": 92.5751,"925": 123.4996,"950": 108.1911,"975": 63.3417,"1000": 61.4426,"1025": 47.6672,"1050": 41.2651,"1075": 3.3418}}}