{"type": "Feature","bbox": [29.7516,-20.8841,29.9409,-20.7796],"geometry": {"type": "MultiPolygon","coordinates": [[[[29.7678,-20.7801,914.3772],[29.7644,-20.78,908.9073],[29.7621,-20.7818,921.6425],[29.7656,-20.7861,921.5356],[29.7638,-20.7894,921.2349],[29.7656,-20.7993,944.2757],[29.762,-20.8024,967.3098],[29.7608,-20.8125,993.6246],[29.7516,-20.8279,1059.0886],[29.7533,-20.8351,927.95],[29.786,-20.8518,897.4895],[29.7922,-20.8522,886.3902],[29.8124,-20.8716,861.8403],[29.8188,-20.8749,848.5069],[29.8213,-20.8746,852.8882],[29.8236,-20.8775,846.5594],[29.8314,-20.879,848.6522],[29.834,-20.8821,842.3323],[29.8399,-20.8841,847.5376],[29.8419,-20.8792,853.9075],[29.8573,-20.8685,927.1119],[29.8575,-20.8643,905.765],[29.8678,-20.8601,932.4021],[29.8696,-20.8575,920.7307],[29.8791,-20.8607,902.8951],[29.8866,-20.8555,899.7812],[29.8936,-20.8552,895.293],[29.9008,-20.8495,883.265],[29.9091,-20.8455,874.2924],[29.919,-20.8433,866.1397],[29.9409,-20.843,828.2587],[29.9303,-20.8355,843.8889],[29.9222,-20.8353,831.9832],[29.91,-20.8284,840.5011],[29.8226,-20.7911,915.6799],[29.8188,-20.7904,894.7284],[29.8147,-20.7916,891.5035],[29.7993,-20.7845,912.8047],[29.7962,-20.7864,902.7246],[29.7914,-20.7863,907.1458],[29.7767,-20.7796,915.4425],[29.7678,-20.7801,914.3772]]]]}
,"properties": {"GID_3": "ZWE.10.9.6_2","GID_0": "ZWE","country": "Zimbabwe","GID_1": "ZWE.10_1","province": "Midlands","NL_NAME_1": "NA","GID_2": "ZWE.10.9_2","county": "Mberengwa","NL_NAME_2": "NA","city": "Ward14","VARNAME_3": "NA","NL_NAME_3": "NA","TYPE_3": "Ward","ENGTYPE_3": "Ward","CC_3": "NA","HASC_3": "NA","name": "Ward14.city","area_km2": 109.80267,"hist_schema_id": "Elevation0-9000","hist_area_km2": {"825": 1.03042,"850": 7.76702,"875": 12.12634,"900": 13.9706,"925": 14.66516,"950": 13.67394,"975": 12.97972,"1000": 9.27411,"1025": 6.24223,"1050": 3.94355,"1075": 4.97397,"1100": 5.80633,"1125": 1.80338,"1150": 0.5153,"1175": 0.33693,"1200": 0.33693,"1225": 0.33693,"1250": 0.01982}}}