{"type":"Feature","properties":{"GID_3":"ZWE.3.5.20_2","GID_0":"ZWE","country":"Zimbabwe","GID_1":"ZWE.3_1","province":"Manicaland","NL_NAME_1":"NA","GID_2":"ZWE.3.5_2","county":"Makoni","NL_NAME_2":"NA","city":"Ward27","VARNAME_3":"NA","NL_NAME_3":"NA","TYPE_3":"Ward","ENGTYPE_3":"Ward","CC_3":"NA","HASC_3":"NA","name":"Ward27.city"},
"geometry":{"type": "MultiPolygon","coordinates": [[[[32.1221,-18.7616,1142.1425],[32.1155,-18.7647,1139.8536],[32.1047,-18.7768,1124.5249],[32.1022,-18.7768,1130.2153],[32.0933,-18.7818,1133.8815],[32.0894,-18.7866,1114.3618],[32.0851,-18.7854,1136.6914],[32.0783,-18.7892,1121.3108],[32.071,-18.7901,1115.5221],[32.0667,-18.7887,1120.3405],[32.0386,-18.7947,1075.6636],[32.0361,-18.7927,1068.5114],[32.0321,-18.7922,1034.0557],[32.0289,-18.7878,1094.9756],[32.0233,-18.7905,1013.5883],[32.0232,-18.7882,1013.781],[32.0209,-18.7862,1014.9586],[32.0084,-18.7914,1000.1671],[32.013,-18.7984,1026.4004],[32.0141,-18.8058,1076.5852],[32.0164,-18.8086,1092.2968],[32.0175,-18.8163,1110.3523],[32.0213,-18.8257,1118.3406],[32.0198,-18.8314,1147.4797],[32.0249,-18.8399,1078.6461],[32.035,-18.85,1148.6207],[32.0464,-18.8563,1095.8967],[32.052,-18.8635,1057.9486],[32.0602,-18.869,1010.4302],[32.0594,-18.8705,1010.5235],[32.0615,-18.8766,995.585],[32.0685,-18.8764,1017.0073],[32.072,-18.8811,1035.0171],[32.0778,-18.9003,1144.0992],[32.084,-18.8868,1420.8824],[32.0926,-18.8777,1152.5344],[32.1049,-18.8791,1047.1272],[32.1049,-18.8709,1053.9774],[32.107,-18.8697,1053.7267],[32.1089,-18.8614,1061.7297],[32.1075,-18.8508,1080.5894],[32.1099,-18.8496,1085.5785],[32.1131,-18.878,1148.5417],[32.1397,-18.8536,1305.6682],[32.1419,-18.8389,1243.4734],[32.1326,-18.8251,1221.2544],[32.1632,-18.8113,1280.4023],[32.1691,-18.8099,1200.4285],[32.174,-18.7693,1170.3647],[32.1568,-18.7647,1179.7209],[32.1424,-18.7633,1170.856],[32.1351,-18.7553,1155.7908],[32.1316,-18.7558,1148.8536],[32.1289,-18.7592,1141.4454],[32.1221,-18.7616,1142.1425]]]]}}