{"type": "Feature","bbox": [32.5336,-19.2493,32.6585,-19.0958],"geometry": {"type": "MultiPolygon","coordinates": [[[[32.5597,-19.2392,1036.1884],[32.6112,-19.2493,867.7798],[32.6175,-19.2386,859.1854],[32.6179,-19.2328,880.791],[32.6213,-19.2295,864.8454],[32.6267,-19.2188,877.5887],[32.6359,-19.2229,932.531],[32.6397,-19.216,981.6143],[32.6461,-19.2179,1003.9617],[32.6547,-19.2124,1020.2408],[32.6585,-19.2119,1087.2031],[32.6264,-19.1482,1100.9314],[32.5907,-19.0958,1588.017],[32.5894,-19.1182,1116.7875],[32.5764,-19.1216,1134.1774],[32.5693,-19.1132,1169.8892],[32.5683,-19.1207,1170.5425],[32.5692,-19.1295,1116.5908],[32.5674,-19.1337,1071.2831],[32.5695,-19.1443,1118.4357],[32.5734,-19.1441,1114.0653],[32.5756,-19.1492,1152.488],[32.5734,-19.1482,1148.8765],[32.5715,-19.1518,1154.2798],[32.5714,-19.1566,1147.4296],[32.5755,-19.1526,1159.4396],[32.5788,-19.1557,1121.5186],[32.5782,-19.1665,1210.3585],[32.5817,-19.1689,1200.359],[32.5753,-19.1736,1199.3962],[32.5746,-19.1679,1177.7112],[32.5714,-19.1691,1167.239],[32.5707,-19.1633,1151.4414],[32.564,-19.1598,1161.3665],[32.5577,-19.1632,1085.5593],[32.556,-19.1679,1000.6235],[32.5637,-19.1724,1131.469],[32.5611,-19.1771,1170.7955],[32.5557,-19.1799,1212.1018],[32.5519,-19.1877,1173.6815],[32.544,-19.1776,996.226],[32.542,-19.1828,1000.2553],[32.5352,-19.1794,946.2811],[32.5349,-19.1805,943.3511],[32.5336,-19.1883,921.4713],[32.5376,-19.1943,935.067],[32.5449,-19.1974,1196.1746],[32.5475,-19.2078,1107.7964],[32.555,-19.2108,1058.292],[32.5617,-19.2104,1069.5446],[32.5628,-19.2159,895.053],[32.5538,-19.2176,873.8939],[32.5513,-19.2253,1022.2999],[32.5561,-19.2311,982.8665],[32.5614,-19.2338,1147.9556],[32.5597,-19.2392,1036.1884]]]]}
,"properties": {"GID_3": "ZWE.3.6.6_2","GID_0": "ZWE","country": "Zimbabwe","GID_1": "ZWE.3_1","province": "Manicaland","NL_NAME_1": "NA","GID_2": "ZWE.3.6_2","county": "Mutare","NL_NAME_2": "NA","city": "Ward14","VARNAME_3": "NA","NL_NAME_3": "NA","TYPE_3": "Ward","ENGTYPE_3": "Ward","CC_3": "NA","HASC_3": "NA","name": "Ward14.city","area_km2": 109.37439,"hist_schema_id": "Elevation0-9000","hist_area_km2": {"850": 0.2202,"875": 1.54143,"900": 3.42335,"925": 5.86616,"950": 6.58705,"975": 10.09127,"1000": 10.05176,"1025": 11.35448,"1050": 11.25479,"1075": 8.97204,"1100": 8.27164,"1125": 6.76938,"1150": 4.28556,"1175": 3.72464,"1200": 4.42544,"1225": 4.28519,"1250": 4.20499,"1275": 2.06244,"1300": 0.70082,"1325": 0.56069,"1350": 0.36049,"1375": 0.14021,"1400": 0.04007,"1425": 0.04007,"1450": 0.04007,"1500": 0.02004,"1525": 0.02003,"1550": 0.02004,"1575": 0.04007}}}