{"type":"Feature","properties":{"GID_3":"ZWE.9.10.11_2","GID_0":"ZWE","country":"Zimbabwe","GID_1":"ZWE.9_1","province":"MatabelelandSouth","NL_NAME_1":"NA","GID_2":"ZWE.9.10_2","county":"Umzingwane","NL_NAME_2":"NA","city":"Ward19","VARNAME_3":"NA","NL_NAME_3":"NA","TYPE_3":"Ward","ENGTYPE_3":"Ward","CC_3":"NA","HASC_3":"NA","name":"Ward19.city"},
"geometry":{"type": "MultiPolygon","coordinates": [[[[28.7933,-20.1309,1370.933],[28.7953,-20.1349,1379.6929],[28.8032,-20.135,1366.942],[28.813,-20.1414,1374.4929],[28.8179,-20.1428,1364.948],[28.8301,-20.153199999999998,1363.1478],[28.8655,-20.1638,1331.4862],[28.901,-20.1701,1252.6963],[28.903199999999998,-20.1846,1250.6648],[28.9151,-20.21,1251.0879],[28.9315,-20.2247,1174.243],[29.0007,-20.2409,1210.3109],[29.0277,-20.2487,1274.1447],[29.0115,-20.2119,1308.4414],[29.0546,-20.1946,1215.1959],[29.0435,-20.1743,1256.708],[29.0888,-20.1485,1234.7462],[29.0892,-20.1081,1249.0911],[29.0566,-20.101,1251.0543],[29.0402,-20.003,1320.1287],[29.0199,-20.0063,1341.3374],[29.0147,-19.9744,1340.2289],[28.9833,-19.9568,1371.2338],[28.9618,-19.9728,1367.8472],[28.8956,-20.0399,1395.0887],[28.816,-20.0447,1368.9711],[28.8602,-20.076,1340.3125],[28.7933,-20.1309,1370.933]]]]}}