{"type":"Feature","properties":{"GID_3":"ZWE.8.5.1_2","GID_0":"ZWE","country":"Zimbabwe","GID_1":"ZWE.8_1","province":"MatabelelandNorth","NL_NAME_1":"NA","GID_2":"ZWE.8.5_2","county":"Lupane","NL_NAME_2":"NA","city":"Ward1","VARNAME_3":"NA","NL_NAME_3":"NA","TYPE_3":"Ward","ENGTYPE_3":"Ward","CC_3":"NA","HASC_3":"NA","name":"Ward1.city"},
"geometry":{"type": "MultiPolygon","coordinates": [[[[27.4655,-18.4387,951.9542],[27.4704,-18.4348,953.9247],[27.5105,-18.4561,943.2346],[27.5194,-18.5032,1003.3077],[27.5323,-18.5066,1005.5123],[27.5426,-18.4906,989.8132],[27.5805,-18.4899,1013.6618],[27.5726,-18.4762,982.9994],[27.5664,-18.4693,965.3334],[27.5661,-18.4628,952.676],[27.5607,-18.4622,952.4849],[27.5642,-18.4577,950.0291],[27.5613,-18.4478,961.0916],[27.5653,-18.4474,960.3083],[27.5725,-18.4422,965.8469],[27.5724,-18.4371,969.0503],[27.5764,-18.4347,971.7172],[27.5749,-18.4337,970.3638],[27.5752,-18.4267,982.4121],[27.5401,-18.3871,1001.9316],[27.5177,-18.3664,1001.372],[27.3329,-18.4106,1035.5774],[27.3434,-18.4367,976.9251],[27.4655,-18.4387,951.9542]]]]}}