{"type":"Feature","properties":{"GID_3":"ZWE.5.7.25_2","GID_0":"ZWE","country":"Zimbabwe","GID_1":"ZWE.5_1","province":"MashonalandEast","NL_NAME_1":"NA","GID_2":"ZWE.5.7_2","county":"Murehwa","NL_NAME_2":"NA","city":"Ward4","VARNAME_3":"NA","NL_NAME_3":"NA","TYPE_3":"Ward","ENGTYPE_3":"Ward","CC_3":"NA","HASC_3":"NA","name":"Ward4.city"},
"geometry":{"type": "MultiPolygon","coordinates": [[[[31.7584,-17.5537,1242.6243],[31.766,-17.5343,1237.4686],[31.7756,-17.5255,1379.3552],[31.7842,-17.5204,1356.2367],[31.7696,-17.5214,1305.3263],[31.7638,-17.5173,1223.1205],[31.7587,-17.5193,1211.552],[31.7509,-17.514,1183.5461],[31.7488,-17.5038,1168.1403],[31.7423,-17.4893,1131.4001],[31.7396,-17.4745,1117.0135],[31.7341,-17.4698,1103.9452],[31.7341,-17.4677,1104.4269],[31.7293,-17.4676,1100.3788],[31.7297,-17.462,1093.0702],[31.7313,-17.4606,1096.3179],[31.7296,-17.4573,1092.9835],[31.7302,-17.4536,1092.8529],[31.7261,-17.4488,1092.8287],[31.6797,-17.4783,1132.1333],[31.6908,-17.4906,1156.3533],[31.6919,-17.5094,1152.5193],[31.7209,-17.5044,1177.7437],[31.7163,-17.5189,1173.9144],[31.6954,-17.5181,1186.231],[31.6873,-17.5195,1196.1077],[31.6828,-17.532,1158.5757],[31.6795,-17.5312,1174.9319],[31.683,-17.5469,1176.9626],[31.6807,-17.5621,1195.1509],[31.6815,-17.5706,1206.2271],[31.7093,-17.5667,1217.28],[31.7137,-17.5599,1213.6707],[31.7352,-17.5641,1233.5254],[31.7384,-17.5464,1219.5488],[31.7491,-17.5485,1232.8838],[31.7584,-17.5537,1242.6243]]]]}}