{"type":"Feature","properties":{"GID_3":"ZWE.5.7.24_2","GID_0":"ZWE","country":"Zimbabwe","GID_1":"ZWE.5_1","province":"MashonalandEast","NL_NAME_1":"NA","GID_2":"ZWE.5.7_2","county":"Murehwa","NL_NAME_2":"NA","city":"Ward30","VARNAME_3":"NA","NL_NAME_3":"NA","TYPE_3":"Ward","ENGTYPE_3":"Ward","CC_3":"NA","HASC_3":"NA","name":"Ward30.city"},
"geometry":{"type": "MultiPolygon","coordinates": [[[[31.8042,-17.6525,1444.8077],[31.8157,-17.6457,1363.5483],[31.8263,-17.6357,1341.17],[31.8052,-17.6356,1367.2207],[31.8003,-17.6379,1367.5088],[31.7929,-17.6379,1351.2722],[31.7856,-17.6301,1381.912],[31.7684,-17.6293,1382.6346],[31.7518,-17.6313,1288.0011],[31.7325,-17.6367,1240.9084],[31.7375,-17.6372,1256.9065],[31.7401,-17.6409,1264.5037],[31.7444,-17.6425,1277.6648],[31.7483,-17.6476,1283.2098],[31.7567,-17.6535,1301.241],[31.7644,-17.6521,1334.882],[31.7715,-17.6535,1346.2306],[31.7749,-17.66,1396.0502],[31.7804,-17.6606,1375.7216],[31.7828,-17.6656,1383.5117],[31.8042,-17.6525,1444.8077]]]]}}