{"type": "Feature","bbox": [27.1352,-18.706,27.5333,-18.4348],"geometry": {"type": "MultiPolygon","coordinates": [[[[27.2219,-18.499,898.0225],[27.2125,-18.5009,897.5219],[27.1928,-18.5108,890.7358],[27.1863,-18.5086,908.4548],[27.1809,-18.5116,887.7064],[27.1769,-18.5215,898.393],[27.1666,-18.5276,897.0602],[27.1575,-18.5404,897.743],[27.1481,-18.5476,908.9833],[27.1478,-18.5574,907.6467],[27.1407,-18.5594,913.3895],[27.1358,-18.5636,916.3945],[27.1352,-18.571,911.2415],[27.1403,-18.5803,927.609],[27.1367,-18.5859,925.468],[27.1363,-18.5899,922.9233],[27.1696,-18.5955,921.1899],[27.1733,-18.614,922.2137],[27.1895,-18.6132,921.6859],[27.2048,-18.6262,923.7755],[27.2256,-18.6144,967.805],[27.2238,-18.6323,939.6269],[27.2556,-18.6279,1021.3572],[27.3722,-18.6847,1018.3357],[27.369,-18.6945,1029.1541],[27.4122,-18.706,1047.1179],[27.4126,-18.6292,934.5425],[27.4556,-18.6132,926.9984],[27.4744,-18.5716,957.4279],[27.4954,-18.5646,953.106],[27.5108,-18.5434,936.0571],[27.5333,-18.5056,1035.8595],[27.5323,-18.5066,1005.5123],[27.5194,-18.5032,1003.3077],[27.5105,-18.4561,943.2346],[27.4704,-18.4348,953.9247],[27.3892,-18.4973,917.9317],[27.3523,-18.4974,914.8413],[27.3106,-18.5005,900.1844],[27.2985,-18.4899,904.4228],[27.2966,-18.4903,900.5685],[27.2983,-18.4957,896.4875],[27.2962,-18.4985,895.6005],[27.287,-18.4976,895.001],[27.2793,-18.5011,893.244],[27.2775,-18.5076,896.2766],[27.2651,-18.5078,893.551],[27.2605,-18.5055,892.2779],[27.2588,-18.5016,891.565],[27.2473,-18.4941,891.7671],[27.2437,-18.4941,893.0026],[27.2308,-18.4997,896.7609],[27.2231,-18.5011,890.3914],[27.2219,-18.499,898.0225]]]]}
,"properties": {"GID_3": "ZWE.8.5.17_2","GID_0": "ZWE","country": "Zimbabwe","GID_1": "ZWE.8_1","province": "MatabelelandNorth","NL_NAME_1": "NA","GID_2": "ZWE.8.5_2","county": "Lupane","NL_NAME_2": "NA","city": "Ward24","VARNAME_3": "NA","NL_NAME_3": "NA","TYPE_3": "Ward","ENGTYPE_3": "Ward","CC_3": "NA","HASC_3": "NA","name": "Ward24.city","area_km2": 619.8764,"hist_schema_id": "Elevation0-9000","hist_area_km2": {"875": 0.6434,"900": 84.7963,"925": 226.1232,"950": 98.7167,"975": 38.9887,"1000": 35.1892,"1025": 45.5498,"1050": 89.8691}}}