{"type": "Feature","bbox": [28.5893,-20.1723,28.6765,-20.0676],"geometry": {"type": "MultiPolygon","coordinates": [[[[28.5923,-20.1551,1339.5103],[28.6422,-20.167,1368.0139],[28.6567,-20.1648,1352.9558],[28.6703,-20.1723,1362.5048],[28.6743,-20.1699,1353.1072],[28.6746,-20.1676,1348.5776],[28.6694,-20.169,1362.8848],[28.6645,-20.1664,1362.1307],[28.6639,-20.1633,1357.8324],[28.6513,-20.153,1334.9669],[28.6765,-20.1143,1332.4019],[28.6592,-20.1116,1309.5374],[28.6512,-20.1133,1308.6333],[28.6575,-20.1001,1329.5421],[28.6566,-20.0893,1328.8658],[28.6604,-20.089,1331.5881],[28.662,-20.085,1330.9875],[28.661,-20.0842,1329.905],[28.6679,-20.0676,1331.2612],[28.6559,-20.0681,1315.606],[28.6465,-20.0904,1319.9048],[28.6468,-20.093,1319.8134],[28.6395,-20.0921,1313.9055],[28.6334,-20.104,1299.8894],[28.6304,-20.1009,1298.877],[28.6256,-20.1008,1295.6028],[28.6271,-20.0948,1293.9141],[28.6217,-20.0895,1295.9318],[28.6196,-20.09,1291.4116],[28.6169,-20.1001,1308.6968],[28.6127,-20.1033,1312.3855],[28.6015,-20.1265,1314.0939],[28.5991,-20.1264,1316.5796],[28.5996,-20.1323,1317.4077],[28.5962,-20.1351,1321.214],[28.5953,-20.1385,1326.5941],[28.5916,-20.138,1332.2096],[28.5893,-20.146,1336.4463],[28.5934,-20.1469,1329.417],[28.5923,-20.1551,1339.5103]]]]}
,"properties": {"GID_3": "ZWE.1.1.23_2","GID_0": "ZWE","country": "Zimbabwe","GID_1": "ZWE.1_1","province": "Bulawayo","NL_NAME_1": "NA","GID_2": "ZWE.1.1_2","county": "Bulawayo","NL_NAME_2": "NA","city": "Ward3","VARNAME_3": "NA","NL_NAME_3": "NA","TYPE_3": "Ward","ENGTYPE_3": "Ward","CC_3": "NA","HASC_3": "NA","name": "Ward3.city","area_km2": 50.72383,"hist_schema_id": "Elevation0-9000","hist_area_km2": {"1300": 7.44627,"1325": 30.75797,"1350": 12.08173,"1375": 0.43785}}}