{"type":"Feature","properties":{"GID_3":"ZWE.10.2.28_2","GID_0":"ZWE","country":"Zimbabwe","GID_1":"ZWE.10_1","province":"Midlands","NL_NAME_1":"NA","GID_2":"ZWE.10.2_2","county":"GokweNorth","NL_NAME_2":"NA","city":"Ward34","VARNAME_3":"NA","NL_NAME_3":"NA","TYPE_3":"Ward","ENGTYPE_3":"Ward","CC_3":"NA","HASC_3":"NA","name":"Ward34.city"},
"geometry":{"type": "MultiPolygon","coordinates": [[[[28.9353,-17.7577,949.0558],[28.9119,-17.756,954.7711],[28.9062,-17.7458,951.1431],[28.9107,-17.7116,913.7969],[28.9066,-17.7043,906.9725],[28.9063,-17.6826,885.477],[28.8997,-17.6746,873.7936],[28.8966,-17.6739,868.5469],[28.8758,-17.6496,828.5764],[28.8742,-17.665,840.655],[28.8706,-17.6719,829.7822],[28.8629,-17.6788,825.6271],[28.8622,-17.6819,823.6445],[28.8581,-17.6852,817.1724],[28.846,-17.6905,807.7069],[28.8456,-17.6923,804.3368],[28.8414,-17.6933,801.8678],[28.8379,-17.6974,795.2484],[28.8252,-17.7045,787.8676],[28.7917,-17.7731,770.0196],[28.8044,-17.7834,777.6832],[28.8109,-17.7832,780.1379],[28.8156,-17.7879,786.55],[28.8176,-17.7936,782.9865],[28.8187,-17.791,788.3918],[28.8201,-17.7935,785.0648],[28.8229,-17.7918,787.2072],[28.8217,-17.7893,789.2375],[28.8239,-17.7893,791.0135],[28.8239,-17.7862,791.3513],[28.8267,-17.7875,793.4373],[28.8298,-17.785,793.7617],[28.8359,-17.7873,797.2291],[28.8409,-17.7869,802.2257],[28.849,-17.7909,808.3837],[28.8537,-17.787,837.9379],[28.8593,-17.7889,816.5922],[28.861,-17.7857,830.9686],[28.8648,-17.7899,819.2241],[28.8672,-17.7899,824.3372],[28.8674,-17.788,829.6797],[28.87,-17.789,835.5725],[28.8717,-17.7868,839.2473],[28.8782,-17.787,835.0901],[28.8817,-17.7839,841.8785],[28.8855,-17.7884,839.6422],[28.8884,-17.7882,842.9745],[28.8907,-17.7857,848.0205],[28.8943,-17.7879,849.6295],[28.8948,-17.7899,848.0413],[28.8994,-17.7883,850.5043],[28.9013,-17.791,852.3406],[28.917,-17.7946,865.4667],[28.9329,-17.7888,889.7321],[28.9373,-17.7899,910.5089],[28.9416,-17.7933,939.2771],[28.9483,-17.7941,1036.7103],[28.9524,-17.7983,1007.4274],[28.9557,-17.7978,1036.8192],[28.9606,-17.8004,988.5154],[28.9595,-17.7902,1164.6658],[28.9521,-17.7722,1028.1975],[28.9498,-17.7602,950.3264],[28.9353,-17.7577,949.0558]]]]}}