{"type": "Feature","bbox": [26.4346,-18.3634,26.4827,-18.3319],"geometry": {"type": "MultiPolygon","coordinates": [[[[26.4381,-18.3364,716.0916],[26.4418,-18.3386,712.8258],[26.4374,-18.3461,726.4066],[26.4375,-18.3487,735.8448],[26.4346,-18.3508,742.1109],[26.4347,-18.3605,756.6427],[26.4817,-18.3634,740.1461],[26.4827,-18.354,729.493],[26.4812,-18.339,707.6266],[26.4732,-18.3337,701.3771],[26.4633,-18.3319,699.8831],[26.4381,-18.3364,716.0916]]]]}
,"properties": {"GID_3": "ZWE.8.4.15_2","GID_0": "ZWE","country": "Zimbabwe","GID_1": "ZWE.8_1","province": "MatabelelandNorth","NL_NAME_1": "NA","GID_2": "ZWE.8.4_2","county": "HwangeUrban","NL_NAME_2": "NA","city": "Ward9","VARNAME_3": "NA","NL_NAME_3": "NA","TYPE_3": "Ward","ENGTYPE_3": "Ward","CC_3": "NA","HASC_3": "NA","name": "Ward9.city","area_km2": 14.5901,"hist_schema_id": "Elevation0-9000","hist_area_km2": {"700": 1.89181,"725": 7.66746,"750": 5.03084}}}