{"type": "Feature","bbox": [25.8291,-17.9381,25.8361,-17.9284],"geometry": {"type": "MultiPolygon","coordinates": [[[[25.8306,-17.9305,960.1635],[25.8291,-17.9368,977.3093],[25.8347,-17.9381,937.7312],[25.8361,-17.9284,928.2856],[25.8306,-17.9305,960.1635]]]]}
,"properties": {"GID_3": "ZWE.8.9.7_2","GID_0": "ZWE","country": "Zimbabwe","GID_1": "ZWE.8_1","province": "MatabelelandNorth","NL_NAME_1": "NA","GID_2": "ZWE.8.9_2","county": "VictoriaFalls","NL_NAME_2": "NA","city": "Ward5","VARNAME_3": "NA","NL_NAME_3": "NA","TYPE_3": "Ward","ENGTYPE_3": "Ward","CC_3": "NA","HASC_3": "NA","name": "Ward5.city","area_km2": 0.5446469,"hist_schema_id": "Elevation0-9000","hist_area_km2": {"925": 0.0605175,"950": 0.423614,"975": 0.0605155}}}