{"type":"Feature","properties":{"GID_3":"ZWE.4.9.8_2","GID_0":"ZWE","country":"Zimbabwe","GID_1":"ZWE.4_1","province":"MashonalandCentral","NL_NAME_1":"NA","GID_2":"ZWE.4.9_2","county":"Rushinga","NL_NAME_2":"NA","city":"Ward16","VARNAME_3":"NA","NL_NAME_3":"NA","TYPE_3":"Ward","ENGTYPE_3":"Ward","CC_3":"NA","HASC_3":"NA","name":"Ward16.city"},
"geometry":{"type": "MultiPolygon","coordinates": [[[[32.114,-16.7437,746.1088],[32.1136,-16.7527,712.7651],[32.1185,-16.7652,687.123],[32.1252,-16.7733,654.3867],[32.1296,-16.7762,659.1578],[32.141,-16.7784,635.6727],[32.1475,-16.7855,612.6935],[32.1483,-16.7884,596.9691],[32.1542,-16.7884,608.1603],[32.1629,-16.7786,596.8584],[32.1771,-16.7773,587.6108],[32.1808,-16.7737,594.1649],[32.1965,-16.7682,599.3483],[32.1954,-16.7612,613.7457],[32.1969,-16.7599,599.1265],[32.1982,-16.7482,616.6843],[32.1913,-16.7441,628.7213],[32.1917,-16.7396,637.1163],[32.1942,-16.734,650.958],[32.1955,-16.7344,652.6642],[32.1972,-16.7315,699.4362],[32.1993,-16.7303,721.2089],[32.2001,-16.7328,715.8352],[32.2027,-16.7263,736.6487],[32.2075,-16.7274,815.3469],[32.2088,-16.715,859.1398],[32.2081,-16.7091,805.1831],[32.199,-16.7007,796.0369],[32.1983,-16.6953,798.3],[32.1957,-16.6928,802.9435],[32.1882,-16.6899,801.9562],[32.1855,-16.6868,804.6865],[32.1825,-16.6775,817.4246],[32.1795,-16.6733,792.083],[32.1812,-16.6646,773.5834],[32.1898,-16.6562,742.1465],[32.1873,-16.6525,749.7642],[32.1829,-16.6525,746.1979],[32.1803,-16.655,754.379],[32.1754,-16.6527,779.8541],[32.1718,-16.6532,769.1523],[32.1695,-16.6513,764.7446],[32.1656,-16.6522,778.0648],[32.1617,-16.651,785.1636],[32.1524,-16.6559,788.2323],[32.1485,-16.6687,785.3196],[32.1398,-16.6741,786.1562],[32.1402,-16.6784,767.3699],[32.135,-16.6808,776.1908],[32.1363,-16.6856,762.5643],[32.1397,-16.6813,778.5664],[32.1417,-16.6818,780.5032],[32.1406,-16.687,754.2861],[32.1466,-16.693,739.3525],[32.1458,-16.6962,740.9861],[32.1429,-16.6945,754.9112],[32.1363,-16.6997,757.3682],[32.1336,-16.6986,776.8133],[32.1305,-16.7004,759.1089],[32.1305,-16.6969,784.4644],[32.1239,-16.6973,779.7042],[32.1157,-16.6933,793.4594],[32.114,-16.7437,746.1088]]]]}}