{"type":"Feature","properties":{"GID_3":"ZWE.2.1.14_2","GID_0":"ZWE","country":"Zimbabwe","GID_1":"ZWE.2_1","province":"Harare","NL_NAME_1":"NA","GID_2":"ZWE.2.1_2","county":"Chitungwiza","NL_NAME_2":"NA","city":"Ward21","VARNAME_3":"NA","NL_NAME_3":"NA","TYPE_3":"Ward","ENGTYPE_3":"Ward","CC_3":"NA","HASC_3":"NA","name":"Ward21.city"},
"geometry":{"type": "MultiPolygon","coordinates": [[[[31.0958,-18.0157,1448.9014],[31.1045,-18.0077,1456.1544],[31.0965,-18.0035,1455.6249],[31.0898,-18.0024,1448.9238],[31.089,-18.0069,1449.0923],[31.0911,-18.008,1445.0179],[31.0878,-18.0127,1441.5732],[31.0888,-18.0205,1438.9282],[31.0958,-18.0157,1448.9014]]]]}}