{"type":"Feature","properties":{"GID_3":"ZWE.8.2.1_2","GID_0":"ZWE","country":"Zimbabwe","GID_1":"ZWE.8_1","province":"MatabelelandNorth","NL_NAME_1":"NA","GID_2":"ZWE.8.2_2","county":"Bubi","NL_NAME_2":"NA","city":"Ward1","VARNAME_3":"NA","NL_NAME_3":"NA","TYPE_3":"Ward","ENGTYPE_3":"Ward","CC_3":"NA","HASC_3":"NA","name":"Ward1.city"},
"geometry":{"type": "MultiPolygon","coordinates": [[[[28.6436,-19.6729,1240.4937],[28.7181,-19.6387,1226.7217],[28.7412,-19.6621,1267.7104],[28.7922,-19.6302,1271.0364],[28.7932,-19.5671,1312.6462],[28.779,-19.5711,1298.8149],[28.7665,-19.5471,1282.085],[28.7712,-19.5457,1295.5964],[28.7651,-19.5387,1280.5656],[28.7626,-19.5289,1275.9613],[28.757,-19.5254,1272.1118],[28.7545,-19.5126,1264.1089],[28.7497,-19.5038,1263.9572],[28.7333,-19.5026,1245.4382],[28.6525,-19.4885,1222.6854],[28.6326,-19.476,1195.5916],[28.5922,-19.4848,1161.6021],[28.5933,-19.4951,1147.8752],[28.5857,-19.5,1147.2974],[28.5917,-19.5008,1166.1482],[28.5906,-19.5091,1152.4786],[28.5947,-19.5108,1151.5153],[28.5831,-19.5537,1211.9608],[28.6436,-19.6729,1240.4937]]]]}}