{"type":"Feature","properties":{"GID_3":"ZWE.6.5.6_2","GID_0":"ZWE","country":"Zimbabwe","GID_1":"ZWE.6_1","province":"MashonalandWest","NL_NAME_1":"NA","GID_2":"ZWE.6.5_2","county":"KadomaUrban","NL_NAME_2":"NA","city":"Ward14","VARNAME_3":"NA","NL_NAME_3":"NA","TYPE_3":"Ward","ENGTYPE_3":"Ward","CC_3":"NA","HASC_3":"NA","name":"Ward14.city"},
"geometry":{"type": "MultiPolygon","coordinates": [[[[29.865,-18.3941,1114.6337],[29.9045,-18.4178,1206.489],[29.9074,-18.4043,1127.0071],[29.8851,-18.3605,1138.7957],[29.8638,-18.3725,1126.6169],[29.8697,-18.3794,1115.9662],[29.8651,-18.3825,1116.6343],[29.8688,-18.3872,1107.0],[29.865,-18.3941,1114.6337]]]]}}