{"type": "Feature","bbox": [30.7911,-20.7833,30.8968,-20.6993],"geometry": {"type": "MultiPolygon","coordinates": [[[[30.7911,-20.7523,724.4213],[30.7998,-20.7587,767.8388],[30.8093,-20.7579,715.3419],[30.821,-20.7609,682.8166],[30.8265,-20.768,657.4806],[30.8313,-20.771,649.8696],[30.8331,-20.7833,684.5229],[30.8526,-20.7746,839.8064],[30.8855,-20.7468,904.9586],[30.8956,-20.732,932.5131],[30.8968,-20.7203,641.5887],[30.8927,-20.7168,647.3435],[30.8895,-20.7165,636.111],[30.8802,-20.7211,663.3405],[30.8758,-20.721,664.2473],[30.8682,-20.7128,657.627],[30.8654,-20.7039,655.6094],[30.8599,-20.6993,656.8669],[30.8512,-20.7075,656.803],[30.8449,-20.7083,665.762],[30.8339,-20.7162,672.3773],[30.8373,-20.7298,685.5767],[30.8265,-20.7331,685.1305],[30.8111,-20.7329,700.4202],[30.7913,-20.7479,719.8688],[30.7911,-20.7523,724.4213]]]]}
,"properties": {"GID_3": "ZWE.7.4.25_2","GID_0": "ZWE","country": "Zimbabwe","GID_1": "ZWE.7_1","province": "Masvingo","NL_NAME_1": "NA","GID_2": "ZWE.7.4_2","county": "Chivi","NL_NAME_2": "NA","city": "Ward31","VARNAME_3": "NA","NL_NAME_3": "NA","TYPE_3": "Ward","ENGTYPE_3": "Ward","CC_3": "NA","HASC_3": "NA","name": "Ward31.city","area_km2": 48.32087,"hist_schema_id": "Elevation0-9000","hist_area_km2": {"625": 0.2578,"650": 3.17272,"675": 10.64764,"700": 17.82501,"725": 7.67343,"750": 3.25181,"775": 1.68542,"800": 0.95175,"825": 0.75347,"850": 0.77331,"875": 0.51554,"900": 0.37675,"925": 0.35691,"950": 0.05948,"975": 0.01983}}}