{"type": "Feature","bbox": [30.9672,-17.9322,31.0639,-17.8727],"geometry": {"type": "MultiPolygon","coordinates": [[[[31.0639,-17.8995,1487.6555],[31.0611,-17.8751,1454.1355],[31.0523,-17.8774,1448.0468],[31.0421,-17.877,1441.6373],[31.0418,-17.8729,1450.6698],[31.0193,-17.8727,1450.564],[31.0026,-17.8943,1419.293],[30.9977,-17.8965,1417.6613],[30.997,-17.8997,1414.8696],[30.9986,-17.9014,1416.1189],[30.9827,-17.9189,1406.6433],[30.9787,-17.9212,1409.5325],[30.9777,-17.9198,1405.7074],[30.9705,-17.9192,1406.4678],[30.9672,-17.9213,1399.1409],[30.9718,-17.9262,1414.0587],[30.9797,-17.9276,1416.0596],[30.9852,-17.9193,1407.774],[30.991,-17.9225,1416.5632],[30.9922,-17.9197,1418.3472],[30.9978,-17.9199,1422.3688],[31.0057,-17.9322,1441.2518],[31.032,-17.9213,1453.5011],[31.0286,-17.9072,1449.6112],[31.0639,-17.8995,1487.6555]]]]}
,"properties": {"GID_3": "ZWE.2.3.15_2","GID_0": "ZWE","country": "Zimbabwe","GID_1": "ZWE.2_1","province": "Harare","NL_NAME_1": "NA","GID_2": "ZWE.2.3_2","county": "Harare","NL_NAME_2": "NA","city": "Ward23","VARNAME_3": "NA","NL_NAME_3": "NA","TYPE_3": "Ward","ENGTYPE_3": "Ward","CC_3": "NA","HASC_3": "NA","name": "Ward23.city","area_km2": 30.8086,"hist_schema_id": "Elevation0-9000","hist_area_km2": {"1400": 1.10955,"1425": 7.64652,"1450": 18.11809,"1475": 3.93443}}}