{"type": "Feature","bbox": [32.0603,-17.4066,32.1881,-17.2792],"geometry": {"type": "MultiPolygon","coordinates": [[[[32.1434,-17.4066,1114.4207],[32.1687,-17.4021,1144.3069],[32.1611,-17.3977,1111.8474],[32.1606,-17.3944,1124.4341],[32.1705,-17.3865,1096.4307],[32.173,-17.3803,1086.2573],[32.1696,-17.3749,1080.6619],[32.1725,-17.3685,1062.7705],[32.1716,-17.3626,1057.2676],[32.1777,-17.3638,1102.5179],[32.1829,-17.3689,1146.3119],[32.1866,-17.3684,1125.4596],[32.1848,-17.3522,1210.0897],[32.188,-17.3471,1178.9767],[32.1852,-17.3415,1219.6381],[32.1881,-17.3352,1197.2273],[32.1764,-17.3213,1079.8962],[32.175,-17.3131,1063.545],[32.1703,-17.3104,1040.8456],[32.1681,-17.307,1028.4669],[32.1683,-17.3019,1023.5879],[32.1774,-17.2792,924.442],[32.1726,-17.2793,1026.7214],[32.1567,-17.2897,1027.1475],[32.1415,-17.2909,985.8025],[32.1336,-17.2882,1024.7155],[32.1151,-17.287,1119.3163],[32.1059,-17.2914,1069.1825],[32.102,-17.2917,1030.7271],[32.0918,-17.2889,983.142],[32.0807,-17.2905,967.0042],[32.0603,-17.2978,925.124],[32.0625,-17.3037,926.8007],[32.0669,-17.3072,935.7612],[32.0705,-17.3151,948.3467],[32.0814,-17.3277,1004.1281],[32.0839,-17.3341,941.3134],[32.0907,-17.3427,950.3243],[32.0963,-17.345,969.3965],[32.1005,-17.3514,969.0189],[32.1131,-17.3644,1132.5317],[32.1386,-17.3957,1105.5425],[32.1434,-17.4066,1114.4207]]]]}
,"properties": {"GID_3": "ZWE.5.8.25_2","GID_0": "ZWE","country": "Zimbabwe","GID_1": "ZWE.5_1","province": "MashonalandEast","NL_NAME_1": "NA","GID_2": "ZWE.5.8_2","county": "Mutoko","NL_NAME_2": "NA","city": "Ward5","VARNAME_3": "NA","NL_NAME_3": "NA","TYPE_3": "Ward","ENGTYPE_3": "Ward","CC_3": "NA","HASC_3": "NA","name": "Ward5.city","area_km2": 105.52729,"hist_schema_id": "Elevation0-9000","hist_area_km2": {"925": 0.64778,"950": 2.42909,"975": 4.41282,"1000": 5.38436,"1025": 6.27471,"1050": 7.69142,"1075": 9.2297,"1100": 15.56321,"1125": 20.62129,"1150": 9.35036,"1175": 7.22538,"1200": 5.40392,"1225": 3.82511,"1250": 3.25845,"1275": 1.76078,"1300": 1.23456,"1325": 0.74884,"1350": 0.28335,"1375": 0.12144,"1400": 0.06072}}}