{"type": "Feature","bbox": [30.5453,-17.3628,30.7389,-17.0251],"geometry": {"type": "MultiPolygon","coordinates": [[[[30.5465,-17.0525,1133.5221],[30.5474,-17.0536,1125.0474],[30.5453,-17.0554,1117.458],[30.5453,-17.0594,1118.3354],[30.5482,-17.062,1129.8726],[30.5468,-17.0694,1141.0648],[30.5491,-17.0763,1147.9783],[30.5551,-17.0773,1173.6846],[30.557,-17.0847,1198.806],[30.5668,-17.0913,1215.5],[30.5776,-17.0915,1229.9067],[30.5785,-17.0947,1215.5],[30.582,-17.0968,1216.1619],[30.5853,-17.102,1232.7595],[30.5858,-17.1055,1227.8542],[30.5882,-17.1071,1231.1212],[30.5904,-17.1125,1233.5375],[30.5946,-17.1142,1247.0391],[30.5963,-17.1166,1250.256],[30.6039,-17.1164,1257.1033],[30.6089,-17.1216,1259.9805],[30.5888,-17.2096,1255.236],[30.5935,-17.2345,1274.326],[30.5687,-17.3073,1231.4948],[30.6177,-17.3628,1455.6041],[30.6578,-17.2791,1505.5094],[30.6685,-17.2512,1479.1691],[30.6714,-17.241,1467.0834],[30.6551,-17.2362,1342.1945],[30.682,-17.2177,1583.9102],[30.7183,-17.1558,1623.2058],[30.7389,-17.0613,1606.2738],[30.6921,-17.0508,1297.626],[30.6693,-17.0632,1260.1904],[30.663,-17.0362,1286.0435],[30.6406,-17.0481,1205.7817],[30.6365,-17.0274,1178.9713],[30.6335,-17.0251,1182.1011],[30.619,-17.0298,1158.6141],[30.6114,-17.0293,1149.8182],[30.5984,-17.0313,1160.3547],[30.5808,-17.0425,1247.1141],[30.5769,-17.0518,1231.1848],[30.5465,-17.0525,1133.5221]]]]}
,"properties": {"GID_3": "ZWE.6.13.7_2","GID_0": "ZWE","country": "Zimbabwe","GID_1": "ZWE.6_1","province": "MashonalandWest","NL_NAME_1": "NA","GID_2": "ZWE.6.13_2","county": "Zvimba","NL_NAME_2": "NA","city": "Ward15","VARNAME_3": "NA","NL_NAME_3": "NA","TYPE_3": "Ward","ENGTYPE_3": "Ward","CC_3": "NA","HASC_3": "NA","name": "Ward15.city","area_km2": 381.7807,"hist_schema_id": "Elevation0-9000","hist_area_km2": {"1125": 0.4459,"1150": 4.1352,"1175": 9.0609,"1200": 12.9522,"1225": 18.8893,"1250": 43.189,"1275": 68.5007,"1300": 53.2089,"1325": 36.3001,"1350": 22.507,"1375": 20.6447,"1400": 15.1136,"1425": 14.4849,"1450": 11.9724,"1475": 10.068,"1500": 9.2365,"1525": 8.2436,"1550": 6.8254,"1575": 4.4154,"1600": 3.7474,"1625": 3.4437,"1650": 2.4107,"1675": 1.2154,"1700": 0.4861,"1725": 0.1215,"1750": 0.162}}}