{"type":"Feature","properties":{"GID_3":"ZWE.10.8.2_2","GID_0":"ZWE","country":"Zimbabwe","GID_1":"ZWE.10_1","province":"Midlands","NL_NAME_1":"NA","GID_2":"ZWE.10.8_2","county":"KwekweUrban","NL_NAME_2":"NA","city":"Ward10","VARNAME_3":"NA","NL_NAME_3":"NA","TYPE_3":"Ward","ENGTYPE_3":"Ward","CC_3":"NA","HASC_3":"NA","name":"Ward10.city"},
"geometry":{"type": "MultiPolygon","coordinates": [[[[29.8198,-18.9682,1230.689],[29.8157,-18.9522,1231.9113],[29.8094,-18.9395,1215.5155],[29.805,-18.9371,1221.9901],[29.806,-18.9339,1215.3612],[29.8043,-18.9321,1217.2706],[29.8062,-18.9323,1213.293],[29.8061,-18.931,1215.3523],[29.7997,-18.9311,1229.8749],[29.7992,-18.9288,1228.2981],[29.7968,-18.9295,1215.6317],[29.7968,-18.9325,1211.1746],[29.7908,-18.9366,1217.0884],[29.7888,-18.948,1213.1384],[29.7847,-18.9465,1216.4143],[29.7823,-18.9593,1206.9373],[29.8198,-18.9682,1230.689]]]]}}