{"type": "Feature","bbox": [30.6089,-19.652,30.7032,-19.5322],"geometry": {"type": "MultiPolygon","coordinates": [[[[30.7032,-19.5653,1342.5571],[30.6992,-19.5566,1352.8301],[30.6857,-19.5517,1356.6886],[30.6876,-19.5475,1374.4711],[30.684,-19.5457,1375.9237],[30.6841,-19.5388,1370.5222],[30.6742,-19.5361,1385.1951],[30.6683,-19.5322,1384.339],[30.6529,-19.5371,1394.1603],[30.6236,-19.5379,1378.3235],[30.6264,-19.5444,1368.7859],[30.631,-19.5483,1366.5167],[30.6347,-19.5547,1356.7944],[30.6371,-19.5658,1346.8842],[30.6403,-19.5689,1343.7679],[30.6439,-19.5786,1340.7778],[30.6468,-19.58,1331.1733],[30.6525,-19.5892,1340.0162],[30.6518,-19.5947,1349.2415],[30.6478,-19.5938,1313.6052],[30.6483,-19.5982,1290.9116],[30.6458,-19.5965,1301.5874],[30.6412,-19.5969,1315.6006],[30.6386,-19.5979,1326.1758],[30.6397,-19.6007,1296.6992],[30.6346,-19.5991,1313.2483],[30.6329,-19.6022,1302.8265],[30.6299,-19.6006,1307.3562],[30.629,-19.5973,1315.6237],[30.6282,-19.5995,1306.0045],[30.6298,-19.6026,1306.1599],[30.6262,-19.6043,1301.7104],[30.626,-19.6067,1294.4204],[30.6227,-19.6044,1301.8259],[30.6226,-19.6027,1304.7731],[30.6258,-19.6031,1301.7104],[30.6241,-19.5998,1308.7173],[30.6183,-19.5971,1327.7783],[30.6171,-19.6033,1292.4286],[30.6089,-19.6044,1298.9482],[30.6193,-19.6154,1261.6914],[30.6316,-19.6196,1246.6328],[30.6357,-19.6231,1247.8689],[30.6513,-19.6269,1245.7925],[30.666,-19.6336,1238.457],[30.6719,-19.6414,1222.7085],[30.6769,-19.652,1233.0538],[30.6786,-19.6467,1240.4052],[30.6898,-19.6344,1277.0793],[30.6903,-19.6204,1281.4268],[30.6892,-19.6159,1279.2179],[30.6852,-19.612,1288.1555],[30.6864,-19.6076,1279.751],[30.6797,-19.590699999999998,1291.8169],[30.6873,-19.5882,1283.7529],[30.6949,-19.5804,1311.7509],[30.6978,-19.5689,1322.6866],[30.7032,-19.5653,1342.5571]]]]}
,"properties": {"GID_3": "ZWE.10.1.14_2","GID_0": "ZWE","country": "Zimbabwe","GID_1": "ZWE.10_1","province": "Midlands","NL_NAME_1": "NA","GID_2": "ZWE.10.1_2","county": "Chirumhanzu","NL_NAME_2": "NA","city": "Ward21","VARNAME_3": "NA","NL_NAME_3": "NA","TYPE_3": "Ward","ENGTYPE_3": "Ward","CC_3": "NA","HASC_3": "NA","name": "Ward21.city","area_km2": 63.14258,"hist_schema_id": "Elevation0-9000","hist_area_km2": {"1225": 1.69742,"1250": 5.93132,"1275": 13.700989999999999,"1300": 11.80484,"1325": 8.49017,"1350": 9.80933,"1375": 9.4307,"1400": 2.27781}}}