{"type": "Feature","bbox": [30.5569,-17.839,30.8412,-17.5519],"geometry": {"type": "MultiPolygon","coordinates": [[[[30.7854,-17.5577,1465.9033],[30.7285,-17.5526,1433.7168],[30.6912,-17.5596,1413.9656],[30.6448,-17.5519,1405.4573],[30.6115,-17.5519,1421.9153],[30.6079,-17.5762,1408.8838],[30.596,-17.6279,1384.9471],[30.6018,-17.6273,1368.6658],[30.6017,-17.6332,1365.9553],[30.5981,-17.6374,1364.4353],[30.5987,-17.6444,1362.4417],[30.5917,-17.6528,1362.8585],[30.5808,-17.6587,1354.7223],[30.5779,-17.6635,1350.9797],[30.5766,-17.6711,1350.5369],[30.5722,-17.6772,1351.552],[30.5722,-17.6803,1349.8634],[30.5655,-17.6902,1347.4203],[30.5649,-17.7047,1345.2833],[30.5625,-17.7114,1343.3439],[30.5636,-17.7148,1344.0416],[30.5602,-17.7221,1348.4553],[30.5625,-17.7312,1341.3386],[30.5569,-17.7385,1341.1484],[30.5616,-17.7463,1341.9594],[30.565,-17.7487,1346.3649],[30.5643,-17.7607,1339.5],[30.5664,-17.7656,1344.2947],[30.5663,-17.7771,1339.5],[30.5605,-17.7834,1339.5],[30.5585,-17.7942,1339.5],[30.5575,-17.8267,1340.1895],[30.5605,-17.8263,1340.5281],[30.5634,-17.8286,1340.175],[30.5691,-17.8283,1339.5],[30.5713,-17.8297,1339.5],[30.5697,-17.8347,1343.5132],[30.5706,-17.8365,1341.7849],[30.5812,-17.839,1339.5],[30.5957,-17.8189,1339.5],[30.6061,-17.7991,1339.5],[30.6147,-17.7939,1342.7075],[30.6293,-17.7909,1341.1213],[30.6378,-17.7806,1344.9517],[30.6429,-17.7769,1348.9854],[30.6457,-17.7768,1348.8687],[30.6492,-17.7795,1348.4677],[30.6544,-17.7757,1349.6752],[30.6579,-17.778,1346.7629],[30.6599,-17.7749,1352.0521],[30.6616,-17.7773,1349.1147],[30.6661,-17.774,1357.7673],[30.6724,-17.7753,1350.9518],[30.6728,-17.7723,1358.2814],[30.6751,-17.774,1352.1167],[30.6765,-17.7717,1351.6411],[30.685,-17.7695,1358.7197],[30.6898,-17.7706,1356.0308],[30.6927,-17.7681,1354.7834],[30.6975,-17.7679,1357.708],[30.7031,-17.7632,1359.204],[30.7087,-17.7639,1357.1567],[30.7115,-17.759,1362.6538],[30.7156,-17.7601,1357.9663],[30.7233,-17.7567,1359.9994],[30.7294,-17.7499,1364.1823],[30.7334,-17.7495,1368.2954],[30.7491,-17.7379,1375.007],[30.7528,-17.7368,1370.7532],[30.7516,-17.725,1396.9686],[30.7963,-17.7272,1402.7698],[30.8032,-17.7063,1407.5276],[30.8348,-17.7255,1430.0996],[30.8412,-17.7051,1442.8156],[30.8379,-17.6627,1418.0417],[30.7899,-17.64,1406.0322],[30.7601,-17.6043,1402.4811],[30.7854,-17.5577,1465.9033]]]]}
,"properties": {"GID_3": "ZWE.6.13.19_2","GID_0": "ZWE","country": "Zimbabwe","GID_1": "ZWE.6_1","province": "MashonalandWest","NL_NAME_1": "NA","GID_2": "ZWE.6.13_2","county": "Zvimba","NL_NAME_2": "NA","city": "Ward26","VARNAME_3": "NA","NL_NAME_3": "NA","TYPE_3": "Ward","ENGTYPE_3": "Ward","CC_3": "NA","HASC_3": "NA","name": "Ward26.city","area_km2": 557.0896,"hist_schema_id": "Elevation0-9000","hist_area_km2": {"1350": 56.4918,"1375": 109.3764,"1400": 171.1652,"1425": 167.8719,"1450": 51.6991,"1475": 0.4851}}}