{"type": "Feature","bbox": [31.8278,-18.1603,31.8732,-18.1082],"geometry": {"type": "MultiPolygon","coordinates": [[[[31.8684,-18.142,1485.0999],[31.8635,-18.1269,1516.1014],[31.8609,-18.1087,1550.3257],[31.849,-18.1082,1580.5656],[31.8357,-18.118,1585.8057],[31.8427,-18.1241,1543.2469],[31.8357,-18.1285,1548.0276],[31.8405,-18.1369,1513.7158],[31.8284,-18.144,1535.6912],[31.8278,-18.1481,1544.4785],[31.8406,-18.1555,1531.0381],[31.8468,-18.1531,1553.2355],[31.8598,-18.1558,1512.4707],[31.8627,-18.1592,1504.369],[31.869,-18.158,1485.8689],[31.8732,-18.1603,1472.8119],[31.8723,-18.1518,1487.6425],[31.8692,-18.1484,1481.4965],[31.8684,-18.142,1485.0999]]]]}
,"properties": {"GID_3": "ZWE.5.7.22_2","GID_0": "ZWE","country": "Zimbabwe","GID_1": "ZWE.5_1","province": "MashonalandEast","NL_NAME_1": "NA","GID_2": "ZWE.5.7_2","county": "Murehwa","NL_NAME_2": "NA","city": "Ward29","VARNAME_3": "NA","NL_NAME_3": "NA","TYPE_3": "Ward","ENGTYPE_3": "Ward","CC_3": "NA","HASC_3": "NA","name": "Ward29.city","area_km2": 16.05869,"hist_schema_id": "Elevation0-9000","hist_area_km2": {"1475": 0.54397,"1500": 2.96178,"1525": 6.08497,"1550": 5.09774,"1575": 1.26949,"1600": 0.08059,"1625": 0.02015}}}