{"type": "Feature","bbox": [29.5222,-20.3357,29.8237,-20.0493],"geometry": {"type": "MultiPolygon","coordinates": [[[[29.7563,-20.3351,1030.896],[29.778199999999998,-20.2846,1117.9232],[29.7874,-20.2487,1125.3259],[29.7922,-20.2392,1169.5415],[29.7921,-20.2155,1135.2947],[29.8237,-20.1428,1077.3521],[29.8135,-20.1384,1077.6095],[29.8108,-20.1338,1089.1842],[29.8011,-20.0958,1097.0],[29.7739,-20.1014,1117.7358],[29.7322,-20.0711,1165.7947],[29.7164,-20.0642,1166.8362],[29.697,-20.0577,1187.418],[29.6877,-20.0629,1182.5492],[29.68,-20.0579,1191.0406],[29.6747,-20.0648,1199.3053],[29.6671,-20.0619,1203.7584],[29.6568,-20.0625,1206.5785],[29.6496,-20.0592,1209.082],[29.6432,-20.0513,1210.2126],[29.6377,-20.0493,1216.126],[29.6296,-20.0494,1217.0475],[29.6222,-20.0864,1279.0737],[29.62,-20.1275,1240.8156],[29.6072,-20.1135,1253.2104],[29.5923,-20.1211,1227.0219],[29.5833,-20.1291,1209.8922],[29.5846,-20.1354,1202.2737],[29.5719,-20.1425,1186.4694],[29.5222,-20.1377,1204.0493],[29.5441,-20.1575,1309.8477],[29.5914,-20.1641,1206.8853],[29.595,-20.1995,1145.1722],[29.6185,-20.198,1196.2308],[29.6192,-20.2391,1149.9968],[29.617,-20.2614,1099.0299],[29.6081,-20.2516,1101.771],[29.6015,-20.2515,1107.2914],[29.5949,-20.2555,1110.5901],[29.593,-20.2546,1116.7905],[29.59,-20.2758,1097.9858],[29.5961,-20.2764,1095.7422],[29.5979,-20.2789,1093.9165],[29.6078,-20.2826,1089.6208],[29.6155,-20.2842,1090.3857],[29.6188,-20.2832,1086.1382],[29.6247,-20.2878,1082.2039],[29.6276,-20.2875,1088.4323],[29.6289,-20.2848,1081.8916],[29.6333,-20.2821,1075.8286],[29.6512,-20.2796,1074.9247],[29.6543,-20.2817,1083.6459],[29.6604,-20.2816,1074.5314],[29.6636,-20.285,1075.5325],[29.6583,-20.2895,1076.1768],[29.6585,-20.294,1069.6885],[29.666,-20.3062,1065.1724],[29.6778,-20.3125,1061.0499],[29.6847,-20.3107,1060.9435],[29.6887,-20.3117,1058.2733],[29.6923,-20.3169,1057.1273],[29.6953,-20.318,1054.3373],[29.7083,-20.3151,1050.7158],[29.7154,-20.3214,1047.3986],[29.723,-20.319,1048.2786],[29.7259,-20.3199,1038.8473],[29.7305,-20.3233,1036.3541],[29.734,-20.3326,1032.304],[29.7381,-20.3357,1035.7377],[29.7563,-20.3351,1030.896]]]]}
,"properties": {"GID_3": "ZWE.9.6.13_2","GID_0": "ZWE","country": "Zimbabwe","GID_1": "ZWE.9_1","province": "MatabelelandSouth","NL_NAME_1": "NA","GID_2": "ZWE.9.6_2","county": "Insiza","NL_NAME_2": "NA","city": "Ward20","VARNAME_3": "NA","NL_NAME_3": "NA","TYPE_3": "Ward","ENGTYPE_3": "Ward","CC_3": "NA","HASC_3": "NA","name": "Ward20.city","area_km2": 538.0734,"hist_schema_id": "Elevation0-9000","hist_area_km2": {"1025": 0.8748,"1050": 9.5241,"1075": 34.7414,"1100": 55.6726,"1125": 50.2307,"1150": 40.5884,"1175": 45.8156,"1200": 77.0336,"1225": 100.7825,"1250": 87.4014,"1275": 32.3434,"1300": 2.4877,"1325": 0.5572,"1350": 0.0199}}}