{"type":"Feature","properties":{"GID_3":"ZWE.3.3.9_2","GID_0":"ZWE","country":"Zimbabwe","GID_1":"ZWE.3_1","province":"Manicaland","NL_NAME_1":"NA","GID_2":"ZWE.3.3_2","county":"Chipinge","NL_NAME_2":"NA","city":"Ward17","VARNAME_3":"NA","NL_NAME_3":"NA","TYPE_3":"Ward","ENGTYPE_3":"Ward","CC_3":"NA","HASC_3":"NA","name":"Ward17.city"},
"geometry":{"type": "MultiPolygon","coordinates": [[[[32.4996,-20.3486,1158.8407],[32.4733,-20.395,1194.8896],[32.4601,-20.4428,1059.6545],[32.4525,-20.4618,1091.1451],[32.4545,-20.5064,938.8972],[32.4931,-20.5441,729.5142],[32.5049,-20.5138,699.8082],[32.5115,-20.4831,859.8956],[32.5579,-20.4389,835.0513],[32.5399,-20.4271,898.8982],[32.5773,-20.4268,724.9163],[32.5926,-20.3799,917.5263],[32.5887,-20.3563,917.7589],[32.6191,-20.3345,977.7603],[32.6147,-20.3213,1014.5574],[32.6119,-20.323,1015.7167],[32.5812,-20.3243,1039.9028],[32.5634,-20.3393,1031.238],[32.5278,-20.3572,1069.6469],[32.4996,-20.3486,1158.8407]]]]}}