{"type": "Feature","bbox": [31.1884,-21.3271,33.055,-17.2457],"geometry": {"type": "MultiPolygon","coordinates": [[[[32.4471,-21.3084,160.7177],[32.445,-21.3089,161.4886],[32.4526,-21.3097,153.203],[32.48,-21.3271,153.3119],[32.476,-21.3113,156.5803],[32.4664,-21.2961,153.5882],[32.4541,-21.2783,158.5186],[32.4312,-21.2507,169.8434],[32.4302,-21.2471,170.3396],[32.425,-21.2427,172.1216],[32.4247,-21.2407,172.3898],[32.4277,-21.2388,173.9619],[32.4223,-21.2272,176.5086],[32.4194,-21.2267,177.1998],[32.411,-21.2162,185.7842],[32.3993,-21.2066,191.1127],[32.3941,-21.1889,221.4425],[32.3993,-21.18,229.48],[32.4063,-21.1759,220.9543],[32.4058,-21.1699,216.0964],[32.4029,-21.1675,228.6969],[32.3963,-21.1657,233.2768],[32.3937,-21.1621,236.9584],[32.3923,-21.1622,236.9584],[32.3907,-21.1653,229.7219],[32.3844,-21.1626,241.6605],[32.3832,-21.1594,251.5283],[32.3903,-21.1575,243.2162],[32.3757,-21.1457,252.3458],[32.363,-21.1396,262.7076],[32.3677,-21.1351,264.7578],[32.3762,-21.1218,284.8862],[32.3807,-21.1086,293.0871],[32.3879,-21.0985,315.1089],[32.4013,-21.0877,324.6978],[32.4684,-21.0118,376.0473],[32.4811,-20.9926,403.7767],[32.5168,-20.9144,400.0584],[32.5186,-20.8889,380.6424],[32.5153,-20.8721,377.6711],[32.5029,-20.8334,456.0304],[32.4978,-20.8074,461.7624],[32.4947,-20.7008,556.0369],[32.4856,-20.6745,525.7067],[32.4846,-20.6578,493.6371],[32.4885,-20.6275,460.5871],[32.4921,-20.6185,480.4532],[32.4978,-20.6136,417.6697],[32.4991,-20.6103,418.1525],[32.5043,-20.6073,457.6606],[32.5083,-20.5991,402.6257],[32.5103,-20.5994,402.6196],[32.5149,-20.5955,433.4093],[32.521,-20.5929,523.8934],[32.5669,-20.5529,908.485],[32.6676,-20.5545,810.5117],[32.7002,-20.5065,855.5891],[32.7219,-20.467,825.0353],[32.734,-20.4485,917.2928],[32.7645,-20.4108,911.3114],[32.8007,-20.3714,941.9638],[32.7993,-20.3587,816.0621],[32.8039,-20.3457,1073.3091],[32.8036,-20.3419,1069.5208],[32.8637,-20.2861,946.8094],[32.8607,-20.2742,799.284],[32.8662,-20.2517,937.944],[32.8665,-20.24,881.0539],[32.8627,-20.2358,892.7733],[32.8488,-20.2311,953.7621],[32.8401,-20.2235,860.5353],[32.8389,-20.2193,833.2343],[32.8427,-20.2054,932.5748],[32.8468,-20.2003,1004.8614],[32.8495,-20.1997,961.7692],[32.8485,-20.1936,992.8242],[32.8598,-20.1893,1072.5549],[32.8712,-20.1876,1064.6033],[32.8708,-20.1803,1093.5391],[32.8559,-20.1607,1102.8118],[32.8557,-20.1561,1082.2806],[32.8682,-20.1116,1130.4849],[32.8706,-20.1095,1200.0999],[32.8702,-20.1036,1179.149],[32.8835,-20.0921,1190.6998],[32.8925,-20.0911,1206.7845],[32.8942,-20.1065,985.1843],[32.9095,-20.109,879.0907],[32.9201,-20.1007,792.8299],[32.9185,-20.0735,700.7665],[32.9122,-20.063,677.7405],[32.9211,-20.043,424.4981],[32.9309,-20.0387,416.8457],[32.945,-20.0402,386.7103],[32.9559,-20.0341,477.3122],[32.9633,-20.0386,372.7066],[32.9695,-20.0374,369.2089],[32.9719,-20.0344,439.9156],[32.9854,-20.03,348.95],[32.9888,-20.0274,405.0677],[33.0002,-20.0265,356.9608],[33.0009,-20.024,403.3703],[33.0109,-20.0188,410.4355],[33.014,-20.011,412.1029],[33.0247,-19.9642,1594.6318],[33.0356,-19.8878,1556.2932],[33.0478,-19.8341,1793.6445],[33.0473,-19.8091,2259.9485],[33.0546,-19.7918,2223.0],[33.0528,-19.7806,1999.9666],[33.0388,-19.7669,1725.0692],[33.0199,-19.7563,1785.5656],[32.9925,-19.7474,1714.2997],[32.9587,-19.723,1108.4824],[32.9555,-19.7166,1105.5875],[32.9561,-19.7106,1317.5525],[32.9793,-19.6917,1486.1726],[32.9808,-19.685,1485.6143],[32.9784,-19.6724,1439.8296],[32.9727,-19.6583,1456.7961],[32.9688,-19.6549,1462.5557],[32.9627,-19.6546,1501.6915],[32.9362,-19.672,1690.0964],[32.9245,-19.6745,1453.6692],[32.9165,-19.6789,1541.2407],[32.9074,-19.6813,1589.4264],[32.9026,-19.6806,1619.3021],[32.8897,-19.6847,1614.8594],[32.8764,-19.6853,1649.0433],[32.8727,-19.6829,1860.5524],[32.8501,-19.6846,2140.5068],[32.8385,-19.6809,1826.5559],[32.8351,-19.6772,1839.3977],[32.8345,-19.6719,1935.1326],[32.8313,-19.6665,1971.1621],[32.8403,-19.6555,1848.6185],[32.8456,-19.6422,1919.0104],[32.8448,-19.6336,1963.38],[32.8502,-19.6304,1967.1022],[32.8528,-19.6238,1729.1965],[32.8457,-19.6049,1784.5076],[32.8478,-19.6024,1674.8064],[32.8523,-19.5525,1343.8615],[32.8512,-19.5413,1363.7892],[32.8413,-19.5279,1559.4252],[32.8402,-19.5189,1494.7654],[32.8435,-19.4987,1701.7837],[32.8449,-19.4765,1779.125],[32.8352,-19.4759,1888.2651],[32.8291,-19.478,1879.0006],[32.8033,-19.4773,1917.1458],[32.7935,-19.4754,1727.8243],[32.7824,-19.4668,1567.8915],[32.7766,-19.4576,1483.8711],[32.7765,-19.4498,1544.4158],[32.7801,-19.4318,1776.1659],[32.7779,-19.4086,2094.9568],[32.7854,-19.3945,2167.2266],[32.7857,-19.3867,2178.354],[32.7756,-19.3705,1777.9377],[32.7764,-19.3613,1654.386],[32.7798,-19.3583,1780.1578],[32.7766,-19.3545,1747.3147],[32.7843,-19.3523,1886.3418],[32.7906,-19.3457,1845.4896],[32.8091,-19.3351,1691.6661],[32.8222,-19.3176,1547.1974],[32.832,-19.3126,1408.2255],[32.8417,-19.3023,1179.7146],[32.8512,-19.2863,915.8277],[32.8526,-19.2787,1032.3508],[32.8489,-19.2553,1098.1064],[32.8488,-19.2337,1173.5111],[32.8636,-19.1715,646.9792],[32.8685,-19.1379,1052.1504],[32.8775,-19.1128,850.8966],[32.8774,-19.0979,787.2916],[32.8712,-19.0822,909.3349],[32.858,-19.0768,995.4934],[32.8513,-19.0648,1123.0107],[32.8487,-19.0554,1017.7126],[32.8453,-19.0248,1181.9568],[32.8334,-19.0164,1218.4557],[32.8128,-19.0169,1258.3236],[32.8058,-19.0188,1257.7537],[32.7999,-19.0172,1307.49],[32.7798,-19.0214,1392.0902],[32.7756,-19.0233,1434.3856],[32.7756,-19.0257,1494.9788],[32.757,-19.029,1306.3359],[32.7398,-19.0291,1035.824],[32.7215,-19.0238,1050.219],[32.7169,-19.0238,1210.7307],[32.7096,-19.0018,915.3167],[32.7091,-18.9944,1009.4062],[32.7014,-18.9871,1013.642],[32.7,-18.9835,1104.5768],[32.7081,-18.9823,1109.8671],[32.6983,-18.936,1619.3602],[32.6987,-18.9348,1590.5708],[32.7037,-18.9357,1573.37],[32.7182,-18.9308,1458.9661],[32.7259,-18.9302,1581.4],[32.73,-18.9282,1541.4563],[32.7307,-18.9254,1498.9215],[32.724,-18.8911,1389.2946],[32.7186,-18.8769,1423.6057],[32.7047,-18.8568,1483.4634],[32.7045,-18.8438,1645.9485],[32.7027,-18.8406,1661.0305],[32.7124,-18.8285,1712.5854],[32.7239,-18.8209,1720.1385],[32.7265,-18.8203,1672.9247],[32.7281,-18.8223,1679.7004],[32.735,-18.8177,1730.2913],[32.7359,-18.8142,1822.4368],[32.7394,-18.8139,1867.2786],[32.7427,-18.8101,1840.2275],[32.7487,-18.8087,1841.0916],[32.7524,-18.8128,1733.748],[32.7572,-18.812,1780.7012],[32.7783,-18.7967,1819.8784],[32.7841,-18.7974,1741.7908],[32.7911,-18.7951,1721.7834],[32.7973,-18.7896,1821.2921],[32.8146,-18.7788,1811.0792],[32.8448,-18.7764,1529.3915],[32.8779,-18.7972,1184.2511],[32.8889,-18.7965,1206.1129],[32.8933,-18.7958,1259.0559],[32.9091,-18.7868,1418.1525],[32.9207,-18.7759,1290.8079],[32.9278,-18.7663,1264.6685],[32.9325,-18.753,1116.238],[32.9333,-18.7443,1032.7307],[32.9487,-18.7143,1012.02],[32.955,-18.698,1178.5165],[32.9541,-18.6902,1289.8448],[32.9369,-18.6616,699.059],[32.9092,-18.6215,974.1525],[32.9028,-18.6062,1265.4351],[32.9029,-18.601,1391.3275],[32.8988,-18.5911,1562.1945],[32.8859,-18.5791,1488.611],[32.8904,-18.5718,1568.7769],[32.8956,-18.5571,1362.7271],[32.8946,-18.5427,1163.8978],[32.8887,-18.5307,830.416],[32.8759,-18.5173,723.3901],[32.8883,-18.5112,723.3909],[32.8917,-18.5067,708.6923],[32.8979,-18.5062,718.4944],[32.9041,-18.4994,847.7649],[32.9066,-18.5002,704.408],[32.9093,-18.4972,730.2887],[32.9146,-18.4995,707.3917],[32.9152,-18.5025,695.3819],[32.9197,-18.5019,714.2458],[32.9311,-18.4941,700.2426],[32.9446,-18.4905,690.3386],[32.9604,-18.478,706.5961],[32.9661,-18.477,676.965],[32.9716,-18.4728,674.2002],[32.9764,-18.4731,647.2843],[32.9798,-18.4715,655.0059],[32.9771,-18.4789,647.7606],[32.9818,-18.4886,652.1267],[32.997,-18.4832,663.0745],[33.0153,-18.4726,677.2451],[33.0211,-18.4655,747.9047],[33.0229,-18.4575,770.7197],[33.0227,-18.4442,704.7108],[33.0163,-18.4313,633.1639],[33.0174,-18.417,644.6061],[33.0238,-18.3911,608.218],[33.0339,-18.3836,612.0461],[33.038,-18.3831,601.938],[33.0449,-18.3761,597.8192],[33.0484,-18.376,597.4037],[33.055,-18.3619,629.9346],[33.0543,-18.3578,649.1463],[33.0388,-18.3434,684.2936],[33.04,-18.3338,692.9847],[33.0314,-18.3248,646.3385],[33.0129,-18.3183,668.692],[33.0021,-18.3048,677.3198],[32.9976,-18.2727,756.3273],[33.0005,-18.2589,809.5261],[33.0088,-18.2404,912.8568],[33.0084,-18.2287,981.5999],[33.0022,-18.2169,1043.829],[32.9961,-18.1921,1250.1074],[32.9976,-18.1689,1139.9202],[32.9932,-18.162,1093.6914],[32.9875,-18.1566,1128.1766],[32.9783,-18.155,1219.344],[32.9719,-18.1423,1172.563],[32.9701,-18.1281,1134.7024],[32.974,-18.1168,1052.3027],[32.9741,-18.1083,1007.4079],[32.9707,-18.1053,1011.2302],[32.9721,-18.1033,1015.4413],[32.9643,-18.085,1024.4451],[32.9589,-18.0826,1015.4156],[32.9597,-18.0808,1035.4052],[32.9629,-18.0804,999.8351],[32.9592,-18.0675,1016.2814],[32.9571,-18.0687,1007.3127],[32.9548,-18.0667,994.898],[32.9575,-18.0618,1013.2614],[32.9566,-18.0599,1013.527],[32.9535,-18.0593,997.0947],[32.9476,-18.05,1019.7543],[32.953,-18.049,999.4393],[32.9529,-18.0534,993.7928],[32.958,-18.0509,991.2893],[32.9563,-18.0458,1007.5824],[32.9527,-18.0431,987.1689],[32.9523,-18.0394,1020.6771],[32.9478,-18.038,1009.4875],[32.9486,-18.0249,1009.7968],[32.9441,-18.026,1051.1016],[32.9404,-18.0306,998.2095],[32.9357,-18.0299,987.0085],[32.9374,-18.028,1017.038],[32.9365,-18.0232,1035.0199],[32.9397,-18.0223,971.2529],[32.942,-18.0188,1075.0709],[32.9401,-18.0161,1012.28],[32.9378,-18.016,979.314],[32.9383,-18.0124,988.4867],[32.9469,-18.0043,950.3934],[32.9423,-17.9853,897.1294],[32.9373,-17.983,883.0341],[32.9426,-17.9788,916.7502],[32.9428,-17.9743,1008.9778],[32.9476,-17.963,898.6486],[32.954,-17.9587,1020.2462],[32.963,-17.9622,1035.6252],[32.9686,-17.9542,851.8167],[32.9714,-17.9333,860.53],[32.9736,-17.9277,855.798],[32.9721,-17.9227,865.0099],[32.9751,-17.9157,904.4135],[32.9725,-17.9136,852.3229],[32.9539,-17.911,839.0869],[32.9554,-17.9097,839.0869],[32.9538,-17.907,850.3434],[32.9531,-17.8916,827.3268],[32.9495,-17.8877,869.4291],[32.9526,-17.8857,821.8783],[32.9519,-17.8785,822.1717],[32.9542,-17.8743,820.9962],[32.953,-17.8726,840.8062],[32.9549,-17.8725,831.4672],[32.9613,-17.855,824.9139],[32.9601,-17.8175,807.6675],[32.9621,-17.8142,812.5282],[32.9607,-17.8113,816.2549],[32.9647,-17.8089,810.1399],[32.9693,-17.802,814.1616],[32.9717,-17.8018,810.9504],[32.9746,-17.7962,812.881],[32.9763,-17.7994,803.1584],[32.9777,-17.7982,814.8153],[32.9811,-17.7996,803.3394],[32.9844,-17.7944,814.5289],[32.9866,-17.7942,827.6573],[32.9906,-17.7976,844.4196],[32.9943,-17.7981,809.7786],[32.9958,-17.8011,808.0782],[33.0001,-17.8014,801.709],[33.005,-17.8006,801.6422],[33.0057,-17.7957,815.7015],[33.0101,-17.7994,834.5272],[33.0102,-17.7949,810.957],[33.0135,-17.7864,797.8556],[33.0116,-17.7833,802.7204],[33.0146,-17.7834,803.8939],[33.0155,-17.7811,804.3177],[33.0137,-17.7694,865.5544],[33.0183,-17.7671,804.0391],[33.0172,-17.7637,801.5315],[33.0208,-17.7595,808.1115],[33.0265,-17.7593,803.5541],[33.0265,-17.758,803.5541],[33.0158,-17.7499,791.9169],[33.0069,-17.7456,806.7234],[33.0017,-17.7383,817.6431],[33.002,-17.725,953.0746],[33.0033,-17.7196,962.2532],[33.0106,-17.7224,800.0596],[33.0114,-17.7158,853.1066],[33.0202,-17.7203,803.0781],[33.0143,-17.7139,869.305],[33.012,-17.7021,944.2104],[33.0179,-17.6712,767.8683],[33.0262,-17.6474,804.5109],[33.039,-17.636,907.0748],[33.0421,-17.6266,853.4164],[33.0415,-17.6126,904.4257],[33.0432,-17.6034,770.5533],[33.0342,-17.5914,804.9582],[33.0092,-17.5687,695.8657],[32.99,-17.5668,818.1147],[32.9814,-17.5628,646.6828],[32.976,-17.5518,653.4132],[32.9737,-17.5423,606.2737],[32.9627,-17.5271,606.7891],[32.9602,-17.5156,624.364],[32.9591,-17.4945,619.3261],[32.9623,-17.4814,578.1082],[32.9734,-17.4719,586.6115],[32.9836,-17.4559,569.0231],[32.9899,-17.4542,568.5272],[32.9948,-17.4503,552.3702],[32.9979,-17.4517,565.933],[32.9968,-17.4447,546.9241],[33.0019,-17.4154,546.1575],[33.007,-17.4016,529.2001],[33.0056,-17.3956,547.6768],[33.0108,-17.3942,531.2772],[33.0213,-17.375,530.926],[33.0281,-17.368,516.9453],[33.0298,-17.3619,524.4588],[33.0453,-17.347,531.7054],[33.0331,-17.3347,567.3067],[33.0081,-17.316,671.3297],[33.0007,-17.3141,643.5267],[32.9974,-17.3086,692.8472],[32.9966,-17.2769,563.4035],[32.9938,-17.2457,518.8011],[32.9628,-17.2596,523.6587],[32.9248,-17.2632,548.6204],[32.9197,-17.2699,524.9747],[32.9158,-17.2709,541.8776],[32.9139,-17.2744,540.9859],[32.9075,-17.2766,550.7507],[32.8975,-17.2751,556.2874],[32.8917,-17.2777,560.2262],[32.8896,-17.2758,572.9731],[32.8849,-17.2757,567.4508],[32.8799,-17.2786,557.2693],[32.87,-17.2791,561.3169],[32.8549,-17.293,595.4737],[32.8541,-17.3028,563.16],[32.8484,-17.3127,576.1473],[32.8435,-17.3167,569.0045],[32.8252,-17.3166,603.5665],[32.8138,-17.3271,600.6876],[32.8071,-17.3289,605.6945],[32.8011,-17.3353,591.3203],[32.793,-17.3347,600.9922],[32.7788,-17.3469,601.4193],[32.7705,-17.3552,624.3707],[32.7697,-17.3592,600.8021],[32.7662,-17.3627,614.1459],[32.7632,-17.3692,607.8459],[32.7586,-17.372,618.9686],[32.7594,-17.3784,610.2617],[32.7574,-17.3797,637.9807],[32.7535,-17.3921,611.3633],[32.7332,-17.4274,667.2208],[32.7323,-17.4421,627.6704],[32.735,-17.4503,631.082],[32.7338,-17.4578,663.3942],[32.7238,-17.4624,672.8247],[32.7131,-17.472,653.1146],[32.7046,-17.4753,680.5884],[32.6743,-17.4809,800.1432],[32.656,-17.4896,725.6921],[32.6499,-17.4906,868.8197],[32.6394,-17.4986,684.6139],[32.6393,-17.5023,693.4906],[32.6448,-17.5166,708.679],[32.6454,-17.5262,744.1153],[32.6437,-17.5395,743.4033],[32.6392,-17.5527,777.9294],[32.6354,-17.558,752.9957],[32.6293,-17.5591,770.6913],[32.6276,-17.5697,760.5869],[32.6248,-17.5697,752.6752],[32.6215,-17.5654,794.7238],[32.6121,-17.5612,838.6185],[32.6104,-17.5643,785.6599],[32.6038,-17.5681,816.5672],[32.6027,-17.5723,783.1066],[32.5938,-17.5755,840.6112],[32.5894,-17.5858,808.7371],[32.5828,-17.5886,812.0748],[32.5794,-17.6059,811.2609],[32.5745,-17.6035,886.7535],[32.5714,-17.6047,837.3669],[32.5687,-17.6016,843.0298],[32.568,-17.5972,844.7866],[32.5644,-17.6007,847.2789],[32.5625,-17.5963,858.3152],[32.5588,-17.5994,848.1848],[32.5565,-17.6059,853.5553],[32.5505,-17.6065,858.4037],[32.5514,-17.6153,876.3385],[32.5484,-17.6194,862.5898],[32.5464,-17.6194,863.746],[32.5421,-17.6155,865.6516],[32.5363,-17.6146,870.7958],[32.5333,-17.6174,865.7587],[32.5307,-17.6176,872.2446],[32.5244,-17.6147,874.8005],[32.519,-17.6149,877.5599],[32.5123,-17.6101,882.152],[32.5026,-17.6088,883.8441],[32.4935,-17.6191,891.9055],[32.4917,-17.6242,887.465],[32.4825,-17.6264,892.4225],[32.48,-17.6239,902.5436],[32.4732,-17.6267,899.0455],[32.4706,-17.6339,905.7213],[32.4704,-17.6396,898.8893],[32.4649,-17.6468,903.2382],[32.4541,-17.6538,904.7819],[32.4484,-17.6554,925.023],[32.4423,-17.6604,935.1145],[32.4427,-17.6642,923.5013],[32.4458,-17.6652,945.467],[32.4425,-17.6699,932.6939],[32.4355,-17.6722,936.2865],[32.4254,-17.6639,948.5393],[32.4221,-17.6632,952.3704],[32.4124,-17.6716,944.4114],[32.408,-17.6708,947.9619],[32.4021,-17.6736,945.6023],[32.3914,-17.6717,949.0546],[32.382,-17.6746,950.0928],[32.376,-17.6813,947.05],[32.3657,-17.6888,956.6948],[32.3519,-17.6962,963.5298],[32.3383,-17.7069,967.0826],[32.3313,-17.7089,963.7767],[32.3249,-17.7198,970.0059],[32.319,-17.7231,972.6282],[32.3091,-17.7215,972.2323],[32.3009,-17.7252,976.0977],[32.2916,-17.7339,982.5557],[32.2932,-17.7391,974.5257],[32.2908,-17.7418,982.8066],[32.2806,-17.743,983.362],[32.2757,-17.7464,991.8323],[32.2677,-17.76,986.631],[32.2687,-17.7641,984.834],[32.2657,-17.7706,1003.172],[32.2609,-17.7716,1004.2593],[32.2457,-17.7876,1007.4174],[32.2392,-17.7894,1017.6993],[32.2314,-17.796,1026.8016],[32.2265,-17.7978,1027.1808],[32.2147,-17.812,1027.5217],[32.2053,-17.8164,1040.241],[32.2022,-17.8204,1030.3237],[32.1909,-17.8199,1043.8479],[32.1842,-17.8277,1033.316],[32.175,-17.8287,1058.3584],[32.1637,-17.8337,1053.4836],[32.1606,-17.8335,1058.3539],[32.1551,-17.8402,1057.1222],[32.1489,-17.8423,1065.1765],[32.1476,-17.8451,1052.1138],[32.1497,-17.8485,1065.8522],[32.1514,-17.858,1068.5872],[32.1488,-17.8599,1078.2883],[32.1429,-17.8744,1090.7716],[32.1462,-17.8956,1092.5244],[32.1436,-17.9023,1094.2466],[32.1409,-17.9049,1108.0414],[32.1414,-17.9095,1104.6667],[32.1476,-17.9126,1128.1603],[32.1481,-17.9146,1114.0908],[32.1455,-17.9168,1104.5658],[32.1477,-17.9283,1116.8148],[32.1384,-17.9319,1138.5664],[32.1276,-17.9423,1138.1482],[32.1002,-17.9638,1162.2358],[32.0801,-17.9861,1208.0],[32.053,-18.0092,1227.4172],[32.0514,-18.0155,1250.2689],[32.047,-18.0221,1251.6562],[32.0426,-18.0245,1257.1407],[32.0364,-18.0324,1266.272],[32.0229,-18.0435,1289.7031],[32.0175,-18.0453,1295.0807],[32.0137,-18.0535,1298.0907],[32.0068,-18.0547,1319.0066],[31.9913,-18.0674,1343.6472],[31.9852,-18.0706,1350.1832],[31.9801,-18.0776,1361.5668],[31.9735,-18.0803,1367.0088],[31.9945,-18.1063,1567.0497],[32.0005,-18.1444,1495.8214],[31.8684,-18.142,1485.0999],[31.8692,-18.1484,1481.4965],[31.8723,-18.1518,1487.6425],[31.8749,-18.1733,1472.2413],[31.8656,-18.1862,1472.1819],[31.8686,-18.1931,1456.0],[31.8649,-18.2015,1456.9066],[31.866,-18.2043,1447.2123],[31.8634,-18.2206,1440.0597],[31.8647,-18.2247,1436.1832],[31.8607,-18.2332,1434.6438],[31.8606,-18.2371,1431.0256],[31.8554,-18.2402,1431.8151],[31.8545,-18.2476,1439.8582],[31.8577,-18.2553,1427.1812],[31.855,-18.2592,1424.1042],[31.8568,-18.2622,1423.4417],[31.8568,-18.273,1424.6074],[31.8533,-18.2762,1424.902],[31.8598,-18.2845,1419.4312],[31.8569,-18.289,1424.6814],[31.8594,-18.2964,1420.5652],[31.8588,-18.3172,1400.8629],[31.8642,-18.3295,1401.6052],[31.8563,-18.347,1404.2385],[31.8545,-18.3639,1393.7324],[31.8502,-18.3672,1392.9186],[31.8445,-18.3784,1390.9955],[31.8416,-18.3804,1391.2161],[31.8451,-18.3876,1394.2357],[31.8408,-18.3882,1394.9709],[31.8322,-18.3931,1388.4529],[31.8308,-18.3974,1371.671],[31.8313,-18.3999,1367.9006],[31.8364,-18.4029,1372.3412],[31.845,-18.4149,1348.7029],[31.8443,-18.4272,1326.2122],[31.8149,-18.4357,1381.7688],[31.7618,-18.4476,1493.3071],[31.7494,-18.4989,1412.609],[31.7218,-18.5133,1365.4594],[31.7503,-18.5368,1360.394],[31.747,-18.5468,1369.4547],[31.7716,-18.5707,1313.2076],[31.7699,-18.5736,1312.5977],[31.7708,-18.5795,1303.4028],[31.7564,-18.5914,1286.4658],[31.7556,-18.5973,1286.8318],[31.7509,-18.6014,1281.7065],[31.7583,-18.6117,1280.875],[31.7586,-18.6167,1278.999],[31.7568,-18.6226,1273.9756],[31.7632,-18.636,1274.4789],[31.7725,-18.6395,1263.821],[31.7723,-18.6466,1229.4373],[31.7738,-18.6493,1252.4097],[31.7814,-18.6543,1185.2971],[31.7817,-18.658,1173.048],[31.7857,-18.6631,1164.2488],[31.7859,-18.669,1160.3052],[31.7901,-18.6673,1174.8433],[31.7927,-18.668,1160.6525],[31.7956,-18.6761,1155.2621],[31.8133,-18.6948,1137.1565],[31.8303,-18.723,1138.8333],[31.8337,-18.7355,1131.791],[31.8297,-18.7436,1125.5515],[31.8297,-18.7471,1114.1969],[31.8417,-18.7463,1097.3632],[31.8482,-18.7517,1088.4845],[31.852,-18.7524,1076.0129],[31.8581,-18.7485,1102.7556],[31.8691,-18.7456,1083.5275],[31.8831,-18.7485,1005.9341],[31.8884,-18.7588,976.437],[31.8922,-18.7626,1006.2315],[31.9026,-18.7872,960.1089],[31.9082,-18.7936,941.8328],[31.9091,-18.7982,943.9339],[31.9066,-18.8125,934.9587],[31.9085,-18.8191,933.449],[31.9066,-18.822,926.2674],[31.9068,-18.8339,926.8558],[31.9093,-18.8437,922.68],[31.9133,-18.8493,923.5385],[31.9123,-18.8633,915.0659],[31.9139,-18.8706,918.0925],[31.9172,-18.8748,920.6966],[31.9175,-18.8918,912.3027],[31.921,-18.905,910.9766],[31.9232,-18.907,913.4913],[31.9291,-18.9078,905.4822],[31.9319,-18.9043,918.0898],[31.9342,-18.9041,913.1785],[31.9462,-18.9127,902.8815],[31.9516,-18.9212,878.229],[31.9541,-18.9208,871.163],[31.9483,-18.938,844.9706],[31.9526,-18.9411,854.2935],[31.9566,-18.9481,842.8266],[31.9673,-18.959,845.2195],[31.9699,-18.9663,836.9758],[31.9759,-18.9701,831.9092],[31.9753,-18.9961,826.1649],[31.9785,-19.0055,834.6263],[31.9757,-19.0108,828.267],[31.9743,-19.0227,825.6802],[31.975,-19.0345,823.1827],[31.9774,-19.0422,826.8959],[31.9765,-19.0461,821.155],[31.9691,-19.0531,819.886],[31.9719,-19.0691,818.343],[31.9697,-19.0846,816.0646],[31.9714,-19.0932,813.3928],[31.9826,-19.1121,819.4189],[31.9836,-19.1159,812.25],[31.9819,-19.1195,810.3155],[31.9722,-19.1233,811.9714],[31.9661,-19.1162,822.217],[31.9633,-19.1152,819.4219],[31.9539,-19.1178,819.2744],[31.9407,-19.1159,826.897],[31.9258,-19.123,822.1182],[31.9113,-19.1225,835.287],[31.8983,-19.1146,831.3711],[31.8955,-19.1146,840.9916],[31.8929,-19.1176,841.2175],[31.8863,-19.1147,841.4435],[31.8803,-19.1168,836.4575],[31.8782,-19.1135,842.6354],[31.8607,-19.1017,855.5079],[31.8549,-19.1037,854.9589],[31.8422,-19.1012,857.3643],[31.8374,-19.0977,855.6638],[31.8325,-19.0865,862.7148],[31.8203,-19.0852,868.3558],[31.8126,-19.0802,857.2844],[31.8116,-19.0779,867.9426],[31.8132,-19.0713,862.7391],[31.8064,-19.0666,869.312],[31.8038,-19.0606,867.3895],[31.8017,-19.0591,874.0651],[31.7975,-19.0601,870.3284],[31.7951,-19.0519,864.9265],[31.7909,-19.0491,865.5849],[31.7845,-19.0478,870.9921],[31.7744,-19.0349,885.5659],[31.7693,-19.0325,888.3727],[31.7564,-19.031,887.7247],[31.7473,-19.0279,892.4271],[31.7388,-19.0277,883.6912],[31.7326,-19.0233,892.2347],[31.7267,-19.0215,900.2922],[31.7228,-19.0248,892.9648],[31.72,-19.0248,890.1473],[31.7202,-19.031,892.9528],[31.7122,-19.034,912.9182],[31.712,-19.0383,904.1252],[31.6966,-19.0379,930.2831],[31.6908,-19.0434,929.254],[31.6751,-19.0416,951.2867],[31.6681,-19.043,956.1165],[31.6663,-19.0413,975.4542],[31.6619,-19.0428,994.8066],[31.66,-19.0409,1001.5823],[31.6543,-19.0405,1002.1239],[31.6496,-19.0375,1030.7216],[31.6369,-19.0407,1022.1991],[31.6343,-19.0398,1018.6805],[31.6324,-19.0367,1024.1426],[31.6288,-19.0389,1029.6573],[31.6242,-19.0382,1032.863],[31.6269,-19.0341,1041.5247],[31.6258,-19.0307,1055.7407],[31.6227,-19.0295,1051.7782],[31.6205,-19.0231,1063.9773],[31.6161,-19.0201,1067.0122],[31.6072,-19.0195,1075.3091],[31.6033,-19.0173,1068.7373],[31.5958,-19.0174,1072.4518],[31.5897,-19.0113,1079.2529],[31.5988,-19.049,1139.2754],[31.5916,-19.0746,1066.6298],[31.5242,-19.1675,1071.178],[31.5192,-19.1687,1069.827],[31.5165,-19.1675,1065.6572],[31.5118,-19.1604,1093.1316],[31.5068,-19.1594,1109.333],[31.5039,-19.157,1107.6592],[31.5024,-19.1504,1117.5817],[31.4934,-19.1506,1142.6021],[31.4878,-19.1476,1163.243],[31.4831,-19.1564,1122.5659],[31.4805,-19.1564,1125.1007],[31.4682,-19.1434,1136.5052],[31.4656,-19.1291,1142.3892],[31.4601,-19.1229,1143.0333],[31.454,-19.1119,1180.3005],[31.4427,-19.1015,1143.0103],[31.4417,-19.0936,1160.9872],[31.4363,-19.0946,1149.9375],[31.4358,-19.0972,1151.3438],[31.4329,-19.0985,1176.5813],[31.4305,-19.1039,1183.2549],[31.4259,-19.108,1185.9406],[31.4174,-19.1098,1195.384],[31.4119,-19.1154,1197.0361],[31.4067,-19.116,1202.683],[31.4029,-19.1121,1203.502],[31.3986,-19.1111,1204.6572],[31.3935,-19.1043,1216.8618],[31.3912,-19.1043,1212.9578],[31.3912,-19.1076,1200.7914],[31.3884,-19.1073,1203.4617],[31.3805,-19.0984,1202.5786],[31.3767,-19.0967,1209.1738],[31.3756,-19.0896,1221.9324],[31.3736,-19.0872,1226.9193],[31.3681,-19.0897,1212.6835],[31.3635,-19.0897,1212.7894],[31.3446,-19.0813,1225.238],[31.3393,-19.086,1237.7891],[31.3152,-19.0891,1251.3099],[31.3189,-19.1277,1286.3909],[31.3296,-19.1501,1289.0613],[31.2975,-19.1574,1332.7885],[31.3031,-19.1944,1338.868],[31.3048,-19.2205,1333.1698],[31.1884,-19.2338,1227.1112],[31.1932,-19.2407,1217.3225],[31.2036,-19.2398,1206.9026],[31.2093,-19.2444,1214.6565],[31.2178,-19.2448,1212.2582],[31.2306,-19.2548,1199.5697],[31.2414,-19.2586,1203.1479],[31.2502,-19.2673,1202.7484],[31.2588,-19.2729,1225.5978],[31.2838,-19.2808,1190.3259],[31.2939,-19.2911,1180.9954],[31.3112,-19.2995,1165.9734],[31.3181,-19.3094,1172.0559],[31.3252,-19.3115,1167.3337],[31.3383,-19.3188,1165.6415],[31.354,-19.3292,1164.1967],[31.3588,-19.3351,1151.5868],[31.3649,-19.3369,1149.8116],[31.3821,-19.3522,1144.8732],[31.396,-19.3688,1127.8435],[31.4021,-19.3705,1132.2043],[31.4068,-19.3743,1138.3896],[31.4111,-19.3748,1122.8088],[31.4251,-19.37,1120.9119],[31.431,-19.3769,1107.7958],[31.4338,-19.3775,1111.3646],[31.4402,-19.3627,1105.1196],[31.4438,-19.3601,1103.2335],[31.4484,-19.3624,1098.399],[31.4613,-19.3813,1084.9888],[31.4641,-19.381,1093.8644],[31.4773,-19.3727,1092.0898],[31.48,-19.3727,1094.2576],[31.4893,-19.3768,1079.7319],[31.4903,-19.3836,1071.8866],[31.4923,-19.3852,1076.3986],[31.5032,-19.3854,1063.2388],[31.5216,-19.3905,1054.1648],[31.5264,-19.3947,1039.6705],[31.525,-19.4057,1036.6477],[31.5275,-19.4118,1028.213],[31.5486,-19.4173,1021.1958],[31.5606,-19.4372,1019.735],[31.5636,-19.4449,1006.3085],[31.573,-19.4569,1010.372],[31.5832,-19.4539,1001.5911],[31.5863,-19.456,1006.8042],[31.5896,-19.4559,980.5065],[31.5937,-19.4507,994.8662],[31.6104,-19.4471,964.6203],[31.622,-19.4634,969.5245],[31.6396,-19.4575,961.1544],[31.6493,-19.4665,958.5548],[31.6567,-19.4662,966.6183],[31.6689,-19.4609,960.0314],[31.6746,-19.4614,950.7531],[31.6778,-19.4683,941.2914],[31.6752,-19.4743,943.3353],[31.6759,-19.4866,940.9733],[31.6793,-19.4927,939.0],[31.6784,-19.4972,939.0],[31.6818,-19.506,939.0],[31.6832,-19.5223,939.0],[31.7031,-19.5243,939.0],[31.7095,-19.5286,939.0],[31.7143,-19.5405,939.0],[31.7265,-19.5424,939.0],[31.7335,-19.5602,939.0],[31.7361,-19.5797,916.433],[31.7393,-19.584,920.5054],[31.7563,-19.5858,908.9523],[31.7609,-19.5833,912.8199],[31.7701,-19.5837,913.1501],[31.7747,-19.5901,909.0754],[31.791,-19.594,905.3793],[31.7913,-19.5999,904.8042],[31.7955,-19.6051,899.5396],[31.8022,-19.6069,888.8507],[31.8162,-19.6175,884.8781],[31.8255,-19.6203,873.6022],[31.8277,-19.6304,868.542],[31.8235,-19.6552,846.9284],[31.8329,-19.6569,847.627],[31.8346,-19.6589,845.7314],[31.8353,-19.6649,839.2656],[31.843,-19.6679,850.7742],[31.8435,-19.6785,831.757],[31.8489,-19.6818,821.6802],[31.8559,-19.683,813.3005],[31.8584,-19.685,806.2906],[31.8589,-19.6838,807.9631],[31.877,-19.702,812.8896],[31.8959,-19.7085,776.1196],[31.8994,-19.7118,771.5553],[31.9191,-19.7548,752.6354],[31.9267,-19.768,753.1313],[31.9678,-19.7996,718.0348],[31.9778,-19.8402,690.5717],[31.9848,-19.849,696.8402],[31.9996,-19.8578,681.3058],[32.0037,-19.8578,683.0677],[32.0166,-19.8632,675.4912],[32.0334,-19.8653,661.4979],[32.0523,-19.8621,657.6752],[32.0619,-19.8641,649.3829],[32.0669,-19.868,647.4565],[32.0758,-19.8701,626.1064],[32.0829,-19.8874,618.7339],[32.086,-19.8912,629.0911],[32.09,-19.893,609.2296],[32.0931,-19.9019,594.0585],[32.0956,-19.9045,605.3428],[32.1419,-19.9015,587.2191],[32.1662,-19.9037,576.6688],[32.1901,-19.9026,586.4283],[32.1963,-19.9037,564.7655],[32.2022,-19.9094,562.213],[32.2092,-19.9304,534.8849],[32.2336,-19.9414,533.8249],[32.255,-19.9588,527.8033],[32.2674,-19.9611,521.5871],[32.2717,-19.9642,508.6854],[32.277,-19.9729,498.9399],[32.2848,-19.9783,494.3989],[32.3198,-19.982,487.7854],[32.3294,-19.9855,485.587],[32.335,-19.9907,486.7192],[32.3406,-20.0,479.0],[32.3401,-20.0028,485.667],[32.3436,-20.0143,478.267],[32.3374,-20.0362,479.2439],[32.3391,-20.0559,473.5358],[32.3451,-20.0766,471.5],[32.3404,-20.089,476.1497],[32.3396,-20.096,471.198],[32.339,-20.1056,472.4034],[32.3408,-20.1142,471.6635],[32.3381,-20.1318,467.7157],[32.3391,-20.1568,462.8096],[32.3377,-20.1634,462.9224],[32.33,-20.1781,463.863],[32.3272,-20.1875,456.5],[32.3269,-20.2054,459.558],[32.3236,-20.2162,458.3352],[32.3222,-20.2437,451.5551],[32.3197,-20.2601,449.4142],[32.3146,-20.269,452.5898],[32.312,-20.2857,449.9091],[32.3067,-20.302,447.7259],[32.3063,-20.3098,445.8081],[32.2958,-20.3443,441.6726],[32.2912,-20.3884,433.1221],[32.2889,-20.3971,432.4297],[32.2881,-20.4233,425.5],[32.2843,-20.4546,423.1418],[32.2884,-20.4765,424.7746],[32.2891,-20.4896,419.459],[32.2864,-20.5042,429.9769],[32.2827,-20.5122,421.2556],[32.2829,-20.5182,418.1303],[32.2878,-20.5319,416.0437],[32.2886,-20.559,418.3577],[32.2853,-20.5688,412.4973],[32.2803,-20.5759,411.2913],[32.2746,-20.5892,407.5],[32.2712,-20.5999,406.9888],[32.2569,-20.6167,404.0],[32.2609,-20.6458,406.5114],[32.2555,-20.6709,397.625],[32.247,-20.6818,396.0],[32.2346,-20.6865,397.8203],[32.2289,-20.6906,395.3789],[32.2256,-20.6986,400.5925],[32.2277,-20.7118,393.9409],[32.2173,-20.7297,390.5],[32.2138,-20.7403,389.625],[32.2127,-20.7508,389.0],[32.2091,-20.7522,388.625],[32.2088,-20.7542,398.4481],[32.2091,-20.769,395.2693],[32.2152,-20.7764,389.6581],[32.2191,-20.7778,395.0201],[32.2197,-20.7807,393.6396],[32.2151,-20.7914,386.6253],[32.2108,-20.7971,384.0],[32.2045,-20.8018,384.5254],[32.1966,-20.8043,391.8588],[32.1895,-20.8208,388.8097],[32.1882,-20.8285,389.8384],[32.1833,-20.8405,380.0],[32.1659,-20.8673,386.4382],[32.1569,-20.8776,380.5212],[32.1585,-20.8819,376.0715],[32.1563,-20.8909,375.906],[32.154,-20.893,375.5714],[32.1496,-20.9041,373.875],[32.1398,-20.9143,374.5233],[32.1355,-20.9266,371.5],[32.1401,-20.938,370.6038],[32.1473,-20.9401,375.6194],[32.1571,-20.949,374.2521],[32.1587,-20.9608,368.0],[32.152,-20.9784,365.5],[32.1529,-20.9876,368.6423],[32.1549,-20.9893,364.5],[32.1577,-20.9978,366.214],[32.1649,-21.0053,372.1425],[32.1749,-21.0079,371.2375],[32.1905,-21.0164,372.2389],[32.1961,-21.024,359.0],[32.1953,-21.0355,358.1992],[32.1866,-21.0426,362.7902],[32.186,-21.0455,357.5366],[32.188,-21.0526,356.2216],[32.1947,-21.0643,356.8781],[32.1999,-21.0669,352.3182],[32.2165,-21.0686,349.1416],[32.2247,-21.077,344.3237],[32.2338,-21.0795,342.8304],[32.2404,-21.0975,345.1285],[32.2466,-21.0984,336.3186],[32.2577,-21.0969,345.4612],[32.2655,-21.0994,334.6653],[32.2707,-21.1045,338.9881],[32.2858,-21.1596,301.5857],[32.2892,-21.1843,326.4106],[32.2944,-21.1927,271.2249],[32.3059,-21.2022,307.7687],[32.3047,-21.2102,239.4368],[32.3124,-21.2221,256.5455],[32.322,-21.2291,242.382],[32.3294,-21.239,199.4883],[32.3379,-21.2461,212.0637],[32.3544,-21.2483,183.4361],[32.3624,-21.2524,172.0822],[32.3765,-21.2547,167.2559],[32.3924,-21.2625,167.203],[32.4025,-21.2745,164.3206],[32.4069,-21.2829,164.7479],[32.4175,-21.2933,160.5528],[32.4278,-21.2982,176.3092],[32.4359,-21.3048,164.859],[32.4463,-21.3066,166.6313],[32.4481,-21.3075,158.7692],[32.4471,-21.3084,160.7177]]]]}
,"properties": {"GID_1": "ZWE.3_1","GID_0": "ZWE","country": "Zimbabwe","province": "Manicaland","VARNAME_1": "NA","NL_NAME_1": "NA","TYPE_1": "Province","ENGTYPE_1": "Province","CC_1": "NA","HASC_1": "ZW.MA","ISO_1": "ZW-MA","name": "Manicaland.province","area_km2": 35741.04,"hist_schema_id": "Elevation0-9000","hist_area_km2": {"150": 7.23,"175": 43.61,"200": 11.19,"225": 9.8,"250": 11.5,"275": 16.15,"300": 31.46,"325": 52.83,"350": 137.67,"375": 321.59,"400": 466.94,"425": 555.15,"450": 304.71,"475": 205.41,"500": 147.59,"525": 181.44,"550": 259.83,"575": 308.9,"600": 380.59,"625": 440.94,"650": 461.51,"675": 496.72,"700": 543.89,"725": 563.11,"750": 619.8,"775": 702.47,"800": 775.45,"825": 860.93,"850": 912.66,"875": 955.63,"900": 971.5,"925": 1028.23,"950": 1104.38,"975": 1149.27,"1000": 1159.5,"1025": 1138.74,"1050": 1106.23,"1075": 1022.49,"1100": 1036.6,"1125": 918.6,"1150": 886.77,"1175": 823.98,"1200": 776.87,"1225": 766.39,"1250": 735.75,"1275": 677.27,"1300": 643.79,"1325": 629.41,"1350": 613.07,"1375": 600.75,"1400": 583.42,"1425": 588.63,"1450": 567.96,"1475": 506.14,"1500": 523.04,"1525": 522.38,"1550": 464.48,"1575": 415.47,"1600": 374.16,"1625": 318.46,"1650": 267.52,"1675": 234.78,"1700": 225.19,"1725": 217.47,"1750": 204.76,"1775": 176.2,"1800": 147.63,"1825": 121.02,"1850": 103.68,"1875": 87.26,"1900": 76.98,"1925": 60.59,"1950": 53.97,"1975": 50.21,"2000": 44.31,"2025": 38.39,"2050": 29.02,"2075": 25.18,"2100": 24.45,"2125": 20.13,"2150": 18.21,"2175": 14.32,"2200": 11.1,"2225": 10.25,"2250": 9.46,"2275": 7.87,"2300": 5.94,"2325": 3.73,"2350": 2.68,"2375": 1.91,"2400": 1.67,"2425": 1.31,"2450": 1.23,"2475": 1.09,"2500": 0.48,"2525": 0.44}}}