{"type": "Feature","id": "529","bbox": [31.1987,-21.31368,33.04277,-17.26611],"geometry": {"type": "Polygon","coordinates": [[[33.01165,-17.38399,556.3173],[33.01626,-17.37718,549.8132],[33.02246,-17.36147,563.6624],[33.02163,-17.34556,594.6226],[33.01466,-17.33667,591.1797],[32.99238,-17.32468,609.876],[32.9836,-17.31775,617.4697],[32.97321,-17.29791,586.9523],[32.96944,-17.2761,558.4246],[32.96909,-17.26611,527.6467],[32.96882,-17.26613,527.6467],[32.96298,-17.26644,537.7844],[32.94174,-17.27202,548.9485],[32.86743,-17.30044,652.6152],[32.85777,-17.30711,618.1983],[32.83451,-17.32819,611.3604],[32.76733,-17.37501,618.5506],[32.76299,-17.38013,640.1248],[32.75943,-17.38524,656.3455],[32.72992,-17.44188,641.9111],[32.72852,-17.44715,665.123],[32.7279,-17.45935,684.6762],[32.72682,-17.46607,654.1421],[32.72155,-17.47506,703.0926],[32.71488,-17.48079,728.0291],[32.70899,-17.48446,708.6125],[32.69406,-17.49108,711.0946],[32.68336,-17.49376,731.5774],[32.6522,-17.50539,729.642],[32.646,-17.50989,751.3981],[32.64197,-17.51495,740.6632],[32.64026,-17.52033,834.597],[32.63918,-17.53846,758.1827],[32.63804,-17.54451,871.7545],[32.63608,-17.55056,832.2933],[32.63297,-17.55583,781.2079],[32.59122,-17.59867,882.4859],[32.58037,-17.6059,811.2609],[32.57148,-17.61045,862.5424],[32.5659,-17.61133,870.7579],[32.5552,-17.61464,877.7054],[32.54575,-17.61882,863.0295],[32.54063,-17.62053,880.687],[32.52218,-17.62233,882.4829],[32.48756,-17.63763,914.6205],[32.48198,-17.64259,1106.9125],[32.46895,-17.65949,924.3699],[32.45402,-17.67484,931.7563],[32.44534,-17.68037,952.9156],[32.43805,-17.68166,936.9153],[32.4272,-17.67794,950.345],[32.42115,-17.6767,953.0249],[32.41459,-17.67654,950.5707],[32.4056,-17.67778,944.8312],[32.39506,-17.68094,961.1482],[32.37676,-17.68915,962.0515],[32.36095,-17.69928,959.9795],[32.32028,-17.7385,979.0221],[32.31036,-17.74517,999.366],[32.28798,-17.75747,996.8226],[32.27946,-17.76439,1008.3619],[32.27481,-17.7692,1015.5162],[32.26922,-17.77721,1012.0192],[32.2593,-17.79488,1034.4366],[32.25202,-17.80506,1037.5229],[32.24654,-17.81033,1046.2572],[32.24147,-17.81411,1048.7051],[32.22034,-17.82196,1053.2371],[32.19941,-17.83297,1078.2432],[32.17207,-17.84304,1089.1904],[32.16556,-17.84702,1090.3818],[32.16091,-17.85136,1110.7139],[32.15812,-17.85617,1120.8496],[32.15626,-17.8616,1099.0929],[32.14897,-17.89953,1120.2515],[32.14835,-17.91198,1128.1603],[32.15052,-17.92847,1128.8503],[32.1499,-17.93353,1122.9216],[32.14618,-17.93859,1155.2045],[31.91173,-18.16628,1568.8242],[31.91049,-18.17279,1583.6609],[31.91064,-18.17894,1615.2382],[31.91281,-18.19641,1513.1455],[31.90888,-18.20638,1463.998],[31.90129,-18.21992,1638.5635],[31.86408,-18.26752,1450.2697],[31.86222,-18.27315,1434.0096],[31.86098,-18.2794,1433.3794],[31.85928,-18.31201,1419.668],[31.86176,-18.32932,1399.5537],[31.86486,-18.33909,1409.632],[31.86703,-18.34317,1418.8027],[31.86765,-18.35309,1423.6145],[31.85318,-18.3811,1420.045],[31.84966,-18.39154,1413.4092],[31.85245,-18.41071,1381.9762],[31.85132,-18.42094,1455.4115],[31.84403,-18.4259,1330.5851],[31.83426,-18.42962,1362.5973],[31.79018,-18.43955,1426.8843],[31.78042,-18.44296,1440.1569],[31.77251,-18.4474,1446.5481],[31.76925,-18.45562,1456.0642],[31.76739,-18.46513,1464.8225],[31.76662,-18.47541,1434.3872],[31.7646,-18.48507,1429.6287],[31.76197,-18.49329,1484.776],[31.7567,-18.49789,1471.0054],[31.75267,-18.50037,1451.2407],[31.74941,-18.503,1398.8405],[31.74352,-18.50905,1381.4567],[31.74755,-18.51711,1364.8037],[31.75902,-18.53411,1346.7629],[31.76212,-18.55008,1328.7052],[31.7705,-18.56755,1381.3658],[31.77112,-18.5753,1312.2346],[31.7677,-18.58558,1293.4786],[31.76181,-18.59892,1308.3457],[31.76197,-18.60605,1295.1948],[31.76398,-18.61158,1302.0535],[31.76677,-18.61581,1351.947],[31.76894,-18.62667,1368.1672],[31.77065,-18.63147,1392.0231],[31.78011,-18.64331,1310.6155],[31.78941,-18.66103,1179.1956],[31.7922,-18.66532,1173.6003],[31.79551,-18.66935,1178.8167],[31.80667,-18.67958,1175.2568],[31.81504,-18.69214,1157.0288],[31.82419,-18.70366,1167.6667],[31.82682,-18.7079,1160.5637],[31.82915,-18.71405,1158.3635],[31.8338,-18.73343,1130.0491],[31.83798,-18.74516,1115.6284],[31.84047,-18.74914,1105.653],[31.84372,-18.75317,1090.5166],[31.8476,-18.75617,1081.3123],[31.85256,-18.75849,1113.1931],[31.85804,-18.76015,1128.9949],[31.87648,-18.76097,1102.7385],[31.88284,-18.76201,1075.4087],[31.88842,-18.76371,1004.2065],[31.89323,-18.76635,971.8254],[31.8971,-18.7696,971.6166],[31.90005,-18.77369,982.4182],[31.92211,-18.82645,977.181],[31.9401,-18.91311,904.614],[31.94211,-18.91828,902.542],[31.94444,-18.92251,897.6367],[31.94785,-18.92618,884.1006],[31.95219,-18.92903,860.1774],[31.9617,-18.93424,1129.2097],[31.9648,-18.93833,917.1032],[31.9665,-18.94329,881.5635],[31.96759,-18.94866,867.1468],[31.9696,-18.95331,858.1026],[31.97224,-18.9576,872.21],[31.98154,-18.9699,841.9309],[31.98666,-18.97822,902.6089],[31.991,-18.98747,859.7745],[31.99193,-18.99243,852.5357],[31.99255,-18.99708,944.7769],[31.98914,-19.0392,844.733],[31.9896,-19.0577,861.1885],[31.98697,-19.07728,850.4557],[31.98681,-19.0902,840.1635],[31.99131,-19.11485,830.8754],[31.98516,-19.13222,828.6511],[31.9788,-19.12772,820.3905],[31.97136,-19.12493,811.2867],[31.96108,-19.12276,824.1746],[31.95384,-19.12317,827.3311],[31.93679,-19.12829,835.5532],[31.92692,-19.12958,849.0043],[31.90666,-19.12534,835.6874],[31.86692,-19.10653,845.243],[31.83003,-19.0977,865.6296],[31.81447,-19.08679,861.587],[31.77685,-19.04922,882.2544],[31.7629,-19.0407,890.1776],[31.74631,-19.03563,894.2372],[31.72874,-19.03682,906.7008],[31.67954,-19.04442,944.4735],[31.66094,-19.04333,997.7679],[31.62745,-19.02886,1063.6647],[31.6057,-19.02313,1075.0555],[31.59624,-19.02359,1086.2076],[31.59221,-19.02669,1090.713],[31.59438,-19.03078,1103.1775],[31.60105,-19.03837,1106.5149],[31.60337,-19.0424,1097.2617],[31.60461,-19.04721,1097.8518],[31.60337,-19.05186,1100.5338],[31.59624,-19.06612,1106.5977],[31.5888,-19.08726,1074.0083],[31.57485,-19.11594,1185.3447],[31.56648,-19.12906,1101.0408],[31.56007,-19.13671,1101.6582],[31.54193,-19.15428,1102.2076],[31.53495,-19.15661,1086.1589],[31.52891,-19.15583,1082.1724],[31.5241,-19.153199999999998,1078.1777],[31.51976,-19.15025,1078.0327],[31.51449,-19.14777,1126.72],[31.50777,-19.14581,1135.4722],[31.49646,-19.14565,1156.5759],[31.48886,-19.14441,1149.5483],[31.48312,-19.14209,1166.2255],[31.48111,-19.13718,1184.6167],[31.48049,-19.13201,1189.5421],[31.48033,-19.12627,1247.2803],[31.47878,-19.12131,1232.6595],[31.4763,-19.11666,1176.4065],[31.45754,-19.09909,1243.3148],[31.45175,-19.09568,1191.9476],[31.44323,-19.09237,1170.3347],[31.4378,-19.09315,1145.0574],[31.43346,-19.09594,1156.5088],[31.42587,-19.104,1200.8707],[31.41997,-19.10824,1197.1342],[31.41346,-19.10958,1202.5143],[31.40788,-19.10896,1217.6222],[31.39713,-19.10483,1216.3097],[31.38783,-19.10002,1220.4222],[31.37822,-19.09785,1207.4497],[31.36504,-19.09703,1222.4414],[31.33833,-19.09894,1261.1044],[31.32871,-19.104,1273.9829],[31.32344,-19.10943,1268.708],[31.32267,-19.11423,1276.5411],[31.31926,-19.11992,1293.7136],[31.31833,-19.15961,1324.9886],[31.30825,-19.18374,1333.5038],[31.30825,-19.23262,1316.8904],[31.29616,-19.23805,1294.8657],[31.1987,-19.24844,1236.8236],[31.21156,-19.2642,1241.2153],[31.37419,-19.35871,1171.9847],[31.41052,-19.3874,1162.3472],[31.42338,-19.39556,1129.3643],[31.43486,-19.40114,1123.468],[31.44106,-19.40171,1124.4313],[31.44617,-19.40021,1120.0835],[31.4502,-19.39737,1124.3298],[31.45579,-19.39494,1119.2042],[31.46297,-19.3938,1119.1898],[31.47367,-19.39463,1099.8608],[31.4794,-19.39628,1095.9819],[31.48374,-19.39892,1087.4692],[31.49444,-19.40915,1064.5942],[31.4994,-19.41215,1058.9011],[31.50498,-19.41427,1049.076],[31.52441,-19.41845,1054.3014],[31.53418,-19.42305,1038.2434],[31.56038,-19.44073,1007.2984],[31.56865,-19.44729,1007.2159],[31.57454,-19.4539,1039.9713],[31.5781,-19.45964,1018.8159],[31.58415,-19.46708,1017.4007],[31.59035,-19.47049,1004.1724],[31.59655,-19.47199,1003.6169],[31.60182,-19.47075,1001.7275],[31.61237,-19.46677,983.3253],[31.62012,-19.46734,971.8996],[31.62539,-19.47049,982.5653],[31.63257,-19.47638,987.2579],[31.6411,-19.48098,978.411],[31.65521,-19.48672,985.4647],[31.66575,-19.48935,969.6091],[31.68967,-19.49292,960.0364],[31.69665,-19.4955,978.89],[31.70068,-19.49907,979.4371],[31.70115,-19.50201,974.7107],[31.70068,-19.51333,953.7819],[31.70347,-19.52108,944.7108],[31.7089,-19.53007,939.0],[31.73949,-19.5585,939.0],[31.7429,-19.56268,940.5662],[31.74492,-19.56749,1001.5684],[31.74647,-19.57271,991.6428],[31.74724,-19.57829,939.9667],[31.74957,-19.58454,921.7059],[31.75375,-19.59095,918.3362],[31.76243,-19.6001,1084.3107],[31.76925,-19.60537,945.4583],[31.81535,-19.62934,884.2896],[31.82729,-19.63699,876.4543],[31.83426,-19.64319,905.2311],[31.83674,-19.64826,876.7477],[31.84372,-19.66795,839.3935],[31.84605,-19.67244,842.0297],[31.84915,-19.67714,841.4454],[31.87214,-19.70298,823.8607],[31.9033,-19.73027,769.9724],[31.91095,-19.73828,795.6132],[31.91607,-19.74479,809.5618],[31.92583,-19.77528,730.0884],[31.92832,-19.78138,759.4656],[31.93204,-19.78799,757.3062],[31.93948,-19.79729,765.6931],[31.94521,-19.8021,781.5393],[31.95064,-19.80577,752.5953],[31.97705,-19.81708,726.499],[31.9834,-19.82168,734.7845],[31.9879,-19.82633,743.6725],[31.99611,-19.84137,729.5992],[32.00387,-19.85016,701.1589],[32.01896,-19.86432,725.2624],[32.04035,-19.8791,689.4617],[32.05306,-19.88514,676.534],[32.06376,-19.88778,666.4312],[32.07218,-19.88886,645.3768],[32.08381,-19.89186,609.6204],[32.09125,-19.8963,604.6359],[32.09776,-19.90189,618.8076],[32.10598,-19.91072,646.215],[32.11218,-19.91491,677.5895],[32.11838,-19.91677,663.1296],[32.14153,-19.91331,627.7448],[32.16107,-19.91274,609.5267],[32.16897,-19.91367,599.5603],[32.17812,-19.91599,599.1519],[32.19135,-19.92095,575.0148],[32.25775,-19.96953,528.29],[32.31005,-19.99408,509.8024],[32.32834,-20.00508,507.0653],[32.33108,-20.01459,524.5168],[32.33718,-20.02338,486.9811],[32.33625,-20.12306,467.9061],[32.28659,-20.40434,437.0227],[32.28163,-20.5451,420.2283],[32.27331,-20.59316,407.0],[32.25884,-20.61264,405.3084],[32.24845,-20.67202,420.553],[32.22778,-20.69713,405.3828],[32.21822,-20.71243,406.5812],[32.21429,-20.73005,401.6064],[32.21233,-20.75036,389.0],[32.19383,-20.80173,395.2769],[32.15807,-20.8656,386.7314],[32.15285,-20.8871,383.873],[32.14913,-20.89723,383.0486],[32.13502,-20.91981,377.3517],[32.13549,-20.92833,371.0],[32.14432,-20.94032,370.0],[32.1482,-20.94921,379.2328],[32.1575,-20.99588,367.0493],[32.1606,-21.00507,362.5],[32.16649,-21.01401,380.6663],[32.18856,-21.0306,368.7283],[32.19166,-21.04037,357.7548],[32.18013,-21.05561,377.9645],[32.25021,-21.08863,356.8224],[32.25527,-21.09339,346.9871],[32.26271,-21.11706,378.6153],[32.29816,-21.19819,247.2327],[32.29687,-21.21323,285.7931],[32.31289,-21.23266,294.0212],[32.40854,-21.29033,163.003],[32.4472,-21.31368,153.8061],[32.44585,-21.30899,160.7177],[32.44461,-21.30469,171.1578],[32.37175,-21.1879,292.0557],[32.37299,-21.18398,301.3062],[32.37687,-21.1785,304.4541],[32.38053,-21.17219,298.1416],[32.38064,-21.16548,302.8319],[32.37774,-21.16341,298.8345],[32.37335,-21.16362,316.2357],[32.36886,-21.163,320.2349],[32.35986,-21.15142,353.0742],[32.34534,-21.14284,379.0953],[32.33981,-21.13406,436.5751],[32.41712,-21.04094,350.8803],[32.46766,-20.98017,417.7136],[32.49102,-20.93634,429.6985],[32.49722,-20.8981,392.8866],[32.48347,-20.79423,490.8402],[32.46911,-20.68685,622.3282],[32.47107,-20.64551,530.0183],[32.48161,-20.60303,569.7603],[32.51314,-20.56458,493.5406],[32.55654,-20.55931,669.9971],[32.60367,-20.56479,824.6645],[32.64646,-20.55797,715.3043],[32.67178,-20.53182,699.3762],[32.70444,-20.47177,948.0138],[32.73586,-20.41421,982.6375],[32.80077,-20.33855,1030.1637],[32.84521,-20.28667,764.7097],[32.85296,-20.27385,846.5811],[32.85844,-20.25949,848.9785],[32.86557,-20.22889,965.337],[32.86505,-20.22094,808.2923],[32.85834,-20.2075,834.7011],[32.85709,-20.20057,1001.5595],[32.85927,-20.19086,1092.8536],[32.87291,-20.16719,1083.5334],[32.87787,-20.15169,957.4323],[32.88531,-20.10301,1080.5543],[32.89441,-20.09402,1187.9557],[32.91068,-20.09112,843.2634],[32.92655,-20.08647,734.384],[32.9343,-20.07211,617.3718],[32.94009,-20.04151,386.5649],[32.95373,-20.03025,492.3037],[33.00727,-20.03201,354.1821],[33.00437,-20.02425,405.3571],[32.99838,-20.0009,763.9524],[33.002,-19.927,715.9671],[33.02132,-19.86809,1376.4264],[33.02287,-19.82685,1473.0288],[33.02964,-19.80339,1501.425],[33.03279,-19.78417,1645.5267],[33.02277,-19.77311,1627.1599],[33.0006,-19.76432,1785.074],[32.97905,-19.7514,1348.5458],[32.96241,-19.73538,1354.7231],[32.95414,-19.71781,1105.5875],[32.96241,-19.67906,1326.1526],[32.96096,-19.6588,1455.9447],[32.94319,-19.64929,1126.915],[32.92458,-19.65528,1094.594],[32.89472,-19.68433,1734.8452],[32.87218,-19.69022,1553.09],[32.84914,-19.68908,2110.0811],[32.83105,-19.68515,1619.6835],[32.81963,-19.6743,1556.8667],[32.81627,-19.65208,1784.9827],[32.81947,-19.64195,1603.6998],[32.82537,-19.63327,1571.8365],[32.8296,-19.62366,1530.1892],[32.82816,-19.61064,1797.2075],[32.82568,-19.60082,1492.9788],[32.82537,-19.59162,1465.7173],[32.8325,-19.51927,1365.0625],[32.83219,-19.50088,1499.316],[32.82537,-19.47917,1842.3105],[32.81131,-19.47452,1680.252],[32.79312,-19.47669,1728.9353],[32.77395,-19.47586,1558.9166],[32.76335,-19.46398,1360.4269],[32.76222,-19.44341,1483.7954],[32.76852,-19.40279,1678.1486],[32.76645,-19.37344,1729.7885],[32.76883,-19.36362,1588.0333],[32.80614,-19.32342,1473.5742],[32.82071,-19.3013,1150.1704],[32.82867,-19.28456,1015.2296],[32.83219,-19.26668,1043.6779],[32.83322,-19.24198,953.3857],[32.86226,-19.11806,695.5411],[32.85591,-19.08374,962.0087],[32.84748,-19.07393,1076.4386],[32.83813,-19.0669,1118.8083],[32.83022,-19.05915,1187.0308],[32.82526,-19.04685,1317.1343],[32.82299,-19.03517,1101.0295],[32.81999,-19.02835,1094.3167],[32.8142,-19.0238,1144.4816],[32.80335,-19.01956,1261.9623],[32.78599,-19.0177,1425.6021],[32.72387,-19.02659,1036.5536],[32.71028,-19.02597,1068.114],[32.69896,-19.02225,969.9889],[32.69106,-19.01429,1136.1599],[32.68863,-19.00096,970.6574],[32.69028,-18.98825,1004.8331],[32.68863,-18.97729,1146.8555],[32.68108,-18.95497,1189.0461],[32.68253,-18.94267,1515.7198],[32.69225,-18.9343,1689.9133],[32.70506,-18.92747,1425.7048],[32.71576,-18.91983,1355.5688],[32.7032,-18.91187,1306.3464],[32.69679,-18.89719,1346.4987],[32.68987,-18.84324,1387.9514],[32.69142,-18.83425,1424.9065],[32.78764,-18.79125,1681.853],[32.81792,-18.78702,1642.8344],[32.85885,-18.79001,985.4628],[32.88521,-18.78784,989.397],[32.90252,-18.77451,1174.7043],[32.91327,-18.75301,1021.2485],[32.92024,-18.72625,875.7219],[32.92231,-18.69317,709.0986],[32.91456,-18.66589,842.5719],[32.88448,-18.60904,1540.475],[32.87167,-18.57318,975.9905],[32.86826,-18.55261,816.1196],[32.87074,-18.53577,780.2905],[32.88314,-18.52212,752.0306],[32.9003,-18.5153,728.4827],[32.91931,-18.51003,704.9393],[32.93714,-18.50104,687.8826],[32.95662,-18.48988,696.0367],[32.97859,-18.48006,678.6512],[32.99641,-18.46714,686.9972],[33.00303,-18.44688,667.5782],[32.99952,-18.43665,681.445],[32.9868,-18.42229,671.3427],[32.98536,-18.41247,657.1377],[32.9882,-18.41319,640.3227],[33.00923,-18.38394,686.5714],[33.03807,-18.36306,681.6309],[33.04277,-18.35201,616.3309],[33.03497,-18.33289,676.3805],[33.01688,-18.31366,692.5279],[32.97016,-18.27749,1092.2225],[32.95497,-18.2563,1259.7421],[32.95053,-18.24131,1462.6633],[32.95228,-18.23305,1490.1379],[32.95817,-18.2254,1492.7404],[32.96593,-18.21217,1493.1917],[32.97487,-18.19077,1476.3108],[32.97554,-18.18333,1410.0779],[32.97228,-18.15026,1095.3513],[32.93709,-18.04711,1149.958],[32.93492,-18.02458,1028.4001],[32.94029,-18.00484,1023.6971],[32.94122,-17.99626,1086.9785],[32.92898,-17.98231,973.5851],[32.92737,-17.97291,923.9285],[32.93244,-17.96495,899.0883],[32.9404,-17.95999,1193.5842],[32.94815,-17.95327,1182.9456],[32.95213,-17.94025,1186.8694],[32.95027,-17.92257,1036.4033],[32.93843,-17.89457,929.126],[32.93688,-17.87503,849.1916],[32.93967,-17.8555,840.4913],[32.94608,-17.83472,1207.3236],[32.95704,-17.81798,855.9012],[32.97357,-17.81064,823.4193],[32.9991,-17.79431,824.3994],[33.00318,-17.75773,852.0968],[33.00024,-17.7139,1159.9791],[33.00406,-17.67556,1050.1418],[33.0206,-17.63846,944.1622],[33.02453,-17.61923,1084.9377],[33.02039,-17.59856,1209.2241],[33.00665,-17.58099,917.0949],[32.96913,-17.56456,672.9993],[32.95166,-17.55143,652.323],[32.94722,-17.54317,640.8823],[32.93668,-17.50937,701.5913],[32.93657,-17.49831,674.678],[32.94298,-17.49159,703.6797],[32.95166,-17.48622,634.7349],[32.95817,-17.47847,623.2224],[32.99745,-17.40498,565.2563],[33.01165,-17.38399,556.3173]]]}
,"properties": {"ISO3166-1-Alpha-3": "ZWE","country": "Zimbabwe","fill": "#FF0","name": "Manicaland","area_km2": 34879.68,"hist_schema_id": "Elevation0-9000","hist_area_km2": {"150": 2.43,"175": 30.78,"200": 9.53,"225": 7.13,"250": 8.93,"275": 12.08,"300": 19.56,"325": 43.89,"350": 127.37,"375": 317.65,"400": 465.85,"425": 549.39,"450": 302.15,"475": 206.26,"500": 148.45,"525": 172.67,"550": 240.2,"575": 288.73,"600": 357.51,"625": 418.06,"650": 441.0,"675": 478.06,"700": 522.3,"725": 549.91,"750": 610.05,"775": 692.42,"800": 762.56,"825": 824.48,"850": 873.74,"875": 925.89,"900": 951.25,"925": 1004.3,"950": 1067.6,"975": 1130.08,"1000": 1133.87,"1025": 1117.25,"1050": 1091.76,"1075": 1017.66,"1100": 1030.97,"1125": 912.19,"1150": 882.04,"1175": 822.77,"1200": 776.72,"1225": 751.86,"1250": 719.29,"1275": 662.83,"1300": 626.2,"1325": 608.25,"1350": 596.48,"1375": 583.34,"1400": 565.86,"1425": 571.95,"1450": 547.57,"1475": 488.6,"1500": 504.7,"1525": 509.6,"1550": 458.03,"1575": 414.83,"1600": 367.9,"1625": 311.56,"1650": 261.38,"1675": 228.59,"1700": 219.21,"1725": 213.13,"1750": 200.52,"1775": 172.37,"1800": 143.9,"1825": 118.2,"1850": 101.64,"1875": 85.36,"1900": 75.37,"1925": 58.81,"1950": 52.79,"1975": 49.03,"2000": 42.95,"2025": 37.06,"2050": 27.98,"2075": 24.0,"2100": 22.93,"2125": 19.43,"2150": 17.51,"2175": 13.44,"2200": 10.54,"2225": 9.97,"2250": 9.12,"2275": 7.77,"2300": 5.82,"2325": 3.67,"2350": 2.62,"2375": 1.89,"2400": 1.67,"2425": 1.31,"2450": 1.23,"2475": 1.09,"2500": 0.48,"2525": 0.44}}}