{"type":"Feature","properties":{"GID_3":"ZWE.8.2.23_2","GID_0":"ZWE","country":"Zimbabwe","GID_1":"ZWE.8_1","province":"MatabelelandNorth","NL_NAME_1":"NA","GID_2":"ZWE.8.2_2","county":"Bubi","NL_NAME_2":"NA","city":"Ward9","VARNAME_3":"NA","NL_NAME_3":"NA","TYPE_3":"Ward","ENGTYPE_3":"Ward","CC_3":"NA","HASC_3":"NA","name":"Ward9.city"},
"geometry":{"type": "MultiPolygon","coordinates": [[[[28.5857,-19.5,1147.2974],[28.5843,-19.4985,1138.1938],[28.576,-19.4986,1139.8492],[28.5657,-19.5036,1135.6909],[28.5618,-19.5039,1134.5745],[28.5613,-19.5059,1134.3198],[28.5546,-19.5087,1136.025],[28.5349,-19.5238,1158.8572],[28.5332,-19.5267,1160.0168],[28.5334,-19.5306,1160.9952],[28.5281,-19.5377,1171.1862],[28.4716,-19.5006,1140.5328],[28.4228,-19.5214,1201.8066],[28.4473,-19.5378,1200.457],[28.5362,-19.590699999999998,1216.0294],[28.4961,-19.6512,1204.7646],[28.5529,-19.6887,1219.2002],[28.5594,-19.6814,1223.6511],[28.5799,-19.6155,1243.5242],[28.5391,-19.5855,1220.7681],[28.5792,-19.5603,1212.9187],[28.5838,-19.5524,1206.764],[28.5947,-19.5108,1151.5153],[28.5906,-19.5091,1152.4786],[28.5917,-19.5008,1166.1482],[28.5857,-19.5,1147.2974]]]]}}