{"type":"Feature","properties":{"GID_3":"ZWE.3.6.35_2","GID_0":"ZWE","country":"Zimbabwe","GID_1":"ZWE.3_1","province":"Manicaland","NL_NAME_1":"NA","GID_2":"ZWE.3.6_2","county":"Mutare","NL_NAME_2":"NA","city":"Ward8","VARNAME_3":"NA","NL_NAME_3":"NA","TYPE_3":"Ward","ENGTYPE_3":"Ward","CC_3":"NA","HASC_3":"NA","name":"Ward8.city"},
"geometry":{"type": "MultiPolygon","coordinates": [[[[32.0551,-19.2964,750.7797],[32.0598,-19.3021,745.0095],[32.0652,-19.3036,742.8679],[32.0731,-19.3093,746.8441],[32.0797,-19.3117,740.0667],[32.0841,-19.3289,736.9283],[32.0866,-19.332,736.5841],[32.0889,-19.3328,742.9192],[32.0923,-19.33,746.1895],[32.1003,-19.3196,750.3351],[32.1041,-19.3177,752.9229],[32.1068,-19.3125,760.5934],[32.1141,-19.3099,756.6929],[32.1155,-19.304,758.9222],[32.1228,-19.2924,764.6079],[32.1235,-19.2855,779.7834],[32.1265,-19.2863,763.6293],[32.1276,-19.2887,761.8986],[32.1304,-19.2865,764.2739],[32.1282,-19.284,773.0884],[32.1273,-19.2729,799.25],[32.136,-19.264,786.5763],[32.1344,-19.2613,786.0598],[32.1309,-19.261,797.3609],[32.1307,-19.2576,797.5662],[32.1389,-19.2427,808.6504],[32.1401,-19.2285,812.5742],[32.1478,-19.2248,821.0763],[32.1468,-19.2213,822.6039],[32.1504,-19.2199,822.8072],[32.1499,-19.2154,821.5719],[32.1518,-19.2128,826.427],[32.1583,-19.21,825.0203],[32.1656,-19.2028,838.776],[32.1767,-19.2016,835.5675],[32.2084,-19.1869,863.6334],[32.2159,-19.1859,865.3318],[32.2182,-19.1828,870.3503],[32.2175,-19.176,875.0117],[32.223,-19.1764,876.0035],[32.2264,-19.1718,893.4115],[32.2303,-19.1697,894.4424],[32.2346,-19.1697,898.2919],[32.2376,-19.167,899.0816],[32.2381,-19.1575,908.0417],[32.241,-19.1556,909.6863],[32.2403,-19.1483,917.5892],[32.2423,-19.1458,914.5646],[32.2423,-19.1347,929.4225],[32.2442,-19.1355,922.9824],[32.2453,-19.1299,928.8082],[32.2352,-19.1351,1058.2625],[32.1913,-19.1498,1166.343],[32.1278,-19.1907,963.7162],[32.1159,-19.2136,872.7061],[32.0871,-19.224,842.7147],[32.0592,-19.2477,833.8816],[32.0352,-19.2692,755.3757],[32.0458,-19.278199999999998,749.6808],[32.0494,-19.2917,747.756],[32.0551,-19.2964,750.7797]]]]}}