{"type":"Feature","properties":{"GID_3":"ZWE.6.10.10_2","GID_0":"ZWE","country":"Zimbabwe","GID_1":"ZWE.6_1","province":"MashonalandWest","NL_NAME_1":"NA","GID_2":"ZWE.6.10_2","county":"Mhondoro-Ngezi","NL_NAME_2":"NA","city":"Ward3","VARNAME_3":"NA","NL_NAME_3":"NA","TYPE_3":"Ward","ENGTYPE_3":"Ward","CC_3":"NA","HASC_3":"NA","name":"Ward3.city"},
"geometry":{"type": "MultiPolygon","coordinates": [[[[30.7463,-18.5911,1360.7441],[30.742,-18.5903,1343.3589],[30.7349,-18.5934,1334.8262],[30.7269,-18.5925,1330.4668],[30.7207,-18.5938,1326.4354],[30.7149,-18.5952,1322.8269],[30.7073,-18.5998,1317.795],[30.7053,-18.5997,1316.7422],[30.7071,-18.5952,1321.0309],[30.7048,-18.5948,1320.6095],[30.6978,-18.6052,1315.2849],[30.6782,-18.5839,1343.1968],[30.6775,-18.581,1338.5981],[30.6765,-18.5852,1341.207],[30.6687,-18.5857,1334.2122],[30.6542,-18.5953,1323.5918],[30.6474,-18.5954,1327.9412],[30.6418,-18.6029,1320.6982],[30.6378,-18.6052,1317.7146],[30.6196,-18.607,1309.6227],[30.6058,-18.606,1307.4375],[30.6153,-18.6187,1309.8417],[30.616,-18.6275,1301.8035],[30.6455,-18.6328,1304.1389],[30.6498,-18.6452,1303.3156],[30.6509,-18.6599,1288.395],[30.6534,-18.6607,1292.4478],[30.6532,-18.6635,1285.9197],[30.6559,-18.6648,1287.3059],[30.6695,-18.6638,1292.7645],[30.6777,-18.6583,1316.9122],[30.687,-18.6482,1294.3235],[30.6878,-18.6412,1302.214],[30.6909,-18.6386,1298.1978],[30.6858,-18.6356,1300.1067],[30.689,-18.6312,1299.9965],[30.6903,-18.6261,1302.4685],[30.6921,-18.6295,1300.2235],[30.6955,-18.6268,1306.3202],[30.6981,-18.6293,1303.4675],[30.701,-18.6295,1306.5223],[30.704,-18.6346,1315.5325],[30.7463,-18.5911,1360.7441]]]]}}