{"type": "Feature","bbox": [25.8237,-17.9381,25.8305,-17.9309],"geometry": {"type": "MultiPolygon","coordinates": [[[[25.8237,-17.9381,979.9841],[25.8305,-17.9378,970.2637],[25.8291,-17.9368,977.3093],[25.8299,-17.9309,960.1635],[25.8258,-17.9335,971.0466],[25.8237,-17.9381,979.9841]]]]}
,"properties": {"GID_3": "ZWE.8.9.6_2","GID_0": "ZWE","country": "Zimbabwe","GID_1": "ZWE.8_1","province": "MatabelelandNorth","NL_NAME_1": "NA","GID_2": "ZWE.8.9_2","county": "VictoriaFalls","NL_NAME_2": "NA","city": "Ward4","VARNAME_3": "NA","NL_NAME_3": "NA","TYPE_3": "Ward","ENGTYPE_3": "Ward","CC_3": "NA","HASC_3": "NA","name": "Ward4.city","area_km2": 0.3227503,"hist_schema_id": "Elevation0-9000","hist_area_km2": {"950": 0.0403443,"975": 0.282406}}}