{"type":"Feature","properties":{"ISO3166-1-Alpha-3":"ZWE","country":"Zimbabwe","fill":"#00F","id":"528","name":"Mashonaland East"},
"geometry":{"type": "Polygon","coordinates": [[[32.96909,-17.26611,527.6467],[32.96779,-17.22887,548.0542],[32.95414,-17.16717,623.1985],[32.92851,-17.1095,645.1566],[32.88676,-17.03818,586.3179],[32.83012,-16.94155,639.1882],[32.82878,-16.93514,663.045],[32.9005,-16.86775,613.7039],[32.91621,-16.84791,571.6093],[32.93337,-16.81577,548.9907],[32.96158,-16.71035,314.5718],[32.96851,-16.68162,481.0956],[32.95621,-16.68306,421.8508],[32.93957,-16.68978,340.7798],[32.9096,-16.70807,325.9429],[32.89337,-16.71242,363.2219],[32.862,-16.71045,397.7314],[32.80066,-16.69733,434.7994],[32.76935,-16.69547,445.3191],[32.75385,-16.69795,434.1736],[32.73989,-16.70322,443.6059],[32.73131,-16.7088,446.4776],[32.73095,-16.70866,446.4776],[32.72723,-16.71107,454.1883],[32.70077,-16.73536,425.5795],[32.68377,-16.7426,430.4912],[32.66512,-16.74523,684.4146],[32.60765,-16.74042,457.7374],[32.59882,-16.73717,476.7284],[32.58192,-16.72869,626.4532],[32.57313,-16.72565,540.558],[32.4379,-16.70952,522.8194],[32.41299,-16.71226,535.3022],[32.38725,-16.72141,537.2374],[32.33935,-16.7488,565.0317],[32.31346,-16.7581,607.6801],[32.29977,-16.75944,629.5316],[32.25868,-16.75794,597.3575],[32.24768,-16.76011,605.4901],[32.23905,-16.76409,596.2605],[32.22251,-16.77556,600.096],[32.2036,-16.78575,612.3428],[32.18075,-16.79401,631.4585],[32.15719,-16.79923,630.4119],[32.13569,-16.80016,621.6384],[32.12675,-16.79815,633.9095],[32.10996,-16.79138,627.7695],[32.10086,-16.78998,681.624],[32.08619,-16.79246,640.1501],[32.07006,-16.79861,661.4845],[32.04195,-16.8152,597.7274],[32.03151,-16.82616,662.2687],[32.02242,-16.84083,628.6882],[32.01544,-16.8568,691.004],[32.00418,-16.9045,648.9631],[31.99875,-16.91421,634.7587],[31.98991,-16.92233,679.3094],[31.95741,-16.93793,766.3582],[31.94258,-16.94982,663.4462],[31.92987,-16.96496,682.8115],[31.92,-16.98232,755.0765],[31.91374,-17.00041,712.4406],[31.90775,-17.03328,744.9222],[31.9033,-17.0433,748.0162],[31.88051,-17.07947,767.5812],[31.86718,-17.0956,788.2516],[31.85121,-17.1095,762.7469],[31.83178,-17.12051,809.733],[31.82615,-17.12479,803.5546],[31.82052,-17.13136,811.1688],[31.81178,-17.14671,856.4171],[31.80667,-17.15378,977.9927],[31.7953,-17.1635,1147.6588],[31.76988,-17.17802,1029.3787],[31.75861,-17.18644,913.7786],[31.75024,-17.20097,820.9332],[31.74817,-17.21905,997.9286],[31.75003,-17.23766,1064.6572],[31.7536,-17.25419,951.1709],[31.75468,-17.28143,887.8938],[31.74512,-17.30416,1044.8376],[31.72931,-17.32463,1044.2386],[31.64373,-17.40566,1137.6179],[31.62735,-17.43077,1104.0465],[31.62477,-17.4395,1097.7648],[31.60715,-17.45589,1095.6583],[31.51604,-17.50276,1163.1208],[31.5117,-17.50829,1168.9017],[31.50049,-17.52575,1143.0693],[31.49041,-17.54523,1183.3644],[31.48436,-17.55428,1163.1948],[31.47723,-17.56203,1172.8644],[31.47134,-17.56048,1164.4094],[31.46498,-17.55784,1189.2317],[31.45889,-17.55769,1203.2659],[31.4485,-17.56513,1218.145],[31.39558,-17.6137,1248.4847],[31.38458,-17.62187,1257.4979],[31.37388,-17.62647,1369.0629],[31.33926,-17.61288,1367.3856],[31.32794,-17.61665,1351.1172],[31.30577,-17.62802,1361.9263],[31.29631,-17.62988,1371.795],[31.28949,-17.62208,1330.1523],[31.28432,-17.61257,1292.7433],[31.28122,-17.60172,1276.6404],[31.27967,-17.59112,1245.7175],[31.28184,-17.58053,1236.5251],[31.31554,-17.49609,1189.9812],[31.31724,-17.48999,1173.3052],[31.31662,-17.48369,1187.5311],[31.30856,-17.48188,1130.908],[31.15105,-17.46834,1265.5759],[31.13772,-17.47516,1243.5994],[31.12438,-17.48798,1230.8834],[31.10868,-17.52007,1328.679],[31.08775,-17.54327,1413.7759],[31.0862,-17.5488,1421.7827],[31.09209,-17.56156,1433.4235],[31.09891,-17.56544,1423.1687],[31.10573,-17.56621,1417.7668],[31.1079,-17.57464,1431.0377],[31.10852,-17.58239,1431.2435],[31.08868,-17.6661,1475.0403],[31.10743,-17.66709,1507.6387],[31.11209,-17.66895,1529.0278],[31.11519,-17.67246,1527.5129],[31.11689,-17.68052,1539.6556],[31.11958,-17.68781,1553.1448],[31.12392,-17.69411,1557.8475],[31.13121,-17.69742,1543.4302],[31.1495,-17.70047,1444.5427],[31.18226,-17.69954,1535.7087],[31.19172,-17.70217,1429.8884],[31.19653,-17.70667,1382.6261],[31.19994,-17.71732,1347.3694],[31.20102,-17.72817,1428.3961],[31.20025,-17.73964,1379.0798],[31.1959,-17.75649,1420.7938],[31.1959,-17.76331,1488.6168],[31.19792,-17.77008,1495.4127],[31.20195,-17.77633,1522.042],[31.2049,-17.78233,1481.6143],[31.20614,-17.78858,1538.1895],[31.20536,-17.79995,1592.478],[31.20583,-17.80584,1570.078],[31.20815,-17.81591,1588.5],[31.2111,-17.82454,1586.4387],[31.22055,-17.84367,1548.8828],[31.22179,-17.84832,1545.1812],[31.2221,-17.85183,1545.104],[31.21978,-17.8571,1534.2379],[31.21513,-17.86325,1545.7019],[31.20552,-17.8726,1535.3218],[31.20164,-17.87968,1512.8602],[31.19978,-17.88635,1503.6279],[31.19885,-17.89674,1495.7905],[31.19358,-17.90247,1493.5686],[31.18505,-17.90816,1504.0731],[31.14841,-17.92361,1464.4287],[31.14717,-17.92655,1461.2056],[31.14702,-17.92971,1463.062],[31.14996,-17.94061,1464.6593],[31.15105,-17.94655,1465.2151],[31.15182,-17.95771,1479.5321],[31.15136,-17.96262,1487.0588],[31.14764,-17.97921,1479.3682],[31.13787,-17.99017,1454.0355],[31.12361,-17.99632,1440.553],[31.1203,-18.00391,1447.2159],[31.11958,-18.00877,1443.1732],[31.12309,-18.01296,1452.3368],[31.13229,-18.01952,1459.981],[31.13322,-18.02185,1464.4121],[31.13012,-18.02593,1462.9344],[31.11286,-18.03833,1441.8018],[31.10743,-18.04045,1438.3844],[31.09441,-18.04174,1431.2677],[31.0879,-18.04329,1428.7257],[31.08279,-18.04572,1419.1658],[31.07441,-18.05115,1414.7842],[31.07085,-18.0527,1412.8217],[31.06728,-18.05363,1410.486],[31.06325,-18.05419,1403.8263],[31.05715,-18.05249,1389.629],[31.04801,-18.04846,1403.1892],[31.02537,-18.02949,1405.422],[30.97633,-17.99885,1405.7408],[30.93814,-17.9835,1395.2009],[30.92528,-17.98025,1401.2373],[30.9059,-17.97255,1381.4459],[30.87903,-17.94903,1388.6769],[30.87391,-17.94526,1382.1952],[30.86027,-17.93813,1393.9358],[30.83293,-17.9281,1379.5117],[30.82533,-17.92438,1377.2383],[30.82208,-17.92351,1375.5004],[30.81836,-17.92521,1389.3918],[30.81464,-17.93276,1388.8389],[30.81231,-17.94619,1392.2131],[30.81293,-17.95456,1388.5115],[30.81448,-17.96082,1393.8441],[30.8182,-17.97069,1413.8953],[30.8196,-17.97596,1419.1768],[30.81944,-17.98133,1421.8564],[30.81712,-17.98629,1430.7843],[30.81154,-17.99089,1421.8207],[30.80642,-17.99389,1427.2593],[30.79061,-17.99988,1429.5535],[30.7903,-18.00035,1429.5535],[30.78921,-18.00112,1429.5535],[30.78658,-18.00521,1424.8547],[30.78358,-18.01125,1423.6476],[30.7813,-18.02376,1407.2969],[30.78224,-18.03146,1395.6268],[30.78379,-18.03771,1392.634],[30.79851,-18.07078,1376.7268],[30.7982,-18.07605,1372.3346],[30.79541,-18.08164,1361.7533],[30.78193,-18.09089,1356.7371],[30.7766,-18.09662,1334.3866],[30.77242,-18.10484,1341.4706],[30.7628,-18.13667,1334.136],[30.76249,-18.14256,1337.9438],[30.76389,-18.14783,1333.8154],[30.7656,-18.15264,1329.6543],[30.76389,-18.16158,1318.8138],[30.75846,-18.17403,1303.5488],[30.7411,-18.19982,1290.9818],[30.7318,-18.21041,1285.729],[30.72415,-18.21749,1285.209],[30.71919,-18.21935,1285.4841],[30.70958,-18.22416,1284.4487],[30.70555,-18.22788,1274.6277],[30.7026,-18.2331,1268.5375],[30.70198,-18.24225,1278.6152],[30.70353,-18.2749,1274.861],[30.70462,-18.28049,1280.0538],[30.70663,-18.2854,1265.073],[30.70927,-18.28963,1278.9968],[30.71578,-18.29702,1280.205],[30.75769,-18.33325,1299.0237],[30.78482,-18.3625,1299.4788],[30.79045,-18.37066,1302.0698],[30.79495,-18.38012,1302.813],[30.79634,-18.38492,1302.4236],[30.7951,-18.39066,1294.4664],[30.79123,-18.39671,1295.9241],[30.7811,-18.40379,1290.6969],[30.77474,-18.40906,1298.4254],[30.76963,-18.41557,1301.219],[30.76684,-18.42596,1306.0674],[30.76544,-18.43412,1311.2288],[30.75784,-18.57215,1378.6155],[30.75552,-18.5845,1482.2811],[30.75149,-18.5924,1379.2728],[30.74482,-18.60109,1347.6924],[30.70198,-18.64103,1362.0576],[30.65604,-18.71591,1411.9746],[30.65341,-18.71901,1382.3668],[30.65139,-18.72072,1369.5974],[30.64751,-18.71503,1341.3232],[30.64488,-18.71219,1327.1097],[30.64178,-18.71069,1324.9053],[30.61883,-18.70537,1313.9819],[30.61367,-18.70475,1308.8441],[30.60902,-18.70604,1295.4714],[30.60716,-18.71235,1292.1874],[30.60747,-18.71813,1308.0129],[30.61181,-18.73343,1316.6868],[30.61263,-18.73787,1314.2404],[30.61088,-18.74066,1315.4244],[30.60685,-18.74439,1321.4526],[30.5963,-18.74578,1321.8142],[30.58917,-18.74506,1319.1714],[30.58328,-18.74252,1314.0925],[30.57537,-18.7357,1307.4841],[30.57072,-18.73307,1293.7698],[30.54959,-18.72661,1281.469],[30.54401,-18.72578,1279.4784],[30.54013,-18.72754,1279.5248],[30.5392,-18.73229,1281.3635],[30.53998,-18.73746,1282.9774],[30.54277,-18.74707,1286.3765],[30.54354,-18.75136,1288.8657],[30.53967,-18.75539,1290.0332],[30.53176,-18.76051,1291.3286],[30.51176,-18.76712,1296.4092],[30.5037,-18.76821,1300.1494],[30.49869,-18.76702,1296.5811],[30.48272,-18.73095,1293.4473],[30.48039,-18.72862,1290.1213],[30.47776,-18.72501,1284.8911],[30.47528,-18.72082,1281.4316],[30.46489,-18.69106,1268.3776],[30.46256,-18.68666,1266.5962],[30.45962,-18.68279,1264.7556],[30.45543,-18.67989,1268.6526],[30.44985,-18.68139,1272.5781],[30.44158,-18.69131,1277.8185],[30.39849,-18.77508,1275.1277],[30.39601,-18.78325,1278.9974],[30.38794,-18.82981,1270.7349],[30.38076,-18.8451,1249.0715],[30.36309,-18.86154,1259.4955],[30.41662,-18.87435,1261.2859],[30.43383,-18.88169,1254.6647],[30.44965,-18.89652,1255.1219],[30.47481,-18.91357,1257.4724],[30.51812,-18.9313,1283.0945],[30.53734,-18.93595,1287.8774],[30.55253,-18.94189,1283.1425],[30.57336,-18.96029,1288.3097],[30.58018,-18.96308,1279.5789],[30.58654,-18.96442,1296.6107],[30.59646,-18.96551,1325.6444],[30.61181,-18.96882,1312.854],[30.63883,-18.96913,1310.6881],[30.65992,-18.97192,1315.8082],[30.66736,-18.97491,1338.9839],[30.67578,-18.97946,1337.2899],[30.68214,-18.98205,1314.7834],[30.68911,-18.98375,1328.8116],[30.68725,-18.98918,1327.339],[30.67656,-19.00483,1331.2273],[30.67547,-19.00918,1335.1063],[30.67578,-19.01538,1338.9004],[30.67904,-19.02468,1351.5396],[30.6995,-19.05863,1363.123],[30.72353,-19.08927,1383.1298],[30.72849,-19.0977,1392.4939],[30.73164,-19.10545,1383.0677],[30.73335,-19.11248,1374.5259],[30.73412,-19.11852,1365.2432],[30.73304,-19.12209,1364.8137],[30.72942,-19.12364,1362.7678],[30.72498,-19.12447,1358.282],[30.72121,-19.1271,1354.4453],[30.7164,-19.14173,1342.8021],[30.71578,-19.14514,1348.4014],[30.71562,-19.14844,1347.5447],[30.71593,-19.15061,1352.4156],[30.71671,-19.15351,1349.6973],[30.71779,-19.15614,1349.4574],[30.71857,-19.15847,1352.9294],[30.71872,-19.16064,1354.9246],[30.71841,-19.16333,1351.973],[30.71733,-19.16669,1353.4066],[30.71888,-19.17196,1355.7224],[30.72245,-19.17563,1362.5148],[30.74265,-19.19087,1369.2218],[30.75738,-19.20627,1384.9348],[30.77707,-19.22306,1396.999],[30.792,-19.24053,1420.6189],[30.80502,-19.25185,1434.0916],[30.80906,-19.25319,1423.5378],[30.83417,-19.25903,1449.5063],[30.85934,-19.27236,1464.4507],[30.90264,-19.23448,1481.083],[30.90466,-19.2133,1475.8763],[30.90063,-19.2041,1475.9996],[30.89871,-19.19609,1471.127],[30.90125,-19.19257,1471.0374],[30.90714,-19.19087,1467.5081],[30.9214,-19.18896,1461.202],[30.93039,-19.18477,1449.3818],[30.93675,-19.17749,1435.9517],[30.94729,-19.16203,1440.7571],[30.95401,-19.15712,1444.7725],[30.96439,-19.15568,1452.9957],[30.99928,-19.15852,1432.4591],[31.00222,-19.15909,1436.7839],[31.0063,-19.16095,1438.5658],[31.00672,-19.1655,1416.1761],[31.00599,-19.17304,1386.7062],[31.00393,-19.18033,1369.1771],[31.00036,-19.1856,1359.2524],[30.9999,-19.18606,1359.2524],[31.00021,-19.18694,1351.5881],[31.00036,-19.18803,1363.4844],[31.00114,-19.19025,1378.8943],[30.9999,-19.19376,1386.4016],[30.99866,-19.19593,1394.2136],[30.9968,-19.20012,1390.6713],[30.9937,-19.21154,1422.7108],[30.99276,-19.22415,1412.9829],[30.99385,-19.23588,1413.7039],[30.99525,-19.24131,1432.2555],[30.99835,-19.24637,1424.2728],[31.04181,-19.25226,1368.3695],[31.1987,-19.24844,1236.8236],[31.29616,-19.23805,1294.8657],[31.30825,-19.23262,1316.8904],[31.30825,-19.18374,1333.5038],[31.31833,-19.15961,1324.9886],[31.31926,-19.11992,1293.7136],[31.32267,-19.11423,1276.5411],[31.32344,-19.10943,1268.708],[31.32871,-19.104,1273.9829],[31.33833,-19.09894,1261.1044],[31.36504,-19.09703,1222.4414],[31.37822,-19.09785,1207.4497],[31.38783,-19.10002,1220.4222],[31.39713,-19.10483,1216.3097],[31.40788,-19.10896,1217.6222],[31.41346,-19.10958,1202.5143],[31.41997,-19.10824,1197.1342],[31.42587,-19.104,1200.8707],[31.43346,-19.09594,1156.5088],[31.4378,-19.09315,1145.0574],[31.44323,-19.09237,1170.3347],[31.45175,-19.09568,1191.9476],[31.45754,-19.09909,1243.3148],[31.4763,-19.11666,1176.4065],[31.47878,-19.12131,1232.6595],[31.48033,-19.12627,1247.2803],[31.48049,-19.13201,1189.5421],[31.48111,-19.13718,1184.6167],[31.48312,-19.14209,1166.2255],[31.48886,-19.14441,1149.5483],[31.49646,-19.14565,1156.5759],[31.50777,-19.14581,1135.4722],[31.51449,-19.14777,1126.72],[31.51976,-19.15025,1078.0327],[31.5241,-19.153199999999998,1078.1777],[31.52891,-19.15583,1082.1724],[31.53495,-19.15661,1086.1589],[31.54193,-19.15428,1102.2076],[31.56007,-19.13671,1101.6582],[31.56648,-19.12906,1101.0408],[31.57485,-19.11594,1185.3447],[31.5888,-19.08726,1074.0083],[31.59624,-19.06612,1106.5977],[31.60337,-19.05186,1100.5338],[31.60461,-19.04721,1097.8518],[31.60337,-19.0424,1097.2617],[31.60105,-19.03837,1106.5149],[31.59438,-19.03078,1103.1775],[31.59221,-19.02669,1090.713],[31.59624,-19.02359,1086.2076],[31.6057,-19.02313,1075.0555],[31.62745,-19.02886,1063.6647],[31.66094,-19.04333,997.7679],[31.67954,-19.04442,944.4735],[31.72874,-19.03682,906.7008],[31.74631,-19.03563,894.2372],[31.7629,-19.0407,890.1776],[31.77685,-19.04922,882.2544],[31.81447,-19.08679,861.587],[31.83003,-19.0977,865.6296],[31.86692,-19.10653,845.243],[31.90666,-19.12534,835.6874],[31.92692,-19.12958,849.0043],[31.93679,-19.12829,835.5532],[31.95384,-19.12317,827.3311],[31.96108,-19.12276,824.1746],[31.97136,-19.12493,811.2867],[31.9788,-19.12772,820.3905],[31.98516,-19.13222,828.6511],[31.99131,-19.11485,830.8754],[31.98681,-19.0902,840.1635],[31.98697,-19.07728,850.4557],[31.9896,-19.0577,861.1885],[31.98914,-19.0392,844.733],[31.99255,-18.99708,944.7769],[31.99193,-18.99243,852.5357],[31.991,-18.98747,859.7745],[31.98666,-18.97822,902.6089],[31.98154,-18.9699,841.9309],[31.97224,-18.9576,872.21],[31.9696,-18.95331,858.1026],[31.96759,-18.94866,867.1468],[31.9665,-18.94329,881.5635],[31.9648,-18.93833,917.1032],[31.9617,-18.93424,1129.2097],[31.95219,-18.92903,860.1774],[31.94785,-18.92618,884.1006],[31.94444,-18.92251,897.6367],[31.94211,-18.91828,902.542],[31.9401,-18.91311,904.614],[31.92211,-18.82645,977.181],[31.90005,-18.77369,982.4182],[31.8971,-18.7696,971.6166],[31.89323,-18.76635,971.8254],[31.88842,-18.76371,1004.2065],[31.88284,-18.76201,1075.4087],[31.87648,-18.76097,1102.7385],[31.85804,-18.76015,1128.9949],[31.85256,-18.75849,1113.1931],[31.8476,-18.75617,1081.3123],[31.84372,-18.75317,1090.5166],[31.84047,-18.74914,1105.653],[31.83798,-18.74516,1115.6284],[31.8338,-18.73343,1130.0491],[31.82915,-18.71405,1158.3635],[31.82682,-18.7079,1160.5637],[31.82419,-18.70366,1167.6667],[31.81504,-18.69214,1157.0288],[31.80667,-18.67958,1175.2568],[31.79551,-18.66935,1178.8167],[31.7922,-18.66532,1173.6003],[31.78941,-18.66103,1179.1956],[31.78011,-18.64331,1310.6155],[31.77065,-18.63147,1392.0231],[31.76894,-18.62667,1368.1672],[31.76677,-18.61581,1351.947],[31.76398,-18.61158,1302.0535],[31.76197,-18.60605,1295.1948],[31.76181,-18.59892,1308.3457],[31.7677,-18.58558,1293.4786],[31.77112,-18.5753,1312.2346],[31.7705,-18.56755,1381.3658],[31.76212,-18.55008,1328.7052],[31.75902,-18.53411,1346.7629],[31.74755,-18.51711,1364.8037],[31.74352,-18.50905,1381.4567],[31.74941,-18.503,1398.8405],[31.75267,-18.50037,1451.2407],[31.7567,-18.49789,1471.0054],[31.76197,-18.49329,1484.776],[31.7646,-18.48507,1429.6287],[31.76662,-18.47541,1434.3872],[31.76739,-18.46513,1464.8225],[31.76925,-18.45562,1456.0642],[31.77251,-18.4474,1446.5481],[31.78042,-18.44296,1440.1569],[31.79018,-18.43955,1426.8843],[31.83426,-18.42962,1362.5973],[31.84403,-18.4259,1330.5851],[31.85132,-18.42094,1455.4115],[31.85245,-18.41071,1381.9762],[31.84966,-18.39154,1413.4092],[31.85318,-18.3811,1420.045],[31.86765,-18.35309,1423.6145],[31.86703,-18.34317,1418.8027],[31.86486,-18.33909,1409.632],[31.86176,-18.32932,1399.5537],[31.85928,-18.31201,1419.668],[31.86098,-18.2794,1433.3794],[31.86222,-18.27315,1434.0096],[31.86408,-18.26752,1450.2697],[31.90129,-18.21992,1638.5635],[31.90888,-18.20638,1463.998],[31.91281,-18.19641,1513.1455],[31.91064,-18.17894,1615.2382],[31.91049,-18.17279,1583.6609],[31.91173,-18.16628,1568.8242],[32.14618,-17.93859,1155.2045],[32.1499,-17.93353,1122.9216],[32.15052,-17.92847,1128.8503],[32.14835,-17.91198,1128.1603],[32.14897,-17.89953,1120.2515],[32.15626,-17.8616,1099.0929],[32.15812,-17.85617,1120.8496],[32.16091,-17.85136,1110.7139],[32.16556,-17.84702,1090.3818],[32.17207,-17.84304,1089.1904],[32.19941,-17.83297,1078.2432],[32.22034,-17.82196,1053.2371],[32.24147,-17.81411,1048.7051],[32.24654,-17.81033,1046.2572],[32.25202,-17.80506,1037.5229],[32.2593,-17.79488,1034.4366],[32.26922,-17.77721,1012.0192],[32.27481,-17.7692,1015.5162],[32.27946,-17.76439,1008.3619],[32.28798,-17.75747,996.8226],[32.31036,-17.74517,999.366],[32.32028,-17.7385,979.0221],[32.36095,-17.69928,959.9795],[32.37676,-17.68915,962.0515],[32.39506,-17.68094,961.1482],[32.4056,-17.67778,944.8312],[32.41459,-17.67654,950.5707],[32.42115,-17.6767,953.0249],[32.4272,-17.67794,950.345],[32.43805,-17.68166,936.9153],[32.44534,-17.68037,952.9156],[32.45402,-17.67484,931.7563],[32.46895,-17.65949,924.3699],[32.48198,-17.64259,1106.9125],[32.48756,-17.63763,914.6205],[32.52218,-17.62233,882.4829],[32.54063,-17.62053,880.687],[32.54575,-17.61882,863.0295],[32.5552,-17.61464,877.7054],[32.5659,-17.61133,870.7579],[32.57148,-17.61045,862.5424],[32.58037,-17.6059,811.2609],[32.59122,-17.59867,882.4859],[32.63297,-17.55583,781.2079],[32.63608,-17.55056,832.2933],[32.63804,-17.54451,871.7545],[32.63918,-17.53846,758.1827],[32.64026,-17.52033,834.597],[32.64197,-17.51495,740.6632],[32.646,-17.50989,751.3981],[32.6522,-17.50539,729.642],[32.68336,-17.49376,731.5774],[32.69406,-17.49108,711.0946],[32.70899,-17.48446,708.6125],[32.71488,-17.48079,728.0291],[32.72155,-17.47506,703.0926],[32.72682,-17.46607,654.1421],[32.7279,-17.45935,684.6762],[32.72852,-17.44715,665.123],[32.72992,-17.44188,641.9111],[32.75943,-17.38524,656.3455],[32.76299,-17.38013,640.1248],[32.76733,-17.37501,618.5506],[32.83451,-17.32819,611.3604],[32.85777,-17.30711,618.1983],[32.86743,-17.30044,652.6152],[32.94174,-17.27202,548.9485],[32.96298,-17.26644,537.7844],[32.96882,-17.26613,527.6467],[32.96909,-17.26611,527.6467]]]}}