{"type": "Feature","bbox": [28.0663,-19.5695,28.3435,-19.3579],"geometry": {"type": "MultiPolygon","coordinates": [[[[28.0663,-19.4667,1055.3058],[28.1154,-19.4898,1053.1293],[28.1318,-19.4991,1072.9945],[28.2831,-19.5695,1187.0153],[28.3435,-19.483,1157.5144],[28.0719,-19.3579,1103.929],[28.0663,-19.4667,1055.3058]]]]}
,"properties": {"GID_3": "ZWE.8.8.3_2","GID_0": "ZWE","country": "Zimbabwe","GID_1": "ZWE.8_1","province": "MatabelelandNorth","NL_NAME_1": "NA","GID_2": "ZWE.8.8_2","county": "Umguza","NL_NAME_2": "NA","city": "Ward11","VARNAME_3": "NA","NL_NAME_3": "NA","TYPE_3": "Ward","ENGTYPE_3": "Ward","CC_3": "NA","HASC_3": "NA","name": "Ward11.city","area_km2": 323.1189,"hist_schema_id": "Elevation0-9000","hist_area_km2": {"1025": 11.617,"1050": 58.9402,"1075": 69.4123,"1100": 72.4469,"1125": 47.7911,"1150": 46.5874,"1175": 16.3238}}}