{"type":"Feature","properties":{"GID_3":"ZWE.6.10.13_2","GID_0":"ZWE","country":"Zimbabwe","GID_1":"ZWE.6_1","province":"MashonalandWest","NL_NAME_1":"NA","GID_2":"ZWE.6.10_2","county":"Mhondoro-Ngezi","NL_NAME_2":"NA","city":"Ward6","VARNAME_3":"NA","NL_NAME_3":"NA","TYPE_3":"Ward","ENGTYPE_3":"Ward","CC_3":"NA","HASC_3":"NA","name":"Ward6.city"},
"geometry":{"type": "MultiPolygon","coordinates": [[[[30.4473,-18.6576,1258.5979],[30.5053,-18.7727,1297.5448],[30.5498,-18.7556,1291.5192],[30.5411,-18.7307,1280.5999],[30.5704,-18.7338,1293.7698],[30.5721,-18.7325,1298.0074],[30.5729,-18.7274,1295.6705],[30.5607,-18.7183,1290.7856],[30.5629,-18.7146,1292.7126],[30.5638,-18.7026,1288.6687],[30.5586,-18.6846,1279.6146],[30.5582,-18.6776,1273.7177],[30.5612,-18.6682,1268.8079],[30.5605,-18.6656,1271.9611],[30.5518,-18.6702,1269.208],[30.5354,-18.6692,1267.0367],[30.5339,-18.6731,1263.9175],[30.5273,-18.6722,1266.0624],[30.526,-18.6759,1260.0361],[30.5227,-18.6778,1260.9363],[30.5209,-18.6743,1262.6846],[30.516,-18.6731,1260.9282],[30.5122,-18.6699,1259.4309],[30.5011,-18.6682,1262.0212],[30.4916,-18.6712,1262.2953],[30.4851,-18.6707,1262.4216],[30.4828,-18.6683,1262.2998],[30.4748,-18.6682,1257.6226],[30.4638,-18.6645,1256.1489],[30.4577,-18.6594,1258.9677],[30.4473,-18.6576,1258.5979]]]]}}