{"type": "Feature","bbox": [32.4763,-18.7758,32.5579,-18.634],"geometry": {"type": "MultiPolygon","coordinates": [[[[32.4875,-18.7624,1091.0],[32.5211,-18.7625,1527.3796],[32.5179,-18.7758,1450.0833],[32.5557,-18.7756,1195.5564],[32.554,-18.7738,1258.4269],[32.5538,-18.7689,1382.8468],[32.5565,-18.7664,1446.9219],[32.5579,-18.7595,1626.391],[32.5548,-18.7545,1601.6646],[32.5491,-18.753,1412.9407],[32.5499,-18.7507,1397.9351],[32.545,-18.7384,1339.4602],[32.5461,-18.7316,1284.2766],[32.5424,-18.7186,1150.4636],[32.5423,-18.7084,1116.8488],[32.5347,-18.6991,1091.0],[32.5383,-18.6958,1091.0],[32.5376,-18.6917,1091.0],[32.5351,-18.6886,1091.0],[32.5344,-18.68,1099.5079],[32.5325,-18.6788,1091.0],[32.5328,-18.6729,1091.0],[32.5345,-18.6702,1091.6411],[32.5332,-18.6648,1102.4633],[32.5367,-18.6604,1108.9568],[32.5362,-18.6516,1113.7743],[32.5401,-18.6467,1118.2874],[32.5347,-18.6381,1134.5532],[32.5191,-18.634,1237.9534],[32.5069,-18.6358,1178.6641],[32.505,-18.6421,1169.933],[32.5005,-18.6489,1148.7675],[32.495,-18.6531,1140.0363],[32.4902,-18.6618,1122.0419],[32.4816,-18.6657,1105.3994],[32.479,-18.6681,1093.1748],[32.4799,-18.6716,1091.6422],[32.4763,-18.6728,1101.1272],[32.4789,-18.6818,1091.0],[32.4783,-18.6847,1091.0],[32.4821,-18.6891,1091.0],[32.4818,-18.6932,1091.0],[32.4849,-18.6928,1091.4932],[32.486,-18.6982,1091.0],[32.4837,-18.7013,1091.0],[32.4853,-18.7046,1091.0],[32.4803,-18.7103,1091.0],[32.4832,-18.7267,1091.0],[32.4811,-18.7286,1091.0],[32.4854,-18.7324,1091.0],[32.4861,-18.7403,1091.0],[32.4841,-18.745,1091.0],[32.4843,-18.7521,1091.0],[32.4809,-18.7559,1091.0],[32.4817,-18.7585,1091.0],[32.4875,-18.7624,1091.0]]]]}
,"properties": {"GID_3": "ZWE.3.8.8_2","GID_0": "ZWE","country": "Zimbabwe","GID_1": "ZWE.3_1","province": "Manicaland","NL_NAME_1": "NA","GID_2": "ZWE.3.8_2","county": "Mutasa","NL_NAME_2": "NA","city": "Ward16","VARNAME_3": "NA","NL_NAME_3": "NA","TYPE_3": "Ward","ENGTYPE_3": "Ward","CC_3": "NA","HASC_3": "NA","name": "Ward16.city","area_km2": 86.53257,"hist_schema_id": "Elevation0-9000","hist_area_km2": {"1100": 27.53116,"1125": 13.39569,"1150": 9.74102,"1175": 6.829,"1200": 4.67973,"1225": 2.7114,"1250": 1.98835,"1275": 1.86771,"1300": 1.74713,"1325": 1.3856,"1350": 1.42561,"1375": 1.08426,"1400": 1.04402,"1425": 0.92353,"1450": 0.90341,"1475": 1.04394,"1500": 0.98372,"1525": 1.38521,"1550": 1.8068,"1575": 1.48558,"1600": 1.02386,"1625": 0.48182,"1650": 0.38144,"1675": 0.12046,"1700": 0.16061,"1725": 0.12046,"1750": 0.12046,"1775": 0.14054,"1800": 0.02008}}}