{"type": "Feature","bbox": [29.7459,-19.54,29.8385,-19.4581],"geometry": {"type": "MultiPolygon","coordinates": [[[[29.7563,-19.473,1401.5071],[29.7459,-19.4756,1408.2805],[29.7506,-19.4821,1395.9353],[29.7619,-19.54,1384.7009],[29.7845,-19.4994,1407.1315],[29.7865,-19.5073,1407.3342],[29.815,-19.507,1419.454],[29.8242,-19.4956,1441.3608],[29.8268,-19.4985,1433.0364],[29.8385,-19.4684,1417.3484],[29.8371,-19.466,1417.9559],[29.8316,-19.4642,1420.9131],[29.824,-19.4581,1413.8324],[29.8218,-19.4653,1425.0181],[29.8124,-19.4648,1424.4363],[29.8023,-19.4707,1422.5542],[29.7934,-19.4654,1423.9143],[29.7877,-19.4689,1425.9453],[29.7845,-19.4663,1422.7679],[29.7773,-19.4666,1426.3794],[29.78,-19.477,1416.7511],[29.759,-19.4764,1399.366],[29.7563,-19.473,1401.5071]]]]}
,"properties": {"GID_3": "ZWE.10.6.13_2","GID_0": "ZWE","country": "Zimbabwe","GID_1": "ZWE.10_1","province": "Midlands","NL_NAME_1": "NA","GID_2": "ZWE.10.6_2","county": "GweruUrban","NL_NAME_2": "NA","city": "Ward4","VARNAME_3": "NA","NL_NAME_3": "NA","TYPE_3": "Ward","ENGTYPE_3": "Ward","CC_3": "NA","HASC_3": "NA","name": "Ward4.city","area_km2": 38.81533,"hist_schema_id": "Elevation0-9000","hist_area_km2": {"1375": 3.03764,"1400": 17.24834,"1425": 13.75213,"1450": 3.91766,"1475": 0.7596,"1500": 0.09995}}}