{"type":"Feature","properties":{"GID_3":"ZWE.7.3.8_2","GID_0":"ZWE","country":"Zimbabwe","GID_1":"ZWE.7_1","province":"Masvingo","NL_NAME_1":"NA","GID_2":"ZWE.7.3_2","county":"ChiredziUrban","NL_NAME_2":"NA","city":"Ward8","VARNAME_3":"NA","NL_NAME_3":"NA","TYPE_3":"Ward","ENGTYPE_3":"Ward","CC_3":"NA","HASC_3":"NA","name":"Ward8.city"},
"geometry":{"type": "MultiPolygon","coordinates": [[[[31.6899,-21.0318,394.8608],[31.696,-21.0246,392.019],[31.7109,-21.0231,377.5554],[31.7324,-21.0147,366.1421],[31.7478,-21.0113,342.5518],[31.7481,-21.0096,350.061],[31.745,-21.0045,352.517],[31.6845,-21.0171,390.5153],[31.6849,-21.0251,395.229],[31.6889,-21.0269,398.3508],[31.6867,-21.0303,399.7889],[31.6899,-21.0318,394.8608]]]]}}