{"type": "Feature","bbox": [31.4552,-16.7331,31.5682,-16.659],"geometry": {"type": "MultiPolygon","coordinates": [[[[31.5577,-16.6901,930.7418],[31.5521,-16.689,929.4675],[31.545,-16.6815,925.7227],[31.5443,-16.6766,918.9357],[31.5472,-16.6737,936.7924],[31.5424,-16.6714,924.1252],[31.5457,-16.6634,935.3944],[31.542,-16.6648,935.0936],[31.5373,-16.6628,943.8212],[31.5342,-16.659,949.4364],[31.4552,-16.7109,991.9183],[31.4677,-16.7325,927.9668],[31.4691,-16.7298,940.4896],[31.4756,-16.7331,926.5784],[31.4755,-16.7311,939.6995],[31.4726,-16.7282,937.0183],[31.474,-16.7273,951.3774],[31.486,-16.7276,933.2079],[31.4922,-16.7294,943.9498],[31.508,-16.7273,943.1019],[31.519,-16.7272,918.3401],[31.522,-16.7287,924.215],[31.53,-16.7228,917.6396],[31.5405,-16.72,914.53],[31.5427,-16.7173,914.6455],[31.5495,-16.7147,915.1539],[31.5576,-16.7069,919.5933],[31.5682,-16.707,906.6959],[31.5682,-16.7017,923.2462],[31.5638,-16.6981,908.7489],[31.5648,-16.6936,914.9276],[31.5638,-16.6899,933.6935],[31.5577,-16.6901,930.7418]]]]}
,"properties": {"GID_3": "ZWE.4.7.14_2","GID_0": "ZWE","country": "Zimbabwe","GID_1": "ZWE.4_1","province": "MashonalandCentral","NL_NAME_1": "NA","GID_2": "ZWE.4.7_2","county": "MountDarwin","NL_NAME_2": "NA","city": "Ward21","VARNAME_3": "NA","NL_NAME_3": "NA","TYPE_3": "Ward","ENGTYPE_3": "Ward","CC_3": "NA","HASC_3": "NA","name": "Ward21.city","area_km2": 51.64276,"hist_schema_id": "Elevation0-9000","hist_area_km2": {"900": 0.42646,"925": 8.22465,"950": 17.18033,"975": 16.63204,"1000": 8.06231,"1025": 1.09666,"1050": 0.02031}}}