{"type": "Feature","bbox": [32.2498,-19.1141,32.566,-18.8618],"geometry": {"type": "MultiPolygon","coordinates": [[[[32.558,-18.9528,1417.7283],[32.5318,-18.9502,1254.0593],[32.5197,-18.9431,1243.8743],[32.504,-18.9418,1269.1687],[32.4663,-18.9469,1165.2576],[32.4479,-18.9559,1122.4727],[32.4191,-18.9591,1034.3223],[32.3961,-18.9658,958.5145],[32.3781,-18.9681,988.787],[32.3678,-18.943,1515.9495],[32.3955,-18.952,974.0647],[32.4019,-18.9492,970.1285],[32.4042,-18.9497,954.6763],[32.4093,-18.9433,957.1396],[32.4086,-18.9376,961.6372],[32.4142,-18.9294,964.3604],[32.4173,-18.9157,972.1382],[32.4213,-18.9129,961.283],[32.4216,-18.9015,963.1921],[32.4268,-18.8932,970.5419],[32.4266,-18.8872,974.7035],[32.3802,-18.8768,1115.2373],[32.3807,-18.8618,1210.2263],[32.3466,-18.8716,1122.735],[32.3312,-18.9035,1059.6858],[32.3006,-18.8767,1239.9386],[32.2606,-18.8635,1126.1522],[32.257,-18.8643,1126.5771],[32.2498,-18.8866,1088.9659],[32.2598,-18.9277,1143.6396],[32.2864,-18.9141,1135.1875],[32.2796,-18.9273,1175.5779],[32.2938,-18.9483,1188.6244],[32.2629,-18.9715,1458.719],[32.2741,-19.0022,1247.9919],[32.3013,-18.9858,1091.3751],[32.319,-18.9868,1122.4286],[32.3372,-19.027,1036.9952],[32.3411,-19.0452,1009.1538],[32.3275,-19.0539,1046.3014],[32.3222,-19.0555,1051.163],[32.3205,-19.0578,1060.0292],[32.3297,-19.0643,1171.4434],[32.347,-19.0651,1280.2683],[32.3703,-19.077,1440.1147],[32.3894,-19.0646,1126.0153],[32.4023,-19.0365,921.8415],[32.4093,-19.0409,916.5009],[32.4175,-19.0433,916.3212],[32.4259,-19.0395,910.3524],[32.4476,-19.053,881.6609],[32.4476,-19.0595,881.1483],[32.4397,-19.1024,875.4747],[32.4439,-19.1048,873.2321],[32.447,-19.1141,870.5483],[32.4531,-19.1136,869.7546],[32.4977,-19.0866,919.0768],[32.4697,-19.0286,980.1318],[32.4967,-19.0231,1008.3702],[32.5281,-19.0102,1070.545],[32.5219,-18.9727,1032.0834],[32.5283,-18.9691,1044.9983],[32.533,-18.9683,1054.4781],[32.5507,-18.9724,1095.2035],[32.5622,-18.971,1120.1791],[32.566,-18.9686,1108.7538],[32.558,-18.9528,1417.7283]]]]}
,"properties": {"GID_3": "ZWE.3.6.23_2","GID_0": "ZWE","country": "Zimbabwe","GID_1": "ZWE.3_1","province": "Manicaland","NL_NAME_1": "NA","GID_2": "ZWE.3.6_2","county": "Mutare","NL_NAME_2": "NA","city": "Ward3","VARNAME_3": "NA","NL_NAME_3": "NA","TYPE_3": "Ward","ENGTYPE_3": "Ward","CC_3": "NA","HASC_3": "NA","name": "Ward3.city","area_km2": 406.1743,"hist_schema_id": "Elevation0-9000","hist_area_km2": {"875": 2.745,"900": 6.1515,"925": 14.5094,"950": 34.9175,"975": 58.4596,"1000": 67.1027,"1025": 45.353,"1050": 34.3687,"1075": 32.7086,"1100": 33.7126,"1125": 30.0429,"1150": 18.2099,"1175": 8.6631,"1200": 4.8326,"1225": 3.8902,"1250": 2.3861,"1275": 1.8849,"1300": 1.3434,"1325": 1.2031,"1350": 0.7419,"1375": 0.802,"1400": 0.6818,"1425": 0.4612,"1450": 0.3609,"1475": 0.2807,"1500": 0.2406,"1525": 0.1003,"1550": 0.0201}}}