{"type": "Feature","bbox": [27.7858,-20.5931,27.8677,-20.491],"geometry": {"type": "MultiPolygon","coordinates": [[[[27.8677,-20.5259,1363.6537],[27.8224,-20.4976,1389.2935],[27.8143,-20.4945,1392.6788],[27.8114,-20.491,1393.8785],[27.8082,-20.5132,1358.6182],[27.8156,-20.515,1366.2134],[27.8054,-20.5401,1337.8103],[27.7858,-20.5634,1333.1332],[27.819,-20.5931,1295.9351],[27.8435,-20.5616,1315.8589],[27.8677,-20.5259,1363.6537]]]]}
,"properties": {"GID_3": "ZWE.9.9.1_2","GID_0": "ZWE","country": "Zimbabwe","GID_1": "ZWE.9_1","province": "MatabelelandSouth","NL_NAME_1": "NA","GID_2": "ZWE.9.9_2","county": "Plumtree","NL_NAME_2": "NA","city": "Ward1","VARNAME_3": "NA","NL_NAME_3": "NA","TYPE_3": "Ward","ENGTYPE_3": "Ward","CC_3": "NA","HASC_3": "NA","name": "Ward1.city","area_km2": 44.83017,"hist_schema_id": "Elevation0-9000","hist_area_km2": {"1275": 0.73443,"1300": 10.81865,"1325": 13.42084,"1350": 12.648,"1375": 6.91035,"1400": 0.2979}}}