{"type":"Feature","properties":{"GID_3":"ZWE.5.2.13_2","GID_0":"ZWE","country":"Zimbabwe","GID_1":"ZWE.5_1","province":"MashonalandEast","NL_NAME_1":"NA","GID_2":"ZWE.5.2_2","county":"Goromonzi","NL_NAME_2":"NA","city":"Ward20","VARNAME_3":"NA","NL_NAME_3":"NA","TYPE_3":"Ward","ENGTYPE_3":"Ward","CC_3":"NA","HASC_3":"NA","name":"Ward20.city"},
"geometry":{"type": "MultiPolygon","coordinates": [[[[31.3277,-17.8988,1536.5431],[31.3082,-17.9568,1563.3754],[31.3191,-17.9834,1524.1328],[31.3219,-18.0004,1510.3806],[31.3278,-18.01,1493.7277],[31.3288,-18.0304,1529.3435],[31.3336,-18.0236,1512.8047],[31.3525,-18.0211,1515.3197],[31.3698,-18.0418,1538.4127],[31.3738,-18.0174,1551.4346],[31.3999,-18.0347,1560.8344],[31.4019,-18.0143,1545.271],[31.4139,-18.0203,1518.2268],[31.4222,-18.0196,1497.6279],[31.4293,-18.0219,1481.4701],[31.4351,-18.018,1472.3118],[31.4417,-18.0227,1493.5135],[31.4521,-17.9892,1469.3145],[31.4656,-17.9931,1418.6602],[31.4714,-17.9845,1418.2014],[31.4713,-17.9821,1425.6277],[31.474,-17.9812,1405.4347],[31.4737,-17.9772,1425.6516],[31.489,-17.9746,1405.365],[31.493,-17.9759,1398.6215],[31.494,-17.9729,1408.2458],[31.4963,-17.9718,1411.7274],[31.4984,-17.9719,1409.0029],[31.5005,-17.9749,1395.1687],[31.5045,-17.9707,1398.5453],[31.5058,-17.9664,1407.7784],[31.5114,-17.9691,1388.4734],[31.5122,-17.9656,1417.5056],[31.5219,-17.9671,1378.0474],[31.5321,-17.9653,1364.9602],[31.5408,-17.9594,1387.1643],[31.5477,-17.9586,1356.75],[31.5549,-17.9504,1315.1316],[31.5472,-17.9442,1415.949],[31.5084,-17.9209,1359.0042],[31.5018,-17.9208,1362.1699],[31.4604,-17.9119,1293.4298],[31.4527,-17.9117,1311.0369],[31.4431,-17.9171,1317.5459],[31.4297,-17.9312,1325.5001],[31.4262,-17.9313,1333.4866],[31.4164,-17.9369,1369.7306],[31.4084,-17.9452,1348.4951],[31.4049,-17.9451,1352.8217],[31.3965,-17.9527,1358.537],[31.3944,-17.9528,1383.7272],[31.3836,-17.947,1385.3127],[31.3788,-17.9475,1380.2816],[31.378,-17.9442,1383.5492],[31.3742,-17.9421,1384.7703],[31.377,-17.9277,1469.6473],[31.3715,-17.9073,1514.4636],[31.3277,-17.8988,1536.5431]]]]}}