{"type": "Feature","bbox": [32.6347,-20.1871,32.6405,-20.1774],"geometry": {"type": "MultiPolygon","coordinates": [[[[32.6352,-20.1871,1083.4434],[32.6377,-20.1824,1114.9097],[32.6405,-20.1817,1111.5754],[32.6394,-20.178,1113.038],[32.6347,-20.1774,1167.2295],[32.6352,-20.1871,1083.4434]]]]}
,"properties": {"GID_3": "ZWE.3.4.3_2","GID_0": "ZWE","country": "Zimbabwe","GID_1": "ZWE.3_1","province": "Manicaland","NL_NAME_1": "NA","GID_2": "ZWE.3.4_2","county": "ChipingeUrban","NL_NAME_2": "NA","city": "Ward3","VARNAME_3": "NA","NL_NAME_3": "NA","TYPE_3": "Ward","ENGTYPE_3": "Ward","CC_3": "NA","HASC_3": "NA","name": "Ward3.city","area_km2": 0.3582092,"hist_schema_id": "Elevation0-9000","hist_area_km2": {"1100": 0.0796004,"1125": 0.2189063,"1150": 0.0597026}}}