{"type": "Feature","bbox": [28.4894,-21.4255,28.7477,-21.2277],"geometry": {"type": "MultiPolygon","coordinates": [[[[28.6204,-21.2277,983.8219],[28.5807,-21.2401,940.7729],[28.5864,-21.2441,938.8869],[28.5877,-21.25,933.3124],[28.5763,-21.2653,984.7336],[28.5603,-21.272,924.8569],[28.5376,-21.2641,905.2782],[28.5186,-21.2696,893.2241],[28.506,-21.2751,891.0457],[28.5014,-21.281,888.9566],[28.5005,-21.2983,877.7073],[28.5039,-21.3061,871.7946],[28.4979,-21.317,865.4631],[28.4914,-21.3236,862.1638],[28.49,-21.327,860.7292],[28.4907,-21.3304,863.3854],[28.4971,-21.3371,858.8111],[28.4985,-21.3424,860.4132],[28.4981,-21.3472,858.8594],[28.4911,-21.3524,854.9047],[28.4894,-21.3559,854.9595],[28.4942,-21.3689,851.922],[28.4961,-21.3838,848.9225],[28.4945,-21.3892,848.3481],[28.4969,-21.3921,850.6948],[28.5008,-21.3927,846.2126],[28.501,-21.4027,844.7389],[28.543,-21.4255,888.0592],[28.6245,-21.4252,886.7667],[28.7097,-21.3505,849.9769],[28.7477,-21.3338,865.2959],[28.747,-21.3293,853.5226],[28.6811,-21.2708,927.0321],[28.6951,-21.2399,978.1642],[28.6204,-21.2277,983.8219]]]]}
,"properties": {"GID_3": "ZWE.9.8.12_2","GID_0": "ZWE","country": "Zimbabwe","GID_1": "ZWE.9_1","province": "MatabelelandSouth","NL_NAME_1": "NA","GID_2": "ZWE.9.8_2","county": "Matobo","NL_NAME_2": "NA","city": "Ward2","VARNAME_3": "NA","NL_NAME_3": "NA","TYPE_3": "Ward","ENGTYPE_3": "Ward","CC_3": "NA","HASC_3": "NA","name": "Ward2.city","area_km2": 390.7293,"hist_schema_id": "Elevation0-9000","hist_area_km2": {"825": 1.5988,"850": 71.1142,"875": 136.8081,"900": 104.7312,"925": 56.2663,"950": 14.4816,"975": 3.6943,"1000": 1.1261,"1025": 0.5334,"1050": 0.3556,"1075": 0.0198}}}