{"type": "Feature","bbox": [29.121,-20.5715,29.2547,-20.378],"geometry": {"type": "MultiPolygon","coordinates": [[[[29.1822,-20.5641,940.1355],[29.1941,-20.5715,971.4303],[29.2007,-20.5714,987.5139],[29.1924,-20.5413,1051.2415],[29.2218,-20.5337,1119.05],[29.2353,-20.5077,1064.4622],[29.2348,-20.5054,1061.4878],[29.2382,-20.4983,1064.9124],[29.243,-20.4945,1062.5455],[29.2456,-20.4864,1065.6316],[29.2503,-20.4832,1065.9524],[29.2199,-20.4666,1084.6807],[29.231,-20.4593,1077.6405],[29.2466,-20.4607,1107.174],[29.2547,-20.4122,1100.9224],[29.2471,-20.3784,1114.2841],[29.2317,-20.378,1163.3741],[29.177,-20.4057,1072.7778],[29.1218,-20.411,1013.9857],[29.121,-20.4215,1011.6293],[29.1224,-20.424,1010.3123],[29.1259,-20.4227,1015.7343],[29.13,-20.4244,1012.0233],[29.1274,-20.429,1009.9864],[29.1279,-20.4399,1005.8861],[29.1348,-20.456,1007.1265],[29.1327,-20.4592,997.6687],[29.1282,-20.4602,1005.632],[29.1279,-20.4711,999.9263],[29.1268,-20.4743,997.3765],[29.1236,-20.4767,1000.3567],[29.1275,-20.4829,989.7065],[29.1249,-20.4887,984.5652],[29.1283,-20.499,979.364],[29.1261,-20.4995,984.1458],[29.1261,-20.501,986.1448],[29.1298,-20.5136,982.1131],[29.127,-20.525,970.3891],[29.1367,-20.5332,976.1837],[29.1535,-20.5562,971.2177],[29.1824,-20.5602,941.7889],[29.1822,-20.5641,940.1355]]]]}
,"properties": {"GID_3": "ZWE.9.6.8_2","GID_0": "ZWE","country": "Zimbabwe","GID_1": "ZWE.9_1","province": "MatabelelandSouth","NL_NAME_1": "NA","GID_2": "ZWE.9.6_2","county": "Insiza","NL_NAME_2": "NA","city": "Ward16","VARNAME_3": "NA","NL_NAME_3": "NA","TYPE_3": "Ward","ENGTYPE_3": "Ward","CC_3": "NA","HASC_3": "NA","name": "Ward16.city","area_km2": 198.1987,"hist_schema_id": "Elevation0-9000","hist_area_km2": {"950": 2.561,"975": 14.4341,"1000": 25.7363,"1025": 30.8857,"1050": 35.6166,"1075": 38.0799,"1100": 33.7958,"1125": 12.34,"1150": 3.7559,"1175": 0.8744,"1200": 0.0794,"1225": 0.0397}}}