{"type":"Feature","properties":{"GID_3":"ZWE.1.1.13_2","GID_0":"ZWE","country":"Zimbabwe","GID_1":"ZWE.1_1","province":"Bulawayo","NL_NAME_1":"NA","GID_2":"ZWE.1.1_2","county":"Bulawayo","NL_NAME_2":"NA","city":"Ward20","VARNAME_3":"NA","NL_NAME_3":"NA","TYPE_3":"Ward","ENGTYPE_3":"Ward","CC_3":"NA","HASC_3":"NA","name":"Ward20.city"},
"geometry":{"type": "MultiPolygon","coordinates": [[[[28.516,-20.1596,1391.0879],[28.5076,-20.1664,1394.6116],[28.5005,-20.1676,1385.1949],[28.4906,-20.1723,1373.3411],[28.481,-20.1908,1322.4192],[28.4833,-20.1914,1324.7614],[28.4882,-20.1888,1327.4373],[28.4958,-20.1897,1329.9313],[28.4956,-20.1866,1332.9363],[28.4982,-20.1816,1340.561],[28.5213,-20.1719,1377.6761],[28.5427,-20.1663,1364.9045],[28.5443,-20.1649,1353.1576],[28.5469,-20.1537,1353.6633],[28.5213,-20.1568,1387.968],[28.516,-20.1596,1391.0879]]]]}}