{"type":"Feature","properties":{"GID_3":"ZWE.10.9.10_2","GID_0":"ZWE","country":"Zimbabwe","GID_1":"ZWE.10_1","province":"Midlands","NL_NAME_1":"NA","GID_2":"ZWE.10.9_2","county":"Mberengwa","NL_NAME_2":"NA","city":"Ward18","VARNAME_3":"NA","NL_NAME_3":"NA","TYPE_3":"Ward","ENGTYPE_3":"Ward","CC_3":"NA","HASC_3":"NA","name":"Ward18.city"},
"geometry":{"type": "MultiPolygon","coordinates": [[[[30.148,-20.8166,770.0],[30.1527,-20.8216,770.0],[30.1578,-20.8229,770.4717],[30.1594,-20.8259,771.1444],[30.1672,-20.8278,770.0],[30.1687,-20.8328,770.0],[30.1816,-20.8424,752.0745],[30.1874,-20.8429,752.8217],[30.2059,-20.8586,740.0433],[30.2068,-20.8602,740.496],[30.2046,-20.8624,740.7339],[30.2107,-20.8674,750.0996],[30.213,-20.8724,735.5258],[30.2037,-20.8765,726.739],[30.2066,-20.8896,724.7494],[30.2085,-20.888,724.4837],[30.2094,-20.8826,736.4048],[30.2154,-20.8775,738.4418],[30.2281,-20.8774,755.2231],[30.2353,-20.8735,762.1031],[30.2386,-20.8684,765.5773],[30.237,-20.8639,758.9634],[30.2371,-20.8573,759.1532],[30.2382,-20.8497,764.8637],[30.2421,-20.8391,763.054],[30.2506,-20.8308,831.4853],[30.2539,-20.8306,748.4498],[30.257,-20.8282,741.4729],[30.2624,-20.8217,742.8787],[30.2582,-20.8176,743.1709],[30.2582,-20.8146,745.4635],[30.2565,-20.8148,744.6617],[30.2559,-20.8092,750.8683],[30.2516,-20.8063,751.748],[30.2499,-20.8001,756.6371],[30.244,-20.7962,764.5479],[30.2399,-20.7818,776.1287],[30.2266,-20.7702,806.4917],[30.2414,-20.7638,812.6425],[30.2557,-20.7602,758.4],[30.2512,-20.7525,839.8472],[30.2541,-20.7493,778.265],[30.2594,-20.7468,767.0076],[30.2551,-20.7452,787.5047],[30.2538,-20.7429,817.6705],[30.2509,-20.7432,767.8911],[30.2509,-20.7412,774.7356],[30.2482,-20.7405,774.865],[30.2467,-20.737,773.7073],[30.243,-20.7341,776.2629],[30.2407,-20.7333,777.9582],[30.2388,-20.7357,774.1038],[30.2354,-20.7352,780.4194],[30.2339,-20.7314,783.3705],[30.2215,-20.7375,791.4741],[30.2108,-20.7334,804.5148],[30.2039,-20.7367,814.4117],[30.1963,-20.7338,834.9712],[30.1941,-20.7382,827.5323],[30.1832,-20.7434,817.1531],[30.1713,-20.7555,805.9507],[30.1664,-20.7559,807.3959],[30.1645,-20.7582,801.012],[30.1657,-20.7642,803.1338],[30.1576,-20.771,788.9454],[30.1517,-20.7819,786.1278],[30.152,-20.7861,780.7439],[30.1561,-20.7868,785.2889],[30.1586,-20.7926,779.7163],[30.1487,-20.7964,774.9987],[30.1472,-20.8029,774.4865],[30.1491,-20.8057,782.5167],[30.148,-20.8086,775.14],[30.1494,-20.812,770.0],[30.1467,-20.8139,789.4141],[30.148,-20.8166,770.0]]]]}}