{"type":"Feature","properties":{"GID_3":"ZWE.3.5.9_2","GID_0":"ZWE","country":"Zimbabwe","GID_1":"ZWE.3_1","province":"Manicaland","NL_NAME_1":"NA","GID_2":"ZWE.3.5_2","county":"Makoni","NL_NAME_2":"NA","city":"Ward17","VARNAME_3":"NA","NL_NAME_3":"NA","TYPE_3":"Ward","ENGTYPE_3":"Ward","CC_3":"NA","HASC_3":"NA","name":"Ward17.city"},
"geometry":{"type": "MultiPolygon","coordinates": [[[[32.1211,-18.6709,1252.5088],[32.1275,-18.7464,1185.3224],[32.1221,-18.7616,1142.1425],[32.1289,-18.7592,1141.4454],[32.1316,-18.7558,1148.8536],[32.1351,-18.7553,1155.7908],[32.1424,-18.7633,1170.856],[32.1568,-18.7647,1179.7209],[32.174,-18.7693,1170.3647],[32.1691,-18.8099,1200.4285],[32.1632,-18.8113,1280.4023],[32.1326,-18.8251,1221.2544],[32.1419,-18.8389,1243.4734],[32.1398,-18.8533,1305.6682],[32.1131,-18.878,1148.5417],[32.122,-18.8985,1055.2065],[32.1631,-18.8891,1055.1161],[32.1652,-18.8901,1055.6951],[32.166,-18.8933,1048.7883],[32.164,-18.8973,1043.4537],[32.1656,-18.9022,1038.217],[32.2022,-18.9021,1025.7937],[32.2079,-18.8957,1028.3268],[32.2083,-18.8853,1044.7988],[32.2192,-18.8689,1055.5774],[32.2202,-18.8639,1051.6268],[32.2189,-18.8604,1052.9865],[32.2207,-18.8585,1059.5552],[32.2189,-18.852,1078.2251],[32.2156,-18.8517,1065.9757],[32.2163,-18.8481,1073.7385],[32.2127,-18.8445,1086.8167],[32.2137,-18.8408,1088.2592],[32.2113,-18.8373,1090.046],[32.2127,-18.8288,1095.5402],[32.1956,-18.8033,1123.7792],[32.2068,-18.7736,1363.4867],[32.2496,-18.7878,1217.5371],[32.2712,-18.7654,1299.0656],[32.2797,-18.7603,1393.6091],[32.3249,-18.7493,1201.2725],[32.3452,-18.7268,1316.5361],[32.3294,-18.7235,1281.2748],[32.3275,-18.6834,1160.858],[32.3232,-18.6827,1170.2966],[32.3204,-18.6802,1169.249],[32.3151,-18.6809,1178.4774],[32.3059,-18.6787,1191.4919],[32.3006,-18.6691,1211.8218],[32.2883,-18.6757,1291.6409],[32.2485,-18.6652,1495.2882],[32.2626,-18.6544,1462.653],[32.2533,-18.6283,1366.1281],[32.2432,-18.6367,1338.7703],[32.2377,-18.6384,1326.84],[32.2348,-18.6414,1317.3245],[32.2177,-18.6255,1349.9709],[32.2435,-18.6125,1424.3737],[32.2395,-18.6081,1506.7874],[32.2435,-18.5989,1442.1519],[32.2411,-18.5905,1402.3917],[32.2371,-18.5962,1380.5499],[32.2283,-18.6008,1371.996],[32.2266,-18.6033,1351.9158],[32.2196,-18.6065,1340.75],[32.2141,-18.6067,1336.8799],[32.2109,-18.6112,1324.3484],[32.2072,-18.6126,1323.1929],[32.2039,-18.6115,1320.6725],[32.196,-18.617,1313.5558],[32.1844,-18.6207,1311.1539],[32.1773,-18.6274,1308.0895],[32.1736,-18.6269,1303.8521],[32.1745,-18.6294,1298.165],[32.1674,-18.6372,1283.4727],[32.1571,-18.6394,1275.4121],[32.1511,-18.6434,1284.8143],[32.1501,-18.6468,1264.8339],[32.1441,-18.6521,1271.0038],[32.132,-18.6612,1261.9076],[32.1224,-18.6659,1259.5311],[32.1227,-18.6704,1255.2661],[32.1211,-18.6709,1252.5088]],
[[32.1749,-18.7411,1193.4602],[32.1653,-18.732,1203.3466],[32.1502,-18.6844,1310.3116],[32.1844,-18.7042,1261.8427],[32.1936,-18.7163,1209.9962],[32.1875,-18.7258,1195.2865],[32.1843,-18.7279,1196.1089],[32.183,-18.7366,1182.0138],[32.1798,-18.7396,1180.9805],[32.1764,-18.7396,1189.3149],[32.1749,-18.7411,1193.4602]]]]}}