{"type": "Feature","bbox": [28.9006,-18.7092,29.1289,-18.5775],"geometry": {"type": "MultiPolygon","coordinates": [[[[28.9784,-18.5775,1155.2358],[28.9913,-18.5891,1157.2637],[28.9952,-18.5961,1148.3782],[28.9963,-18.6185,1142.754],[28.9675,-18.6172,1196.2334],[28.9581,-18.6201,1190.7322],[28.9509,-18.6169,1192.3835],[28.9387,-18.6275,1144.6761],[28.9012,-18.6443,1159.6285],[28.9047,-18.651,1147.5129],[28.9023,-18.6584,1127.0408],[28.9028,-18.6698,1104.6917],[28.9006,-18.6807,1087.4116],[28.9218,-18.7092,1107.271],[29.0019,-18.6805,1134.8547],[29.1255,-18.6334,1159.4194],[29.1289,-18.6123,1172.9783],[29.0903,-18.5786,1210.1505],[29.0086,-18.5805,1201.6509],[28.9784,-18.5775,1155.2358]]]]}
,"properties": {"GID_3": "ZWE.8.6.1_2","GID_0": "ZWE","country": "Zimbabwe","GID_1": "ZWE.8_1","province": "MatabelelandNorth","NL_NAME_1": "NA","GID_2": "ZWE.8.6_2","county": "Nkayi","NL_NAME_2": "NA","city": "Ward1","VARNAME_3": "NA","NL_NAME_3": "NA","TYPE_3": "Ward","ENGTYPE_3": "Ward","CC_3": "NA","HASC_3": "NA","name": "Ward1.city","area_km2": 192.5665,"hist_schema_id": "Elevation0-9000","hist_area_km2": {"1075": 0.2812,"1100": 14.9234,"1125": 38.7479,"1150": 52.7753,"1175": 68.3556,"1200": 17.3224,"1225": 0.1608}}}