{"type": "Feature","bbox": [31.1169,-20.652,31.2199,-20.6087],"geometry": {"type": "MultiPolygon","coordinates": [[[[31.1786,-20.6438,574.0823],[31.1875,-20.6388,591.8647],[31.2196,-20.6263,568.9545],[31.2199,-20.6192,640.8487],[31.216,-20.6087,606.2028],[31.1809,-20.6097,843.9158],[31.1338,-20.6249,908.1616],[31.1292,-20.6331,803.2925],[31.1229,-20.633,841.5752],[31.1232,-20.6391,835.4276],[31.13,-20.64,814.9342],[31.1169,-20.6446,729.1426],[31.1225,-20.6504,687.3861],[31.1382,-20.6455,670.959],[31.1648,-20.652,562.6724],[31.1753,-20.643,599.8555],[31.1786,-20.6438,574.0823]]]]}
,"properties": {"GID_3": "ZWE.7.6.29_2","GID_0": "ZWE","country": "Zimbabwe","GID_1": "ZWE.7_1","province": "Masvingo","NL_NAME_1": "NA","GID_2": "ZWE.7.6_2","county": "Masvingo","NL_NAME_2": "NA","city": "Ward35","VARNAME_3": "NA","NL_NAME_3": "NA","TYPE_3": "Ward","ENGTYPE_3": "Ward","CC_3": "NA","HASC_3": "NA","name": "Ward35.city","area_km2": 29.78393,"hist_schema_id": "Elevation0-9000","hist_area_km2": {"575": 0.6151,"600": 2.46042,"625": 5.07959,"650": 6.40907,"675": 3.75028,"700": 2.55978,"725": 1.74622,"750": 1.52795,"775": 1.15094,"800": 1.30967,"825": 1.2501,"850": 1.07154,"875": 0.67468,"900": 0.17859}}}