{"type":"Feature","properties":{"GID_3":"ZWE.5.2.24_2","GID_0":"ZWE","country":"Zimbabwe","GID_1":"ZWE.5_1","province":"MashonalandEast","NL_NAME_1":"NA","GID_2":"ZWE.5.2_2","county":"Goromonzi","NL_NAME_2":"NA","city":"Ward8","VARNAME_3":"NA","NL_NAME_3":"NA","TYPE_3":"Ward","ENGTYPE_3":"Ward","CC_3":"NA","HASC_3":"NA","name":"Ward8.city"},
"geometry":{"type": "MultiPolygon","coordinates": [[[[31.2907,-17.6415,1416.8356],[31.2835,-17.6919,1282.3704],[31.2583,-17.6934,1304.8005],[31.2568,-17.6979,1305.2772],[31.2516,-17.7034,1317.2449],[31.2561,-17.7123,1285.1064],[31.2602,-17.7153,1286.6902],[31.2663,-17.7146,1285.3398],[31.267,-17.7172,1282.6689],[31.2691,-17.7176,1281.5071],[31.278199999999998,-17.7142,1278.5299],[31.2803,-17.718,1274.0969],[31.285,-17.7214,1270.2832],[31.2908,-17.7219,1272.3695],[31.2932,-17.724,1268.5334],[31.2952,-17.7224,1270.4045],[31.2967,-17.7252,1268.5485],[31.309,-17.7248,1258.6331],[31.3121,-17.7272,1253.886],[31.3096,-17.7299,1259.4877],[31.3098,-17.7323,1264.787],[31.3147,-17.7394,1279.7444],[31.3307,-17.7358,1358.1067],[31.3544,-17.7432,1293.6375],[31.3553,-17.7407,1286.5935],[31.3765,-17.7309,1260.288],[31.3672,-17.7154,1238.5796],[31.3832,-17.7147,1254.3936],[31.3784,-17.7048,1269.5942],[31.3848,-17.6747,1316.6572],[31.3578,-17.6617,1232.6797],[31.3745,-17.6287,1390.7994],[31.3352,-17.6083,1383.9525],[31.3086,-17.6434,1479.9636],[31.2907,-17.6415,1416.8356]]]]}}