{"type":"Feature","properties":{"GID_3":"ZWE.8.5.11_2","GID_0":"ZWE","country":"Zimbabwe","GID_1":"ZWE.8_1","province":"MatabelelandNorth","NL_NAME_1":"NA","GID_2":"ZWE.8.5_2","county":"Lupane","NL_NAME_2":"NA","city":"Ward19","VARNAME_3":"NA","NL_NAME_3":"NA","TYPE_3":"Ward","ENGTYPE_3":"Ward","CC_3":"NA","HASC_3":"NA","name":"Ward19.city"},
"geometry":{"type": "MultiPolygon","coordinates": [[[[27.8523,-19.0236,983.5212],[27.8551,-19.0289,977.0766],[27.8655,-19.0332,970.8658],[27.8801,-19.0423,977.5581],[27.8885,-19.0453,975.6417],[27.9207,-19.0677,979.2159],[27.9378,-19.092,985.182],[27.9535,-19.0975,986.5525],[27.9634,-19.1055,1006.8997],[27.9691,-19.1081,1013.2554],[27.9733,-19.0951,990.2084],[27.9707,-19.0547,1060.8319],[28.0836,-19.0889,1090.2211],[28.085,-19.0159,1015.2145],[28.087,-19.0122,1008.6041],[28.0862,-19.0098,1008.2361],[28.084,-19.0087,1009.558],[28.0799,-19.011,1007.5152],[28.0746,-19.0078,1011.1819],[28.0703,-19.0099,1005.511],[28.058,-19.0089,1005.0101],[28.0503,-19.011,1006.1025],[28.0305,-19.0044,1002.5813],[28.0222,-19.004,998.3632],[28.0184,-18.9993,1007.1541],[28.018,-18.9952,1017.2102],[28.0254,-18.9816,1078.5967],[28.0235,-18.9745,1074.9692],[28.0056,-18.9791,1076.9536],[28.0019,-18.9817,1080.5448],[27.9598,-18.9893,1066.8595],[27.9274,-18.9848,1046.998],[27.9228,-18.9855,1045.1239],[27.9035,-18.996,989.2361],[27.8961,-18.9941,976.4607],[27.8853,-18.9947,971.5858],[27.8523,-19.0236,983.5212]]]]}}