{"type":"Feature","properties":{"GID_3":"ZWE.8.3.20_2","GID_0":"ZWE","country":"Zimbabwe","GID_1":"ZWE.8_1","province":"MatabelelandNorth","NL_NAME_1":"NA","GID_2":"ZWE.8.3_2","county":"Hwange","NL_NAME_2":"NA","city":"Ward9","VARNAME_3":"NA","NL_NAME_3":"NA","TYPE_3":"Ward","ENGTYPE_3":"Ward","CC_3":"NA","HASC_3":"NA","name":"Ward9.city"},
"geometry":{"type": "MultiPolygon","coordinates": [[[[26.504,-18.2687,642.8865],[26.5166,-18.2502,644.8845],[26.515,-18.2435,646.9791],[26.5552,-18.2025,654.8887],[26.5429,-18.1948,652.914],[26.5359,-18.1882,657.7517],[26.5301,-18.1792,675.4529],[26.5271,-18.1592,694.9352],[26.5216,-18.1583,675.5563],[26.5173,-18.1555,668.4689],[26.5152,-18.153,629.5674],[26.5152,-18.1481,724.324],[26.5096,-18.1466,624.39],[26.5019,-18.137,599.0394],[26.4983,-18.14,654.5864],[26.4883,-18.1561,609.9841],[26.4616,-18.155,568.4415],[26.4577,-18.164,596.2607],[26.4517,-18.1562,634.874],[26.4459,-18.1547,602.9841],[26.4359,-18.1542,616.2584],[26.4312,-18.1607,625.8633],[26.4249,-18.1596,652.2253],[26.4142,-18.1626,620.4752],[26.4102,-18.1613,619.1353],[26.4094,-18.1596,645.1332],[26.415,-18.1541,624.198],[26.4134,-18.1523,617.1946],[26.4019,-18.1528,667.0515],[26.3943,-18.156,631.5064],[26.3825,-18.1542,628.4611],[26.3694,-18.1552,639.8265],[26.3568,-18.1609,645.093],[26.3403,-18.1521,712.9825],[26.3379,-18.1599,658.061],[26.329,-18.1616,669.6918],[26.3235,-18.1651,660.3993],[26.3188,-18.1625,705.9718],[26.3108,-18.1646,676.1944],[26.3071,-18.1576,692.5916],[26.3071,-18.1541,680.8291],[26.3019,-18.1526,712.2535],[26.2924,-18.1626,684.1862],[26.2835,-18.1628,694.8103],[26.273,-18.1655,708.5898],[26.2651,-18.1775,695.5836],[26.2503,-18.1738,744.0397],[26.2456,-18.1766,715.1165],[26.2347,-18.175,763.066],[26.232,-18.1778,750.5843],[26.3367,-18.2541,917.1932],[26.3876,-18.2631,825.0348],[26.4358,-18.2987,697.0739],[26.4348,-18.2997,680.489],[26.4361,-18.3014,680.1776],[26.4528,-18.3096,695.2142],[26.4493,-18.3119,698.3759],[26.4521,-18.3149,717.215],[26.4731,-18.315,718.3129],[26.504,-18.2687,642.8865]]]]}}