{"type": "Feature","bbox": [29.964,-20.9603,30.0753,-20.8551],"geometry": {"type": "MultiPolygon","coordinates": [[[[30.0595,-20.9603,734.6478],[30.066,-20.9561,734.6884],[30.0664,-20.9514,737.7656],[30.0696,-20.9489,742.6373],[30.0686,-20.9471,743.2587],[30.0716,-20.9475,744.6457],[30.0745,-20.9454,743.3224],[30.0748,-20.9353,747.4314],[30.07,-20.9273,752.5707],[30.0728,-20.9167,763.5875],[30.0753,-20.9161,761.6509],[30.0747,-20.9103,764.2043],[30.072,-20.9056,768.5968],[30.0734,-20.9035,769.7321],[30.0662,-20.8926,778.2119],[30.0669,-20.8896,779.5186],[30.0648,-20.8874,782.4133],[30.0658,-20.8808,788.1272],[30.063,-20.875,796.262],[30.065,-20.8696,803.1886],[30.0673,-20.8685,802.5226],[30.0652,-20.8634,811.1028],[30.0606,-20.8618,815.2041],[30.0556,-20.8559,876.6965],[30.0523,-20.8551,827.594],[30.0278,-20.8659,977.865],[30.0012,-20.8822,906.1339],[29.9972,-20.8811,853.4829],[29.9891,-20.884,823.883],[29.9852,-20.8863,824.2582],[29.9761,-20.8962,863.5129],[29.964,-20.9038,822.4312],[29.966,-20.9109,789.063],[29.9711,-20.9094,791.7135],[29.9876,-20.9114,771.0468],[29.9911,-20.9181,769.8226],[30.0492,-20.9593,734.9922],[30.0595,-20.9603,734.6478]]]]}
,"properties": {"GID_3": "ZWE.10.9.21_2","GID_0": "ZWE","country": "Zimbabwe","GID_1": "ZWE.10_1","province": "Midlands","NL_NAME_1": "NA","GID_2": "ZWE.10.9_2","county": "Mberengwa","NL_NAME_2": "NA","city": "Ward28","VARNAME_3": "NA","NL_NAME_3": "NA","TYPE_3": "Ward","ENGTYPE_3": "Ward","CC_3": "NA","HASC_3": "NA","name": "Ward28.city","area_km2": 74.49135,"hist_schema_id": "Elevation0-9000","hist_area_km2": {"725": 0.6732,"750": 12.79229,"775": 24.67723,"800": 15.88557,"825": 7.78492,"850": 3.46653,"875": 2.31771,"900": 2.11959,"925": 1.48575,"950": 1.18861,"975": 0.75279,"1000": 0.59432,"1025": 0.39622,"1050": 0.21793,"1075": 0.07925,"1100": 0.05944}}}