{"type":"Feature","properties":{"GID_3":"ZWE.7.2.30_2","GID_0":"ZWE","country":"Zimbabwe","GID_1":"ZWE.7_1","province":"Masvingo","NL_NAME_1":"NA","GID_2":"ZWE.7.2_2","county":"Chiredzi","NL_NAME_2":"NA","city":"Ward7","VARNAME_3":"NA","NL_NAME_3":"NA","TYPE_3":"Ward","ENGTYPE_3":"Ward","CC_3":"NA","HASC_3":"NA","name":"Ward7.city"},
"geometry":{"type": "MultiPolygon","coordinates": [[[[31.5154,-21.4105,425.7614],[31.5301,-21.398,419.9278],[31.5549,-21.3907,413.1155],[31.6388,-21.3929,409.7091],[31.6364,-21.3769,403.917],[31.6376,-21.3694,402.215],[31.6338,-21.3644,396.2921],[31.6315,-21.3367,377.7448],[31.6501,-21.2905,354.0097],[31.6519,-21.2493,332.0887],[31.6586,-21.2216,319.9912],[31.63,-21.2124,330.0556],[31.6084,-21.2097,317.9539],[31.6055,-21.2129,313.1373],[31.6034,-21.2118,332.023],[31.6027,-21.2138,329.3353],[31.6016,-21.2112,334.6076],[31.5955,-21.2118,332.913],[31.5912,-21.2176,335.9614],[31.5924,-21.2213,338.0764],[31.588,-21.2337,341.9583],[31.5828,-21.2353,345.5928],[31.584,-21.2385,343.6578],[31.5742,-21.2426,348.3848],[31.5633,-21.2435,351.6898],[31.5587,-21.249,350.5082],[31.5554,-21.2494,353.2116],[31.5496,-21.2541,353.7765],[31.5396,-21.2559,359.1746],[31.5285,-21.2606,359.3283],[31.5255,-21.2655,361.0115],[31.5224,-21.2664,361.3456],[31.5184,-21.2651,362.2899],[31.5117,-21.2669,364.9033],[31.5081,-21.2729,365.3588],[31.5072,-21.2853,371.1662],[31.5012,-21.2917,370.0021],[31.5063,-21.3074,377.955],[31.5035,-21.317,386.7892],[31.5033,-21.3256,391.5959],[31.5001,-21.3354,390.8778],[31.5039,-21.3435,390.5929],[31.5008,-21.362,398.4466],[31.5033,-21.3676,402.512],[31.5085,-21.3734,407.2927],[31.5052,-21.383,413.2425],[31.5051,-21.3907,414.1763],[31.5154,-21.4105,425.7614]]]]}}