{"type":"Feature","properties":{"GID_3":"ZWE.5.11.3_2","GID_0":"ZWE","country":"Zimbabwe","GID_1":"ZWE.5_1","province":"MashonalandEast","NL_NAME_1":"NA","GID_2":"ZWE.5.11_2","county":"UzumbaMarambaPfungwe","NL_NAME_2":"NA","city":"Ward11","VARNAME_3":"NA","NL_NAME_3":"NA","TYPE_3":"Ward","ENGTYPE_3":"Ward","CC_3":"NA","HASC_3":"NA","name":"Ward11.city"},
"geometry":{"type": "MultiPolygon","coordinates": [[[[32.0839,-17.334,941.3134],[32.0814,-17.3277,1004.1281],[32.0705,-17.3151,948.3467],[32.0669,-17.3072,935.7612],[32.0645,-17.3065,924.3398],[32.062,-17.3029,927.8695],[32.0591,-17.295,930.1732],[32.0394,-17.2752,906.7456],[32.0383,-17.2672,895.2266],[32.0394,-17.2603,886.4753],[32.0365,-17.2551,870.8102],[32.037,-17.2468,875.6185],[32.0377,-17.2439,963.5735],[32.0405,-17.2424,889.9023],[32.041,-17.2349,865.4695],[32.0296,-17.2212,769.4148],[32.029,-17.216,769.162],[32.0194,-17.216,847.5011],[32.0054,-17.2206,902.4203],[31.9965,-17.221,921.6017],[31.9832,-17.2242,877.5196],[31.9764,-17.227,883.2534],[31.9748,-17.2305,880.4451],[31.9655,-17.2345,912.613],[31.9605,-17.2385,904.6544],[31.9615,-17.2419,895.5906],[31.9593,-17.245,924.215],[31.9605,-17.2476,905.2759],[31.9559,-17.2557,932.1814],[31.9678,-17.2812,978.6606],[31.97,-17.2927,1000.4941],[31.9751,-17.3048,1035.1617],[31.9842,-17.3177,1020.22],[31.9621,-17.3317,1027.6338],[31.9523,-17.3327,1058.3373],[31.9537,-17.3382,1054.938],[31.9622,-17.3539,1134.8131],[31.9658,-17.3722,1180.7887],[31.9761,-17.3834,1270.9565],[31.9829,-17.3842,1144.5322],[31.9994,-17.3758,1279.947],[32.0073,-17.3603,1156.866],[32.0162,-17.3488,1236.3461],[32.0287,-17.3535,1069.6071],[32.0365,-17.3628,1002.8664],[32.0415,-17.3608,998.7286],[32.0486,-17.3609,982.1022],[32.0633,-17.3441,1008.2618],[32.0682,-17.3461,969.9929],[32.0697,-17.3438,967.6562],[32.0738,-17.3465,953.8171],[32.0813,-17.3403,946.9963],[32.0839,-17.334,941.3134]]]]}}