{"type":"Feature","properties":{"GID_3":"ZWE.10.5.10_2","GID_0":"ZWE","country":"Zimbabwe","GID_1":"ZWE.10_1","province":"Midlands","NL_NAME_1":"NA","GID_2":"ZWE.10.5_2","county":"Gweru","NL_NAME_2":"NA","city":"Ward18","VARNAME_3":"NA","NL_NAME_3":"NA","TYPE_3":"Ward","ENGTYPE_3":"Ward","CC_3":"NA","HASC_3":"NA","name":"Ward18.city"},
"geometry":{"type": "MultiPolygon","coordinates": [[[[29.7463,-19.4661,1427.7927],[29.7108,-19.4749,1381.7667],[29.7281,-19.564,1435.0256],[29.7281,-19.5744,1421.8901],[29.7366,-19.5881,1413.7876],[29.7677,-19.6054,1382.9189],[29.7709,-19.6255,1386.2565],[29.774,-19.6301,1373.953],[29.7889,-19.6473,1361.5302],[29.8172,-19.6732,1340.9718],[29.8324,-19.6367,1310.266],[29.8286,-19.6107,1336.6554],[29.856,-19.5503,1409.9119],[29.9063,-19.547,1434.8132],[29.9379,-19.5475,1457.1775],[29.9537,-19.5264,1469.7047],[29.9941,-19.5067,1458.1802],[30.0178,-19.5144,1429.0913],[30.0336,-19.4858,1444.5901],[30.0517,-19.4286,1409.8461],[30.0114,-19.4443,1430.2937],[29.9664,-19.4183,1398.2284],[29.911,-19.4536,1464.1622],[29.8996,-19.4445,1451.095],[29.8855,-19.4466,1437.0144],[29.8845,-19.4436,1441.6067],[29.8812,-19.4442,1441.6404],[29.8763,-19.4527,1427.6359],[29.8781,-19.4733,1417.9686],[29.8675,-19.4691,1414.4893],[29.8661,-19.4766,1426.6732],[29.8713,-19.4799,1426.2521],[29.8671,-19.4866,1437.6422],[29.8727,-19.4927,1443.3457],[29.8691,-19.496,1446.1238],[29.8653,-19.5057,1434.9246],[29.8518,-19.5061,1439.5544],[29.8492,-19.4994,1436.8564],[29.8468,-19.4976,1437.5791],[29.8412,-19.5063,1424.0605],[29.834,-19.5061,1424.8871],[29.8242,-19.4956,1441.3608],[29.815,-19.507,1419.454],[29.7865,-19.5073,1407.3342],[29.7845,-19.4994,1407.1315],[29.7619,-19.54,1384.7009],[29.7506,-19.4821,1395.9353],[29.7456,-19.4751,1411.7841],[29.7507,-19.4721,1407.2096],[29.7463,-19.4661,1427.7927]]]]}}