{"type": "Feature","bbox": [26.3527,-18.4839,26.5885,-18.1913],"geometry": {"type": "MultiPolygon","coordinates": [[[[26.5252,-18.4222,829.7659],[26.528,-18.4199,820.2264],[26.534,-18.4183,807.3829],[26.5367,-18.4139,803.1473],[26.5363,-18.4096,813.43],[26.5419,-18.404,798.6404],[26.5454,-18.3836,785.7241],[26.5484,-18.3795,770.0823],[26.5483,-18.3702,774.6859],[26.5513,-18.3629,749.2742],[26.5465,-18.3565,746.5991],[26.5466,-18.3509,745.3373],[26.5427,-18.3446,756.8323],[26.5457,-18.3431,754.2695],[26.546,-18.3405,747.7191],[26.5466,-18.2775,782.301],[26.5326,-18.2619,700.4921],[26.5336,-18.2463,650.1748],[26.5661,-18.2103,624.5394],[26.5885,-18.1947,577.5186],[26.5876,-18.1938,574.3444],[26.5809,-18.1948,588.9507],[26.5714,-18.1913,656.5385],[26.5552,-18.2025,654.8887],[26.515,-18.2435,646.9791],[26.5166,-18.2502,644.8845],[26.4731,-18.315,718.3129],[26.4521,-18.3149,717.215],[26.4493,-18.3119,698.3759],[26.4432,-18.3146,706.0823],[26.4418,-18.3215,703.5325],[26.4389,-18.3238,701.4745],[26.4312,-18.3242,727.2347],[26.4239,-18.3268,706.4346],[26.4124,-18.3377,697.8002],[26.4186,-18.3421,707.437],[26.3842,-18.372,717.1582],[26.3527,-18.3947,765.6665],[26.3929,-18.4839,923.6328],[26.4841,-18.4464,900.3673],[26.4994,-18.4445,833.303],[26.5035,-18.4513,821.4004],[26.5082,-18.4509,859.1669],[26.5155,-18.4458,809.3508],[26.5156,-18.4404,808.4972],[26.5224,-18.433,814.0623],[26.5252,-18.4222,829.7659]]]]}
,"properties": {"GID_2": "ZWE.8.4_2","GID_0": "ZWE","country": "Zimbabwe","GID_1": "ZWE.8_1","province": "MatabelelandNorth","NL_NAME_1": "NA","county": "HwangeUrban","VARNAME_2": "NA","NL_NAME_2": "NA","TYPE_2": "District","ENGTYPE_2": "District","CC_2": "NA","HASC_2": "NA","name": "Hwange_Urban.county","area_km2": 310.3946,"hist_schema_id": "Elevation0-9000","hist_area_km2": {"575": 0.9064,"600": 3.5043,"625": 7.3904,"650": 9.5639,"675": 4.1875,"700": 15.84,"725": 32.1984,"750": 48.2121,"775": 47.0813,"800": 42.6523,"825": 28.4278,"850": 19.5959,"875": 20.4196,"900": 10.6424,"925": 4.9087,"950": 7.1203,"975": 6.3352,"1000": 0.5029,"1025": 0.4225,"1050": 0.3822,"1075": 0.1006}}}