{"type": "Feature","bbox": [32.7298,-20.3025,32.8712,-20.075],"geometry": {"type": "MultiPolygon","coordinates": [[[[32.8642,-20.2599,912.4317],[32.8662,-20.2517,937.944],[32.8665,-20.24,881.0539],[32.8627,-20.2358,892.7733],[32.8488,-20.2311,953.7621],[32.8401,-20.2235,860.5353],[32.8389,-20.2193,833.2343],[32.8427,-20.2054,932.5748],[32.8468,-20.2003,1004.8614],[32.8495,-20.1997,961.7692],[32.8485,-20.1936,992.8242],[32.8598,-20.1893,1072.5549],[32.8712,-20.1876,1064.6033],[32.8708,-20.1803,1093.5391],[32.8559,-20.1607,1102.8118],[32.8573,-20.1504,1101.7854],[32.8504,-20.1471,1024.2567],[32.8227,-20.1188,974.6881],[32.7991,-20.1128,1122.3363],[32.7917,-20.075,661.2428],[32.7298,-20.0898,1093.0371],[32.7509,-20.122,1120.9388],[32.7708,-20.1755,1097.1805],[32.7622,-20.1762,1092.66],[32.7589,-20.2001,983.0054],[32.7553,-20.203,921.311],[32.7779,-20.2091,1025.8901],[32.7832,-20.2321,1021.5746],[32.7462,-20.23,812.1628],[32.7414,-20.2498,885.42],[32.7364,-20.2606,832.7259],[32.7376,-20.2624,781.5079],[32.7371,-20.2692,755.1024],[32.744,-20.2742,759.9537],[32.7471,-20.2742,746.8248],[32.7488,-20.273,759.7113],[32.748,-20.2702,768.8788],[32.7549,-20.2684,741.3651],[32.7568,-20.2662,780.7296],[32.7633,-20.2674,796.8969],[32.7591,-20.2616,813.8385],[32.7664,-20.2613,730.2076],[32.7749,-20.2657,726.2678],[32.7771,-20.2603,793.7639],[32.7793,-20.2592,796.9346],[32.7769,-20.2748,913.3512],[32.798,-20.3025,777.787],[32.8275,-20.2771,800.8921],[32.8393,-20.2801,708.3895],[32.8608,-20.2736,799.284],[32.8642,-20.2599,912.4317]]]]}
,"properties": {"GID_3": "ZWE.3.3.29_2","GID_0": "ZWE","country": "Zimbabwe","GID_1": "ZWE.3_1","province": "Manicaland","NL_NAME_1": "NA","GID_2": "ZWE.3.3_2","county": "Chipinge","NL_NAME_2": "NA","city": "Ward8","VARNAME_3": "NA","NL_NAME_3": "NA","TYPE_3": "Ward","ENGTYPE_3": "Ward","CC_3": "NA","HASC_3": "NA","name": "Ward8.city","area_km2": 204.5636,"hist_schema_id": "Elevation0-9000","hist_area_km2": {"625": 0.0199,"650": 0.1195,"675": 2.029,"700": 3.4412,"725": 5.5498,"750": 7.7977,"775": 11.5772,"800": 14.1638,"825": 13.5876,"850": 13.6284,"875": 10.068,"900": 10.3679,"925": 11.2639,"950": 13.9909,"975": 17.9916,"1000": 15.3252,"1025": 14.2307,"1050": 12.5192,"1075": 8.4396,"1100": 8.3006,"1125": 5.2352,"1150": 2.747,"1175": 1.6521,"1200": 0.5176}}}