{"type":"Feature","properties":{"GID_3":"ZWE.3.9.27_2","GID_0":"ZWE","country":"Zimbabwe","GID_1":"ZWE.3_1","province":"Manicaland","NL_NAME_1":"NA","GID_2":"ZWE.3.9_2","county":"Nyanga","NL_NAME_2":"NA","city":"Ward5","VARNAME_3":"NA","NL_NAME_3":"NA","TYPE_3":"Ward","ENGTYPE_3":"Ward","CC_3":"NA","HASC_3":"NA","name":"Ward5.city"},
"geometry":{"type": "MultiPolygon","coordinates": [[[[33.0106,-17.7224,800.0596],[33.0114,-17.7158,853.1066],[33.0202,-17.7203,803.0781],[33.0143,-17.7139,869.305],[33.012,-17.7021,944.2104],[33.0179,-17.6712,767.8683],[33.0262,-17.6474,804.5109],[33.039,-17.636,907.0748],[33.0421,-17.6266,853.4164],[33.0415,-17.6126,904.4257],[33.0432,-17.6034,770.5533],[33.0342,-17.5914,804.9582],[33.0092,-17.5687,695.8657],[32.99,-17.5668,818.1147],[32.9814,-17.5628,646.6828],[32.976,-17.5518,653.4132],[32.9737,-17.5423,606.2737],[32.9638,-17.5286,593.6591],[32.9583,-17.5321,606.5181],[32.9542,-17.5315,608.119],[32.9501,-17.5337,614.7648],[32.949,-17.5364,617.7522],[32.9498,-17.5485,629.3195],[32.9441,-17.5582,643.7637],[32.9435,-17.5623,640.6173],[32.9391,-17.5606,642.2614],[32.9382,-17.5644,649.0709],[32.929,-17.5645,665.9606],[32.9282,-17.5703,671.7648],[32.9267,-17.5712,671.4026],[32.9252,-17.5694,673.0054],[32.9218,-17.5722,676.0737],[32.9164,-17.5722,681.0989],[32.9164,-17.5744,678.9213],[32.9137,-17.5722,684.0151],[32.912,-17.5744,686.4667],[32.9043,-17.573,686.869],[32.8959,-17.5799,693.1401],[32.8921,-17.5895,737.3978],[32.899,-17.5993,726.1863],[32.9053,-17.6052,741.7264],[32.9031,-17.6097,735.418],[32.9056,-17.6106,733.5814],[32.9062,-17.6127,738.2622],[32.9017,-17.6225,746.5515],[32.907,-17.6305,767.0326],[32.9065,-17.6343,756.7266],[32.9086,-17.6437,772.3827],[32.907,-17.648,779.275],[32.9146,-17.6636,808.3696],[32.9111,-17.6719,822.7067],[32.9168,-17.6783,839.7428],[32.9394,-17.6733,1250.7529],[33.0019,-17.7262,953.0746],[33.0033,-17.7196,962.2532],[33.0106,-17.7224,800.0596]]]]}}