{"type":"Feature","properties":{"GID_3":"ZWE.4.10.23_2","GID_0":"ZWE","country":"Zimbabwe","GID_1":"ZWE.4_1","province":"MashonalandCentral","NL_NAME_1":"NA","GID_2":"ZWE.4.10_2","county":"Shamva","NL_NAME_2":"NA","city":"Ward3","VARNAME_3":"NA","NL_NAME_3":"NA","TYPE_3":"Ward","ENGTYPE_3":"Ward","CC_3":"NA","HASC_3":"NA","name":"Ward3.city"},
"geometry":{"type": "MultiPolygon","coordinates": [[[[31.613,-16.856,1305.0198],[31.5676,-16.89,1079.8585],[31.551,-16.914,1059.1885],[31.5349,-16.8982,1054.5],[31.5337,-16.8932,1063.6555],[31.5117,-16.8928,1092.4099],[31.5001,-16.8961,1047.8594],[31.475,-16.8999,1229.854],[31.4769,-16.9188,1100.4409],[31.4806,-16.9231,1116.7349],[31.4836,-16.9305,1124.1853],[31.4991,-16.933,1126.9969],[31.5199,-16.9337,1077.7262],[31.5246,-16.9358,1073.9785],[31.5226,-16.9413,1090.811],[31.534,-16.9418,1089.9965],[31.5466,-16.9524,1050.5962],[31.5619,-16.9533,1034.1096],[31.5632,-16.956,1026.4489],[31.5673,-16.9562,1036.8702],[31.5671,-16.9577,1018.0549],[31.5702,-16.9557,1027.4449],[31.5728,-16.9572,1007.8687],[31.613,-16.856,1305.0198]]]]}}