{"type":"Feature","properties":{"GID_3":"ZWE.9.4.24_2","GID_0":"ZWE","country":"Zimbabwe","GID_1":"ZWE.9_1","province":"MatabelelandSouth","NL_NAME_1":"NA","GID_2":"ZWE.9.4_2","county":"Gwanda","NL_NAME_2":"NA","city":"Ward9","VARNAME_3":"NA","NL_NAME_3":"NA","TYPE_3":"Ward","ENGTYPE_3":"Ward","CC_3":"NA","HASC_3":"NA","name":"Ward9.city"},
"geometry":{"type": "MultiPolygon","coordinates": [[[[28.8351,-21.1707,825.0253],[28.846,-21.1774,825.9681],[28.8555,-21.1804,822.6324],[28.8667,-21.1778,828.5435],[28.8713,-21.1782,810.2151],[28.8537,-21.1439,812.282],[28.8518,-21.1346,820.3716],[28.8467,-21.1295,817.8525],[28.8411,-21.1068,880.6673],[28.8375,-21.1027,837.5663],[28.8382,-21.0987,832.1834],[28.8294,-21.0766,846.5362],[28.8324,-21.0611,896.9691],[28.8167,-21.0099,947.4105],[28.7623,-20.9945,928.1674],[28.7426,-21.0155,952.0535],[28.7629,-21.0516,971.5242],[28.7199,-21.07,916.032],[28.7,-21.0361,925.8772],[28.6753,-21.0547,1006.0564],[28.6893,-21.0829,913.0779],[28.7036,-21.0771,892.4786],[28.7073,-21.0821,885.7271],[28.7236,-21.0886,880.1262],[28.7309,-21.0884,885.782],[28.7375,-21.0903,897.1976],[28.7463,-21.0946,873.1788],[28.7479,-21.0997,878.4717],[28.7678,-21.1054,869.4771],[28.7701,-21.1119,855.562],[28.7767,-21.1128,874.9547],[28.7811,-21.1199,856.3152],[28.8046,-21.1249,849.8159],[28.8059,-21.1271,850.5259],[28.8054,-21.1316,866.5527],[28.8191,-21.1508,851.2386],[28.8174,-21.1531,827.3066],[28.8328,-21.1632,823.0967],[28.8351,-21.1707,825.0253]]]]}}