{"type": "Feature","bbox": [30.1001,-17.8728,30.2171,-17.7066],"geometry": {"type": "MultiPolygon","coordinates": [[[[30.1665,-17.8535,1134.4673],[30.1665,-17.8511,1141.687],[30.169,-17.8491,1139.8674],[30.1695,-17.8402,1149.0089],[30.1652,-17.8322,1165.0222],[30.1684,-17.8286,1191.0437],[30.1719,-17.8275,1200.9135],[30.1732,-17.8241,1213.085],[30.1717,-17.8214,1214.8783],[30.1743,-17.8153,1220.6671],[30.1772,-17.8138,1221.7893],[30.177,-17.8068,1227.9626],[30.1794,-17.7993,1235.2896],[30.1766,-17.7928,1242.5791],[30.1787,-17.7819,1253.3802],[30.1765,-17.7758,1259.8428],[30.1772,-17.7727,1265.5409],[30.1789,-17.7685,1268.0736],[30.1837,-17.7646,1269.7317],[30.1888,-17.7632,1275.6764],[30.1915,-17.7571,1294.2195],[30.1969,-17.7541,1301.073],[30.2092,-17.7379,1330.1748],[30.2171,-17.7191,1313.0013],[30.2074,-17.7156,1314.0518],[30.2047,-17.7167,1318.9841],[30.2005,-17.7155,1320.4783],[30.199,-17.7134,1322.981],[30.1834,-17.7066,1308.0878],[30.1782,-17.7134,1294.7173],[30.1665,-17.7456,1299.5132],[30.1298,-17.757,1222.7876],[30.1236,-17.774,1184.3848],[30.1195,-17.7786,1174.2523],[30.1194,-17.7857,1161.285],[30.1168,-17.7871,1160.4694],[30.1173,-17.7893,1156.4586],[30.129,-17.7953,1178.6368],[30.1007,-17.8189,1127.7098],[30.1001,-17.859,1114.5476],[30.103,-17.8567,1113.0259],[30.1066,-17.8637,1102.4867],[30.1136,-17.8623,1103.1785],[30.1131,-17.8602,1104.9705],[30.1151,-17.8602,1107.4263],[30.119,-17.8622,1108.2637],[30.1214,-17.8674,1104.5887],[30.125,-17.8675,1112.9351],[30.1278,-17.8719,1108.8577],[30.1313,-17.8728,1111.4348],[30.1337,-17.8708,1110.7448],[30.1346,-17.8667,1121.3931],[30.1384,-17.8682,1115.5693],[30.1388,-17.8663,1116.1808],[30.1421,-17.8648,1120.6476],[30.148,-17.8584,1125.2017],[30.1491,-17.855,1129.3003],[30.1558,-17.8569,1131.9712],[30.1576,-17.854,1137.5349],[30.1623,-17.8523,1144.8119],[30.1665,-17.8535,1134.4673]]]]}
,"properties": {"GID_3": "ZWE.6.13.33_2","GID_0": "ZWE","country": "Zimbabwe","GID_1": "ZWE.6_1","province": "MashonalandWest","NL_NAME_1": "NA","GID_2": "ZWE.6.13_2","county": "Zvimba","NL_NAME_2": "NA","city": "Ward7","VARNAME_3": "NA","NL_NAME_3": "NA","TYPE_3": "Ward","ENGTYPE_3": "Ward","CC_3": "NA","HASC_3": "NA","name": "Ward7.city","area_km2": 99.92951,"hist_schema_id": "Elevation0-9000","hist_area_km2": {"1100": 2.70426,"1125": 18.72927,"1150": 12.35258,"1175": 8.96246,"1200": 5.73318,"1225": 7.93387,"1250": 10.01353,"1275": 9.67125,"1300": 14.35769,"1325": 9.47143}}}