{"type": "Feature","bbox": [29.48,-17.5918,29.699,-17.3546],"geometry": {"type": "MultiPolygon","coordinates": [[[[29.4824,-17.3966,864.7546],[29.4814,-17.3983,851.9802],[29.4847,-17.3998,872.4948],[29.4848,-17.402,856.7422],[29.4818,-17.4066,894.9465],[29.4818,-17.4114,910.3846],[29.4904,-17.412,929.8521],[29.4945,-17.4171,962.819],[29.4928,-17.4202,964.145],[29.4942,-17.4232,958.7872],[29.4933,-17.4297,950.4412],[29.4915,-17.4335,944.5824],[29.486,-17.4363,953.1906],[29.4863,-17.4373,953.1906],[29.491,-17.4389,926.7681],[29.5003,-17.4454,941.8052],[29.5043,-17.4445,933.6973],[29.5168,-17.4505,953.3151],[29.5247,-17.4492,944.3353],[29.528,-17.4558,936.9452],[29.5342,-17.4597,933.134],[29.5345,-17.4649,939.5208],[29.5398,-17.4698,967.8284],[29.5444,-17.4693,938.022],[29.5498,-17.4647,936.9716],[29.5584,-17.4609,948.9558],[29.5672,-17.4595,932.6962],[29.5609,-17.4655,927.8979],[29.5562,-17.473,914.528],[29.5484,-17.4779,920.5453],[29.5471,-17.4819,898.0658],[29.5442,-17.4843,889.5344],[29.5429,-17.489,889.3329],[29.5438,-17.4921,884.4249],[29.5374,-17.497,883.4056],[29.5384,-17.4991,867.5291],[29.5362,-17.5037,869.7146],[29.5338,-17.5036,860.7998],[29.5253,-17.5145,865.8721],[29.5279,-17.5162,869.2391],[29.5388,-17.5138,899.4992],[29.5403,-17.5155,860.4331],[29.5383,-17.5219,867.4604],[29.5406,-17.5268,887.5701],[29.5372,-17.5322,913.7585],[29.5375,-17.5427,882.0247],[29.5343,-17.5462,862.8768],[29.5354,-17.5484,860.7565],[29.5334,-17.5527,871.503],[29.5339,-17.561,852.2234],[29.5299,-17.5658,848.1417],[29.5336,-17.5769,835.253],[29.5306,-17.5817,839.1553],[29.5389,-17.59,827.3841],[29.5473,-17.5888,881.8812],[29.5499,-17.5905,890.1119],[29.554,-17.5902,843.9508],[29.5572,-17.5834,896.5623],[29.5589,-17.585,845.4218],[29.564,-17.5847,856.6914],[29.5661,-17.5868,836.923],[29.5655,-17.5909,843.5716],[29.5669,-17.5918,839.2744],[29.57,-17.5881,849.5662],[29.5779,-17.586,843.1091],[29.5771,-17.5837,856.3786],[29.58,-17.5827,860.7513],[29.5824,-17.5832,851.173],[29.5833,-17.5882,845.6027],[29.5867,-17.589,849.1729],[29.5882,-17.5828,849.7263],[29.5906,-17.5806,852.3474],[29.5879,-17.5781,852.8577],[29.5951,-17.5738,863.1821],[29.5997,-17.5731,906.9731],[29.5982,-17.5702,857.3353],[29.6028,-17.5682,852.6204],[29.6026,-17.5662,864.6445],[29.6052,-17.5655,1001.7582],[29.6072,-17.5683,879.3857],[29.6108,-17.5691,892.854],[29.6136,-17.5678,911.4716],[29.6177,-17.57,862.7291],[29.6181,-17.5664,869.2978],[29.623,-17.5662,863.7291],[29.6272,-17.5627,880.8506],[29.6275,-17.5606,871.6749],[29.6251,-17.5572,871.6747],[29.6291,-17.556,867.3316],[29.6298,-17.5577,864.6591],[29.6329,-17.5567,877.907],[29.6358,-17.5584,871.3988],[29.637,-17.5569,882.288],[29.6361,-17.5525,934.9091],[29.6404,-17.5538,875.0359],[29.6455,-17.5488,906.3304],[29.6452,-17.5466,904.5545],[29.6426,-17.5452,875.8208],[29.6443,-17.5421,890.9041],[29.6524,-17.5432,897.5445],[29.6528,-17.5412,896.6133],[29.6504,-17.5397,882.1504],[29.6526,-17.5385,885.8959],[29.6533,-17.5336,907.9251],[29.6557,-17.5381,894.2963],[29.6603,-17.5374,954.243],[29.6648,-17.5399,892.7617],[29.6661,-17.5389,927.6693],[29.6652,-17.5338,931.3469],[29.6676,-17.5322,901.6017],[29.6694,-17.5328,901.6017],[29.6717,-17.5351,897.3821],[29.6716,-17.5427,907.3632],[29.6738,-17.5437,904.754],[29.6762,-17.5397,902.3064],[29.6803,-17.5378,902.4399],[29.6851,-17.5294,939.8974],[29.6943,-17.5305,911.4557],[29.699,-17.5286,939.7606],[29.606,-17.43,922.2699],[29.5569,-17.3755,939.3268],[29.5539,-17.3705,920.7695],[29.5365,-17.3546,942.1398],[29.5329,-17.3557,901.0304],[29.5301,-17.36,922.0645],[29.526,-17.3608,955.074],[29.5266,-17.3632,899.9607],[29.5294,-17.3625,898.3841],[29.5276,-17.3674,903.4774],[29.5247,-17.3637,926.9902],[29.5247,-17.3688,894.8357],[29.5216,-17.3659,912.985],[29.5208,-17.369,883.79],[29.5165,-17.3688,888.4393],[29.5161,-17.3726,883.9423],[29.5114,-17.3695,892.152],[29.5086,-17.3721,877.4214],[29.5101,-17.3756,885.7352],[29.5066,-17.3742,885.6905],[29.5048,-17.3754,905.4775],[29.5045,-17.386,889.6192],[29.4996,-17.3801,890.2097],[29.4997,-17.386,895.6111],[29.5025,-17.3878,893.1626],[29.5027,-17.3896,871.7303],[29.4918,-17.3857,884.3816],[29.4912,-17.3886,859.5999],[29.4879,-17.3866,898.6495],[29.4815,-17.3881,896.3371],[29.4819,-17.39,862.0221],[29.4847,-17.3911,857.4006],[29.4839,-17.3927,861.7797],[29.48,-17.3915,852.1183],[29.4841,-17.3953,862.0592],[29.4836,-17.397,864.7546],[29.4824,-17.3966,864.7546]]]]}
,"properties": {"GID_3": "ZWE.6.9.9_2","GID_0": "ZWE","country": "Zimbabwe","GID_1": "ZWE.6_1","province": "MashonalandWest","NL_NAME_1": "NA","GID_2": "ZWE.6.9_2","county": "Makonde","NL_NAME_2": "NA","city": "Ward17","VARNAME_3": "NA","NL_NAME_3": "NA","TYPE_3": "Ward","ENGTYPE_3": "Ward","CC_3": "NA","HASC_3": "NA","name": "Ward17.city","area_km2": 271.5548,"hist_schema_id": "Elevation0-9000","hist_area_km2": {"825": 0.3032,"850": 8.5307,"875": 25.9202,"900": 50.4736,"925": 76.4869,"950": 66.0127,"975": 36.8099,"1000": 6.5525,"1025": 0.4651}}}