{"type": "Feature","bbox": [28.0204,-17.2452,29.0555,-16.5191],"geometry": {"type": "MultiPolygon","coordinates": [[[[28.0475,-16.8833,483.5],[28.026,-16.89,483.5],[28.0298,-16.8962,483.5],[28.0288,-16.9259,483.5],[28.0309,-16.9365,483.5],[28.0331,-16.9387,483.5],[28.033,-16.9489,483.5],[28.0204,-16.9805,483.5],[28.0212,-16.9848,483.5],[28.0291,-16.9976,483.5],[28.0401,-17.0079,483.5],[28.0326,-17.0193,483.5],[28.0476,-17.023,483.5],[28.0653,-17.0229,483.5],[28.0677,-17.0261,483.5],[28.0639,-17.0318,483.5],[28.047,-17.045,483.5],[28.0468,-17.0494,483.5],[28.0528,-17.0614,487.3823],[28.0553,-17.0581,483.5],[28.0643,-17.0557,483.5],[28.0685,-17.0528,483.5],[28.0711,-17.0532,489.3928],[28.0714,-17.0502,484.8259],[28.0767,-17.0485,483.5],[28.0802,-17.0503,492.1136],[28.0784,-17.0461,484.3182],[28.0844,-17.0435,489.0138],[28.086,-17.0432,486.1469],[28.0861,-17.0453,486.3821],[28.0878,-17.0433,483.5],[28.09,-17.0463,489.4222],[28.0898,-17.0428,483.5],[28.0934,-17.0447,489.2606],[28.0939,-17.0426,485.1064],[28.0964,-17.0456,487.7944],[28.0968,-17.0431,483.5],[28.099,-17.0453,491.9137],[28.0975,-17.0389,484.7598],[28.0994,-17.0388,484.7598],[28.1002,-17.042,483.5],[28.1034,-17.0439,483.5],[28.1045,-17.0421,483.5],[28.1063,-17.0439,485.5599],[28.1073,-17.0425,488.2384],[28.1094,-17.0432,489.143],[28.1105,-17.0415,501.6996],[28.1068,-17.0387,485.3394],[28.1126,-17.0365,499.5009],[28.1087,-17.0334,483.5],[28.1116,-17.0294,513.2017],[28.1094,-17.0282,506.7857],[28.1065,-17.0309,502.3762],[28.0963,-17.0306,489.2719],[28.0911,-17.0333,483.5],[28.0908,-17.0308,483.5],[28.1,-17.0254,483.5],[28.1032,-17.0262,483.5],[28.1107,-17.0193,486.2108],[28.1108,-17.0217,489.8787],[28.1145,-17.0165,483.5],[28.1135,-17.0225,488.4409],[28.119,-17.018,485.4671],[28.121,-17.0196,490.8755],[28.1203,-17.0227,486.2089],[28.1223,-17.0182,483.5],[28.1237,-17.021,483.5],[28.1256,-17.0154,496.9105],[28.1237,-17.0115,494.6259],[28.121,-17.0153,497.7041],[28.1189,-17.0141,494.1844],[28.1165,-17.016,487.0987],[28.1168,-17.0123,495.4204],[28.1128,-17.0124,487.2903],[28.1102,-17.0103,485.1537],[28.0951,-17.0176,494.3808],[28.0881,-17.0117,486.4453],[28.0828,-17.0132,483.5],[28.0823,-17.0121,483.5],[28.0896,-17.0088,483.5],[28.0965,-17.0081,483.5],[28.0987,-17.0094,483.5],[28.1052,-17.004,488.4606],[28.1081,-17.0057,483.5],[28.1097,-17.0042,484.4668],[28.1145,-17.0061,483.5],[28.1167,-17.0017,485.8979],[28.1129,-16.9974,483.5],[28.1158,-16.9952,483.5],[28.1217,-16.9984,487.4882],[28.1284,-16.9985,483.5],[28.1291,-16.9949,486.325],[28.1265,-16.9931,487.2943],[28.1288,-16.9928,485.7863],[28.1308,-16.9887,493.4693],[28.1296,-16.9884,492.1092],[28.128,-16.9917,499.9694],[28.1235,-16.992,495.4774],[28.1218,-16.9889,485.0003],[28.1253,-16.9825,485.0096],[28.1219,-16.9842,484.3424],[28.1215,-16.9826,483.5],[28.1235,-16.982,486.118],[28.1246,-16.9793,483.5],[28.126,-16.9805,483.5],[28.1281,-16.9788,485.081],[28.1272,-16.9813,484.6649],[28.1288,-16.9797,488.2608],[28.1296,-16.985,486.8978],[28.1317,-16.9855,491.5187],[28.1323,-16.9827,491.7921],[28.1306,-16.9807,493.8932],[28.1342,-16.9805,495.8898],[28.1273,-16.977,487.37],[28.1289,-16.9762,485.9051],[28.1272,-16.9751,483.5],[28.1349,-16.9695,483.5],[28.1407,-16.9677,498.5605],[28.1383,-16.9676,486.0167],[28.1394,-16.9639,491.839],[28.1374,-16.9619,493.0593],[28.1315,-16.9655,494.4276],[28.1305,-16.9681,483.5],[28.1269,-16.9659,503.1629],[28.127,-16.9686,490.9426],[28.1205,-16.9706,501.8041],[28.1209,-16.9725,499.2403],[28.1157,-16.9707,505.8782],[28.1183,-16.9738,497.8845],[28.115,-16.9779,497.4326],[28.1118,-16.9773,505.9208],[28.1136,-16.9803,492.4196],[28.1105,-16.9804,498.4301],[28.1107,-16.9837,486.3845],[28.1076,-16.9834,500.4902],[28.1082,-16.9854,492.9037],[28.1053,-16.9876,499.2559],[28.104,-16.9868,499.2559],[28.104,-16.9837,507.6789],[28.1022,-16.9875,496.3567],[28.1008,-16.9857,516.8751],[28.0937,-16.9903,503.168],[28.0871,-16.9904,510.9204],[28.0742,-16.9937,494.04],[28.0733,-16.9919,506.3768],[28.0694,-16.995,494.0584],[28.0631,-16.993,502.6073],[28.0626,-16.9947,488.6957],[28.0592,-16.9929,490.3046],[28.0507,-16.9943,483.5],[28.0489,-16.9935,483.5],[28.0493,-16.9919,483.5],[28.0649,-16.9876,494.7303],[28.0659,-16.986,492.613],[28.0613,-16.9851,486.8806],[28.0598,-16.9818,483.5],[28.0647,-16.9827,488.4971],[28.0631,-16.98,483.5],[28.0662,-16.9808,483.9933],[28.067,-16.9783,488.2399],[28.07,-16.9793,484.0112],[28.0694,-16.9821,484.352],[28.0717,-16.9815,483.5],[28.0725,-16.9828,483.5],[28.0726,-16.9801,483.5],[28.0744,-16.9809,483.5],[28.0753,-16.9791,483.5],[28.0778,-16.9838,491.4863],[28.0762,-16.9784,483.5],[28.0816,-16.9798,490.1892],[28.0826,-16.9784,491.7449],[28.08,-16.978,491.0273],[28.0777,-16.9734,483.5],[28.0801,-16.9748,484.6764],[28.0836,-16.9734,483.5],[28.0836,-16.9762,483.5],[28.0874,-16.9752,484.0359],[28.0884,-16.9787,487.1408],[28.0897,-16.9781,492.7866],[28.0901,-16.9734,484.321],[28.0931,-16.974,485.8334],[28.0929,-16.976,485.1666],[28.0942,-16.9762,490.3853],[28.0969,-16.9702,495.4711],[28.0947,-16.9716,491.8373],[28.0935,-16.9704,497.1839],[28.0929,-16.9718,490.9849],[28.0904,-16.9707,491.4994],[28.0912,-16.969,491.6771],[28.0879,-16.9705,491.2396],[28.0864,-16.9693,483.5],[28.0915,-16.9649,489.0335],[28.0906,-16.9642,484.8208],[28.0933,-16.9644,487.9069],[28.0917,-16.9618,483.5],[28.0984,-16.9606,495.9986],[28.0984,-16.9594,492.2582],[28.095,-16.9588,484.6329],[28.0983,-16.9551,495.6813],[28.0965,-16.9544,494.926],[28.0926,-16.9565,497.82619999999997],[28.0904,-16.955,493.5013],[28.0878,-16.9572,490.9],[28.0882,-16.9548,490.6823],[28.0867,-16.9548,484.1523],[28.0821,-16.9577,486.1392],[28.0821,-16.9558,483.5],[28.0905,-16.9497,494.1038],[28.0898,-16.9484,493.0835],[28.0843,-16.9479,483.5],[28.0865,-16.9425,483.5],[28.0887,-16.9421,483.5],[28.088,-16.9471,483.5],[28.0904,-16.9445,483.5],[28.0919,-16.9459,488.1731],[28.0928,-16.9431,483.5],[28.0951,-16.9422,483.5],[28.0968,-16.9423,483.5],[28.0971,-16.9438,484.0561],[28.0948,-16.9464,493.1564],[28.0979,-16.9482,487.1167],[28.0991,-16.948,487.1167],[28.0983,-16.9467,483.9664],[28.1007,-16.9467,487.5677],[28.0996,-16.9448,483.5],[28.1011,-16.9439,483.5],[28.1075,-16.9468,491.9888],[28.106,-16.9434,486.4392],[28.1075,-16.9405,483.5],[28.1098,-16.944,484.7883],[28.1101,-16.9377,483.5],[28.1121,-16.9401,489.4104],[28.1121,-16.9367,483.5],[28.1194,-16.9374,494.8553],[28.1148,-16.9352,486.2476],[28.118,-16.9345,490.5246],[28.1182,-16.9322,497.5231],[28.1152,-16.9318,493.1677],[28.1129,-16.9351,490.2584],[28.1102,-16.9325,484.0894],[28.1109,-16.9302,483.5],[28.1142,-16.9302,488.5401],[28.1167,-16.9284,490.711],[28.1166,-16.9273,493.3318],[28.1132,-16.9283,484.141],[28.1158,-16.9268,490.9693],[28.1134,-16.9263,485.6046],[28.1134,-16.9247,483.9462],[28.1169,-16.9238,486.7266],[28.1197,-16.9202,483.9135],[28.1198,-16.9176,483.5],[28.1222,-16.9201,485.8124],[28.1279,-16.9153,483.5],[28.1306,-16.9149,491.1255],[28.1337,-16.91,483.5],[28.1342,-16.9117,485.7043],[28.1359,-16.9108,484.0643],[28.1411,-16.9147,489.9106],[28.1454,-16.9149,497.802],[28.1414,-16.9125,492.1717],[28.1401,-16.909,490.7245],[28.1363,-16.9089,485.6271],[28.1372,-16.9063,484.8536],[28.1395,-16.9069,488.4433],[28.1423,-16.9044,496.2104],[28.139,-16.9042,494.2722],[28.1383,-16.9013,500.7137],[28.1363,-16.9046,486.2794],[28.1362,-16.9014,500.1673],[28.1331,-16.904,491.6855],[28.1288,-16.9006,527.1407],[28.1227,-16.902,491.2221],[28.1174,-16.9002,510.779],[28.1128,-16.8965,517.4293],[28.1099,-16.8982,489.472],[28.0916,-16.8892,493.2814],[28.0835,-16.8898,498.5406],[28.0817,-16.8883,487.3685],[28.0877,-16.8826,483.5],[28.0876,-16.886,483.5],[28.0949,-16.8875,502.7194],[28.0915,-16.8838,487.9996],[28.0967,-16.8842,497.3517],[28.0972,-16.883,497.3517],[28.0917,-16.8811,483.5],[28.0954,-16.8809,494.1307],[28.0999,-16.8745,483.5],[28.1019,-16.8752,489.1909],[28.103,-16.8711,493.9203],[28.1012,-16.8689,483.5],[28.1043,-16.8683,501.008],[28.1086,-16.8636,483.5],[28.1112,-16.8628,483.5],[28.1124,-16.858,537.0815],[28.11,-16.8569,483.5],[28.1113,-16.8545,483.5],[28.0475,-16.8833,483.5]]],
[[[28.1616,-16.8313,490.5326],[28.1449,-16.839,483.5],[28.1505,-16.8393,483.5],[28.1555,-16.8467,484.7789],[28.1539,-16.8488,503.1049],[28.1514,-16.848,503.0251],[28.1512,-16.8501,496.8166],[28.1474,-16.85,499.4148],[28.1478,-16.8515,494.1193],[28.1451,-16.8519,500.9744],[28.1465,-16.8533,491.8496],[28.1451,-16.8534,491.8496],[28.1442,-16.8567,494.9738],[28.139,-16.8569,494.988],[28.1417,-16.8598,485.1468],[28.1387,-16.8607,487.5852],[28.1356,-16.8654,491.205],[28.1313,-16.8643,506.941],[28.1328,-16.8674,491.0328],[28.1268,-16.8697,495.9415],[28.1321,-16.8697,484.6205],[28.1279,-16.8745,498.8648],[28.1346,-16.8744,483.5],[28.1365,-16.8763,485.9576],[28.143,-16.8754,483.5],[28.1452,-16.8787,483.5],[28.1464,-16.8787,483.5],[28.1461,-16.876,483.5],[28.1472,-16.8786,483.5],[28.1494,-16.8765,483.5],[28.1503,-16.8795,483.5],[28.1642,-16.8761,483.5],[28.1843,-16.8767,483.5],[28.1865,-16.8784,483.5],[28.1932,-16.8791,483.5],[28.1999,-16.8833,484.5726],[28.2012,-16.8819,483.5],[28.2014,-16.8844,483.5],[28.2031,-16.8847,485.1171],[28.2062,-16.879,484.2211],[28.2056,-16.877,483.5],[28.2081,-16.8788,483.5],[28.2106,-16.8747,483.5],[28.2114,-16.8764,483.5],[28.2136,-16.8739,483.5],[28.216,-16.8756,483.5],[28.2211,-16.8741,483.5],[28.2211,-16.8757,483.5],[28.2154,-16.8768,486.8282],[28.2136,-16.8795,491.5912],[28.213,-16.8855,488.2381],[28.2113,-16.887,493.7538],[28.214,-16.8876,483.5],[28.2127,-16.891,486.4069],[28.2155,-16.8929,483.5],[28.2149,-16.8943,483.5],[28.2169,-16.8952,483.5],[28.2182,-16.894,483.5],[28.2186,-16.8974,489.8988],[28.2208,-16.8964,483.5],[28.2186,-16.9002,493.577],[28.2253,-16.8984,483.5],[28.2215,-16.9071,487.2328],[28.2267,-16.9073,483.5],[28.2248,-16.9099,491.2765],[28.2285,-16.9118,484.7941],[28.2289,-16.9173,486.8741],[28.227,-16.919,502.8233],[28.2288,-16.9191,485.3641],[28.2285,-16.9221,488.6851],[28.2234,-16.9251,501.605],[28.2255,-16.9263,491.647],[28.2274,-16.9245,486.9157],[28.2278,-16.9267,495.3514],[28.2312,-16.9217,487.688],[28.2305,-16.9175,488.8763],[28.232,-16.9166,494.2475],[28.2315,-16.9115,485.6915],[28.2287,-16.9067,487.3997],[28.232,-16.9047,494.7031],[28.2297,-16.904,497.3328],[28.2274,-16.9055,492.8833],[28.227,-16.9039,483.5],[28.2278,-16.9018,490.4998],[28.23,-16.9031,497.3328],[28.2284,-16.8997,483.5],[28.2309,-16.8982,487.1637],[28.23,-16.896,504.5388],[28.2234,-16.894,485.0563],[28.2239,-16.8904,498.6671],[28.2268,-16.8897,505.4396],[28.2216,-16.8883,495.8138],[28.2203,-16.8839,489.3792],[28.2253,-16.8838,499.9981],[28.2236,-16.88,484.7524],[28.2256,-16.8778,483.5],[28.2291,-16.8794,486.3967],[28.2287,-16.8763,483.5],[28.2326,-16.877,487.4696],[28.2272,-16.8722,483.5],[28.2327,-16.8708,483.5],[28.2358,-16.8735,484.6635],[28.2363,-16.8715,483.5],[28.2417,-16.8756,497.391],[28.238,-16.8716,486.0645],[28.2408,-16.8713,485.7308],[28.2406,-16.8686,496.1281],[28.2331,-16.8662,487.3315],[28.2262,-16.8674,483.5],[28.2337,-16.863,499.9858],[28.2331,-16.8603,545.2719],[28.2303,-16.8615,498.7182],[28.2303,-16.8603,534.7539],[28.2225,-16.8603,483.5],[28.2265,-16.856,515.9183],[28.2226,-16.8559,483.5],[28.2247,-16.8527,492.0107],[28.2233,-16.85,490.4717],[28.2236,-16.8431,483.5],[28.2264,-16.8457,483.5],[28.2261,-16.8438,483.5],[28.2278,-16.8432,493.2965],[28.226,-16.8412,483.5],[28.2287,-16.8422,494.6074],[28.2269,-16.8388,483.5],[28.2289,-16.8402,487.1945],[28.2287,-16.8374,483.5],[28.2305,-16.8386,484.6371],[28.2297,-16.8367,483.5],[28.2328,-16.8368,483.5],[28.2376,-16.8333,483.5],[28.2429,-16.8349,483.5],[28.2462,-16.8339,483.5],[28.248,-16.8347,483.5],[28.248,-16.837,484.0746],[28.2508,-16.8362,483.5],[28.2527,-16.8438,486.9231],[28.2563,-16.8341,483.5],[28.259,-16.8348,483.5],[28.2661,-16.8304,483.5],[28.2688,-16.8376,483.5],[28.2727,-16.8382,483.5],[28.2694,-16.8434,501.1788],[28.2713,-16.8502,486.2628],[28.2744,-16.8496,492.0721],[28.2727,-16.8463,490.1932],[28.2733,-16.8425,483.5],[28.2768,-16.8435,483.5],[28.2803,-16.8411,483.5],[28.2773,-16.8478,491.48],[28.2799,-16.8502,486.6124],[28.2795,-16.8467,487.1598],[28.2826,-16.8446,484.7418],[28.283,-16.8424,483.5],[28.2853,-16.8425,486.2812],[28.2839,-16.8401,483.5],[28.2876,-16.8398,483.5],[28.289,-16.8412,491.8365],[28.2915,-16.8397,490.7549],[28.2859,-16.8355,535.6185],[28.279,-16.8341,493.313],[28.2789,-16.8293,508.8345],[28.2766,-16.8272,483.5],[28.2767,-16.8252,483.5],[28.2862,-16.8236,483.5],[28.2961,-16.825,483.5],[28.2996,-16.8234,483.5],[28.3116,-16.8229,483.5],[28.3131,-16.8257,483.5],[28.3165,-16.8269,498.4346],[28.3176,-16.8251,500.4192],[28.3136,-16.823,483.5],[28.3213,-16.8195,483.5],[28.3245,-16.8209,484.4808],[28.3246,-16.828,487.1751],[28.327,-16.8243,486.9723],[28.3309,-16.8231,491.1321],[28.3262,-16.8203,488.9513],[28.3256,-16.8176,483.5],[28.3322,-16.8127,483.5],[28.3384,-16.8119,510.9675],[28.3343,-16.8085,491.3174],[28.3355,-16.8053,483.5],[28.3473,-16.7993,483.5],[28.3614,-16.7983,483.5],[28.3672,-16.7989,483.5],[28.3697,-16.8017,483.5],[28.3628,-16.8045,503.8622],[28.3587,-16.8081,503.9165],[28.3603,-16.8103,483.5],[28.3514,-16.8155,498.6049],[28.353,-16.8167,487.6349],[28.36,-16.816,483.5],[28.3619,-16.8184,483.5],[28.3631,-16.8159,483.5],[28.371,-16.8107,483.5],[28.3731,-16.8164,514.351],[28.3705,-16.8162,499.6773],[28.3668,-16.8188,496.0228],[28.3687,-16.8206,497.6524],[28.3737,-16.8185,483.5],[28.3734,-16.8218,483.5],[28.3717,-16.8243,491.5201],[28.3696,-16.8236,492.0043],[28.3707,-16.8259,494.0976],[28.3696,-16.8267,484.5265],[28.3669,-16.8258,494.7657],[28.3668,-16.8229,500.2129],[28.366,-16.8255,494.7657],[28.3652,-16.8239,499.8876],[28.3634,-16.8255,495.1909],[28.362,-16.8237,497.298],[28.3611,-16.8252,494.6119],[28.3637,-16.8274,488.414],[28.3611,-16.8272,488.7325],[28.3616,-16.8292,484.9545],[28.3518,-16.8328,500.9473],[28.351,-16.8345,496.0935],[28.3563,-16.8332,488.9869],[28.3563,-16.8369,488.1791],[28.3587,-16.8359,483.5],[28.3598,-16.8377,483.5],[28.3607,-16.8361,483.5],[28.3659,-16.8397,488.3591],[28.3655,-16.8364,483.5],[28.3674,-16.8354,483.5],[28.3699,-16.8396,487.535],[28.3716,-16.8382,483.5],[28.3738,-16.8413,485.9521],[28.3781,-16.8383,483.5],[28.3807,-16.8411,484.9366],[28.3798,-16.8427,484.3051],[28.3767,-16.8415,486.8408],[28.3776,-16.8436,491.5056],[28.3743,-16.8435,488.1417],[28.3765,-16.8468,484.3922],[28.373,-16.8472,492.0167],[28.3779,-16.8485,483.5],[28.374,-16.8485,488.7521],[28.3746,-16.8511,488.4005],[28.371,-16.8518,492.5763],[28.3687,-16.8492,495.7053],[28.3607,-16.8508,500.9515],[28.3614,-16.8521,497.2657],[28.3664,-16.8522,493.9768],[28.3661,-16.8537,486.6398],[28.3611,-16.8551,498.2368],[28.3621,-16.8566,500.7108],[28.3687,-16.8535,486.2201],[28.3656,-16.8585,495.0412],[28.3663,-16.8602,494.5388],[28.3702,-16.8535,491.2273],[28.3719,-16.8541,486.0404],[28.3717,-16.8572,487.5233],[28.3735,-16.8559,483.5],[28.3751,-16.8571,484.6627],[28.374,-16.8538,485.6468],[28.3768,-16.8553,490.9528],[28.3772,-16.851,483.5],[28.3787,-16.8517,483.5],[28.3793,-16.8567,495.7642],[28.382,-16.8568,490.1279],[28.3798,-16.8491,483.5],[28.3818,-16.8476,485.9403],[28.382,-16.8443,483.5],[28.3845,-16.8475,485.3546],[28.3843,-16.8443,483.5],[28.3865,-16.8461,489.4405],[28.3866,-16.8436,483.5],[28.3902,-16.8413,483.5],[28.392,-16.8438,484.5292],[28.3939,-16.8428,484.23],[28.3952,-16.8446,485.7047],[28.3944,-16.8406,483.5],[28.3958,-16.8398,483.5],[28.3975,-16.8407,483.5],[28.3974,-16.8442,488.3744],[28.3983,-16.8418,483.5],[28.4009,-16.8417,488.9722],[28.3998,-16.8389,484.1051],[28.4049,-16.8418,487.8319],[28.4047,-16.8398,483.5],[28.4069,-16.8386,483.5],[28.4083,-16.8442,483.5],[28.4053,-16.8467,492.1951],[28.4074,-16.8472,485.4661],[28.4074,-16.8493,483.5],[28.4051,-16.8498,493.1586],[28.4053,-16.8537,484.7148],[28.4022,-16.852,494.0882],[28.4051,-16.8553,484.7089],[28.4039,-16.8587,484.4796],[28.4087,-16.8632,483.5],[28.4071,-16.8687,485.5034],[28.41,-16.8691,483.5],[28.4083,-16.8705,486.8542],[28.4102,-16.8722,487.4592],[28.4033,-16.8709,503.0948],[28.4063,-16.8731,494.1891],[28.4042,-16.8732,492.2461],[28.403199999999998,-16.875,497.3252],[28.4099,-16.8745,484.8425],[28.4106,-16.877,493.7899],[28.4124,-16.873,483.5],[28.4151,-16.8732,486.705],[28.4133,-16.8751,484.4246],[28.4152,-16.8807,485.2509],[28.4198,-16.8849,487.7392],[28.4194,-16.8802,487.9329],[28.4169,-16.8801,487.7115],[28.4163,-16.8776,483.5],[28.4228,-16.8771,497.2943],[28.4204,-16.8749,483.5],[28.4227,-16.8649,501.1846],[28.42,-16.8557,483.5],[28.4204,-16.8501,484.8136],[28.4174,-16.8445,499.6607],[28.411,-16.8414,486.38],[28.4107,-16.8389,483.5],[28.4148,-16.84,486.2458],[28.4153,-16.8373,483.5],[28.4179,-16.839,483.5],[28.4206,-16.8381,483.5],[28.4305,-16.8463,483.5],[28.4354,-16.8468,483.5],[28.4365,-16.8491,488.5002],[28.4329,-16.8499,494.497],[28.4358,-16.8525,483.5],[28.4389,-16.8599,483.5],[28.442,-16.8612,483.5],[28.4388,-16.8639,487.2141],[28.438,-16.8694,483.5],[28.4407,-16.8788,486.2988],[28.4435,-16.8782,483.5],[28.4433,-16.8824,485.5645],[28.4463,-16.8858,483.5],[28.4445,-16.8893,497.8895],[28.4454,-16.8937,483.5],[28.4503,-16.8982,483.5],[28.4503,-16.9008,484.9683],[28.4528,-16.9021,483.5],[28.4547,-16.8997,483.5],[28.4562,-16.903,483.5],[28.4521,-16.9041,485.4161],[28.4531,-16.9079,497.8249],[28.4505,-16.9077,495.5512],[28.452,-16.9107,485.5647],[28.4465,-16.9078,514.0699],[28.4438,-16.9081,498.8898],[28.4472,-16.9124,487.1747],[28.4498,-16.9134,487.7988],[28.4469,-16.9132,490.0752],[28.448,-16.9148,486.101],[28.4441,-16.9165,497.8318],[28.4463,-16.9185,484.6403],[28.4436,-16.9209,489.5125],[28.4409,-16.9184,503.3185],[28.4411,-16.9264,483.5],[28.4351,-16.9277,509.8484],[28.4363,-16.929,504.7563],[28.4409,-16.9283,486.3025],[28.435,-16.9338,504.2117],[28.4371,-16.9365,486.5991],[28.4353,-16.9409,494.5058],[28.4318,-16.9397,507.7549],[28.4309,-16.9415,493.7028],[28.4273,-16.9423,513.4252],[28.4274,-16.9439,505.6296],[28.4326,-16.9442,485.9838],[28.4252,-16.9462,504.8189],[28.4255,-16.9493,495.3377],[28.4218,-16.9503,511.2765],[28.4225,-16.9516,503.4628],[28.4194,-16.9539,508.3603],[28.4255,-16.9535,484.9218],[28.4282,-16.9517,484.723],[28.4284,-16.9483,495.3994],[28.4298,-16.9492,483.5],[28.4341,-16.9445,484.502],[28.4346,-16.9473,488.6908],[28.4326,-16.9497,495.974],[28.4348,-16.9495,491.1859],[28.4347,-16.9514,485.1677],[28.4371,-16.9498,485.8328],[28.4364,-16.9537,496.0761],[28.4292,-16.9532,502.7363],[28.4294,-16.955,493.7301],[28.4269,-16.9567,503.9094],[28.4295,-16.9567,483.5],[28.4276,-16.9613,495.6864],[28.4245,-16.9598,510.2122],[28.4172,-16.9598,512.52],[28.4204,-16.9622,508.3901],[28.4311,-16.9632,494.2982],[28.4331,-16.9619,497.6562],[28.4326,-16.9567,483.5],[28.4349,-16.9608,488.9534],[28.4349,-16.9566,483.5],[28.4391,-16.9621,491.5931],[28.4394,-16.9574,483.5],[28.4425,-16.9556,483.5],[28.4418,-16.9611,483.5],[28.4441,-16.9607,483.5],[28.4446,-16.9638,489.8256],[28.4395,-16.9669,496.6375],[28.4393,-16.9689,486.238],[28.4356,-16.9671,508.0895],[28.4333,-16.9693,501.303],[28.436,-16.9703,487.772],[28.4329,-16.9723,490.6199],[28.4388,-16.9711,491.339],[28.4393,-16.9734,485.1616],[28.4412,-16.9722,486.5769],[28.4424,-16.9739,484.8922],[28.4453,-16.9718,484.9683],[28.4482,-16.975,484.1472],[28.4414,-16.9806,493.5343],[28.4372,-16.9821,501.1277],[28.4304,-16.9819,519.8153],[28.4283,-16.9846,490.2394],[28.4147,-16.9883,511.5032],[28.4125,-16.9913,493.4258],[28.4063,-16.9912,524.9669],[28.4033,-16.9934,509.0118],[28.4004,-16.998,504.9603],[28.402,-17.0022,494.7786],[28.3992,-17.0033,520.816],[28.4024,-17.0103,554.4938],[28.3909,-17.0391,528.8884],[28.387,-17.0412,555.2292],[28.3854,-17.05,530.3428],[28.3925,-17.0512,556.6945],[28.3949,-17.055,531.2499],[28.4136,-17.0551,724.3683],[28.4272,-17.0935,670.9399],[28.4364,-17.0975,663.0975],[28.4308,-17.1077,696.541],[28.433,-17.1115,745.0999],[28.4371,-17.1344,653.3293],[28.4399,-17.1385,655.8308],[28.4562,-17.149,666.3721],[28.4645,-17.1583,647.8298],[28.4659,-17.1616,672.5488],[28.4644,-17.1645,676.3442],[28.4648,-17.1696,702.7869],[28.4845,-17.1782,805.4214],[28.4891,-17.1934,723.625],[28.4847,-17.2009,696.2489],[28.4858,-17.207,647.2986],[28.4902,-17.2057,644.751],[28.4915,-17.2012,651.3603],[28.4948,-17.198,657.8483],[28.5067,-17.1968,656.2047],[28.5094,-17.1877,671.5003],[28.512,-17.1914,657.1155],[28.5161,-17.1857,668.1002],[28.522,-17.183,662.1537],[28.5208,-17.1805,675.2373],[28.5286,-17.1788,681.748],[28.5298,-17.1805,668.147],[28.5344,-17.1729,750.0715],[28.5368,-17.1726,688.0109],[28.5382,-17.1704,679.4415],[28.542,-17.1714,676.967],[28.5415,-17.1692,689.4417],[28.5431,-17.1674,691.6733],[28.5504,-17.1657,687.1064],[28.5507,-17.1633,688.3994],[28.5489,-17.1618,698.8547],[28.5525,-17.1604,686.5341],[28.5547,-17.1559,709.4],[28.5601,-17.1572,713.7731],[28.5594,-17.1594,701.5084],[28.5606,-17.1601,698.7912],[28.5679,-17.1605,712.6565],[28.5707,-17.1635,701.4493],[28.5754,-17.1584,711.1403],[28.5759,-17.1544,717.7766],[28.6063,-17.1873,762.2687],[28.6537,-17.2452,798.4829],[28.6575,-17.2401,801.7847],[28.6633,-17.2369,802.4969],[28.6634,-17.234,766.2357],[28.6614,-17.2311,779.8436],[28.664,-17.2286,780.1375],[28.6641,-17.2244,776.3668],[28.6701,-17.2125,764.813],[28.6684,-17.2103,777.3889],[28.6715,-17.2004,729.2875],[28.6788,-17.2036,714.6353],[28.6847,-17.2091,720.1455],[28.6898,-17.2087,735.007],[28.7005,-17.2131,697.8109],[28.7025,-17.216,698.8782],[28.7039,-17.2155,698.8782],[28.7033,-17.2123,699.4581],[28.7064,-17.2109,712.5277],[28.7087,-17.2123,709.2631],[28.7084,-17.2163,704.3817],[28.7098,-17.216,703.4333],[28.7097,-17.2136,720.2711],[28.7123,-17.2153,694.9525],[28.7132,-17.2052,716.194],[28.7109,-17.203,697.0305],[28.7117,-17.1998,687.7618],[28.7181,-17.193,679.614],[28.723,-17.1924,680.0069],[28.731,-17.1857,677.1],[28.735,-17.1784,671.5201],[28.742,-17.1784,681.0911],[28.7436,-17.177,663.278],[28.749,-17.1673,659.333],[28.7489,-17.1618,665.7826],[28.7546,-17.1587,663.8423],[28.7592,-17.1594,656.1937],[28.764,-17.1565,656.6397],[28.7668,-17.1574,667.7885],[28.7689,-17.1614,651.205],[28.7683,-17.1538,664.271],[28.7727,-17.1373,642.9698],[28.7843,-17.1239,668.5877],[28.7891,-17.1134,672.6635],[28.7888,-17.0996,705.8464],[28.8078,-17.0941,707.664],[28.8188,-17.0889,711.49],[28.8215,-17.084,713.639],[28.8227,-17.0775,710.4527],[28.8253,-17.0747,717.5583],[28.8402,-17.0704,713.101],[28.8573,-17.0603,700.9119],[28.8555,-17.0482,649.3126],[28.8566,-17.0434,570.8217],[28.8543,-17.0368,618.4619],[28.8624,-17.0296,543.1294],[28.8624,-17.0259,606.9171],[28.8486,-17.0148,632.2131],[28.8373,-17.008,567.9312],[28.8395,-17.004,616.3577],[28.8356,-17.0007,536.9711],[28.8348,-16.9955,673.8659],[28.8293,-16.9881,523.9175],[28.827,-16.9746,565.6927],[28.825,-16.9724,763.4074],[28.8176,-16.9698,588.1375],[28.8136,-16.9649,534.79],[28.8142,-16.9324,501.4334],[28.8119,-16.9267,503.4254],[28.8115,-16.9067,524.8073],[28.8003,-16.8897,531.354],[28.7931,-16.8677,606.9382],[28.7848,-16.8586,489.6367],[28.7844,-16.8529,576.5884],[28.7772,-16.8457,534.8677],[28.7729,-16.8353,516.2187],[28.7661,-16.829,497.0936],[28.7584,-16.8167,483.5],[28.7611,-16.8147,483.5],[28.7686,-16.8134,483.5],[28.7704,-16.8147,483.5],[28.772,-16.813,483.5],[28.7804,-16.8146,483.5],[28.7844,-16.8128,483.5],[28.7907,-16.8154,495.905],[28.7914,-16.8138,492.3036],[28.7869,-16.8128,483.5],[28.7881,-16.8104,483.5],[28.7933,-16.8097,483.5],[28.7984,-16.811,483.5],[28.8001,-16.8076,483.5],[28.8051,-16.8068,484.7823],[28.8079,-16.8039,483.5],[28.8169,-16.8043,483.5],[28.8291,-16.7992,486.16],[28.8335,-16.7966,489.25],[28.834,-16.7935,483.5],[28.8369,-16.7945,486.0138],[28.8415,-16.787,483.5],[28.8466,-16.7869,486.7666],[28.8544,-16.7805,483.5],[28.8634,-16.7771,483.5],[28.8646,-16.7745,483.5],[28.8683,-16.7749,483.5],[28.8771,-16.7715,483.5],[28.8796,-16.7719,483.5],[28.8844,-16.7692,483.5],[28.8885,-16.7655,492.4236],[28.8868,-16.7592,491.1188],[28.8879,-16.758,492.2659],[28.8907,-16.7588,493.5881],[28.8875,-16.7554,488.8049],[28.888,-16.7526,492.9041],[28.8915,-16.7519,492.1779],[28.8906,-16.7496,492.0865],[28.8869,-16.7479,492.5849],[28.887,-16.7429,488.5503],[28.8916,-16.7402,491.3749],[28.8879,-16.7382,490.8284],[28.8892,-16.7365,486.1046],[28.8936,-16.7365,487.0569],[28.8941,-16.7343,490.5915],[28.8919,-16.7329,488.6579],[28.8963,-16.7256,486.9649],[28.8986,-16.7287,485.0924],[28.9014,-16.7285,484.0649],[28.9021,-16.7314,488.8088],[28.9038,-16.7272,483.5],[28.9072,-16.7292,486.9203],[28.9059,-16.726,483.5],[28.9083,-16.7259,483.5],[28.911,-16.7282,489.855],[28.9105,-16.7245,483.5],[28.9155,-16.7274,490.6997],[28.9141,-16.7231,484.3981],[28.918,-16.7231,483.5],[28.9213,-16.726,483.5],[28.9231,-16.7249,483.5],[28.9297,-16.733,485.1152],[28.9313,-16.7325,483.5],[28.9365,-16.7369,489.0699],[28.9394,-16.7354,483.5],[28.9395,-16.7388,487.2979],[28.9411,-16.7367,483.5],[28.9436,-16.7384,483.5],[28.9485,-16.7462,483.5],[28.9476,-16.7493,490.2119],[28.9503,-16.7493,483.5],[28.9538,-16.7531,484.5941],[28.9457,-16.7576,489.757],[28.9415,-16.7574,501.2576],[28.9413,-16.7602,484.9195],[28.944,-16.7643,484.6849],[28.9389,-16.7733,511.4181],[28.9389,-16.7769,529.1061],[28.9448,-16.7679,489.5243],[28.95,-16.7661,487.0237],[28.9511,-16.7616,483.5],[28.9568,-16.7565,483.5],[28.9596,-16.7512,502.9972],[28.9567,-16.7477,500.8342],[28.9524,-16.7461,504.2992],[28.9484,-16.7386,500.9505],[28.9458,-16.738,496.8423],[28.9463,-16.7357,495.0023],[28.9448,-16.7337,483.5],[28.9484,-16.7337,497.9949],[28.9441,-16.7306,483.5],[28.9454,-16.7256,488.8134],[28.9478,-16.7267,487.0436],[28.9472,-16.7242,493.3043],[28.9495,-16.7223,495.5366],[28.9473,-16.7213,495.0091],[28.9452,-16.7228,495.4415],[28.9417,-16.7212,495.0872],[28.9411,-16.7187,496.0293],[28.939,-16.7191,493.2757],[28.9371,-16.7168,494.3098],[28.9337,-16.7162,495.748],[28.9337,-16.7134,495.8171],[28.922,-16.707,490.5814],[28.9191,-16.7004,483.5],[28.9218,-16.6987,483.5],[28.9223,-16.702,483.5],[28.9258,-16.7058,484.326],[28.9271,-16.7041,485.7448],[28.9293,-16.7054,491.5807],[28.9286,-16.7034,485.7448],[28.9306,-16.7019,490.0992],[28.9283,-16.6967,483.5],[28.9293,-16.6952,483.5],[28.9299,-16.6973,483.5],[28.9379,-16.7002,483.5],[28.9394,-16.7063,489.4482],[28.94,-16.7019,483.5],[28.942,-16.702,483.5],[28.9407,-16.7054,488.6449],[28.946,-16.7065,489.915],[28.9453,-16.7037,485.3959],[28.9507,-16.7007,483.5],[28.954,-16.7018,483.5],[28.9567,-16.705,483.5],[28.9567,-16.7091,487.6673],[28.9616,-16.7094,484.3898],[28.9682,-16.7034,484.6628],[28.9797,-16.6884,485.2987],[28.9802,-16.6783,483.5],[28.9785,-16.6741,483.5],[28.9816,-16.6723,491.1248],[28.9818,-16.6702,492.7546],[28.9787,-16.6675,484.6975],[28.9783,-16.6614,483.5],[28.9809,-16.6571,489.3943],[28.9794,-16.6536,483.5],[28.9877,-16.6518,490.0041],[28.9851,-16.6495,490.842],[28.9846,-16.646,501.0307],[28.9745,-16.6471,487.6085],[28.9793,-16.6412,505.0995],[28.9702,-16.6421,494.8754],[28.9699,-16.6361,507.4486],[28.959,-16.6433,487.1533],[28.9573,-16.6367,502.3864],[28.9553,-16.6386,490.2276],[28.9468,-16.6374,505.3697],[28.9407,-16.6398,485.4409],[28.9406,-16.6372,495.0357],[28.9355,-16.6401,495.6263],[28.9304,-16.6409,499.5032],[28.9257,-16.639,515.9915],[28.9228,-16.6414,495.2603],[28.9212,-16.6394,515.9786],[28.9179,-16.6414,500.7322],[28.9162,-16.6406,486.7773],[28.9157,-16.6377,491.3455],[28.9115,-16.6399,501.1296],[28.9078,-16.6355,483.5],[28.9215,-16.631,483.5],[28.9277,-16.6312,483.5],[28.9385,-16.6259,483.5],[28.9605,-16.6306,483.5],[28.9631,-16.6289,483.5],[28.9695,-16.6294,483.5],[28.9724,-16.633,483.5],[28.9742,-16.6309,483.5],[28.9774,-16.6332,483.5],[28.9793,-16.6312,483.5],[28.9878,-16.6338,483.5],[28.9934,-16.6336,483.5],[28.995,-16.6406,486.9261],[28.9994,-16.6398,508.8451],[28.998,-16.6345,483.5],[28.9993,-16.6332,483.5],[29.0055,-16.6335,489.5359],[29.0074,-16.6287,483.5],[29.0154,-16.6308,483.5],[29.0215,-16.6299,498.0931],[29.0262,-16.6247,483.5],[29.0274,-16.6308,483.5],[29.0321,-16.6328,483.5],[29.0313,-16.6365,495.3631],[29.0348,-16.6391,507.1286],[29.0337,-16.6346,488.1954],[29.0352,-16.631,502.9953],[29.0316,-16.6264,490.3569],[29.0303,-16.6212,483.5],[29.038,-16.6187,498.9101],[29.0326,-16.6162,488.1539],[29.0314,-16.6113,483.5],[29.0332,-16.6126,483.5],[29.0384,-16.6123,483.5],[29.0469,-16.6094,488.9983],[29.0477,-16.6046,490.5125],[29.0441,-16.5999,488.421],[29.0467,-16.5958,484.0],[29.0517,-16.5941,487.8154],[29.0555,-16.59,503.8375],[29.0516,-16.5899,514.1929],[29.0458,-16.5928,516.4708],[29.0432,-16.5909,527.4541],[29.0427,-16.5942,502.5419],[29.0391,-16.598,487.5671],[29.0326,-16.5981,501.2785],[29.0277,-16.6039,483.5],[29.0211,-16.6072,496.8069],[29.0114,-16.6068,488.9703],[29.0084,-16.6102,485.6958],[29.0067,-16.6101,490.7869],[29.0046,-16.6081,490.6414],[29.0059,-16.6049,493.8623],[28.9993,-16.6118,483.5],[28.9965,-16.6059,491.8968],[28.9929,-16.6032,497.7681],[28.9927,-16.6005,500.7628],[28.9906,-16.6026,496.5428],[28.9893,-16.601,498.8478],[28.988,-16.6027,489.3298],[28.9875,-16.6008,492.4452],[28.986,-16.6012,493.6435],[28.9863,-16.5982,507.905],[28.9841,-16.6006,495.028],[28.9801,-16.5997,517.1741],[28.9753,-16.601,585.2927],[28.9736,-16.6049,504.7694],[28.9712,-16.6032,483.5],[28.9704,-16.5997,516.1022],[28.966,-16.6017,527.6559],[28.9645,-16.6013,502.7446],[28.9649,-16.5986,545.2932],[28.9536,-16.5976,564.6234],[28.9525,-16.5958,548.9861],[28.9465,-16.597,502.5638],[28.9452,-16.5952,510.8634],[28.9362,-16.5975,502.9972],[28.9339,-16.5958,522.8262],[28.9285,-16.5988,500.9077],[28.9221,-16.5973,510.6754],[28.9178,-16.5983,486.3172],[28.917,-16.5966,483.5],[28.9211,-16.5927,483.5],[28.9242,-16.592,483.5],[28.9287,-16.588,483.5],[28.9366,-16.5854,483.5],[28.9438,-16.5851,483.5],[28.9485,-16.5867,485.7164],[28.9522,-16.5847,490.0362],[28.9516,-16.5811,483.9958],[28.9562,-16.5764,489.5219],[28.9565,-16.5741,491.8381],[28.9513,-16.5675,483.5],[28.9517,-16.5662,488.1269],[28.9531,-16.5655,488.1269],[28.9558,-16.5671,483.5],[28.9568,-16.5658,489.0132],[28.9592,-16.568,483.5],[28.9605,-16.5663,486.0719],[28.9635,-16.566,488.4416],[28.963,-16.5642,494.2457],[28.9539,-16.5636,485.5608],[28.955,-16.5624,483.5],[28.9525,-16.5637,484.5485],[28.9513,-16.5622,483.5],[28.9547,-16.5591,483.5],[28.957,-16.5493,486.8112],[28.9594,-16.55,488.5883],[28.9634,-16.5468,501.8719],[28.9629,-16.5457,504.6024],[28.9613,-16.5474,496.5692],[28.9592,-16.5471,493.0938],[28.9599,-16.5423,499.1863],[28.9542,-16.5503,496.7381],[28.95,-16.5504,493.2764],[28.9446,-16.5553,494.8686],[28.9428,-16.5552,496.4412],[28.9394,-16.5598,485.5965],[28.9371,-16.5579,492.0257],[28.9315,-16.5609,485.0925],[28.9334,-16.557,483.5],[28.9447,-16.55,491.70119999999997],[28.9422,-16.5502,491.1749],[28.9406,-16.5468,496.6279],[28.9401,-16.5496,488.7803],[28.938,-16.5508,491.2085],[28.9341,-16.5503,483.5],[28.9372,-16.5479,495.7549],[28.9364,-16.5431,494.1707],[28.9349,-16.5443,495.4722],[28.9347,-16.5476,491.2487],[28.9326,-16.548,487.6591],[28.9303,-16.5467,490.4408],[28.9296,-16.544,493.281],[28.9278,-16.5449,487.7629],[28.9256,-16.5389,492.8047],[28.9237,-16.5398,492.1781],[28.926,-16.5426,487.3908],[28.926,-16.5471,483.5],[28.9249,-16.5479,483.5],[28.9241,-16.5464,489.8785],[28.9241,-16.5486,486.1758],[28.9211,-16.5506,486.6808],[28.9211,-16.5466,491.9462],[28.9129,-16.5481,488.1143],[28.9124,-16.5424,492.7463],[28.911,-16.5419,493.5123],[28.9104,-16.5455,488.5742],[28.9088,-16.5461,491.5836],[28.9105,-16.5473,485.876],[28.9108,-16.5541,483.5],[28.9092,-16.5515,488.4511],[28.9077,-16.552,487.7185],[28.9075,-16.5496,492.213],[28.9036,-16.5533,490.2972],[28.9023,-16.5494,493.0601],[28.8967,-16.5538,490.6073],[28.895,-16.5535,488.0585],[28.8983,-16.5479,491.667],[28.8927,-16.5473,483.5],[28.8995,-16.5431,486.7234],[28.8995,-16.5415,488.6971],[28.8977,-16.5405,489.9621],[28.8962,-16.5427,486.9238],[28.8945,-16.5394,492.2391],[28.8931,-16.5396,489.3919],[28.8933,-16.5437,485.7363],[28.8882,-16.5445,486.9656],[28.8846,-16.5502,483.5],[28.8765,-16.5501,483.5],[28.8807,-16.542,483.5],[28.8809,-16.5363,487.6076],[28.8858,-16.5307,498.4918],[28.8887,-16.5244,500.5709],[28.8946,-16.5191,507.5532],[28.8871,-16.5236,506.9206],[28.8854,-16.5296,501.3609],[28.8781,-16.5372,489.9222],[28.8772,-16.5436,485.0549],[28.8759,-16.5455,484.6072],[28.8724,-16.5462,488.2142],[28.8704,-16.5421,489.6835],[28.8669,-16.544,483.5],[28.8654,-16.5369,484.7196],[28.8684,-16.5338,490.5994],[28.8683,-16.5253,493.8736],[28.8655,-16.532,486.6445],[28.8637,-16.5311,495.0128],[28.8615,-16.5349,484.3615],[28.8585,-16.536,483.5],[28.8591,-16.5371,483.5],[28.8543,-16.5378,483.5],[28.8552,-16.5366,483.5],[28.8539,-16.5354,483.5],[28.856,-16.5341,483.5],[28.8535,-16.5329,483.5],[28.8544,-16.5306,483.5],[28.8507,-16.5328,483.5],[28.8472,-16.5268,484.4716],[28.8456,-16.5301,483.5],[28.8437,-16.5288,483.5],[28.8437,-16.5303,483.5],[28.8426,-16.53,483.5],[28.8429,-16.5243,489.7371],[28.8424,-16.5244,489.7371],[28.8413,-16.5283,483.5],[28.8403,-16.5267,483.5],[28.84,-16.528,483.5],[28.8385,-16.5272,483.5],[28.8395,-16.5255,485.763],[28.8381,-16.5245,492.9744],[28.8379,-16.5248,491.6708],[28.8383,-16.5259,485.763],[28.8368,-16.5253,491.6708],[28.8366,-16.5262,491.6708],[28.8381,-16.5276,485.6113],[28.836,-16.5284,486.966],[28.8364,-16.5299,483.5],[28.8352,-16.5287,486.966],[28.8332,-16.5298,483.5],[28.8333,-16.5282,485.8146],[28.8317,-16.5289,488.1185],[28.8312,-16.5275,490.6945],[28.8304,-16.5311,485.1199],[28.8274,-16.5325,483.5],[28.823,-16.5281,497.7416],[28.818,-16.5341,503.3341],[28.8167,-16.5287,494.1543],[28.8138,-16.5334,491.3181],[28.8066,-16.5368,531.715],[28.8008,-16.5348,483.5],[28.8022,-16.5322,517.3338],[28.7991,-16.5336,500.9875],[28.7916,-16.5329,491.961],[28.7914,-16.5305,532.7765],[28.7885,-16.531,486.1473],[28.7864,-16.5284,491.3799],[28.784,-16.5317,483.5],[28.7841,-16.5281,489.4483],[28.7821,-16.5275,515.3625],[28.7814,-16.5297,485.0755],[28.7795,-16.5287,494.1595],[28.7759,-16.5346,483.5],[28.7721,-16.5442,483.5],[28.7621,-16.5516,483.5],[28.7531,-16.5556,483.5],[28.6935,-16.5584,483.5],[28.6745,-16.5628,483.5],[28.2757,-16.7279,483.5],[28.1722,-16.8258,483.5],[28.1616,-16.8313,490.5326]]]]}
,"properties": {"GID_3": "ZWE.6.6.12_2","GID_0": "ZWE","country": "Zimbabwe","GID_1": "ZWE.6_1","province": "MashonalandWest","NL_NAME_1": "NA","GID_2": "ZWE.6.6_2","county": "Kariba","NL_NAME_2": "NA","city": "Ward9","VARNAME_3": "NA","NL_NAME_3": "NA","TYPE_3": "Ward","ENGTYPE_3": "Ward","CC_3": "NA","HASC_3": "NA","name": "Ward9.city","area_km2": 3596.343,"hist_schema_id": "Elevation0-9000","hist_area_km2": {"475": 1794.249,"500": 213.355,"525": 112.802,"550": 59.976,"575": 34.328,"600": 21.097,"625": 16.49,"650": 23.113,"675": 56.161,"700": 86.601,"725": 92.741,"750": 106.409,"775": 99.013,"800": 60.809,"825": 54.451,"850": 64.062,"875": 67.553,"900": 68.206,"925": 67.725,"950": 70.243,"975": 69.696,"1000": 63.918,"1025": 63.086,"1050": 51.912,"1075": 47.752,"1100": 31.936,"1125": 22.71,"1150": 16.971,"1175": 15.854,"1200": 13.584,"1225": 14.74,"1250": 10.421,"1275": 4.298,"1300": 0.081}}}