{"type":"Feature","properties":{"GID_3":"ZWE.9.10.2_2","GID_0":"ZWE","country":"Zimbabwe","GID_1":"ZWE.9_1","province":"MatabelelandSouth","NL_NAME_1":"NA","GID_2":"ZWE.9.10_2","county":"Umzingwane","NL_NAME_2":"NA","city":"Ward10","VARNAME_3":"NA","NL_NAME_3":"NA","TYPE_3":"Ward","ENGTYPE_3":"Ward","CC_3":"NA","HASC_3":"NA","name":"Ward10.city"},
"geometry":{"type": "MultiPolygon","coordinates": [[[[28.7691,-20.6179,1100.9683],[28.774,-20.5964,1200.6637],[28.774,-20.5935,1199.106],[28.7711,-20.5896,1205.7449],[28.7718,-20.5881,1216.4612],[28.7755,-20.5876,1222.6832],[28.7748,-20.5789,1223.7572],[28.779,-20.5786,1238.946],[28.7803,-20.5822,1238.1387],[28.7879,-20.5892,1254.785],[28.7891,-20.585,1284.723],[28.7859,-20.5734,1316.743],[28.7909,-20.5721,1322.097],[28.7917,-20.5654,1324.2998],[28.7872,-20.554,1351.2795],[28.7844,-20.5353,1388.7393],[28.7854,-20.5309,1414.1678],[28.7921,-20.5218,1413.2413],[28.7967,-20.5203,1344.8451],[28.7936,-20.5163,1336.1],[28.7904,-20.5151,1360.4493],[28.7854,-20.5151,1385.7148],[28.7779,-20.5214,1464.7004],[28.7581,-20.5206,1336.2745],[28.7504,-20.5245,1351.1843],[28.7458,-20.5337,1328.3658],[28.7413,-20.535,1332.2659],[28.7307,-20.5337,1421.3452],[28.7309,-20.5371,1424.0212],[28.7219,-20.5397,1416.2719],[28.7358,-20.5523,1326.0637],[28.7331,-20.5541,1432.6245],[28.7277,-20.5554,1438.8201],[28.7169,-20.5521,1422.8031],[28.7032,-20.5542,1216.8137],[28.7171,-20.568,1183.2495],[28.7179,-20.5723,1180.6807],[28.7245,-20.5786,1182.7367],[28.7255,-20.5827,1147.4019],[28.7354,-20.595,1153.0457],[28.7395,-20.6029,1191.9114],[28.7377,-20.6083,1113.9388],[28.7691,-20.6179,1100.9683]]]]}}