{"type":"Feature","properties":{"GID_3":"ZWE.8.4.3_2","GID_0":"ZWE","country":"Zimbabwe","GID_1":"ZWE.8_1","province":"MatabelelandNorth","NL_NAME_1":"NA","GID_2":"ZWE.8.4_2","county":"HwangeUrban","NL_NAME_2":"NA","city":"Ward11","VARNAME_3":"NA","NL_NAME_3":"NA","TYPE_3":"Ward","ENGTYPE_3":"Ward","CC_3":"NA","HASC_3":"NA","name":"Ward11.city"},
"geometry":{"type": "MultiPolygon","coordinates": [[[[26.4185,-18.3314,696.6313],[26.4124,-18.3377,697.8002],[26.4186,-18.3421,707.437],[26.384,-18.3721,717.1582],[26.4239,-18.374,747.7849],[26.4347,-18.3605,756.6427],[26.4346,-18.3508,742.1109],[26.4375,-18.3487,735.8448],[26.4374,-18.3461,726.4066],[26.4418,-18.3386,712.8258],[26.4381,-18.3364,716.0916],[26.4309,-18.3375,761.6579],[26.4279,-18.3344,702.2506],[26.4185,-18.3314,696.6313]]]]}}