{"type": "Feature","bbox": [29.2353,-18.7198,29.3962,-18.5285],"geometry": {"type": "MultiPolygon","coordinates": [[[[29.2367,-18.6047,1113.4398],[29.2353,-18.61,1126.1353],[29.2439,-18.624,1148.9],[29.2407,-18.6378,1171.1113],[29.2435,-18.6408,1170.3649],[29.2481,-18.6396,1151.4934],[29.2502,-18.6407,1152.5463],[29.2514,-18.6392,1147.9451],[29.2547,-18.64,1143.3745],[29.2765,-18.6532,1115.9373],[29.2772,-18.6585,1120.3009],[29.2821,-18.6678,1133.8768],[29.2883,-18.67,1141.3971],[29.2917,-18.6753,1140.5073],[29.2883,-18.6798,1144.3036],[29.2906,-18.6869,1147.2899],[29.289,-18.6893,1147.2721],[29.2924,-18.6922,1152.2218],[29.2946,-18.6974,1152.6345],[29.3067,-18.6977,1166.645],[29.3162,-18.7071,1168.8447],[29.3163,-18.7111,1165.2377],[29.3255,-18.7158,1159.584],[29.3308,-18.7147,1156.8159],[29.3332,-18.7185,1152.9377],[29.3369,-18.7198,1146.7878],[29.3408,-18.7172,1147.786],[29.3436,-18.7189,1141.8021],[29.3475,-18.7146,1143.095],[29.3534,-18.7143,1140.4495],[29.3481,-18.7063,1153.5532],[29.3443,-18.7052,1155.7847],[29.3425,-18.7021,1154.1996],[29.3401,-18.6873,1154.8378],[29.3494,-18.6746,1145.0446],[29.3485,-18.6721,1145.064],[29.3517,-18.661,1127.6932],[29.3602,-18.6573,1111.4202],[29.3684,-18.6366,1092.9062],[29.3783,-18.6348,1103.6934],[29.3827,-18.6288,1104.1481],[29.386,-18.6142,1101.2158],[29.391,-18.607,1094.3558],[29.3912,-18.5996,1095.7013],[29.3962,-18.5893,1091.0532],[29.3927,-18.5775,1079.6702],[29.3951,-18.5729,1073.4167],[29.3929,-18.5686,1073.1565],[29.3944,-18.5628,1068.8391],[29.3914,-18.5578,1064.8746],[29.3923,-18.553,1056.136],[29.3904,-18.5493,1050.8112],[29.3901,-18.539,1045.5054],[29.3879,-18.5334,1047.8445],[29.3855,-18.5306,1038.7233],[29.3807,-18.5285,1038.7104],[29.3797,-18.5335,1039.1827],[29.3747,-18.5362,1043.3467],[29.372,-18.5352,1045.859],[29.3716,-18.5376,1039.4879],[29.3676,-18.5412,1037.9218],[29.3686,-18.5512,1049.3015],[29.361,-18.558,1049.9257],[29.3591,-18.5627,1051.6222],[29.3581,-18.5746,1058.3694],[29.3538,-18.5768,1059.936],[29.3499,-18.575,1061.1787],[29.3456,-18.5775,1061.5463],[29.3454,-18.5867,1064.1121],[29.3362,-18.5907,1077.3312],[29.3319,-18.5958,1076.04],[29.3231,-18.5977,1077.2456],[29.3146,-18.5943,1087.5586],[29.3014,-18.5949,1086.4883],[29.2964,-18.5956,1091.4799],[29.2868,-18.6002,1091.3302],[29.2815,-18.5982,1100.6687],[29.2785,-18.5995,1101.3411],[29.2641,-18.598,1099.4976],[29.2585,-18.6006,1106.3958],[29.2527,-18.6012,1110.2135],[29.2495,-18.5996,1102.1069],[29.2453,-18.6006,1106.2938],[29.2367,-18.6047,1113.4398]]]]}
,"properties": {"GID_3": "ZWE.10.7.4_2","GID_0": "ZWE","country": "Zimbabwe","GID_1": "ZWE.10_1","province": "Midlands","NL_NAME_1": "NA","GID_2": "ZWE.10.7_2","county": "Kwekwe","NL_NAME_2": "NA","city": "Ward12","VARNAME_3": "NA","NL_NAME_3": "NA","TYPE_3": "Ward","ENGTYPE_3": "Ward","CC_3": "NA","HASC_3": "NA","name": "Ward12.city","area_km2": 153.177,"hist_schema_id": "Elevation0-9000","hist_area_km2": {"1025": 0.1608,"1050": 9.8890999999999991,"1075": 30.2641,"1100": 36.8297,"1125": 39.7788,"1150": 28.1206,"1175": 8.1338}}}