{"type":"Feature","properties":{"GID_3":"ZWE.7.7.6_2","GID_0":"ZWE","country":"Zimbabwe","GID_1":"ZWE.7_1","province":"Masvingo","NL_NAME_1":"NA","GID_2":"ZWE.7.7_2","county":"MasvingoUrban","NL_NAME_2":"NA","city":"Ward5","VARNAME_3":"NA","NL_NAME_3":"NA","TYPE_3":"Ward","ENGTYPE_3":"Ward","CC_3":"NA","HASC_3":"NA","name":"Ward5.city"},
"geometry":{"type": "MultiPolygon","coordinates": [[[[30.822,-20.0825,1077.7502],[30.8205,-20.0869,1084.2463],[30.8155,-20.0863,1095.8984],[30.8112,-20.0931,1098.7882],[30.8171,-20.097,1096.3367],[30.8209,-20.0905,1090.299],[30.824,-20.0933,1087.7944],[30.8318,-20.0893,1079.5455],[30.8325,-20.0799,1064.248],[30.8254,-20.0787,1067.8214],[30.8223,-20.0806,1074.9653],[30.822,-20.0825,1077.7502]]]]}}