{"type": "Feature","bbox": [32.0149,-19.2692,32.2547,-19.0076],"geometry": {"type": "MultiPolygon","coordinates": [[[[32.0352,-19.2692,755.3757],[32.0871,-19.224,842.7147],[32.1159,-19.2136,872.7061],[32.1278,-19.1907,963.7162],[32.1913,-19.1498,1166.343],[32.2352,-19.1351,1058.2625],[32.2529,-19.126,963.4326],[32.2466,-19.1074,975.5983],[32.2547,-19.1051,968.8584],[32.2325,-19.066,996.7475],[32.2211,-19.0694,1035.2997],[32.2079,-19.0434,1248.8916],[32.1738,-19.0325,978.9633],[32.146,-19.0076,918.9803],[32.1411,-19.0208,899.2985],[32.1402,-19.0275,895.3912],[32.1339,-19.0364,891.5862],[32.1231,-19.0442,894.4299],[32.1173,-19.0456,888.8362],[32.1145,-19.0486,880.8149],[32.1164,-19.0637,870.2365],[32.1107,-19.0721,872.7501],[32.1073,-19.0733,877.7906],[32.0883,-19.0896,858.0259],[32.0833,-19.1015,851.3647],[32.0837,-19.1063,851.9255],[32.0814,-19.1123,850.4441],[32.0856,-19.1153,886.255],[32.0862,-19.1232,843.4562],[32.0904,-19.1258,840.4645],[32.09,-19.1349,830.446],[32.0864,-19.14,827.8424],[32.0818,-19.138,832.2419],[32.0741,-19.1423,822.6992],[32.0658,-19.1424,820.8816],[32.0528,-19.157,802.0806],[32.0435,-19.1537,815.6515],[32.0399,-19.1543,840.4673],[32.0373,-19.1605,796.5184],[32.0347,-19.1616,795.7332],[32.0354,-19.1676,794.6783],[32.0331,-19.1701,787.5429],[32.0298,-19.1861,781.8682],[32.0199,-19.1951,781.707],[32.0177,-19.2092,771.4976],[32.0149,-19.215,772.5147],[32.0196,-19.223,777.1427],[32.0226,-19.2355,764.4706],[32.0272,-19.2467,763.1946],[32.0282,-19.2556,759.3173],[32.0345,-19.2647,757.5283],[32.0352,-19.2692,755.3757]]]]}
,"properties": {"GID_3": "ZWE.3.6.12_2","GID_0": "ZWE","country": "Zimbabwe","GID_1": "ZWE.3_1","province": "Manicaland","NL_NAME_1": "NA","GID_2": "ZWE.3.6_2","county": "Mutare","NL_NAME_2": "NA","city": "Ward2","VARNAME_3": "NA","NL_NAME_3": "NA","TYPE_3": "Ward","ENGTYPE_3": "Ward","CC_3": "NA","HASC_3": "NA","name": "Ward2.city","area_km2": 301.8876,"hist_schema_id": "Elevation0-9000","hist_area_km2": {"750": 0.2802,"775": 7.4469,"800": 17.3588,"825": 23.7481,"850": 29.659,"875": 32.4875,"900": 38.4007,"925": 35.9009,"950": 35.5409,"975": 28.2294,"1000": 19.4148,"1025": 11.0196,"1050": 6.4714,"1075": 3.8269,"1100": 2.8652,"1125": 2.1038,"1150": 1.5028,"1175": 1.2623,"1200": 0.9618,"1225": 0.9017,"1250": 0.6613,"1275": 0.6212,"1300": 0.3206,"1325": 0.4408,"1350": 0.2004,"1375": 0.2004,"1400": 0.0401,"1425": 0.02}}}