{"type":"Feature","properties":{"GID_3":"ZWE.10.1.24_2","GID_0":"ZWE","country":"Zimbabwe","GID_1":"ZWE.10_1","province":"Midlands","NL_NAME_1":"NA","GID_2":"ZWE.10.1_2","county":"Chirumhanzu","NL_NAME_2":"NA","city":"Ward8","VARNAME_3":"NA","NL_NAME_3":"NA","TYPE_3":"Ward","ENGTYPE_3":"Ward","CC_3":"NA","HASC_3":"NA","name":"Ward8.city"},
"geometry":{"type": "MultiPolygon","coordinates": [[[[30.6026,-19.7741,1132.548],[30.6147,-19.7812,1126.7112],[30.6249,-19.7849,1112.1377],[30.6586,-19.7918,1156.6663],[30.6583,-19.7842,1155.5585],[30.6556,-19.7777,1173.8419],[30.6621,-19.773,1171.5709],[30.6635,-19.7658,1172.0189],[30.6713,-19.756,1193.0887],[30.6708,-19.7515,1184.8718],[30.6664,-19.7498,1190.6877],[30.6657,-19.7472,1192.7936],[30.6706,-19.7313,1224.7938],[30.6674,-19.7248,1211.4019],[30.6715,-19.7209,1213.8838],[30.6773,-19.7207,1223.9226],[30.6777,-19.7186,1221.8481],[30.6771,-19.7108,1223.0908],[30.6712,-19.704,1223.7814],[30.669,-19.6938,1252.1133],[30.6709,-19.6876,1271.6704],[30.6682,-19.6836,1277.8153],[30.6705,-19.6809,1270.8778],[30.6681,-19.6784,1271.9069],[30.6632,-19.6775,1265.3096],[30.6547,-19.6683,1269.823],[30.6453,-19.6755,1256.9744],[30.6354,-19.6922,1219.7134],[30.6322,-19.6938,1203.067],[30.6248,-19.7028,1190.3608],[30.6234,-19.7143,1182.0577],[30.6211,-19.7168,1175.9431],[30.6207,-19.7206,1173.2007],[30.6187,-19.7223,1167.7499],[30.6195,-19.7242,1170.6395],[30.6174,-19.7269,1164.3398],[30.6221,-19.7289,1168.3835],[30.622,-19.7333,1161.1335],[30.6243,-19.7353,1158.5181],[30.6216,-19.7413,1154.0305],[30.6236,-19.7433,1150.4854],[30.6259,-19.7422,1148.0808],[30.6259,-19.746,1147.1217],[30.6169,-19.7435,1155.7571],[30.6005,-19.7434,1155.4495],[30.5986,-19.7591,1138.848],[30.6026,-19.7741,1132.548]]]]}}