{"type":"Feature","properties":{"GID_3":"ZWE.1.1.17_2","GID_0":"ZWE","country":"Zimbabwe","GID_1":"ZWE.1_1","province":"Bulawayo","NL_NAME_1":"NA","GID_2":"ZWE.1.1_2","county":"Bulawayo","NL_NAME_2":"NA","city":"Ward24","VARNAME_3":"NA","NL_NAME_3":"NA","TYPE_3":"Ward","ENGTYPE_3":"Ward","CC_3":"NA","HASC_3":"NA","name":"Ward24.city"},
"geometry":{"type": "MultiPolygon","coordinates": [[[[28.5255,-20.1764,1362.0671],[28.519,-20.1818,1358.2852],[28.5256,-20.1887,1353.9857],[28.5211,-20.196,1346.3591],[28.5144,-20.1973,1342.4026],[28.5129,-20.2007,1339.6206],[28.5198,-20.2062,1348.417],[28.5203,-20.2085,1347.093],[28.5265,-20.203,1357.5796],[28.536,-20.1879,1368.6362],[28.5255,-20.1764,1362.0671]]]]}}