{"type": "Feature","bbox": [28.398,-18.5699,28.7432,-18.5005],"geometry": {"type": "MultiPolygon","coordinates": [[[[28.7424,-18.5699,1219.7368],[28.7432,-18.5688,1222.2518],[28.7394,-18.5454,1250.6251],[28.7309,-18.5236,1247.1674],[28.714,-18.5151,1253.8584],[28.6388,-18.5038,1252.8578],[28.6136,-18.5005,1247.6305],[28.5626,-18.5155,1233.0571],[28.4019,-18.5076,1203.5203],[28.398,-18.5221,1206.4122],[28.4056,-18.5306,1162.8386],[28.4136,-18.5452,1134.78],[28.4167,-18.5627,1109.9142],[28.4295,-18.5657,1105.3384],[28.4384,-18.5639,1112.6294],[28.4424,-18.5664,1108.7456],[28.4511,-18.5627,1111.8606],[28.458,-18.5677,1110.9634],[28.4604,-18.5632,1115.0361],[28.4639,-18.5644,1113.0746],[28.4652,-18.5628,1115.6765],[28.4729,-18.5655,1112.7738],[28.476,-18.5611,1119.7108],[28.4846,-18.5648,1115.1464],[28.4878,-18.5611,1117.9958],[28.4985,-18.5622,1118.9915],[28.5026,-18.5598,1120.8206],[28.51,-18.559,1128.3955],[28.5121,-18.5601,1122.4714],[28.5415,-18.5584,1132.5649],[28.5516,-18.5597,1132.2919],[28.5552,-18.5572,1136.2653],[28.5672,-18.5579,1139.4302],[28.5716,-18.5553,1139.1019],[28.5748,-18.5596,1142.0116],[28.5819,-18.5616,1141.4143],[28.5886,-18.559,1143.2177],[28.5948,-18.5628,1148.2002],[28.5997,-18.5627,1149.099],[28.6086,-18.5588,1148.1794],[28.6135,-18.5609,1147.252],[28.6188,-18.5605,1150.224],[28.6237,-18.5574,1152.7139],[28.6324,-18.5578,1156.7161],[28.6447,-18.5619,1154.8368],[28.6495,-18.5607,1156.761],[28.652,-18.5568,1159.5903],[28.6567,-18.5537,1164.7896],[28.6628,-18.5519,1165.2607],[28.6807,-18.5507,1175.6454],[28.6926,-18.5558,1176.2308],[28.7116,-18.5585,1187.9507],[28.7424,-18.5699,1219.7368]]]]}
,"properties": {"GID_3": "ZWE.10.3.12_2","GID_0": "ZWE","country": "Zimbabwe","GID_1": "ZWE.10_1","province": "Midlands","NL_NAME_1": "NA","GID_2": "ZWE.10.3_2","county": "GokweSouth","NL_NAME_2": "NA","city": "Ward2","VARNAME_3": "NA","NL_NAME_3": "NA","TYPE_3": "Ward","ENGTYPE_3": "Ward","CC_3": "NA","HASC_3": "NA","name": "Ward2.city","area_km2": 191.5964,"hist_schema_id": "Elevation0-9000","hist_area_km2": {"1100": 1.3667,"1125": 22.2913,"1150": 32.4233,"1175": 34.0929,"1200": 27.2192,"1225": 30.7583,"1250": 43.4446}}}