{"type":"Feature","properties":{"GID_3":"ZWE.10.9.16_2","GID_0":"ZWE","country":"Zimbabwe","GID_1":"ZWE.10_1","province":"Midlands","NL_NAME_1":"NA","GID_2":"ZWE.10.9_2","county":"Mberengwa","NL_NAME_2":"NA","city":"Ward23","VARNAME_3":"NA","NL_NAME_3":"NA","TYPE_3":"Ward","ENGTYPE_3":"Ward","CC_3":"NA","HASC_3":"NA","name":"Ward23.city"},
"geometry":{"type": "MultiPolygon","coordinates": [[[[30.2066,-20.8896,724.7494],[30.222,-20.9051,712.1622],[30.2229,-20.9075,706.457],[30.2196,-20.9118,698.9302],[30.2243,-20.9185,694.887],[30.225,-20.9235,692.4554],[30.2456,-20.9313,685.5035],[30.2501,-20.9455,673.0752],[30.2544,-20.9472,674.9657],[30.2621,-20.946,671.4324],[30.2722,-20.9576,664.0857],[30.2702,-20.9659,662.4678],[30.2772,-20.9672,663.2374],[30.2891,-20.9745,661.4332],[30.2987,-20.9688,658.3409],[30.2946,-20.9617,665.5029],[30.2963,-20.9579,670.6251],[30.2922,-20.9569,669.8745],[30.2925,-20.951,678.674],[30.2969,-20.9472,673.6807],[30.2943,-20.9415,676.9652],[30.2918,-20.9403,681.4269],[30.2931,-20.9378,688.4686],[30.2905,-20.937,685.4548],[30.2842,-20.9389,683.8125],[30.2874,-20.925,696.8653],[30.2816,-20.9247,691.6714],[30.2779,-20.9227,700.7215],[30.2781,-20.9149,700.1994],[30.2802,-20.9136,705.3549],[30.284,-20.9141,696.6805],[30.2847,-20.9076,736.0243],[30.2934,-20.9072,707.4686],[30.2904,-20.9006,707.1906],[30.2945,-20.8918,713.5818],[30.2939,-20.8838,711.1877],[30.2866,-20.8671,725.8418],[30.2944,-20.8615,723.0488],[30.2937,-20.8562,731.9136],[30.2884,-20.8498,726.7157],[30.2882,-20.8473,729.554],[30.2787,-20.8368,732.9979],[30.2646,-20.8276,744.3474],[30.2626,-20.8218,742.8787],[30.257,-20.8282,741.4729],[30.2539,-20.8306,748.4498],[30.2506,-20.8308,831.4853],[30.2421,-20.8391,763.054],[30.2382,-20.8497,764.8637],[30.2371,-20.8573,759.1532],[30.2381,-20.8707,766.7379],[30.2283,-20.8773,755.2231],[30.2154,-20.8775,738.4418],[30.2094,-20.8826,736.4048],[30.2085,-20.888,724.4837],[30.2066,-20.8896,724.7494]]]]}}