{"type": "Feature","bbox": [30.6973,-18.2725,30.9433,-18.0965],"geometry": {"type": "MultiPolygon","coordinates": [[[[30.8072,-18.1198,1344.5231],[30.8002,-18.164,1324.4192],[30.7644,-18.1695,1299.3029],[30.7644,-18.1727,1297.9419],[30.7597,-18.1769,1297.8206],[30.7543,-18.1874,1289.9348],[30.7494,-18.1906,1291.1094],[30.7477,-18.1952,1286.9976],[30.7489,-18.1988,1283.3396],[30.7436,-18.2052,1283.3058],[30.7366,-18.2079,1282.7229],[30.7277,-18.2171,1274.373],[30.7218,-18.2204,1276.3293],[30.7175,-18.2283,1270.7539],[30.6977,-18.2368,1270.1448],[30.6973,-18.247,1264.017],[30.6996,-18.2502,1267.1213],[30.7012,-18.2581,1263.728],[30.7223,-18.2451,1269.866],[30.7265,-18.2457,1270.5615],[30.7331,-18.2418,1271.1741],[30.7384,-18.2431,1272.5239],[30.743,-18.2398,1273.0422],[30.7493,-18.2437,1272.6851],[30.7499,-18.2477,1269.434],[30.7481,-18.2512,1267.4707],[30.751,-18.255,1273.5317],[30.7521,-18.2532,1277.5472],[30.7624,-18.2532,1276.9041],[30.7731,-18.2627,1275.9463],[30.7907,-18.2631,1274.4675],[30.7908,-18.27,1274.584],[30.794,-18.2725,1277.3663],[30.7989,-18.2641,1281.1416],[30.8113,-18.2642,1281.8021],[30.8142,-18.259,1282.8645],[30.8161,-18.2596,1279.3474],[30.8279,-18.2257,1312.7317],[30.8535,-18.2142,1303.4772],[30.8527,-18.2372,1307.4307],[30.8666,-18.2408,1315.3882],[30.8557,-18.2562,1296.876],[30.8538,-18.2614,1285.9274],[30.8628,-18.2575,1288.9785],[30.8668,-18.2579,1288.3833],[30.8708,-18.2552,1295.4532],[30.8733,-18.2554,1290.0333],[30.8762,-18.2593,1286.8611],[30.8787,-18.2571,1289.4468],[30.8842,-18.2562,1294.771],[30.8832,-18.2513,1294.118],[30.8852,-18.2451,1294.515],[30.8848,-18.2407,1298.3949],[30.887,-18.2366,1304.443],[30.8945,-18.2316,1301.6597],[30.8951,-18.2268,1305.5615],[30.9022,-18.2268,1302.733],[30.9088,-18.2192,1311.0725],[30.9147,-18.2197,1306.0852],[30.9272,-18.214,1307.6934],[30.9273,-18.2092,1311.8965],[30.9383,-18.2031,1312.9385],[30.9421,-18.1975,1316.4062],[30.9418,-18.1816,1319.958],[30.94,-18.1784,1320.0786],[30.9418,-18.1685,1326.6316],[30.9397,-18.164,1328.1041],[30.9433,-18.1499,1330.441],[30.9102,-18.1185,1355.6567],[30.9166,-18.1058,1360.718],[30.9155,-18.0965,1359.4596],[30.8857,-18.1021,1340.514],[30.8799,-18.1084,1338.4207],[30.867,-18.1093,1336.9626],[30.8662,-18.1164,1331.4757],[30.8624,-18.1186,1337.0043],[30.8618,-18.1224,1327.8866],[30.8643,-18.1248,1325.0574],[30.8481,-18.1323,1330.687],[30.8072,-18.1198,1344.5231]]]]}
,"properties": {"GID_3": "ZWE.5.10.4_2","GID_0": "ZWE","country": "Zimbabwe","GID_1": "ZWE.5_1","province": "MashonalandEast","NL_NAME_1": "NA","GID_2": "ZWE.5.10_2","county": "Seke","NL_NAME_2": "NA","city": "Ward12","VARNAME_3": "NA","NL_NAME_3": "NA","TYPE_3": "Ward","ENGTYPE_3": "Ward","CC_3": "NA","HASC_3": "NA","name": "Ward12.city","area_km2": 257.1825,"hist_schema_id": "Elevation0-9000","hist_area_km2": {"1275": 28.9772,"1300": 78.5047,"1325": 110.4902,"1350": 39.1902,"1375": 0.0202}}}