{"type": "Feature","bbox": [28.1628,-19.7095,28.3785,-19.5788],"geometry": {"type": "MultiPolygon","coordinates": [[[[28.1635,-19.6576,1110.5305],[28.1628,-19.6883,1152.9198],[28.2226,-19.7095,1147.1648],[28.2305,-19.6973,1127.8911],[28.2743,-19.7061,1149.575],[28.2954,-19.6675,1111.5532],[28.3049,-19.6681,1112.7559],[28.3057,-19.6642,1114.033],[28.308,-19.6626,1116.709],[28.3154,-19.6666,1114.5101],[28.3197,-19.677,1117.2852],[28.3252,-19.673,1122.011],[28.3277,-19.6729,1132.3767],[28.3335,-19.6776,1118.6558],[28.3389,-19.6862,1121.2719],[28.3467,-19.6834,1127.8628],[28.3785,-19.6145,1212.0292],[28.3025,-19.5788,1193.1191],[28.2362,-19.6539,1097.041],[28.2398,-19.681,1133.9094],[28.1635,-19.6576,1110.5305]]]]}
,"properties": {"GID_3": "ZWE.8.8.9_2","GID_0": "ZWE","country": "Zimbabwe","GID_1": "ZWE.8_1","province": "MatabelelandNorth","NL_NAME_1": "NA","GID_2": "ZWE.8.8_2","county": "Umguza","NL_NAME_2": "NA","city": "Ward17","VARNAME_3": "NA","NL_NAME_3": "NA","TYPE_3": "Ward","ENGTYPE_3": "Ward","CC_3": "NA","HASC_3": "NA","name": "Ward17.city","area_km2": 144.5447,"hist_schema_id": "Elevation0-9000","hist_area_km2": {"1100": 10.8018,"1125": 57.4,"1150": 31.9856,"1175": 11.2031,"1200": 22.9488,"1225": 10.2053}}}