{"type": "Feature","bbox": [31.8703,-16.843,32.0516,-16.6792],"geometry": {"type": "MultiPolygon","coordinates": [[[[31.9324,-16.6823,912.4849],[31.8914,-16.7033,897.7349],[31.8836,-16.7037,911.7068],[31.8736,-16.7014,901.1695],[31.8703,-16.7137,897.6434],[31.8735,-16.725,864.6033],[31.8776,-16.7254,862.4692],[31.887,-16.738,848.5204],[31.8897,-16.7388,857.189],[31.8905,-16.747,855.8063],[31.8885,-16.7533,852.573],[31.8989,-16.76,853.0736],[31.912,-16.7604,864.4609],[31.9139,-16.7634,867.1842],[31.9127,-16.7681,858.0607],[31.9182,-16.7716,841.0809],[31.9169,-16.7788,835.0995],[31.9138,-16.7817,832.7216],[31.9156,-16.7861,829.1067],[31.9204,-16.7959,803.4823],[31.9282,-16.8003,822.163],[31.9304,-16.7992,805.9347],[31.9299,-16.8293,694.7991],[31.9419,-16.8282,694.5366],[31.957,-16.8333,679.4171],[31.9625,-16.8331,677.096],[31.9645,-16.8356,677.7321],[31.9717,-16.8386,656.6226],[31.9799,-16.834,667.5184],[31.9945,-16.8357,689.9792],[31.9981,-16.8379,651.7226],[32.0006,-16.8369,659.6104],[32.0028,-16.8405,628.9068],[32.0076,-16.843,630.6819],[32.022,-16.8353,651.4891],[32.0302,-16.8338,619.9995],[32.0332,-16.8289,681.2347],[32.0404,-16.8269,618.4138],[32.0419,-16.8217,614.2769],[32.0399,-16.8116,628.4825],[32.0516,-16.8035,635.1247],[32.051,-16.8016,651.6129],[32.0466,-16.7999,634.0903],[32.0462,-16.7977,654.0072],[32.051,-16.7928,670.668],[32.0512,-16.7863,664.0926],[32.0487,-16.7851,656.7923],[32.0504,-16.7823,671.1414],[32.0482,-16.7777,672.518],[32.0465,-16.777,672.518],[32.0447,-16.779,668.4893],[32.0435,-16.7778,668.5518],[32.0429,-16.7759,674.4757],[32.0449,-16.7746,670.2867],[32.045,-16.7722,688.9392],[32.0363,-16.762,695.9773],[32.035,-16.757,696.4026],[32.0027,-16.7514,742.6454],[31.9701,-16.721,858.7762],[31.9571,-16.717,876.6745],[31.9639,-16.7176,853.7727],[31.9725,-16.7109,849.4088],[31.9593,-16.7116,864.6273],[31.9515,-16.696,885.6251],[31.9412,-16.6902,899.0778],[31.9399,-16.6792,893.5247],[31.9324,-16.6823,912.4849]]]]}
,"properties": {"GID_3": "ZWE.4.7.24_2","GID_0": "ZWE","country": "Zimbabwe","GID_1": "ZWE.4_1","province": "MashonalandCentral","NL_NAME_1": "NA","GID_2": "ZWE.4.7_2","county": "MountDarwin","NL_NAME_2": "NA","city": "Ward30","VARNAME_3": "NA","NL_NAME_3": "NA","TYPE_3": "Ward","ENGTYPE_3": "Ward","CC_3": "NA","HASC_3": "NA","name": "Ward30.city","area_km2": 184.8584,"hist_schema_id": "Elevation0-9000","hist_area_km2": {"600": 0.203,"625": 1.6439,"650": 6.3323,"675": 11.4271,"700": 17.4355,"725": 19.8719,"750": 19.263,"775": 21.7403,"800": 20.2803,"825": 19.9573,"850": 17.6039,"875": 14.0316,"900": 11.819,"925": 3.0868,"950": 0.1625}}}