{"type": "Feature","bbox": [27.999,-18.5581,28.2051,-18.3566],"geometry": {"type": "MultiPolygon","coordinates": [[[[27.9995,-18.5467,1041.9767],[28.0087,-18.55,1038.6525],[28.0155,-18.5486,1041.6483],[28.0303,-18.5514,1041.2434],[28.0353,-18.5482,1049.1747],[28.0423,-18.5466,1046.714],[28.0483,-18.5469,1053.7068],[28.0501,-18.5484,1049.3442],[28.0586,-18.547,1057.7644],[28.063,-18.5483,1052.5439],[28.065,-18.5522,1050.8396],[28.0711,-18.5529,1051.6469],[28.0862,-18.541,1069.3221],[28.0957,-18.5433,1051.0981],[28.1002,-18.5386,1057.2205],[28.1048,-18.5392,1063.7249],[28.108,-18.5414,1053.5778],[28.1112,-18.5383,1064.4097],[28.1137,-18.5403,1057.0369],[28.1165,-18.5398,1059.7151],[28.12,-18.545,1053.6426],[28.1334,-18.5453,1065.3287],[28.1422,-18.5488,1065.1184],[28.1523,-18.5581,1064.0911],[28.1538,-18.5579,1069.9197],[28.1593,-18.5539,1062.2976],[28.146,-18.5278,1149.7163],[28.1462,-18.4991,1160.2518],[28.2027,-18.5008,1162.4868],[28.2051,-18.4781,1147.3611],[28.1981,-18.4726,1142.08],[28.1928,-18.4717,1135.1039],[28.1798,-18.4599,1103.0197],[28.1731,-18.4452,1073.1074],[28.1748,-18.4336,1053.5488],[28.1625,-18.436,1076.5635],[28.1401,-18.431,1082.1772],[28.1172,-18.4289,1136.4664],[28.0132,-18.3566,1080.835],[28.0012,-18.3573,1060.197],[27.9999,-18.4632,1081.2297],[28.0013,-18.4807,1100.366],[27.9999,-18.4978,1132.5989],[28.0013,-18.4989,1131.8737],[28.002,-18.518,1127.3811],[27.999,-18.5212,1126.1488],[28.0009,-18.532,1072.2688],[27.9995,-18.5467,1041.9767]]]]}
,"properties": {"GID_3": "ZWE.10.3.20_2","GID_0": "ZWE","country": "Zimbabwe","GID_1": "ZWE.10_1","province": "Midlands","NL_NAME_1": "NA","GID_2": "ZWE.10.3_2","county": "GokweSouth","NL_NAME_2": "NA","city": "Ward27","VARNAME_3": "NA","NL_NAME_3": "NA","TYPE_3": "Ward","ENGTYPE_3": "Ward","CC_3": "NA","HASC_3": "NA","name": "Ward27.city","area_km2": 290.2878,"hist_schema_id": "Elevation0-9000","hist_area_km2": {"1025": 0.1408,"1050": 23.5343,"1075": 52.3121,"1100": 51.2228,"1125": 69.454,"1150": 87.3104,"1175": 6.3133}}}