{"type":"Feature","properties":{"GID_3":"ZWE.3.5.2_2","GID_0":"ZWE","country":"Zimbabwe","GID_1":"ZWE.3_1","province":"Manicaland","NL_NAME_1":"NA","GID_2":"ZWE.3.5_2","county":"Makoni","NL_NAME_2":"NA","city":"Ward10","VARNAME_3":"NA","NL_NAME_3":"NA","TYPE_3":"Ward","ENGTYPE_3":"Ward","CC_3":"NA","HASC_3":"NA","name":"Ward10.city"},
"geometry":{"type": "MultiPolygon","coordinates": [[[[32.4458,-18.3995,1798.1542],[32.4408,-18.373,1753.603],[32.4096,-18.3846,1738.3993],[32.4247,-18.3362,1790.3811],[32.4539,-18.319,1814.7234],[32.4207,-18.2928,1782.0774],[32.4184,-18.2763,1750.3807],[32.4124,-18.2721,1609.0367],[32.4106,-18.269,1563.72],[32.4067,-18.253,1525.3645],[32.4016,-18.2422,1425.3862],[32.4025,-18.2398,1449.6678],[32.3871,-18.2225,1382.5415],[32.3838,-18.2149,1385.1941],[32.3806,-18.2136,1349.1019],[32.3798,-18.2092,1342.7407],[32.383,-18.2052,1337.8533],[32.3846,-18.1982,1321.3928],[32.3891,-18.1935,1391.3085],[32.3938,-18.1928,1340.9613],[32.399,-18.189,1306.1226],[32.3961,-18.1852,1443.1704],[32.3338,-18.1848,1279.3611],[32.3316,-18.1688,1250.7322],[32.3282,-18.166,1252.5736],[32.3161,-18.1628,1206.5162],[32.3119,-18.1928,1225.9871],[32.312,-18.1939,1218.8267],[32.3155,-18.1932,1226.1161],[32.3151,-18.1955,1217.917],[32.3073,-18.2102,1252.4585],[32.2966,-18.2235,1320.2937],[32.2886,-18.2309,1422.9052],[32.2786,-18.2501,1646.5609],[32.2986,-18.3054,1650.8989],[32.3196,-18.2983,1645.2676],[32.3454,-18.3077,1684.6552],[32.3418,-18.3337,1681.2153],[32.307,-18.3451,1679.0471],[32.3147,-18.3624,1656.3995],[32.2919,-18.362,1700.6171],[32.2765,-18.3535,1644.676],[32.252,-18.3729,1612.8091],[32.2926,-18.3765,1677.478],[32.317,-18.3698,1628.6184],[32.3389,-18.4167,1659.4645],[32.3582,-18.4012,1745.5219],[32.3791,-18.4229,1710.1453],[32.4458,-18.3995,1798.1542]]]]}}