{"type": "Feature","bbox": [29.8922,-17.9711,30.1669,-17.8523],"geometry": {"type": "MultiPolygon","coordinates": [[[[30.1665,-17.8537,1134.4673],[30.1623,-17.8523,1144.8119],[30.1576,-17.854,1137.5349],[30.1558,-17.8569,1131.9712],[30.1491,-17.855,1129.3003],[30.148,-17.8584,1125.2017],[30.1421,-17.8648,1120.6476],[30.1391,-17.866,1126.5795],[30.1384,-17.8682,1115.5693],[30.1346,-17.8667,1121.3931],[30.1337,-17.8708,1110.7448],[30.1299,-17.873,1109.3857],[30.125,-17.8675,1112.9351],[30.1214,-17.8674,1104.5887],[30.1185,-17.8618,1108.2637],[30.1137,-17.8601,1104.9705],[30.1137,-17.8622,1103.1785],[30.1066,-17.8637,1102.4867],[30.1035,-17.8571,1113.0259],[30.1019,-17.8565,1113.0259],[30.1002,-17.8593,1114.5476],[30.0955,-17.859,1093.5513],[30.0865,-17.8624,1087.5864],[30.0833,-17.862,1082.9224],[30.0765,-17.8668,1073.8436],[30.0763,-17.8706,1065.241],[30.0729,-17.8727,1071.172],[30.0679,-17.8694,1075.9414],[30.0573,-17.8716,1057.1276],[30.0553,-17.8661,1055.2784],[30.049,-17.8674,1057.0979],[30.0454,-17.8643,1068.2625],[30.041,-17.8664,1042.5229],[30.0423,-17.871,1037.22],[30.0383,-17.8707,1036.7322],[30.0366,-17.8725,1029.3705],[30.0309,-17.8648,1026.6075],[30.0199,-17.8641,1033.342],[30.0175,-17.8658,1019.3126],[29.9984,-17.8625,1026.049],[29.9816,-17.8635,1004.4979],[29.9782,-17.8609,1026.8235],[29.9715,-17.8634,989.2636],[29.9675,-17.8598,997.8231],[29.9628,-17.8645,991.0742],[29.9578,-17.8667,986.3009],[29.952,-17.8625,989.8009],[29.9486,-17.8618,987.2303],[29.9456,-17.8648,977.3839],[29.9451,-17.8691,977.8096],[29.9412,-17.8658,984.8336],[29.9378,-17.8659,989.9874],[29.9218,-17.8725,1022.3005],[29.911,-17.8743,1011.6813],[29.9047,-17.8795,971.9921],[29.9047,-17.8824,992.0726],[29.903,-17.8832,977.1158],[29.905,-17.8893,976.3679],[29.9037,-17.8939,957.6158],[29.8986,-17.8948,970.179],[29.8922,-17.901,984.2247],[29.8935,-17.9071,973.4342],[29.8951,-17.9067,998.8218],[29.8968,-17.9085,983.4478],[29.8972,-17.9174,979.9023],[29.8942,-17.9234,983.6317],[29.899,-17.9356,994.2516],[29.8952,-17.9407,1015.4191],[29.8941,-17.9459,1007.6865],[29.9041,-17.9541,1015.8463],[29.9062,-17.9586,1023.5],[29.9916,-17.9711,994.1442],[29.9978,-17.9574,990.4006],[29.9948,-17.9489,1001.396],[29.991,-17.9437,1009.4824],[29.9881,-17.9428,1000.4873],[29.99,-17.9377,1002.5535],[29.988,-17.9326,1032.1421],[29.9917,-17.9325,1012.5101],[29.9974,-17.9293,1021.7829],[30.0034,-17.9295,1016.1319],[30.0035,-17.9203,1025.4313],[30.0055,-17.9183,1026.2805],[30.0096,-17.9216,1032.5098],[30.0131,-17.9292,1031.5289],[30.0174,-17.9301,1047.8967],[30.0222,-17.9251,1052.3613],[30.0267,-17.9163,1061.2559],[30.0302,-17.9208,1063.7531],[30.0336,-17.9223,1064.26],[30.0345,-17.9288,1067.2224],[30.0364,-17.9279,1064.4243],[30.0381,-17.9182,1076.364],[30.042,-17.9215,1076.0057],[30.0491,-17.9184,1080.7202],[30.0521,-17.9199,1079.2629],[30.0544,-17.917,1085.9019],[30.065,-17.9196,1079.7616],[30.0683,-17.9173,1092.8792],[30.0721,-17.9173,1092.505],[30.074,-17.9246,1088.8812],[30.0877,-17.9354,1130.9766],[30.0943,-17.9437,1128.8638],[30.0994,-17.9316,1148.9613],[30.1669,-17.9308,1182.183],[30.1665,-17.8537,1134.4673]]]]}
,"properties": {"GID_3": "ZWE.6.1.13_2","GID_0": "ZWE","country": "Zimbabwe","GID_1": "ZWE.6_1","province": "MashonalandWest","NL_NAME_1": "NA","GID_2": "ZWE.6.1_2","county": "Chegutu","NL_NAME_2": "NA","city": "Ward20","VARNAME_3": "NA","NL_NAME_3": "NA","TYPE_3": "Ward","ENGTYPE_3": "Ward","CC_3": "NA","HASC_3": "NA","name": "Ward20.city","area_km2": 237.9477,"hist_schema_id": "Elevation0-9000","hist_area_km2": {"950": 0.9483,"975": 12.6099,"1000": 32.9256,"1025": 41.3383,"1050": 34.2971,"1075": 32.3208,"1100": 32.7054,"1125": 23.5662,"1150": 17.3309,"1175": 9.7035,"1200": 0.2017}}}