{"type": "Feature","bbox": [28.498,-20.2333,28.5283,-20.2009],"geometry": {"type": "MultiPolygon","coordinates": [[[[28.5131,-20.2009,1339.6206],[28.498,-20.2333,1365.9603],[28.5143,-20.231,1375.947],[28.5283,-20.2184,1359.4929],[28.5233,-20.2146,1352.8855],[28.5198,-20.2062,1348.417],[28.5131,-20.2009,1339.6206]]]]}
,"properties": {"GID_3": "ZWE.1.1.19_2","GID_0": "ZWE","country": "Zimbabwe","GID_1": "ZWE.1_1","province": "Bulawayo","NL_NAME_1": "NA","GID_2": "ZWE.1.1_2","county": "Bulawayo","NL_NAME_2": "NA","city": "Ward26","VARNAME_3": "NA","NL_NAME_3": "NA","TYPE_3": "Ward","ENGTYPE_3": "Ward","CC_3": "NA","HASC_3": "NA","name": "Ward26.city","area_km2": 5.451416,"hist_schema_id": "Elevation0-9000","hist_area_km2": {"1350": 2.228415,"1375": 3.223001}}}