{"type": "Feature","bbox": [28.0515,-17.546,28.2518,-17.22],"geometry": {"type": "MultiPolygon","coordinates": [[[[28.1359,-17.22,582.7257],[28.1262,-17.2226,719.7623],[28.1083,-17.2314,721.9806],[28.1037,-17.2386,746.1722],[28.096,-17.246,772.8094],[28.089,-17.2468,737.2462],[28.0855,-17.2578,772.1699],[28.0897,-17.2619,783.5106],[28.0895,-17.267,772.512],[28.0827,-17.2746,708.0587],[28.0813,-17.2795,696.8905],[28.089,-17.2921,709.105],[28.0864,-17.3075,735.8992],[28.0903,-17.3228,801.2126],[28.0912,-17.3515,764.3993],[28.0879,-17.3696,766.5978],[28.0886,-17.3732,768.9447],[28.0853,-17.3846,751.1466],[28.0783,-17.3946,726.7304],[28.0689,-17.4152,737.4039],[28.0637,-17.4202,744.7134],[28.0613,-17.4251,747.3942],[28.0578,-17.4274,739.7474],[28.0564,-17.431,723.9161],[28.0515,-17.435,691.7178],[28.0524,-17.4403,678.2435],[28.0575,-17.4499,676.3784],[28.0581,-17.4548,676.4046],[28.056,-17.4654,661.6908],[28.059,-17.4685,659.2921],[28.0531,-17.4737,659.4078],[28.0623,-17.485,671.1864],[28.0681,-17.4888,678.9219],[28.0708,-17.4887,682.1395],[28.0712,-17.4906,687.532],[28.0736,-17.4906,684.9291],[28.073,-17.4978,692.7275],[28.0756,-17.5038,705.6029],[28.0778,-17.5046,710.1528],[28.081,-17.5093,721.222],[28.0848,-17.5234,781.3525],[28.0888,-17.5285,932.8015],[28.0859,-17.5349,942.4617],[28.0883,-17.546,1054.6714],[28.0957,-17.5434,1070.7286],[28.1084,-17.5347,1019.1683],[28.1098,-17.531,876.4072],[28.1142,-17.5297,849.1625],[28.208,-17.5298,669.7102],[28.2087,-17.5259,654.8854],[28.2145,-17.5191,711.0123],[28.2165,-17.5124,863.5511],[28.2269,-17.504,647.6955],[28.2227,-17.4881,707.8395],[28.2277,-17.4693,621.2375],[28.2502,-17.4476,605.2966],[28.2518,-17.4439,604.7363],[28.2512,-17.4391,604.1327],[28.2435,-17.4254,609.8649],[28.2474,-17.4036,622.1276],[28.2504,-17.401,655.7626],[28.2484,-17.3993,657.5092],[28.2427,-17.3997,600.3094],[28.2419,-17.3949,603.3367],[28.2394,-17.392,604.4968],[28.2392,-17.3844,610.6554],[28.2424,-17.3735,586.6404],[28.24,-17.3654,584.0504],[28.2338,-17.3551,632.7209],[28.2311,-17.3533,592.494],[28.2211,-17.35,635.67],[28.2099,-17.3504,654.4973],[28.2046,-17.3422,626.4729],[28.1963,-17.3418,605.5527],[28.1933,-17.336,576.6921],[28.1979,-17.3291,597.251],[28.1896,-17.3241,584.0601],[28.182,-17.3158,644.175],[28.1798,-17.3157,629.0749],[28.1758,-17.3199,571.0454],[28.1748,-17.3238,567.7424],[28.1731,-17.3234,584.2704],[28.1718,-17.308,608.9294],[28.1635,-17.3071,568.2822],[28.1654,-17.2966,581.3114],[28.1715,-17.2893,589.9056],[28.1721,-17.2858,560.5254],[28.1721,-17.2822,633.3228],[28.1696,-17.283,562.4517],[28.168,-17.2804,609.5745],[28.1645,-17.279,581.7123],[28.166,-17.2737,573.4503],[28.172,-17.2727,565.8413],[28.1706,-17.2677,630.3015],[28.1656,-17.2653,622.4149],[28.153,-17.2659,564.2849],[28.15,-17.2623,621.647],[28.1454,-17.2626,594.9727],[28.1421,-17.2608,565.6112],[28.1422,-17.2527,614.5248],[28.1472,-17.2496,600.263],[28.1496,-17.2504,610.0469],[28.1477,-17.2555,573.2401],[28.152,-17.2581,558.6588],[28.1541,-17.2579,572.3433],[28.1566,-17.2544,630.3732],[28.1622,-17.2562,601.1987],[28.1647,-17.2544,600.1326],[28.1646,-17.2507,563.4091],[28.1437,-17.2425,542.6713],[28.1436,-17.2404,566.132],[28.15,-17.2341,638.5414],[28.1505,-17.2318,655.562],[28.1384,-17.2283,535.9651],[28.1359,-17.22,582.7257]]]]}
,"properties": {"GID_3": "ZWE.8.1.16_2","GID_0": "ZWE","country": "Zimbabwe","GID_1": "ZWE.8_1","province": "MatabelelandNorth","NL_NAME_1": "NA","GID_2": "ZWE.8.1_2","county": "Binga","NL_NAME_2": "NA","city": "Ward23","VARNAME_3": "NA","NL_NAME_3": "NA","TYPE_3": "Ward","ENGTYPE_3": "Ward","CC_3": "NA","HASC_3": "NA","name": "Ward23.city","area_km2": 464.5568,"hist_schema_id": "Elevation0-9000","hist_area_km2": {"525": 0.5873,"550": 1.7414,"575": 6.0729,"600": 17.3639,"625": 44.4325,"650": 56.994,"675": 61.7631,"700": 70.1381,"725": 60.292,"750": 62.4165,"775": 36.7631,"800": 19.098,"825": 9.4253,"850": 4.4888,"875": 2.8104,"900": 2.3454,"925": 1.8197,"950": 1.6579,"975": 1.2535,"1000": 1.0311,"1025": 0.9502,"1050": 0.748,"1075": 0.2224,"1100": 0.1213,"1125": 0.0202}}}