{"type":"Feature","properties":{"GID_3":"ZWE.7.2.26_2","GID_0":"ZWE","country":"Zimbabwe","GID_1":"ZWE.7_1","province":"Masvingo","NL_NAME_1":"NA","GID_2":"ZWE.7.2_2","county":"Chiredzi","NL_NAME_2":"NA","city":"Ward32","VARNAME_3":"NA","NL_NAME_3":"NA","TYPE_3":"Ward","ENGTYPE_3":"Ward","CC_3":"NA","HASC_3":"NA","name":"Ward32.city"},
"geometry":{"type": "MultiPolygon","coordinates": [[[[31.7478,-21.0113,342.5518],[31.7494,-21.0145,340.2452],[31.7545,-21.0178,355.7847],[31.7525,-21.0229,338.2838],[31.7538,-21.0253,335.5448],[31.7574,-21.0269,336.1082],[31.7695,-21.0272,343.6353],[31.7758,-21.0297,333.5487],[31.7822,-21.0364,328.2547],[31.7874,-21.057,329.3122],[31.7904,-21.0618,339.4544],[31.8084,-21.0624,326.3821],[31.8147,-21.0712,335.837],[31.8239,-21.0895,330.5106],[31.8353,-21.095,325.8247],[31.8321,-21.1093,322.5813],[31.8334,-21.1165,314.93],[31.8419,-21.1171,324.2513],[31.8473,-21.1212,325.9548],[31.8557,-21.1233,320.1294],[31.8546,-21.1279,321.7783],[31.8477,-21.1357,320.2599],[31.8461,-21.1402,311.067],[31.8483,-21.1429,308.0249],[31.8596,-21.1467,316.7745],[31.8628,-21.15,305.8831],[31.8622,-21.156,312.048],[31.8641,-21.167,304.6613],[31.8604,-21.1774,306.5164],[31.8677,-21.1868,312.4017],[31.8601,-21.1924,297.0659],[31.866,-21.2078,294.5097],[31.8628,-21.2321,293.357],[31.8645,-21.2375,293.0818],[31.8717,-21.2453,303.3959],[31.8977,-21.2188,334.5512],[31.9267,-21.1774,337.3035],[31.9809,-21.0426,372.9549],[32.0276,-21.0136,399.9245],[31.9779,-20.952,469.0355],[32.0164,-20.9101,424.9954],[32.0372,-20.9035,423.7226],[32.0314,-20.8857,409.9339],[32.0185,-20.8848,409.7529],[32.0191,-20.8783,407.5528],[32.0229,-20.8718,407.7801],[32.0209,-20.8689,411.1509],[31.9965,-20.8717,411.7302],[31.9916,-20.8703,412.8699],[31.9937,-20.8617,418.2922],[31.9906,-20.8552,415.5913],[31.984,-20.8516,415.8865],[31.9759,-20.8527,416.427],[31.9743,-20.8362,422.2941],[31.9678,-20.8324,422.3824],[31.9671,-20.8265,424.8449],[31.924,-20.8729,461.403],[31.8764,-20.8661,470.1537],[31.8668,-20.8466,468.983],[31.8277,-20.8674,454.2744],[31.7547,-20.9155,435.1163],[31.7834,-20.9772,387.1574],[31.7575,-20.9964,363.9333],[31.7463,-21.0065,351.3271],[31.7478,-21.0113,342.5518]]]]}}