{"type":"Feature","properties":{"GID_3":"ZWE.8.2.22_2","GID_0":"ZWE","country":"Zimbabwe","GID_1":"ZWE.8_1","province":"MatabelelandNorth","NL_NAME_1":"NA","GID_2":"ZWE.8.2_2","county":"Bubi","NL_NAME_2":"NA","city":"Ward8","VARNAME_3":"NA","NL_NAME_3":"NA","TYPE_3":"Ward","ENGTYPE_3":"Ward","CC_3":"NA","HASC_3":"NA","name":"Ward8.city"},
"geometry":{"type": "MultiPolygon","coordinates": [[[[28.6241,-19.4778,1191.4279],[28.5719,-19.4574,1156.1521],[28.6011,-19.4253,1182.0308],[28.5621,-19.392,1176.7606],[28.533,-19.4217,1143.9541],[28.4981,-19.413,1144.3103],[28.4984,-19.4085,1140.0596],[28.4951,-19.4112,1141.2793],[28.4747,-19.4644,1115.7234],[28.4793,-19.4684,1111.2936],[28.4836,-19.4669,1113.6619],[28.4868,-19.468,1113.2371],[28.4948,-19.4668,1113.8453],[28.4716,-19.5006,1140.5328],[28.5281,-19.5377,1171.1862],[28.5334,-19.5306,1160.9952],[28.5332,-19.5267,1160.0168],[28.5349,-19.5238,1158.8572],[28.5546,-19.5087,1136.025],[28.5613,-19.5059,1134.3198],[28.5618,-19.5039,1134.5745],[28.5657,-19.5036,1135.6909],[28.576,-19.4986,1139.8492],[28.5843,-19.4985,1138.1938],[28.5857,-19.5,1147.2974],[28.5933,-19.4951,1147.8752],[28.5922,-19.4848,1161.6021],[28.6241,-19.4778,1191.4279]]]]}}