{"type": "Feature","bbox": [31.1578,-19.0262,31.2944,-18.845],"geometry": {"type": "MultiPolygon","coordinates": [[[[31.1988,-19.0218,1352.913],[31.2042,-19.018,1465.2994],[31.2127,-19.0166,1446.9683],[31.2222,-19.0063,1464.4655],[31.2226,-19.0009,1478.0974],[31.2248,-18.9971,1480.6526],[31.2223,-18.9915,1478.9573],[31.2257,-18.9843,1456.7642],[31.2264,-18.9733,1440.2163],[31.2343,-18.9679,1427.0327],[31.2375,-18.9609,1417.7021],[31.2457,-18.9536,1437.8882],[31.2457,-18.9461,1472.8999],[31.248,-18.9423,1467.5575],[31.2514,-18.9416,1462.1497],[31.2543,-18.9437,1461.1184],[31.2553,-18.9488,1460.2642],[31.2637,-18.9488,1436.1627],[31.2688,-18.9508,1418.7064],[31.2764,-18.9479,1445.1794],[31.2908,-18.9381,1464.5734],[31.2943,-18.933,1477.9492],[31.2944,-18.9316,1482.3997],[31.2828,-18.9256,1477.6185],[31.2792,-18.9199,1475.2494],[31.2741,-18.8871,1493.9584],[31.2797,-18.8862,1493.3308],[31.2746,-18.8748,1472.6072],[31.2599,-18.8622,1457.6057],[31.2561,-18.8504,1457.7903],[31.2524,-18.845,1445.1292],[31.2451,-18.8454,1448.9913],[31.2365,-18.8587,1457.3547],[31.222,-18.868,1485.9258],[31.216,-18.8701,1506.5895],[31.2047,-18.8785,1511.5298],[31.1907,-18.8956,1466.3373],[31.1906,-18.8982,1459.6956],[31.1985,-18.9073,1456.538],[31.1892,-18.933,1477.6107],[31.1669,-18.9585,1495.6021],[31.1613,-18.9697,1446.4426],[31.1629,-18.9883,1414.3833],[31.1594,-18.9918,1407.2694],[31.1578,-18.9985,1402.4108],[31.1587,-19.0015,1393.5425],[31.1624,-19.003,1416.6646],[31.1654,-19.0076,1384.481],[31.1708,-19.0205,1360.5793],[31.1778,-19.0262,1364.5062],[31.1836,-19.0222,1360.0898],[31.1913,-19.0204,1361.6885],[31.1988,-19.0218,1352.913]]]]}
,"properties": {"GID_3": "ZWE.5.1.9_2","GID_0": "ZWE","country": "Zimbabwe","GID_1": "ZWE.5_1","province": "MashonalandEast","NL_NAME_1": "NA","GID_2": "ZWE.5.1_2","county": "Chikomba","NL_NAME_2": "NA","city": "Ward17","VARNAME_3": "NA","NL_NAME_3": "NA","TYPE_3": "Ward","ENGTYPE_3": "Ward","CC_3": "NA","HASC_3": "NA","name": "Ward17.city","area_km2": 138.9591,"hist_schema_id": "Elevation0-9000","hist_area_km2": {"1350": 0.1403,"1375": 1.0223,"1400": 1.6037,"1425": 10.4064,"1450": 34.2709,"1475": 55.0705,"1500": 34.6999,"1525": 1.7452}}}