{"type":"Feature","properties":{"GID_3":"ZWE.3.9.22_2","GID_0":"ZWE","country":"Zimbabwe","GID_1":"ZWE.3_1","province":"Manicaland","NL_NAME_1":"NA","GID_2":"ZWE.3.9_2","county":"Nyanga","NL_NAME_2":"NA","city":"Ward29","VARNAME_3":"NA","NL_NAME_3":"NA","TYPE_3":"Ward","ENGTYPE_3":"Ward","CC_3":"NA","HASC_3":"NA","name":"Ward29.city"},
"geometry":{"type": "MultiPolygon","coordinates": [[[[32.7148,-18.2307,1759.3773],[32.7216,-18.2313,1712.5363],[32.7203,-18.2423,1756.0294],[32.7265,-18.242,1712.0818],[32.7259,-18.2512,1732.1844],[32.7209,-18.2544,1768.5994],[32.7336,-18.2601,1797.8119],[32.7516,-18.2518,1835.9836],[32.7445,-18.2456,1778.3926],[32.7591,-18.2314,1893.5715],[32.7569,-18.2191,1718.9211],[32.7411,-18.2213,1648.3748],[32.7362,-18.2158,1645.766],[32.7317,-18.2148,1639.2347],[32.7148,-18.2307,1759.3773]]]]}}