{"type":"Feature","properties":{"GID_3":"ZWE.1.1.10_2","GID_0":"ZWE","country":"Zimbabwe","GID_1":"ZWE.1_1","province":"Bulawayo","NL_NAME_1":"NA","GID_2":"ZWE.1.1_2","county":"Bulawayo","NL_NAME_2":"NA","city":"Ward18","VARNAME_3":"NA","NL_NAME_3":"NA","TYPE_3":"Ward","ENGTYPE_3":"Ward","CC_3":"NA","HASC_3":"NA","name":"Ward18.city"},
"geometry":{"type": "MultiPolygon","coordinates": [[[[28.5173,-20.1439,1390.6108],[28.5098,-20.1343,1374.8453],[28.5101,-20.1317,1375.3512],[28.5001,-20.1285,1355.6338],[28.4923,-20.1415,1371.2854],[28.5035,-20.1432,1373.3389],[28.5077,-20.1464,1381.7668],[28.5129,-20.1469,1383.4889],[28.5164,-20.1467,1391.0955],[28.5173,-20.1439,1390.6108]]]]}}