{"type":"Feature","properties":{"GID_3":"ZWE.4.6.15_2","GID_0":"ZWE","country":"Zimbabwe","GID_1":"ZWE.4_1","province":"MashonalandCentral","NL_NAME_1":"NA","GID_2":"ZWE.4.6_2","county":"Mbire","NL_NAME_2":"NA","city":"Ward7","VARNAME_3":"NA","NL_NAME_3":"NA","TYPE_3":"Ward","ENGTYPE_3":"Ward","CC_3":"NA","HASC_3":"NA","name":"Ward7.city"},
"geometry":{"type": "MultiPolygon","coordinates": [[[[30.6909,-16.3966,1030.6835],[30.6894,-16.3924,930.8749],[30.6827,-16.3914,934.1937],[30.6781,-16.3884,768.617],[30.6823,-16.3859,607.3235],[30.6788,-16.374,474.8844],[30.682,-16.3671,465.1057],[30.6785,-16.3562,449.6483],[30.6812,-16.3512,446.8516],[30.6844,-16.3369,440.4699],[30.688,-16.3354,439.1154],[30.6936,-16.337,445.8283],[30.7084,-16.3505,458.4375],[30.7206,-16.3556,465.3662],[30.7282,-16.3631,473.1477],[30.7252,-16.3567,468.5424],[30.7284,-16.3493,463.377],[30.728,-16.3374,454.7548],[30.7285,-16.3364,454.7548],[30.7295,-16.3384,453.1559],[30.7332,-16.3295,447.321],[30.7293,-16.3116,444.7948],[30.7294,-16.3052,440.9427],[30.7326,-16.2958,446.5279],[30.7301,-16.2878,451.4022],[30.7302,-16.2804,460.8446],[30.7241,-16.2734,454.9413],[30.7232,-16.2675,449.5781],[30.7248,-16.264,450.6031],[30.7228,-16.2595,450.9338],[30.7085,-16.2562,440.6967],[30.6993,-16.2599,435.0032],[30.6889,-16.258,428.7965],[30.6763,-16.2519,424.7126],[30.6714,-16.2474,423.4357],[30.6614,-16.2461,417.8027],[30.6608,-16.248,417.5854],[30.6588,-16.2461,416.6972],[30.6558,-16.2474,417.9476],[30.6557,-16.2461,416.8996],[30.6538,-16.2461,415.4531],[30.6457,-16.2487,412.6373],[30.6379,-16.239,408.503],[30.6276,-16.2365,402.0034],[30.6253,-16.232,401.4819],[30.618,-16.2289,397.6974],[30.615,-16.2252,396.7222],[30.6125,-16.2251,396.8346],[30.6144,-16.2291,397.688],[30.6188,-16.2302,399.4374],[30.6171,-16.2322,397.0629],[30.6212,-16.2321,400.3459],[30.6202,-16.2353,398.8123],[30.6226,-16.2424,399.1989],[30.6187,-16.2487,400.9413],[30.6221,-16.2547,403.225],[30.6271,-16.2565,403.03],[30.6293,-16.2595,405.0859],[30.6294,-16.2635,404.7721],[30.6312,-16.2604,404.8142],[30.6324,-16.2605,404.8142],[30.6326,-16.2635,410.1583],[30.6355,-16.2613,405.1377],[30.6361,-16.2674,405.1375],[30.6387,-16.2663,406.3947],[30.6414,-16.2695,407.3471],[30.642,-16.267,407.7987],[30.6437,-16.2678,407.9857],[30.6454,-16.2691,408.4587],[30.6451,-16.2723,406.9597],[30.6481,-16.2706,409.5047],[30.6488,-16.2722,409.8879],[30.647,-16.2756,410.5947],[30.6515,-16.2761,411.1645],[30.6531,-16.2794,410.1266],[30.6526,-16.2835,413.7382],[30.6562,-16.2796,412.6098],[30.6582,-16.2794,413.2979],[30.6621,-16.2856,413.928],[30.6604,-16.2918,415.4724],[30.6578,-16.2937,418.1195],[30.6616,-16.2979,418.1245],[30.6631,-16.3041,421.7082],[30.6654,-16.3063,421.2956],[30.6626,-16.3137,423.3552],[30.6655,-16.3162,422.9106],[30.6582,-16.3244,428.1572],[30.6543,-16.3244,431.7327],[30.6556,-16.3346,441.3381],[30.652,-16.3344,434.2493],[30.6509,-16.3363,437.2804],[30.6537,-16.3425,440.2347],[30.6525,-16.347,443.0341],[30.6555,-16.3516,448.2498],[30.6541,-16.3562,450.162],[30.6576,-16.3611,457.1238],[30.6566,-16.373,481.2082],[30.6586,-16.3798,558.3118],[30.6593,-16.3966,1020.4265],[30.6909,-16.3966,1030.6835]]]]}}