{"type": "Feature","bbox": [28.3158,-19.3422,28.5134,-19.2261],"geometry": {"type": "MultiPolygon","coordinates": [[[[28.3282,-19.2261,1153.7583],[28.3158,-19.271,1162.443],[28.3582,-19.2817,1174.5298],[28.3882,-19.2858,1186.2412],[28.4149,-19.2927,1192.7972],[28.4437,-19.2977,1203.9768],[28.4424,-19.3044,1184.3193],[28.4306,-19.3344,1147.0701],[28.4764,-19.3422,1147.6199],[28.4751,-19.3324,1159.355],[28.481,-19.3265,1164.2881],[28.4963,-19.2949,1230.181],[28.5133,-19.2736,1165.59],[28.5134,-19.2651,1149.167],[28.5115,-19.2589,1141.7334],[28.4991,-19.253,1140.7937],[28.4341,-19.2413,1139.0286],[28.3282,-19.2261,1153.7583]]]]}
,"properties": {"GID_3": "ZWE.8.2.12_2","GID_0": "ZWE","country": "Zimbabwe","GID_1": "ZWE.8_1","province": "MatabelelandNorth","NL_NAME_1": "NA","GID_2": "ZWE.8.2_2","county": "Bubi","NL_NAME_2": "NA","city": "Ward2","VARNAME_3": "NA","NL_NAME_3": "NA","TYPE_3": "Ward","ENGTYPE_3": "Ward","CC_3": "NA","HASC_3": "NA","name": "Ward2.city","area_km2": 132.472,"hist_schema_id": "Elevation0-9000","hist_area_km2": {"1125": 5.2246,"1150": 27.7,"1175": 60.9834,"1200": 27.9175,"1225": 10.6465}}}