{"type":"Feature","properties":{"GID_3":"ZWE.10.11.10_2","GID_0":"ZWE","country":"Zimbabwe","GID_1":"ZWE.10_1","province":"Midlands","NL_NAME_1":"NA","GID_2":"ZWE.10.11_2","county":"Shurugwi","NL_NAME_2":"NA","city":"Ward18","VARNAME_3":"NA","NL_NAME_3":"NA","TYPE_3":"Ward","ENGTYPE_3":"Ward","CC_3":"NA","HASC_3":"NA","name":"Ward18.city"},
"geometry":{"type": "MultiPolygon","coordinates": [[[[29.8084,-19.691,1298.6671],[29.8124,-19.6996,1290.719],[29.817,-19.6999,1292.2242],[29.8162,-19.7011,1292.2242],[29.819,-19.7053,1288.7393],[29.8186,-19.7089,1283.5779],[29.8152,-19.7114,1284.248],[29.8135,-19.7203,1280.3417],[29.826,-19.7222,1270.0748],[29.8331,-19.7217,1265.6561],[29.8346,-19.7226,1272.6562],[29.8339,-19.7257,1263.4983],[29.8373,-19.7362,1261.4321],[29.847,-19.7371,1261.2046],[29.8517,-19.7458,1254.1426],[29.8595,-19.7495,1261.641],[29.8541,-19.7561,1249.5194],[29.8552,-19.7626,1242.7588],[29.8518,-19.7648,1242.5],[29.8538,-19.7742,1242.5],[29.8501,-19.7765,1242.5],[29.8474,-19.7861,1242.5],[29.8437,-19.7889,1242.5],[29.842,-19.7933,1226.9541],[29.8421,-19.795,1225.8784],[29.8458,-19.795,1228.4346],[29.8442,-19.8019,1222.4612],[29.8459,-19.8055,1223.7632],[29.8454,-19.8125,1211.0812],[29.8415,-19.8201,1205.0984],[29.8411,-19.8284,1204.8976],[29.8377,-19.8359,1197.4507],[29.8418,-19.8387,1206.4453],[29.8405,-19.8432,1200.0647],[29.8439,-19.848,1190.0474],[29.8412,-19.8519,1189.9108],[29.8395,-19.8603,1194.8447],[29.8352,-19.8643,1187.4598],[29.8366,-19.866,1199.9136],[29.839,-19.8664,1201.0336],[29.8854,-19.8453,1239.9604],[29.9007,-19.8257,1154.0835],[29.902,-19.8281,1142.0979],[29.9116,-19.834,1134.4666],[29.9145,-19.8245,1147.8044],[29.9132,-19.8215,1139.3108],[29.9171,-19.8191,1147.8165],[29.9148,-19.8159,1147.6757],[29.9161,-19.8091,1148.631],[29.9119,-19.8076,1149.4253],[29.9124,-19.8054,1155.082],[29.9246,-19.7983,1227.0947],[29.9684,-19.8121,1128.8207],[29.9849,-19.7929,1116.434],[29.9974,-19.8069,1198.3649],[30.0279,-19.8237,1066.7537],[30.0383,-19.8414,1094.3448],[30.039,-19.8144,1084.4785],[30.0421,-19.7886,1085.8507],[30.0458,-19.7768,1104.0735],[30.0509,-19.774,1091.1814],[30.054,-19.7655,1094.1338],[30.0529,-19.7624,1099.149],[30.0486,-19.7607,1098.1899],[30.0539,-19.7504,1110.954],[30.0249,-19.7506,1100.8704],[30.0145,-19.7851,1180.7761],[30.0018,-19.7855,1084.2732],[30.0101,-19.7729,1087.3036],[30.0081,-19.7705,1096.1783],[30.0012,-19.7737,1096.6039],[29.9941,-19.7841,1095.8396],[29.9753,-19.7822,1135.8884],[29.9763,-19.7383,1236.6588],[29.9667,-19.7335,1321.1191],[29.9645,-19.7222,1347.3652],[29.9522,-19.7215,1405.2977],[29.9521,-19.6928,1367.9706],[29.9277,-19.6915,1317.5852],[29.9277,-19.6826,1310.8112],[29.9476,-19.6809,1370.9294],[29.9621,-19.6565,1411.0669],[29.9698,-19.6516,1433.689],[29.9664,-19.6441,1441.1635],[30.0,-19.6124,1369.1243],[29.9984,-19.607,1394.2793],[30.0317,-19.6013,1418.5607],[30.0032,-19.556,1409.3569],[30.0015,-19.5638,1398.6635],[29.9898,-19.5935,1428.6141],[29.92,-19.6059,1420.7837],[29.9261,-19.6172,1394.0558],[29.8892,-19.6171,1321.8469],[29.8938,-19.65,1334.0812],[29.9116,-19.6754,1350.2657],[29.8616,-19.6735,1263.3074],[29.811,-19.689,1309.3811],[29.8084,-19.691,1298.6671]]]]}}