{"type":"Feature","properties":{"GID_3":"ZWE.6.9.5_2","GID_0":"ZWE","country":"Zimbabwe","GID_1":"ZWE.6_1","province":"MashonalandWest","NL_NAME_1":"NA","GID_2":"ZWE.6.9_2","county":"Makonde","NL_NAME_2":"NA","city":"Ward13","VARNAME_3":"NA","NL_NAME_3":"NA","TYPE_3":"Ward","ENGTYPE_3":"Ward","CC_3":"NA","HASC_3":"NA","name":"Ward13.city"},
"geometry":{"type": "MultiPolygon","coordinates": [[[[30.0518,-17.2998,1160.3307],[30.0867,-17.2954,1176.1743],[30.1007,-17.3214,1281.2928],[30.1273,-17.3215,1230.5732],[30.142,-17.2937,1257.2456],[30.1428,-17.2855,1311.6714],[30.1508,-17.2843,1344.9059],[30.1703,-17.2717,1310.2761],[30.183,-17.2706,1352.6429],[30.1938,-17.2566,1274.0917],[30.1852,-17.2479,1305.0515],[30.1793,-17.2441,1304.9192],[30.1779,-17.2104,1263.9078],[30.173,-17.1794,1246.882],[30.1826,-17.179,1301.1299],[30.1799,-17.184,1220.9414],[30.199,-17.1974,1302.5591],[30.207,-17.1988,1260.1951],[30.2004,-17.2163,1291.0675],[30.2269,-17.1977,1272.0897],[30.2338,-17.1718,1347.1277],[30.2477,-17.143,1354.8868],[30.2326,-17.1401,1310.4426],[30.2182,-17.1653,1262.1401],[30.2064,-17.1569,1217.2339],[30.204,-17.1515,1252.4249],[30.196,-17.152,1209.2413],[30.1939,-17.1487,1244.6855],[30.1845,-17.1424,1217.1705],[30.1758,-17.1433,1185.1808],[30.1641,-17.1402,1165.2002],[30.1554,-17.1423,1158.8105],[30.1472,-17.1478,1154.4756],[30.1332,-17.1513,1142.1477],[30.1209,-17.1483,1136.4901],[30.1126,-17.1425,1132.3131],[30.1125,-17.1324,1133.4117],[30.1102,-17.1213,1125.459],[30.1072,-17.1185,1126.0475],[30.107,-17.1147,1123.3643],[30.1044,-17.1109,1122.0089],[30.1011,-17.1097,1119.7815],[30.097,-17.1052,1118.8912],[30.0797,-17.1187,1127.7987],[30.094,-17.1515,1156.2761],[30.046,-17.1596,1149.1132],[29.9991,-17.1819,1129.6278],[29.9793,-17.1933,1106.5],[29.981,-17.1952,1107.3022],[29.9821,-17.194,1136.2756],[29.9918,-17.1954,1108.9139],[29.9938,-17.1991,1108.1169],[29.9907,-17.202,1109.0713],[29.9887,-17.207,1114.772],[29.9908,-17.2089,1112.718],[29.9912,-17.2127,1110.501],[29.9892,-17.2127,1115.4576],[29.9909,-17.2154,1110.7588],[29.9898,-17.2231,1111.434],[29.9911,-17.2304,1115.822],[29.9936,-17.233,1117.9435],[29.9916,-17.2373,1118.3043],[29.9922,-17.24,1117.5677],[29.9984,-17.2449,1123.2622],[30.0181,-17.2552,1198.1312],[30.0207,-17.2584,1150.7283],[30.0273,-17.2568,1138.4529],[30.0288,-17.2587,1137.2158],[30.0291,-17.2662,1141.6709],[30.0382,-17.2699,1152.4543],[30.0427,-17.2696,1150.6945],[30.0518,-17.2998,1160.3307]]]]}}