{"type":"Feature","properties":{"GID_3":"ZWE.10.1.20_2","GID_0":"ZWE","country":"Zimbabwe","GID_1":"ZWE.10_1","province":"Midlands","NL_NAME_1":"NA","GID_2":"ZWE.10.1_2","county":"Chirumhanzu","NL_NAME_2":"NA","city":"Ward4","VARNAME_3":"NA","NL_NAME_3":"NA","TYPE_3":"Ward","ENGTYPE_3":"Ward","CC_3":"NA","HASC_3":"NA","name":"Ward4.city"},
"geometry":{"type": "MultiPolygon","coordinates": [[[[30.565,-19.8478,1104.1924],[30.5669,-19.8431,1104.5811],[30.5651,-19.8364,1108.6232],[30.5657,-19.8319,1112.0171],[30.5709,-19.8307,1120.2979],[30.5721,-19.8289,1117.4004],[30.5732,-19.8216,1129.666],[30.5814,-19.8087,1132.7664],[30.5816,-19.8057,1130.0234],[30.5788,-19.7992,1142.6138],[30.5734,-19.7956,1154.3346],[30.5723,-19.793,1152.0125],[30.5686,-19.7919,1139.1633],[30.5493,-19.7935,1125.4457],[30.5223,-19.7932,1082.2769],[30.507,-19.8053,1070.9478],[30.5005,-19.8011,1068.8625],[30.4965,-19.802,1059.9026],[30.4864,-19.8003,1054.5901],[30.4823,-19.8059,1042.151],[30.48,-19.8067,1038.4554],[30.4775,-19.8153,1037.5347],[30.4705,-19.8198,1033.9523],[30.4673,-19.8255,1031.7704],[30.4714,-19.8309,1027.8197],[30.4699,-19.8338,1033.1178],[30.4676,-19.8352,1031.6326],[30.4585,-19.8316,1035.4893],[30.4562,-19.8321,1029.4448],[30.4548,-19.8354,1022.4293],[30.4597,-19.8398,1022.5723],[30.4693,-19.8423,1047.8611],[30.522,-19.8365,1105.1],[30.565,-19.8478,1104.1924]]]]}}