{"type":"Feature","properties":{"GID_3":"ZWE.10.2.13_2","GID_0":"ZWE","country":"Zimbabwe","GID_1":"ZWE.10_1","province":"Midlands","NL_NAME_1":"NA","GID_2":"ZWE.10.2_2","county":"GokweNorth","NL_NAME_2":"NA","city":"Ward20","VARNAME_3":"NA","NL_NAME_3":"NA","TYPE_3":"Ward","ENGTYPE_3":"Ward","CC_3":"NA","HASC_3":"NA","name":"Ward20.city"},
"geometry":{"type": "MultiPolygon","coordinates": [[[[29.0048,-17.5336,809.6697],[29.0106,-17.5225,819.5659],[29.0236,-17.5155,825.3927],[29.0254,-17.5124,822.1642],[29.0318,-17.509,821.7993],[29.0345,-17.5058,820.074],[29.0358,-17.4983,811.951],[29.0508,-17.506,817.5256],[29.0675,-17.5206,836.8401],[29.0784,-17.5149,831.0884],[29.0941,-17.5123,838.6165],[29.0973,-17.5084,841.3415],[29.1161,-17.5053,853.2747],[29.1218,-17.5023,858.026],[29.1306,-17.5042,868.6129],[29.1408,-17.4742,837.0623],[29.1421,-17.4672,827.6171],[29.1404,-17.4633,829.1376],[29.1351,-17.4601,835.7523],[29.129,-17.4528,841.822],[29.1187,-17.4476,857.4702],[29.1069,-17.4388,872.4048],[29.0999,-17.429,885.7479],[29.0991,-17.4187,878.4077],[29.0959,-17.4129,869.9999],[28.9521,-17.4728,797.1314],[28.9535,-17.4758,795.3711],[28.9526,-17.4783,792.8336],[28.9551,-17.4779,792.8131],[28.9581,-17.4801,795.7726],[28.9568,-17.4835,794.2552],[28.958,-17.4925,797.0264],[28.9595,-17.4961,796.7483],[28.9627,-17.4981,797.0643],[28.9619,-17.5002,795.5121],[28.9648,-17.504,805.2737],[28.9633,-17.5066,799.0458],[28.9659,-17.5078,801.5642],[28.9677,-17.5064,801.5642],[28.9705,-17.5103,802.2693],[28.9764,-17.5131,808.9604],[28.9827,-17.5148,801.6169],[28.9846,-17.514,803.9885],[28.9853,-17.5154,802.2465],[28.9917,-17.5149,804.6888],[28.9926,-17.519,804.6876],[28.9969,-17.5221,804.5597],[28.9957,-17.5275,804.5172],[28.9978,-17.5275,805.8802],[29.0011,-17.5352,808.8939],[29.0048,-17.5336,809.6697]]]]}}