{"type":"Feature","properties":{"GID_3":"ZWE.7.9.3_2","GID_0":"ZWE","country":"Zimbabwe","GID_1":"ZWE.7_1","province":"Masvingo","NL_NAME_1":"NA","GID_2":"ZWE.7.9_2","county":"Zaka","NL_NAME_2":"NA","city":"Ward11","VARNAME_3":"NA","NL_NAME_3":"NA","TYPE_3":"Ward","ENGTYPE_3":"Ward","CC_3":"NA","HASC_3":"NA","name":"Ward11.city"},
"geometry":{"type": "MultiPolygon","coordinates": [[[[31.1026,-20.3153,844.2189],[31.1005,-20.3184,849.9148],[31.101,-20.3233,840.837],[31.0976,-20.3274,852.7946],[31.1029,-20.3328,840.2495],[31.1002,-20.3391,812.4724],[31.1044,-20.3441,782.6597],[31.1054,-20.3516,747.9843],[31.1116,-20.3597,744.9308],[31.1167,-20.3734,686.3914],[31.1202,-20.3768,681.7549],[31.1214,-20.3824,680.4652],[31.1191,-20.3846,683.941],[31.1196,-20.3874,677.8098],[31.1264,-20.388,669.3358],[31.1313,-20.3864,679.6198],[31.1329,-20.3891,673.3209],[31.1367,-20.3891,674.4831],[31.1398,-20.384,664.2007],[31.1832,-20.3724,641.7089],[31.1833,-20.366,646.1971],[31.1752,-20.3414,671.6444],[31.1636,-20.3309,688.2272],[31.165,-20.3259,707.1207],[31.1675,-20.3235,699.8045],[31.1654,-20.3216,706.614],[31.1674,-20.32,704.7009],[31.1672,-20.3157,706.4845],[31.1805,-20.3076,725.1825],[31.1809,-20.3056,734.8312],[31.1769,-20.3039,733.0494],[31.1775,-20.3027,739.8496],[31.1802,-20.2987,760.6019],[31.1932,-20.2877,871.8571],[31.1968,-20.2809,865.6666],[31.2109,-20.2751,931.3728],[31.2262,-20.2757,994.8872],[31.2331,-20.2626,1048.26],[31.2408,-20.258,1080.7144],[31.2575,-20.2536,1161.7863],[31.2492,-20.2486,1159.6616],[31.237,-20.2488,1079.3577],[31.2326,-20.2449,1055.9174],[31.2152,-20.2429,1077.8921],[31.2069,-20.2477,1034.9277],[31.202,-20.2549,968.8267],[31.1959,-20.254,979.9062],[31.1875,-20.2473,1034.5273],[31.1841,-20.2468,1018.4136],[31.1804,-20.248,938.0633],[31.1769,-20.2546,933.7418],[31.171,-20.256,925.5939],[31.1597,-20.2528,945.4312],[31.1553,-20.2489,942.1115],[31.1537,-20.2448,885.7164],[31.1423,-20.2545,881.9382],[31.1384,-20.2617,873.4197],[31.1358,-20.2607,876.1935],[31.1334,-20.2627,868.7119],[31.1336,-20.2665,893.6602],[31.1273,-20.2692,862.8578],[31.1238,-20.2775,887.0895],[31.1211,-20.2779,866.8569],[31.1137,-20.2867,869.4946],[31.1123,-20.2937,888.4125],[31.1141,-20.2976,875.3151],[31.1131,-20.3037,878.2798],[31.1076,-20.3082,855.714],[31.1094,-20.3146,858.6145],[31.1046,-20.3173,844.3619],[31.1026,-20.3153,844.2189]]]]}}