{"type": "Feature","bbox": [28.8149,-19.99,28.8823,-19.9156],"geometry": {"type": "MultiPolygon","coordinates": [[[[28.8162,-19.9581,1382.5232],[28.8215,-19.9688,1390.7888],[28.8156,-19.9791,1397.3137],[28.8149,-19.9832,1395.7603],[28.8205,-19.99,1392.2933],[28.852,-19.982,1374.0698],[28.8657,-19.9827,1379.4846],[28.8701,-19.9806,1371.9039],[28.8762,-19.9719,1373.6477],[28.8823,-19.9675,1381.7496],[28.8716,-19.9156,1351.7759],[28.8213,-19.9272,1364.6974],[28.8162,-19.9581,1382.5232]]]]}
,"properties": {"GID_3": "ZWE.8.8.14_2","GID_0": "ZWE","country": "Zimbabwe","GID_1": "ZWE.8_1","province": "MatabelelandNorth","NL_NAME_1": "NA","GID_2": "ZWE.8.8_2","county": "Umguza","NL_NAME_2": "NA","city": "Ward4","VARNAME_3": "NA","NL_NAME_3": "NA","TYPE_3": "Ward","ENGTYPE_3": "Ward","CC_3": "NA","HASC_3": "NA","name": "Ward4.city","area_km2": 42.66893,"hist_schema_id": "Elevation0-9000","hist_area_km2": {"1350": 12.99554,"1375": 27.86009,"1400": 1.81331}}}