{"type":"Feature","properties":{"GID_3":"ZWE.6.12.16_2","GID_0":"ZWE","country":"Zimbabwe","GID_1":"ZWE.6_1","province":"MashonalandWest","NL_NAME_1":"NA","GID_2":"ZWE.6.12_2","county":"Sanyati","NL_NAME_2":"NA","city":"Ward7","VARNAME_3":"NA","NL_NAME_3":"NA","TYPE_3":"Ward","ENGTYPE_3":"Ward","CC_3":"NA","HASC_3":"NA","name":"Ward7.city"},
"geometry":{"type": "MultiPolygon","coordinates": [[[[29.903,-17.8832,977.1158],[29.8902,-17.8796,978.9564],[29.882,-17.8825,948.3316],[29.8708,-17.8818,996.7109],[29.851,-17.8678,971.7625],[29.8382,-17.8638,944.7454],[29.8348,-17.8604,940.9633],[29.834,-17.8564,919.4945],[29.8362,-17.8524,928.8241],[29.8332,-17.8491,921.535],[29.8322,-17.8409,1029.9526],[29.8294,-17.8404,1009.6918],[29.8203,-17.8454,937.1177],[29.8129,-17.8549,929.2549],[29.7944,-17.8594,939.4248],[29.7879,-17.8586,913.735],[29.785,-17.8545,913.8],[29.7912,-17.8401,908.7219],[29.7862,-17.8356,907.9097],[29.7852,-17.831,902.2132],[29.7905,-17.8167,925.2657],[29.7873,-17.8155,1016.3172],[29.7821,-17.8186,978.3544],[29.7758,-17.8186,936.0891],[29.7666,-17.8149,1014.9877],[29.7626,-17.8183,919.308],[29.7561,-17.8338,905.3187],[29.7519,-17.8382,898.2573],[29.7387,-17.8279,893.5354],[29.7384,-17.8107,893.6075],[29.7321,-17.7943,908.9821],[29.7181,-17.7835,882.2659],[29.7165,-17.7744,889.124],[29.7048,-17.7693,893.1479],[29.6984,-17.7639,876.1272],[29.6954,-17.7652,877.1948],[29.6933,-17.7715,876.7934],[29.6905,-17.7734,879.4108],[29.6777,-17.7708,880.7279],[29.6712,-17.7673,866.5175],[29.6656,-17.7542,872.6464],[29.6562,-17.7484,876.0477],[29.5111,-17.9578,888.2477],[29.5104,-17.9616,887.1155],[29.5143,-17.9678,886.7336],[29.5184,-17.9656,890.2274],[29.5202,-17.9699,888.6868],[29.5243,-17.9689,890.4485],[29.5265,-17.9706,890.2999],[29.5216,-17.9811,895.3368],[29.5184,-17.9838,893.1429],[29.5227,-17.9874,902.558],[29.5237,-17.995,898.5392],[29.5295,-17.996,902.7952],[29.5288,-17.9985,898.0626],[29.5306,-17.9996,899.7216],[29.5275,-18.002,900.9808],[29.5313,-18.0021,900.4795],[29.5289,-18.004,901.1379],[29.5303,-18.0071,901.1511],[29.5383,-18.0025,903.708],[29.5423,-18.0036,904.5665],[29.5409,-18.0009,905.5288],[29.5442,-17.9997,910.1777],[29.5514,-18.0013,908.7074],[29.5521,-18.0047,907.7505],[29.549,-18.0044,905.5133],[29.5478,-18.0059,907.2736],[29.5489,-18.0112,909.2377],[29.5522,-18.014,912.7568],[29.5549,-18.0133,918.8131],[29.5596,-18.018,917.885],[29.5586,-18.0208,916.8428],[29.5605,-18.0222,915.2599],[29.56,-18.0274,920.6586],[29.5545,-18.0308,920.7746],[29.5605,-18.0318,926.3887],[29.5575,-18.0382,930.2867],[29.5611,-18.0385,947.7703],[29.5592,-18.0407,934.898],[29.5629,-18.0419,956.8076],[29.565,-18.0471,951.0739],[29.6271,-18.0443,1011.8909],[29.6563,-18.0624,1033.0593],[29.7165,-18.0617,1074.9664],[29.7172,-17.9409,1074.368],[29.7303,-17.9461,1076.2284],[29.7768,-17.9548,1063.9961],[29.795,-17.9528,1045.265],[29.8247,-17.9549,1029.266],[29.837,-17.9433,1019.3366],[29.8656,-17.9243,1047.531],[29.8959,-17.8948,999.481],[29.905,-17.8895,976.3679],[29.903,-17.8832,977.1158]]]]}}