{"type": "Feature","bbox": [30.1558,-18.1995,30.4325,-18.0097],"geometry": {"type": "MultiPolygon","coordinates": [[[[30.2853,-18.0212,1230.8318],[30.2596,-18.0183,1212.8844],[30.2559,-18.0204,1211.078],[30.2477,-18.0201,1203.0835],[30.2291,-18.0102,1193.9965],[30.2214,-18.0097,1193.6375],[30.211,-18.0136,1188.5209],[30.1788,-18.0348,1168.0431],[30.1684,-18.0365,1167.1827],[30.1558,-18.0424,1158.853],[30.1714,-18.0905,1178.6538],[30.1637,-18.1037,1161.8213],[30.1635,-18.1067,1164.1481],[30.1996,-18.106,1164.5732],[30.2064,-18.1121,1169.1147],[30.2109,-18.1126,1167.0514],[30.216,-18.1094,1166.4075],[30.2227,-18.0957,1166.4442],[30.2296,-18.0942,1170.3112],[30.2368,-18.0953,1167.4436],[30.241,-18.0984,1163.826],[30.2407,-18.0997,1167.1727],[30.2266,-18.112,1168.1637],[30.2245,-18.1211,1169.0815],[30.2282,-18.1253,1172.7628],[30.2346,-18.1266,1177.1611],[30.2407,-18.1338,1167.0409],[30.2405,-18.1366,1171.5291],[30.2368,-18.1383,1168.1454],[30.2385,-18.1414,1177.5061],[30.2482,-18.1396,1175.9349],[30.251,-18.1369,1173.7898],[30.2526,-18.1379,1168.9346],[30.2556,-18.1489,1170.5961],[30.2529,-18.156,1172.3539],[30.2546,-18.1591,1174.1282],[30.2626,-18.1656,1172.9209],[30.2689,-18.1674,1176.2394],[30.2738,-18.1647,1176.2664],[30.2827,-18.172,1181.6201],[30.2871,-18.1731,1187.2644],[30.2929,-18.169,1176.2102],[30.2984,-18.1691,1180.1967],[30.3006,-18.1701,1174.1233],[30.3044,-18.1784,1190.178],[30.309,-18.1791,1183.7302],[30.3132,-18.177,1177.522],[30.3163,-18.1732,1182.6024],[30.3241,-18.1767,1179.4856],[30.3257,-18.1726,1185.5491],[30.3457,-18.1832,1182.4497],[30.3488,-18.183,1181.1724],[30.3508,-18.1768,1184.5887],[30.3554,-18.1757,1182.7191],[30.3591,-18.1788,1188.0818],[30.3646,-18.1894,1177.04],[30.3683,-18.1926,1192.8726],[30.3807,-18.1973,1184.7389],[30.3853,-18.1934,1186.3029],[30.3903,-18.1953,1186.5216],[30.3949,-18.1929,1198.4259],[30.3982,-18.1935,1200.4003],[30.3994,-18.1971,1192.2157],[30.4076,-18.1995,1201.2546],[30.4123,-18.1978,1199.6713],[30.4138,-18.1949,1200.7742],[30.4166,-18.1952,1203.1561],[30.417,-18.19,1202.8914],[30.4203,-18.1872,1204.4379],[30.4248,-18.1878,1206.285],[30.4281,-18.1862,1207.8229],[30.4325,-18.1807,1206.7015],[30.4322,-18.1777,1210.8201],[30.3993,-18.167,1217.7751],[30.3824,-18.1703,1208.4103],[30.3852,-18.1469,1216.0098],[30.3489,-18.1409,1186.3568],[30.3508,-18.1399,1187.4204],[30.3496,-18.1343,1190.0775],[30.3547,-18.135,1189.3425],[30.3564,-18.1325,1188.9932],[30.361,-18.1324,1192.8167],[30.361,-18.1295,1193.019],[30.3669,-18.1294,1193.5105],[30.37,-18.1233,1194.2668],[30.3732,-18.1208,1195.6077],[30.3677,-18.1156,1199.7358],[30.3619,-18.1059,1222.476],[30.3534,-18.0876,1232.4568],[30.3401,-18.0956,1219.3551],[30.3276,-18.0782,1205.4293],[30.3346,-18.0628,1228.6454],[30.2817,-18.0584,1192.2236],[30.2853,-18.0212,1230.8318]]]]}
,"properties": {"GID_3": "ZWE.6.1.14_2","GID_0": "ZWE","country": "Zimbabwe","GID_1": "ZWE.6_1","province": "MashonalandWest","NL_NAME_1": "NA","GID_2": "ZWE.6.1_2","county": "Chegutu","NL_NAME_2": "NA","city": "Ward21","VARNAME_3": "NA","NL_NAME_3": "NA","TYPE_3": "Ward","ENGTYPE_3": "Ward","CC_3": "NA","HASC_3": "NA","name": "Ward21.city","area_km2": 267.5685,"hist_schema_id": "Elevation0-9000","hist_area_km2": {"1150": 2.3381,"1175": 97.2012,"1200": 140.9242,"1225": 27.105}}}