{"type":"Feature","properties":{"GID_3":"ZWE.6.4.10_2","GID_0":"ZWE","country":"Zimbabwe","GID_1":"ZWE.6_1","province":"MashonalandWest","NL_NAME_1":"NA","GID_2":"ZWE.6.4_2","county":"Hurungwe","NL_NAME_2":"NA","city":"Ward18","VARNAME_3":"NA","NL_NAME_3":"NA","TYPE_3":"Ward","ENGTYPE_3":"Ward","CC_3":"NA","HASC_3":"NA","name":"Ward18.city"},
"geometry":{"type": "MultiPolygon","coordinates": [[[[29.6052,-16.6426,1291.3994],[29.5326,-16.6621,1171.9406],[29.5426,-16.6978,1232.3546],[29.518,-16.6827,1140.8499],[29.4889,-16.6835,1108.6167],[29.4724,-16.6423,1037.9432],[29.4484,-16.6466,1024.2714],[29.4477,-16.6508,1018.3485],[29.4344,-16.6612,1004.6962],[29.449,-16.7028,1088.376],[29.4566,-16.7385,1218.6816],[29.4373,-16.7495,1217.484],[29.4549,-16.7845,1265.1244],[29.4719,-16.8026,1320.6775],[29.4867,-16.8473,1272.6055],[29.4907,-16.8677,1211.1757],[29.4945,-16.8667,1211.8979],[29.5034,-16.8579,1219.1578],[29.5059,-16.8528,1224.6099],[29.5047,-16.8498,1233.032],[29.5097,-16.8458,1228.3452],[29.5101,-16.8426,1239.8004],[29.5125,-16.8429,1234.4639],[29.5217,-16.8289,1268.0521],[29.5324,-16.8175,1264.7622],[29.5375,-16.8149,1275.134],[29.5392,-16.8109,1293.0205],[29.5469,-16.8042,1302.4827],[29.5504,-16.8056,1295.7802],[29.5571,-16.8124,1328.5698],[29.5941,-16.7994,1308.3159],[29.6272,-16.7695,1304.5361],[29.6679,-16.715,1302.4766],[29.6715,-16.6925,1298.0382],[29.6786,-16.6728,1280.5096],[29.6755,-16.6681,1278.4557],[29.6804,-16.6637,1264.5498],[29.6761,-16.6615,1261.5576],[29.6534,-16.6792,1277.9924],[29.6308,-16.6769,1281.6624],[29.6352,-16.6914,1302.2754],[29.6182,-16.691,1298.105],[29.611,-16.6971,1311.0177],[29.6115,-16.6601,1298.4174],[29.6052,-16.6426,1291.3994]]]]}}