{"type":"Feature","properties":{"GID_3":"ZWE.7.5.40_2","GID_0":"ZWE","country":"Zimbabwe","GID_1":"ZWE.7_1","province":"Masvingo","NL_NAME_1":"NA","GID_2":"ZWE.7.5_2","county":"Gutu","NL_NAME_2":"NA","city":"Ward7","VARNAME_3":"NA","NL_NAME_3":"NA","TYPE_3":"Ward","ENGTYPE_3":"Ward","CC_3":"NA","HASC_3":"NA","name":"Ward7.city"},
"geometry":{"type": "MultiPolygon","coordinates": [[[[31.0188,-19.4413,1469.8962],[30.9619,-19.5196,1419.4004],[30.9124,-19.5914,1378.6622],[30.9278,-19.6028,1362.547],[30.9427,-19.6087,1323.9141],[30.9421,-19.6116,1321.5486],[30.9487,-19.6195,1321.7876],[30.9479,-19.6255,1315.1843],[30.9553,-19.6311,1305.2192],[30.9547,-19.6355,1302.5767],[30.9863,-19.6337,1379.5626],[31.0251,-19.6472,1332.6086],[31.0127,-19.633,1335.8883],[31.012,-19.6215,1363.4424],[31.0457,-19.6253,1352.0403],[31.0515,-19.6611,1322.6855],[31.1114,-19.6579,1364.0281],[31.11,-19.6945,1340.2041],[31.1334,-19.6943,1328.1559],[31.1367,-19.6825,1331.4714],[31.1345,-19.6777,1338.8145],[31.1373,-19.671,1341.6841],[31.1275,-19.6632,1345.2512],[31.1289,-19.6609,1353.3823],[31.1226,-19.6574,1353.5237],[31.1414,-19.6545,1366.0791],[31.1373,-19.6427,1362.9409],[31.1408,-19.6367,1367.925],[31.1154,-19.5874,1425.7953],[31.1386,-19.5259,1294.2585],[31.1496,-19.5055,1235.8142],[31.1461,-19.4974,1266.3047],[31.139,-19.4939,1267.9019],[31.1304,-19.4938,1260.5271],[31.1158,-19.4788,1273.4666],[31.1091,-19.4796,1270.6831],[31.1081,-19.4749,1279.1777],[31.1075,-19.4747,1274.1031],[31.1034,-19.4747,1279.8831],[31.1017,-19.4712,1277.4314],[31.0958,-19.4684,1281.3364],[31.0924,-19.4617,1295.548],[31.0879,-19.4604,1289.5037],[31.0867,-19.4567,1292.594],[31.0811,-19.4542,1290.9758],[31.0813,-19.4489,1301.8867],[31.0786,-19.443,1296.9219],[31.0188,-19.4413,1469.8962]]]]}}