{"type": "Feature","bbox": [31.3508,-18.8444,31.4791,-18.6773],"geometry": {"type": "MultiPolygon","coordinates": [[[[31.465699999999998,-18.7766,1232.071],[31.4762,-18.7718,1221.8821],[31.4791,-18.7688,1230.7273],[31.4753,-18.7637,1223.9358],[31.4708,-18.7494,1229.8674],[31.467,-18.7451,1227.4922],[31.4681,-18.7374,1233.4946],[31.459,-18.738,1240.4149],[31.4491,-18.7329,1249.0624],[31.4317,-18.7314,1239.8878],[31.4278,-18.7285,1248.4321],[31.4178,-18.7273,1253.6848],[31.4164,-18.7263,1247.8087],[31.417,-18.7187,1254.269],[31.4131,-18.7068,1254.8984],[31.4079,-18.7025,1269.6763],[31.3988,-18.7011,1267.0316],[31.3806,-18.6938,1265.6133],[31.378,-18.6849,1269.9299],[31.3735,-18.6773,1265.5511],[31.3508,-18.8432,1418.0601],[31.3724,-18.8444,1426.1262],[31.3875,-18.840699999999998,1436.6248],[31.4002,-18.8216,1387.306],[31.3997,-18.8144,1356.964],[31.4022,-18.8118,1349.5414],[31.4038,-18.8032,1340.4772],[31.4092,-18.7995,1336.4561],[31.4081,-18.7944,1332.2759],[31.409,-18.7871,1328.9077],[31.4236,-18.7851,1290.1858],[31.4304,-18.7823,1277.8254],[31.438,-18.7748,1263.7717],[31.4445,-18.7741,1261.0115],[31.4516,-18.777,1262.5096],[31.4614,-18.7782,1239.1196],[31.465699999999998,-18.7766,1232.071]]]]}
,"properties": {"GID_3": "ZWE.5.1.16_2","GID_0": "ZWE","country": "Zimbabwe","GID_1": "ZWE.5_1","province": "MashonalandEast","NL_NAME_1": "NA","GID_2": "ZWE.5.1_2","county": "Chikomba","NL_NAME_2": "NA","city": "Ward23","VARNAME_3": "NA","NL_NAME_3": "NA","TYPE_3": "Ward","ENGTYPE_3": "Ward","CC_3": "NA","HASC_3": "NA","name": "Ward23.city","area_km2": 114.10731,"hist_schema_id": "Elevation0-9000","hist_area_km2": {"1225": 2.83085,"1250": 12.64925,"1275": 30.15748,"1300": 26.36062,"1325": 14.4131,"1350": 10.11606,"1375": 6.9844,"1400": 4.17412,"1425": 5.75922,"1450": 0.6622}}}