{"type":"Feature","properties":{"GID_3":"ZWE.6.5.7_2","GID_0":"ZWE","country":"Zimbabwe","GID_1":"ZWE.6_1","province":"MashonalandWest","NL_NAME_1":"NA","GID_2":"ZWE.6.5_2","county":"KadomaUrban","NL_NAME_2":"NA","city":"Ward15","VARNAME_3":"NA","NL_NAME_3":"NA","TYPE_3":"Ward","ENGTYPE_3":"Ward","CC_3":"NA","HASC_3":"NA","name":"Ward15.city"},
"geometry":{"type": "MultiPolygon","coordinates": [[[[29.9493,-18.3016,1175.4044],[29.967,-18.3215,1177.3599],[29.9752,-18.3182,1171.0049],[29.9782,-18.3136,1175.5721],[29.9782,-18.3072,1179.946],[29.9823,-18.3062,1179.9216],[29.9837,-18.3016,1179.2069],[29.968,-18.2854,1183.9596],[29.9493,-18.3016,1175.4044]]]]}}