{"type": "Feature","bbox": [32.891,-20.0454,33.0132,-20.0054],"geometry": {"type": "MultiPolygon","coordinates": [[[[32.9675,-20.0378,374.3332],[32.9719,-20.0344,439.9156],[32.9854,-20.03,348.95],[32.9888,-20.0274,405.0677],[33.0002,-20.0265,356.9608],[33.0009,-20.024,403.3703],[33.0109,-20.0188,410.4355],[33.0132,-20.0129,427.129],[32.9726,-20.0111,907.3673],[32.9396,-20.0054,1156.6115],[32.9029,-20.0204,1242.5857],[32.891,-20.0176,948.5103],[32.8911,-20.0208,918.3263],[32.8984,-20.0326,782.2317],[32.9019,-20.0454,448.5423],[32.9118,-20.0433,448.4298],[32.9177,-20.0444,428.9963],[32.9309,-20.0387,416.8457],[32.945,-20.0402,386.7103],[32.9559,-20.0341,477.3122],[32.9633,-20.0386,372.7066],[32.9675,-20.0378,374.3332]]]]}
,"properties": {"GID_3": "ZWE.3.2.15_2","GID_0": "ZWE","country": "Zimbabwe","GID_1": "ZWE.3_1","province": "Manicaland","NL_NAME_1": "NA","GID_2": "ZWE.3.2_2","county": "Chimanimani","NL_NAME_2": "NA","city": "Ward22","VARNAME_3": "NA","NL_NAME_3": "NA","TYPE_3": "Ward","ENGTYPE_3": "Ward","CC_3": "NA","HASC_3": "NA","name": "Ward22.city","area_km2": 32.13174,"hist_schema_id": "Elevation0-9000","hist_area_km2": {"350": 0.05976,"375": 0.37848,"400": 0.57766,"425": 1.09557,"450": 1.69315,"475": 1.59355,"500": 1.57364,"525": 1.39438,"550": 0.97607,"575": 0.93624,"600": 0.81673,"625": 0.69721,"650": 0.77689,"675": 0.75698,"700": 0.93626,"725": 1.09563,"750": 1.09562,"775": 1.09563,"800": 1.39445,"825": 1.39446,"850": 1.15541,"875": 0.99604,"900": 1.01597,"925": 0.8566,"950": 1.17535,"975": 1.01599,"1000": 1.11559,"1025": 0.91638,"1050": 0.59764,"1075": 0.81678,"1100": 0.81679,"1125": 0.43828,"1150": 0.33868,"1175": 0.27891,"1200": 0.15938,"1250": 0.0996}}}