{"type":"Feature","properties":{"GID_3":"ZWE.5.1.17_2","GID_0":"ZWE","country":"Zimbabwe","GID_1":"ZWE.5_1","province":"MashonalandEast","NL_NAME_1":"NA","GID_2":"ZWE.5.1_2","county":"Chikomba","NL_NAME_2":"NA","city":"Ward24","VARNAME_3":"NA","NL_NAME_3":"NA","TYPE_3":"Ward","ENGTYPE_3":"Ward","CC_3":"NA","HASC_3":"NA","name":"Ward24.city"},
"geometry":{"type": "MultiPolygon","coordinates": [[[[31.448,-18.8741,1342.2837],[31.4541,-18.8796,1386.0316],[31.4646,-18.8784,1378.2272],[31.4823,-18.8797,1365.5483],[31.4969,-18.8837,1404.8876],[31.4969,-18.8817,1390.9003],[31.5094,-18.8728,1298.8574],[31.5124,-18.8616,1346.9469],[31.5241,-18.8551,1267.6803],[31.5276,-18.8511,1256.2611],[31.5296,-18.846,1246.6301],[31.5239,-18.8366,1235.2947],[31.5241,-18.8197,1224.5133],[31.5223,-18.8132,1200.585],[31.5231,-18.8083,1206.5281],[31.5281,-18.7979,1206.6129],[31.5231,-18.7938,1195.0022],[31.5194,-18.784,1193.9934],[31.5186,-18.7767,1196.4119],[31.5206,-18.7708,1199.4512],[31.5145,-18.7706,1211.5483],[31.5039,-18.7742,1214.6326],[31.5,-18.7725,1218.0847],[31.4957,-18.7746,1217.2638],[31.4791,-18.7688,1230.7273],[31.4762,-18.7718,1221.8821],[31.465699999999998,-18.7766,1232.071],[31.4599,-18.7829,1238.2996],[31.4458,-18.7921,1254.7859],[31.4556,-18.7994,1275.3904],[31.474,-18.8086,1278.6982],[31.4736,-18.8129,1284.2697],[31.4667,-18.8226,1280.35],[31.4602,-18.8268,1281.0371],[31.4564,-18.8329,1285.7386],[31.4547,-18.852,1329.5007],[31.448,-18.8741,1342.2837]]]]}}