{"type":"Feature","properties":{"GID_3":"ZWE.6.5.16_2","GID_0":"ZWE","country":"Zimbabwe","GID_1":"ZWE.6_1","province":"MashonalandWest","NL_NAME_1":"NA","GID_2":"ZWE.6.5_2","county":"KadomaUrban","NL_NAME_2":"NA","city":"Ward8","VARNAME_3":"NA","NL_NAME_3":"NA","TYPE_3":"Ward","ENGTYPE_3":"Ward","CC_3":"NA","HASC_3":"NA","name":"Ward8.city"},
"geometry":{"type": "MultiPolygon","coordinates": [[[[29.8867,-18.331,1143.1597],[29.8806,-18.3352,1136.052],[29.8791,-18.334,1135.2976],[29.8694,-18.3409,1129.3956],[29.8738,-18.3474,1130.7039],[29.8796,-18.3424,1134.4551],[29.8821,-18.3433,1135.9004],[29.885,-18.337,1140.1942],[29.8893,-18.3334,1144.2465],[29.8867,-18.331,1143.1597]]]]}}