{"type": "Feature","bbox": [29.9277,-19.6928,29.9751,-19.6516],"geometry": {"type": "MultiPolygon","coordinates": [[[[29.9697,-19.6516,1433.689],[29.9621,-19.6565,1411.0669],[29.9476,-19.6809,1370.9294],[29.9277,-19.6826,1310.8112],[29.9277,-19.6915,1317.5852],[29.9521,-19.6928,1367.9706],[29.9548,-19.6863,1385.2454],[29.9643,-19.6891,1360.3782],[29.9637,-19.6776,1389.6711],[29.9726,-19.6709,1387.1171],[29.9751,-19.6639,1424.8939],[29.9728,-19.6628,1444.4915],[29.9697,-19.6516,1433.689]]]]}
,"properties": {"GID_3": "ZWE.10.12.4_2","GID_0": "ZWE","country": "Zimbabwe","GID_1": "ZWE.10_1","province": "Midlands","NL_NAME_1": "NA","GID_2": "ZWE.10.12_2","county": "ShurugwiTown","NL_NAME_2": "NA","city": "Ward12","VARNAME_3": "NA","NL_NAME_3": "NA","TYPE_3": "Ward","ENGTYPE_3": "Ward","CC_3": "NA","HASC_3": "NA","name": "Ward12.city","area_km2": 8.724329,"hist_schema_id": "Elevation0-9000","hist_area_km2": {"1325": 0.439183,"1350": 1.976323,"1375": 1.856621,"1400": 1.856711,"1425": 1.537339,"1450": 0.61891,"1475": 0.279517,"1500": 0.139759,"1525": 0.019966}}}