{"type":"Feature","properties":{"GID_3":"ZWE.8.1.2_2","GID_0":"ZWE","country":"Zimbabwe","GID_1":"ZWE.8_1","province":"MatabelelandNorth","NL_NAME_1":"NA","GID_2":"ZWE.8.1_2","county":"Binga","NL_NAME_2":"NA","city":"Ward10","VARNAME_3":"NA","NL_NAME_3":"NA","TYPE_3":"Ward","ENGTYPE_3":"Ward","CC_3":"NA","HASC_3":"NA","name":"Ward10.city"},
"geometry":{"type": "MultiPolygon","coordinates": [[[[27.3873,-17.8123,738.971],[27.3623,-17.8125,738.1174],[27.3363,-17.8175,688.0315],[27.2922,-17.8398,565.3513],[27.2879,-17.8427,569.903],[27.2841,-17.8481,541.9344],[27.2784,-17.85,541.4164],[27.2774,-17.8541,530.506],[27.275,-17.854,534.9106],[27.2731,-17.8592,522.6166],[27.2658,-17.8688,516.8412],[27.2605,-17.8848,489.8221],[27.2556,-17.878,502.6044],[27.2524,-17.8779,523.6447],[27.2477,-17.8806,487.188],[27.2432,-17.8791,489.2654],[27.2318,-17.868,502.7409],[27.2171,-17.8699,489.1752],[27.236,-17.8975,506.6834],[27.2432,-17.8964,507.2919],[27.2465,-17.8979,497.6977],[27.2409,-17.9037,575.7485],[27.2342,-17.906,610.8216],[27.2304,-17.9116,570.0161],[27.23,-17.9162,544.8495],[27.2368,-17.9255,528.6523],[27.2351,-17.9302,614.5673],[27.2435,-17.93,527.2825],[27.252,-17.9338,533.494],[27.2541,-17.9331,525.0001],[27.2601,-17.9401,530.0546],[27.268,-17.9439,529.5185],[27.2693,-17.9489,536.7155],[27.2644,-17.9535,543.2544],[27.2679,-17.9614,536.7375],[27.2659,-17.9634,534.5992],[27.2648,-17.9614,537.4638],[27.2633,-17.9633,537.622],[27.2578,-17.9642,607.9817],[27.2575,-17.9669,542.5346],[27.2547,-17.9683,542.4208],[27.2525,-17.972,545.3179],[27.2504,-17.9787,547.6173],[27.2253,-18.004,679.9911],[27.2163,-18.0049,687.4384],[27.2062,-18.0005,641.0732],[27.1984,-17.9999,625.7648],[27.1774,-18.0055,556.4955],[27.1652,-18.0066,543.3868],[27.1644,-18.008,563.6456],[27.1812,-18.0254,615.5216],[27.185,-18.0411,595.5621],[27.1873,-18.0448,600.0729],[27.195,-18.0477,631.5378],[27.1984,-18.0459,649.5557],[27.2102,-18.05,703.3974],[27.2146,-18.0462,768.0739],[27.2173,-18.046,742.5151],[27.2187,-18.0484,674.3262],[27.2216,-18.0465,709.8052],[27.2226,-18.0529,682.2439],[27.2248,-18.0536,685.9353],[27.2255,-18.055,689.3466],[27.224,-18.0561,685.2985],[27.2262,-18.056,689.3466],[27.2262,-18.0573,690.1034],[27.2453,-18.0488,767.1752],[27.2484,-18.0454,777.0652],[27.2502,-18.0495,776.5225],[27.2492,-18.0533,779.8239],[27.2551,-18.0556,794.4115],[27.259,-18.0543,794.9365],[27.2621,-18.0478,792.0939],[27.271,-18.0366,859.902],[27.2952,-18.0154,904.524],[27.3091,-17.9945,667.1429],[27.378,-17.9403,806.921],[27.3775,-17.8451,555.4839],[27.3873,-17.8123,738.971]]]]}}