{"type": "Feature","bbox": [31.5333,-19.7314,31.6054,-19.6038],"geometry": {"type": "MultiPolygon","coordinates": [[[[31.5407,-19.6703,1013.8259],[31.5408,-19.6731,1012.9995],[31.547,-19.6847,1010.6285],[31.5465,-19.6885,1004.9518],[31.5431,-19.6924,1008.9354],[31.5411,-19.6991,1001.724],[31.5467,-19.7073,1006.0839],[31.5479,-19.7181,996.4502],[31.5509,-19.7274,1000.2212],[31.5627,-19.7314,984.9292],[31.5781,-19.7279,986.1734],[31.5893,-19.7285,970.1021],[31.5853,-19.7107,999.4003],[31.5817,-19.7033,1006.2239],[31.5887,-19.701,1020.1532],[31.6054,-19.7004,1003.9625],[31.5993,-19.6801,1017.8232],[31.6009,-19.6777,1022.3755],[31.5981,-19.6747,1020.4219],[31.5932,-19.6587,1034.9561],[31.5899,-19.6515,1044.2777],[31.5753,-19.6345,1056.5499],[31.5731,-19.63,1069.9681],[31.5851,-19.6204,1097.3483],[31.5876,-19.6159,1093.1914],[31.5869,-19.614,1087.3096],[31.5826,-19.6112,1078.6442],[31.5741,-19.6103,1067.8005],[31.568,-19.6038,1059.0924],[31.5602,-19.6077,1055.1835],[31.5544,-19.6088,1048.4478],[31.544,-19.6065,1038.6498],[31.5367,-19.621,1032.3226],[31.5364,-19.6249,1030.7664],[31.5386,-19.6301,1029.2019],[31.5333,-19.643,1029.7367],[31.5357,-19.659,1016.494],[31.5399,-19.6659,1015.1396],[31.5407,-19.6703,1013.8259]]]]}
,"properties": {"GID_3": "ZWE.7.5.9_2","GID_0": "ZWE","country": "Zimbabwe","GID_1": "ZWE.7_1","province": "Masvingo","NL_NAME_1": "NA","GID_2": "ZWE.7.5_2","county": "Gutu","NL_NAME_2": "NA","city": "Ward17","VARNAME_3": "NA","NL_NAME_3": "NA","TYPE_3": "Ward","ENGTYPE_3": "Ward","CC_3": "NA","HASC_3": "NA","name": "Ward17.city","area_km2": 68.3409,"hist_schema_id": "Elevation0-9000","hist_area_km2": {"975": 1.19749,"1000": 8.94195,"1025": 23.43754,"1050": 25.79742,"1075": 6.65002,"1100": 1.83719,"1125": 0.29955,"1150": 0.11982,"1175": 0.05991}}}