{"type": "Feature","bbox": [32.2912,-20.3945,32.5411,-20.1098],"geometry": {"type": "MultiPolygon","coordinates": [[[[32.5022,-20.2417,1112.6426],[32.4999,-20.2245,852.6042],[32.5411,-20.1462,1029.1984],[32.4987,-20.1136,909.3199],[32.4782,-20.1378,899.5845],[32.4594,-20.112,640.6128],[32.4516,-20.1098,549.6141],[32.4502,-20.1137,560.8235],[32.4437,-20.1109,537.7761],[32.4339,-20.1164,537.5773],[32.4264,-20.1155,535.483],[32.4155,-20.1208,515.9286],[32.4034,-20.1218,504.4395],[32.4028,-20.124,501.0967],[32.3973,-20.1268,498.513],[32.3969,-20.1424,487.6129],[32.3908,-20.1435,487.9966],[32.3908,-20.1474,482.9115],[32.3863,-20.147,497.3961],[32.3825,-20.1497,479.5118],[32.3809,-20.1484,524.9292],[32.3755,-20.1529,480.7764],[32.3577,-20.1538,472.03],[32.3549,-20.1474,473.5621],[32.3526,-20.1515,469.7265],[32.3491,-20.147,470.2943],[32.3425,-20.1492,465.7623],[32.339,-20.1535,464.2087],[32.3377,-20.1634,462.9224],[32.33,-20.1781,463.863],[32.3272,-20.1875,456.5],[32.3269,-20.2054,459.558],[32.3236,-20.2162,458.3352],[32.3222,-20.2437,451.5551],[32.3197,-20.2601,449.4142],[32.3146,-20.269,452.5898],[32.312,-20.2857,449.9091],[32.3067,-20.302,447.7259],[32.3063,-20.3098,445.8081],[32.2958,-20.3443,441.6726],[32.2912,-20.3863,433.5292],[32.3478,-20.3907,438.9389],[32.349,-20.3849,438.8235],[32.3534,-20.3834,439.8832],[32.3648,-20.3851,449.4975],[32.3691,-20.3895,451.4533],[32.3771,-20.3913,458.6357],[32.3821,-20.3903,463.9128],[32.3839,-20.3913,465.4861],[32.3883,-20.389,469.8831],[32.3956,-20.3942,483.7757],[32.4001,-20.3945,503.1316],[32.4102,-20.3917,552.0708],[32.4124,-20.3891,577.9662],[32.4207,-20.3872,668.4769],[32.4231,-20.3848,643.5429],[32.427,-20.3848,652.9485],[32.4339,-20.3808,665.507],[32.4377,-20.3765,677.3973],[32.4585,-20.372,763.6251],[32.4678,-20.3668,858.8804],[32.4702,-20.3669,805.8496],[32.4727,-20.3634,824.0499],[32.4798,-20.3622,863.6794],[32.4892,-20.3548,915.3443],[32.4937,-20.3479,1072.0844],[32.4981,-20.3476,1120.9041],[32.4851,-20.3396,1122.8193],[32.5043,-20.3211,982.4949],[32.5104,-20.2876,1139.2406],[32.4872,-20.3027,1124.8296],[32.4892,-20.2492,1069.5785],[32.5022,-20.2417,1112.6426]]]]}
,"properties": {"GID_3": "ZWE.3.3.26_2","GID_0": "ZWE","country": "Zimbabwe","GID_1": "ZWE.3_1","province": "Manicaland","NL_NAME_1": "NA","GID_2": "ZWE.3.3_2","county": "Chipinge","NL_NAME_2": "NA","city": "Ward5","VARNAME_3": "NA","NL_NAME_3": "NA","TYPE_3": "Ward","ENGTYPE_3": "Ward","CC_3": "NA","HASC_3": "NA","name": "Ward5.city","area_km2": 553.0846,"hist_schema_id": "Elevation0-9000","hist_area_km2": {"425": 2.7429,"450": 134.2163,"475": 77.6607,"500": 23.7321,"525": 17.7255,"550": 16.8515,"575": 15.3184,"600": 13.8251,"625": 17.5649,"650": 19.1559,"675": 19.6338,"700": 17.9813,"725": 15.5753,"750": 16.2129,"775": 14.7407,"800": 12.5329,"825": 11.8565,"850": 12.3942,"875": 11.1009,"900": 11.4988,"925": 12.2349,"950": 11.9175,"975": 11.1813,"1000": 11.4201,"1025": 9.4307,"1050": 6.4445,"1075": 2.9238,"1100": 2.3869,"1125": 1.1736,"1150": 0.7956,"1175": 0.5569,"1200": 0.2983}}}