{"type": "Feature","bbox": [31.0786,-19.5713,31.3604,-19.2816],"geometry": {"type": "MultiPolygon","coordinates": [[[[31.2846,-19.2816,1175.7236],[31.2849,-19.2834,1162.7211],[31.2232,-19.3433,1329.5941],[31.1939,-19.3621,1402.7529],[31.1791,-19.3677,1411.7548],[31.153199999999998,-19.3907,1359.9283],[31.1237,-19.3614,1440.9972],[31.0979,-19.374,1420.5966],[31.0981,-19.4029,1405.3937],[31.0871,-19.4432,1403.8965],[31.0786,-19.443,1296.9219],[31.0813,-19.4489,1301.8867],[31.0811,-19.4542,1290.9758],[31.0867,-19.4567,1292.594],[31.0879,-19.4604,1289.5037],[31.0924,-19.4617,1295.548],[31.0958,-19.4684,1281.3364],[31.1017,-19.4712,1277.4314],[31.1034,-19.4747,1279.8831],[31.1081,-19.4749,1279.1777],[31.1091,-19.4796,1270.6831],[31.1158,-19.4788,1273.4666],[31.1304,-19.4938,1260.5271],[31.139,-19.4939,1267.9019],[31.1461,-19.4974,1266.3047],[31.1496,-19.5055,1235.8142],[31.1386,-19.5259,1294.2585],[31.1651,-19.5421,1298.9309],[31.1777,-19.5271,1225.8706],[31.1849,-19.5325,1230.1716],[31.191,-19.535,1229.7339],[31.1981,-19.5411,1211.1361],[31.2095,-19.5456,1224.3459],[31.2168,-19.5516,1200.9269],[31.2199,-19.5518,1219.3961],[31.2264,-19.5573,1214.1155],[31.2346,-19.5686,1197.3508],[31.2415,-19.5713,1192.6633],[31.2431,-19.5691,1194.5876],[31.2488,-19.5687,1267.3929],[31.3604,-19.4975,1214.7272],[31.251,-19.404,1260.0127],[31.2113,-19.3679,1332.5503],[31.2621,-19.3594,1335.2395],[31.2828,-19.3528,1445.3538],[31.2924,-19.3329,1437.1289],[31.3181,-19.3094,1172.0559],[31.3112,-19.2995,1165.9734],[31.2939,-19.2911,1180.9954],[31.2846,-19.2816,1175.7236]]]]}
,"properties": {"GID_3": "ZWE.7.5.23_2","GID_0": "ZWE","country": "Zimbabwe","GID_1": "ZWE.7_1","province": "Masvingo","NL_NAME_1": "NA","GID_2": "ZWE.7.5_2","county": "Gutu","NL_NAME_2": "NA","city": "Ward3","VARNAME_3": "NA","NL_NAME_3": "NA","TYPE_3": "Ward","ENGTYPE_3": "Ward","CC_3": "NA","HASC_3": "NA","name": "Ward3.city","area_km2": 430.9575,"hist_schema_id": "Elevation0-9000","hist_area_km2": {"1150": 0.7404,"1175": 3.2013,"1200": 16.0507,"1225": 41.69,"1250": 67.1033,"1275": 84.7471,"1300": 61.3621,"1325": 54.9453,"1350": 39.6087,"1375": 26.7139,"1400": 16.7771,"1425": 11.4179,"1450": 5.0195,"1475": 1.5801}}}