{"type":"Feature","properties":{"GID_3":"ZWE.9.3.13_2","GID_0":"ZWE","country":"Zimbabwe","GID_1":"ZWE.9_1","province":"MatabelelandSouth","NL_NAME_1":"NA","GID_2":"ZWE.9.3_2","county":"Bulilima","NL_NAME_2":"NA","city":"Ward20","VARNAME_3":"NA","NL_NAME_3":"NA","TYPE_3":"Ward","ENGTYPE_3":"Ward","CC_3":"NA","HASC_3":"NA","name":"Ward20.city"},
"geometry":{"type": "MultiPolygon","coordinates": [[[[27.5545,-20.3782,1278.4531],[27.588,-20.3936,1260.2125],[27.6202,-20.4342,1299.4247],[27.6855,-20.4455,1318.8881],[27.6872,-20.3971,1286.5066],[27.6702,-20.392,1277.6862],[27.6526,-20.3362,1234.3157],[27.6421,-20.325,1230.131],[27.631,-20.3218,1226.2678],[27.6252,-20.3181,1224.8188],[27.6221,-20.3205,1222.5443],[27.6199,-20.3192,1223.9937],[27.5786,-20.3605,1257.344],[27.5781,-20.3668,1257.6406],[27.5545,-20.3782,1278.4531]]]]}}