{"type":"Feature","properties":{"GID_3":"ZWE.3.3.2_2","GID_0":"ZWE","country":"Zimbabwe","GID_1":"ZWE.3_1","province":"Manicaland","NL_NAME_1":"NA","GID_2":"ZWE.3.3_2","county":"Chipinge","NL_NAME_2":"NA","city":"Ward10","VARNAME_3":"NA","NL_NAME_3":"NA","TYPE_3":"Ward","ENGTYPE_3":"Ward","CC_3":"NA","HASC_3":"NA","name":"Ward10.city"},
"geometry":{"type": "MultiPolygon","coordinates": [[[[32.6405,-20.1817,1111.5754],[32.6474,-20.2032,1047.4349],[32.6361,-20.2023,1069.6172],[32.6364,-20.2057,1081.9987],[32.6517,-20.2152,1009.33],[32.657,-20.2164,1035.7599],[32.6828,-20.2125,934.6517],[32.6854,-20.2139,934.2295],[32.683,-20.2217,898.5521],[32.6882,-20.2316,883.7816],[32.6859,-20.2343,891.3531],[32.6861,-20.2416,872.2507],[32.6891,-20.2436,874.2173],[32.6904,-20.2497,857.0314],[32.6928,-20.2513,861.4009],[32.6945,-20.2568,850.0164],[32.7034,-20.2694,812.9728],[32.7108,-20.2749,789.6946],[32.7115,-20.278199999999998,779.3823],[32.7134,-20.2792,776.9016],[32.7151,-20.2786,786.4447],[32.715,-20.2761,793.9948],[32.7177,-20.2723,831.4222],[32.7234,-20.2731,767.7086],[32.7259,-20.2702,778.5505],[32.7295,-20.2729,775.7146],[32.7319,-20.2728,765.6741],[32.7327,-20.2657,766.2302],[32.7351,-20.264,763.5524],[32.7353,-20.2609,776.6768],[32.7414,-20.2498,885.42],[32.7462,-20.23,812.1628],[32.7832,-20.2321,1021.5746],[32.7779,-20.2091,1025.8901],[32.7553,-20.203,921.311],[32.7589,-20.2001,983.0054],[32.7622,-20.1762,1092.66],[32.6957,-20.1795,1145.0715],[32.6394,-20.178,1113.038],[32.6405,-20.1817,1111.5754]]]]}}