{"type":"Feature","properties":{"GID_3":"ZWE.10.13.15_2","GID_0":"ZWE","country":"Zimbabwe","GID_1":"ZWE.10_1","province":"Midlands","NL_NAME_1":"NA","GID_2":"ZWE.10.13_2","county":"Zvishavane","NL_NAME_2":"NA","city":"Ward5","VARNAME_3":"NA","NL_NAME_3":"NA","TYPE_3":"Ward","ENGTYPE_3":"Ward","CC_3":"NA","HASC_3":"NA","name":"Ward5.city"},
"geometry":{"type": "MultiPolygon","coordinates": [[[[29.7564,-20.3349,1030.896],[29.7684,-20.3337,1038.9219],[29.7836,-20.3518,1030.1715],[29.7889,-20.3518,1030.2081],[29.7934,-20.3565,1034.2927],[29.7968,-20.3574,1038.1304],[29.8019,-20.3659,1022.0889],[29.809,-20.3671,1016.4456],[29.8171,-20.3647,1012.8421],[29.8197,-20.3654,1015.3994],[29.8206,-20.3675,1009.9208],[29.8261,-20.3519,1037.1064],[29.8341,-20.3437,1053.0321],[29.8642,-20.3286,1019.183],[29.8761,-20.3246,1003.8691],[29.8932,-20.329,980.5697],[29.8987,-20.3211,975.4139],[29.8963,-20.3192,976.3421],[29.8858,-20.3169,989.1837],[29.8862,-20.3082,982.6176],[29.8845,-20.3063,981.9138],[29.8782,-20.3043,987.5721],[29.8748,-20.3001,977.4117],[29.8696,-20.2876,990.1436],[29.8686,-20.2774,991.3763],[29.8604,-20.2672,1004.9407],[29.851,-20.2617,1031.1733],[29.8472,-20.2548,1011.3535],[29.8505,-20.2417,1013.944],[29.8505,-20.2304,1016.8182],[29.854,-20.2179,1019.7089],[29.851,-20.2127,1027.3876],[29.8745,-20.1581,1243.8597],[29.8966,-20.114,1172.8301],[29.8443,-20.1005,1177.9276],[29.816,-20.1592,1180.5551],[29.7927,-20.2139,1121.6755],[29.7922,-20.2392,1169.5415],[29.7874,-20.2487,1125.3259],[29.778199999999998,-20.2846,1117.9232],[29.7564,-20.3349,1030.896]]]]}}