{"type":"Feature","properties":{"GID_3":"ZWE.3.3.28_2","GID_0":"ZWE","country":"Zimbabwe","GID_1":"ZWE.3_1","province":"Manicaland","NL_NAME_1":"NA","GID_2":"ZWE.3.3_2","county":"Chipinge","NL_NAME_2":"NA","city":"Ward7","VARNAME_3":"NA","NL_NAME_3":"NA","TYPE_3":"Ward","ENGTYPE_3":"Ward","CC_3":"NA","HASC_3":"NA","name":"Ward7.city"},
"geometry":{"type": "MultiPolygon","coordinates": [[[[32.7622,-20.1762,1092.66],[32.7708,-20.1755,1097.1805],[32.7509,-20.122,1120.9388],[32.7298,-20.0898,1093.0371],[32.7128,-20.0699,984.347],[32.6727,-20.0952,1025.2477],[32.7024,-20.1341,1268.1086],[32.6807,-20.179,1146.9355],[32.6957,-20.1795,1145.0715],[32.7622,-20.1762,1092.66]]]]}}