{"type":"Feature","properties":{"GID_3":"ZWE.10.3.15_2","GID_0":"ZWE","country":"Zimbabwe","GID_1":"ZWE.10_1","province":"Midlands","NL_NAME_1":"NA","GID_2":"ZWE.10.3_2","county":"GokweSouth","NL_NAME_2":"NA","city":"Ward22","VARNAME_3":"NA","NL_NAME_3":"NA","TYPE_3":"Ward","ENGTYPE_3":"Ward","CC_3":"NA","HASC_3":"NA","name":"Ward22.city"},
"geometry":{"type": "MultiPolygon","coordinates": [[[[28.0012,-18.3573,1060.197],[28.0132,-18.3566,1080.835],[28.1172,-18.4289,1136.4664],[28.1401,-18.431,1082.1772],[28.1625,-18.436,1076.5635],[28.2157,-18.4244,1053.1021],[28.2214,-18.427,1064.3513],[28.2369,-18.4298,1101.629],[28.2338,-18.4152,1037.4879],[28.2359,-18.4072,1071.4988],[28.235,-18.3991,1103.5959],[28.2248,-18.3915,1121.493],[28.2169,-18.3792,1135.9714],[28.2135,-18.3564,1082.9167],[28.2077,-18.3352,1106.4442],[28.2224,-18.3134,1038.3971],[28.2238,-18.2874,984.5134],[28.2338,-18.2826,970.5435],[28.2365,-18.2777,957.0898],[28.2355,-18.2739,973.2767],[28.2238,-18.2659,950.2561],[28.223,-18.2626,937.4846],[28.2248,-18.257,926.1371],[28.2178,-18.2549,928.1526],[28.211,-18.2486,931.3104],[28.1852,-18.2366,919.5129],[28.1726,-18.2276,926.7175],[28.1626,-18.2233,926.7473],[28.1535,-18.2117,897.3192],[28.1418,-18.209,926.585],[28.1239,-18.1967,876.3193],[28.1214,-18.198,875.905],[28.1218,-18.2002,875.6263],[28.1236,-18.2025,874.3923],[28.1261,-18.2003,874.73],[28.1271,-18.2011,880.8971],[28.1277,-18.207,877.3082],[28.1301,-18.209,879.4796],[28.1272,-18.2084,877.5947],[28.126,-18.2101,879.4758],[28.1283,-18.2126,879.9643],[28.1263,-18.2132,880.8083],[28.1266,-18.22,882.1986],[28.1231,-18.2234,885.6397],[28.1232,-18.2258,892.9859],[28.1163,-18.2285,895.3368],[28.1171,-18.2327,890.8438],[28.1143,-18.2331,888.3898],[28.1157,-18.2363,889.3854],[28.1148,-18.2404,890.6982],[28.1081,-18.2367,899.3063],[28.1053,-18.2379,936.926],[28.108,-18.2391,893.6593],[28.1079,-18.2418,894.7627],[28.1053,-18.2433,895.2695],[28.1067,-18.2448,895.9805],[28.1063,-18.2478,896.67],[28.0992,-18.2578,903.119],[28.1,-18.2663,907.0649],[28.0972,-18.2769,910.2512],[28.0887,-18.2871,919.8354],[28.0864,-18.3074,958.7117],[28.0864,-18.3153,953.235],[28.0883,-18.3183,955.6175],[28.0839,-18.3266,943.5321],[28.0851,-18.3303,940.9229],[28.0841,-18.3331,945.84],[28.0808,-18.3325,943.3828],[28.0555,-18.3383,1001.7343],[28.0309,-18.3544,1089.1992],[28.0093,-18.3481,1069.1096],[28.0021,-18.35,1058.9535],[28.0012,-18.3573,1060.197]]]]}}