{"type":"Feature","properties":{"GID_3":"ZWE.6.13.12_2","GID_0":"ZWE","country":"Zimbabwe","GID_1":"ZWE.6_1","province":"MashonalandWest","NL_NAME_1":"NA","GID_2":"ZWE.6.13_2","county":"Zvimba","NL_NAME_2":"NA","city":"Ward2","VARNAME_3":"NA","NL_NAME_3":"NA","TYPE_3":"Ward","ENGTYPE_3":"Ward","CC_3":"NA","HASC_3":"NA","name":"Ward2.city"},
"geometry":{"type": "MultiPolygon","coordinates": [[[[30.1832,-17.6686,1262.51],[30.1792,-17.6867,1278.2019],[30.1739,-17.6858,1285.349],[30.1715,-17.6881,1287.4224],[30.1796,-17.7043,1302.9618],[30.199,-17.7134,1322.981],[30.2005,-17.7155,1320.4783],[30.2097,-17.7165,1311.429],[30.2112,-17.7112,1304.5317],[30.2183,-17.7074,1297.245],[30.2196,-17.7043,1294.4205],[30.22,-17.7008,1297.3759],[30.218,-17.6951,1285.7317],[30.219,-17.6921,1283.0845],[30.2149,-17.6887,1300.2792],[30.192,-17.6787,1268.7188],[30.1881,-17.6716,1263.4866],[30.1832,-17.6686,1262.51]]]]}}