{"type":"Feature","properties":{"GID_3":"ZWE.5.7.2_2","GID_0":"ZWE","country":"Zimbabwe","GID_1":"ZWE.5_1","province":"MashonalandEast","NL_NAME_1":"NA","GID_2":"ZWE.5.7_2","county":"Murehwa","NL_NAME_2":"NA","city":"Ward10","VARNAME_3":"NA","NL_NAME_3":"NA","TYPE_3":"Ward","ENGTYPE_3":"Ward","CC_3":"NA","HASC_3":"NA","name":"Ward10.city"},
"geometry":{"type": "MultiPolygon","coordinates": [[[[31.6817,-17.5697,1206.2271],[31.6739,-17.5813,1216.2667],[31.6896,-17.5935,1236.3163],[31.7003,-17.6143,1307.2485],[31.6985,-17.6174,1284.2732],[31.6833,-17.6173,1240.9739],[31.6806,-17.6217,1229.3037],[31.6775,-17.6224,1226.7012],[31.664,-17.6192,1193.8802],[31.6583,-17.6194,1175.6133],[31.6639,-17.6264,1165.8125],[31.6684,-17.6277,1185.1392],[31.6743,-17.6364,1179.8229],[31.6776,-17.6367,1182.5581],[31.6859,-17.647,1188.3003],[31.6912,-17.6507,1201.8589],[31.7054,-17.651,1213.0386],[31.7238,-17.6422,1233.9441],[31.7273,-17.6421,1227.658],[31.7297,-17.6376,1243.3064],[31.7325,-17.6367,1240.9084],[31.7318,-17.6342,1257.5128],[31.7355,-17.6285,1268.6045],[31.7417,-17.6233,1277.2015],[31.7455,-17.6123,1290.4067],[31.7492,-17.6075,1303.2581],[31.7619,-17.6082,1317.5924],[31.7718,-17.6059,1352.6948],[31.7833,-17.5947,1343.3815],[31.7845,-17.5885,1326.5879],[31.7781,-17.5817,1302.7572],[31.7719,-17.5606,1263.298],[31.7667,-17.5559,1266.0916],[31.758,-17.5537,1238.3495],[31.7491,-17.5485,1232.8838],[31.7384,-17.5464,1219.5488],[31.7352,-17.5641,1233.5254],[31.7137,-17.5599,1213.6707],[31.7093,-17.5667,1217.28],[31.6817,-17.5697,1206.2271]]]]}}