{"type": "Feature","bbox": [32.1088,-17.2421,32.2922,-17.1127],"geometry": {"type": "MultiPolygon","coordinates": [[[[32.1935,-17.1134,743.7148],[32.1807,-17.1127,789.3442],[32.1754,-17.1163,774.019],[32.1705,-17.1357,789.0422],[32.1633,-17.1407,806.1942],[32.1649,-17.1497,817.1423],[32.1619,-17.1555,827.8611],[32.1556,-17.1568,853.5311],[32.1414,-17.1545,886.4926],[32.1231,-17.1721,995.3843],[32.1088,-17.1734,893.9076],[32.1124,-17.1821,921.3909],[32.123,-17.1916,994.3304],[32.1278,-17.1985,958.3719],[32.1295,-17.2081,976.2936],[32.1317,-17.2115,988.8894],[32.1401,-17.2147,1073.2953],[32.1401,-17.2203,1019.725],[32.1675,-17.2421,913.6727],[32.171,-17.2415,900.4203],[32.1907,-17.2292,860.3445],[32.2132,-17.2184,829.5281],[32.2262,-17.2084,829.2697],[32.2326,-17.2058,818.8115],[32.2364,-17.2018,817.8063],[32.2471,-17.2084,877.5445],[32.2538,-17.2227,837.8749],[32.2565,-17.2216,848.0701],[32.2573,-17.2252,846.7345],[32.2639,-17.2268,857.3647],[32.2683,-17.2253,864.2051],[32.2711,-17.2181,887.3717],[32.2746,-17.2138,895.3804],[32.2793,-17.195,937.799],[32.2875,-17.1835,886.0283],[32.2922,-17.1725,860.0521],[32.2757,-17.1532,830.4755],[32.2724,-17.1543,826.4],[32.2709,-17.1532,826.4],[32.2705,-17.1545,818.7894],[32.2674,-17.1534,824.2815],[32.2129,-17.1624,783.0483],[32.2065,-17.1545,766.3435],[32.1935,-17.1134,743.7148]]]]}
,"properties": {"GID_3": "ZWE.5.8.23_2","GID_0": "ZWE","country": "Zimbabwe","GID_1": "ZWE.5_1","province": "MashonalandEast","NL_NAME_1": "NA","GID_2": "ZWE.5.8_2","county": "Mutoko","NL_NAME_2": "NA","city": "Ward3","VARNAME_3": "NA","NL_NAME_3": "NA","TYPE_3": "Ward","ENGTYPE_3": "Ward","CC_3": "NA","HASC_3": "NA","name": "Ward3.city","area_km2": 137.4558,"hist_schema_id": "Elevation0-9000","hist_area_km2": {"725": 0.0203,"750": 1.0739,"775": 4.0115,"800": 10.8788,"825": 16.915,"850": 19.5071,"875": 19.9114,"900": 13.6726,"925": 9.6415,"950": 9.6412,"975": 9.1548,"1000": 6.6636,"1025": 3.6861,"1050": 2.4709,"1075": 2.0658,"1100": 1.5392,"1125": 1.843,"1150": 0.7088,"1175": 0.6481,"1200": 0.6886,"1225": 0.567,"1250": 0.7088,"1275": 0.486,"1300": 0.5063,"1325": 0.3038,"1350": 0.1215,"1375": 0.0203}}}