{"type":"Feature","properties":{"GID_3":"ZWE.8.9.2_2","GID_0":"ZWE","country":"Zimbabwe","GID_1":"ZWE.8_1","province":"MatabelelandNorth","NL_NAME_1":"NA","GID_2":"ZWE.8.9_2","county":"VictoriaFalls","NL_NAME_2":"NA","city":"Ward10","VARNAME_3":"NA","NL_NAME_3":"NA","TYPE_3":"Ward","ENGTYPE_3":"Ward","CC_3":"NA","HASC_3":"NA","name":"Ward10.city"},
"geometry":{"type": "MultiPolygon","coordinates": [[[[25.8322,-17.9561,917.6038],[25.8327,-17.9525,932.6076],[25.8273,-17.9489,973.2305],[25.8269,-17.9535,939.692],[25.8188,-17.9512,976.5327],[25.8181,-17.9528,968.7079],[25.8186,-17.9575,941.1951],[25.8223,-17.964,906.3355],[25.8302,-17.9596,907.0279],[25.8322,-17.9561,917.6038]]]]}}