{"type":"Feature","properties":{"GID_3":"ZWE.5.10.18_2","GID_0":"ZWE","country":"Zimbabwe","GID_1":"ZWE.5_1","province":"MashonalandEast","NL_NAME_1":"NA","GID_2":"ZWE.5.10_2","county":"Seke","NL_NAME_2":"NA","city":"Ward6","VARNAME_3":"NA","NL_NAME_3":"NA","TYPE_3":"Ward","ENGTYPE_3":"Ward","CC_3":"NA","HASC_3":"NA","name":"Ward6.city"},
"geometry":{"type": "MultiPolygon","coordinates": [[[[31.1941,-18.1825,1454.1982],[31.1901,-18.1685,1467.7906],[31.1933,-18.153199999999998,1454.3578],[31.1953,-18.1499,1453.8],[31.2039,-18.1497,1459.4186],[31.2099,-18.1471,1467.9349],[31.216,-18.1386,1483.931],[31.2197,-18.1365,1485.8101],[31.2234,-18.1365,1488.2955],[31.2269,-18.1295,1509.0701],[31.227,-18.1215,1511.0424],[31.2302,-18.1131,1508.3615],[31.2303,-18.1065,1499.3988],[31.2316,-18.1061,1503.0907],[31.2253,-18.1016,1490.8018],[31.2243,-18.1036,1486.7023],[31.2166,-18.1058,1477.8431],[31.2131,-18.1047,1475.812],[31.2055,-18.1054,1468.0905],[31.1979,-18.109,1461.8911],[31.18,-18.1139,1445.4148],[31.1719,-18.1114,1445.0417],[31.1468,-18.1157,1429.4844],[31.1402,-18.1184,1420.7717],[31.1417,-18.1205,1412.5634],[31.1414,-18.1246,1413.1577],[31.1483,-18.1326,1421.5427],[31.1102,-18.1479,1418.2175],[31.1145,-18.1556,1420.8639],[31.1554,-18.1502,1425.4971],[31.1628,-18.1592,1418.8287],[31.1637,-18.1693,1426.9319],[31.1682,-18.1748,1434.1309],[31.1874,-18.1829,1453.098],[31.1941,-18.1825,1454.1982]]]]}}