{"type": "Feature","bbox": [30.4227,-19.9861,30.6865,-19.8365],"geometry": {"type": "MultiPolygon","coordinates": [[[[30.4392,-19.9813,970.684],[30.4537,-19.9794,977.0923],[30.4729,-19.9563,1002.5],[30.4814,-19.9568,1005.4238],[30.4821,-19.9445,1002.5],[30.4892,-19.9506,1002.5],[30.4977,-19.9507,1002.5],[30.4979,-19.9418,1002.9795],[30.5081,-19.9453,1002.5],[30.5141,-19.9407,1002.5],[30.5182,-19.9314,1002.5],[30.5294,-19.9333,1004.7528],[30.534,-19.9287,1012.53],[30.5323,-19.9235,1010.5986],[30.5386,-19.924,1015.9371],[30.5389,-19.933,1016.2508],[30.546,-19.9356,1011.9797],[30.5524,-19.9298,1020.0882],[30.5573,-19.9315,1024.4427],[30.5629,-19.9218,1028.1116],[30.5667,-19.91,1026.2268],[30.5752,-19.908,1025.0142],[30.5891,-19.9094,1032.4966],[30.5937,-19.9036,1049.7446],[30.5929,-19.8967,1033.7642],[30.5966,-19.8925,1053.2863],[30.5953,-19.887,1039.8258],[30.6138,-19.8813,1048.3051],[30.6336,-19.8811,1057.2241],[30.6373,-19.8744,1055.2716],[30.662,-19.876,1059.2426],[30.667,-19.8718,1076.8306],[30.6688,-19.8676,1065.256],[30.676,-19.8706,1074.7085],[30.6805,-19.8656,1083.6487],[30.6841,-19.8673,1073.9509],[30.6865,-19.8614,1077.3855],[30.6339,-19.8664,1119.0547],[30.522,-19.8365,1105.1],[30.4695,-19.8423,1047.8611],[30.4599,-19.8397,1029.9839],[30.459,-19.8457,1022.4234],[30.4539,-19.8499,1022.8843],[30.4559,-19.8541,1029.9736],[30.4554,-19.8579,1018.327],[30.459,-19.8631,1017.0505],[30.4548,-19.8675,1018.4263],[30.4482,-19.8694,1013.1063],[30.4544,-19.8773,1026.4493],[30.4508,-19.8831,1011.4995],[30.4512,-19.8849,1009.3577],[30.4544,-19.887,1011.8542],[30.4573,-19.8854,1015.7221],[30.4595,-19.8861,1023.9244],[30.4586,-19.891,1006.6425],[30.4549,-19.8931,1006.6172],[30.4545,-19.8952,1007.4271],[30.4577,-19.8949,1013.4678],[30.4645,-19.9022,1003.7557],[30.4696,-19.9008,998.3808],[30.4705,-19.9037,997.209],[30.4664,-19.9086,995.1284],[30.4616,-19.919,1001.2189],[30.457,-19.9219,995.2686],[30.4549,-19.9324,986.5626],[30.4529,-19.9324,995.3956],[30.4504,-19.9298,996.6606],[30.4429,-19.9398,988.3547],[30.4307,-19.9375,1002.1059],[30.4288,-19.9424,979.0068],[30.4274,-19.941,984.46],[30.4254,-19.9433,977.9268],[30.4263,-19.9521,976.4697],[30.4227,-19.9612,978.4204],[30.4258,-19.9629,980.6614],[30.4325,-19.9612,985.1228],[30.4333,-19.9622,978.9099],[30.4279,-19.985,967.6986],[30.4314,-19.9861,967.0692],[30.4392,-19.9813,970.684]]]]}
,"properties": {"GID_3": "ZWE.7.6.30_2","GID_0": "ZWE","country": "Zimbabwe","GID_1": "ZWE.7_1","province": "Masvingo","NL_NAME_1": "NA","GID_2": "ZWE.7.6_2","county": "Masvingo","NL_NAME_2": "NA","city": "Ward4","VARNAME_3": "NA","NL_NAME_3": "NA","TYPE_3": "Ward","ENGTYPE_3": "Ward","CC_3": "NA","HASC_3": "NA","name": "Ward4.city","area_km2": 176.78,"hist_schema_id": "Elevation0-9000","hist_area_km2": {"950": 0.0399,"975": 5.9585,"1000": 22.2832,"1025": 43.9177,"1050": 50.0251,"1075": 43.9276,"1100": 9.6116,"1125": 0.5183,"1150": 0.1993,"1175": 0.1196,"1200": 0.0997,"1225": 0.0199,"1250": 0.0399,"1275": 0.0199}}}