{"type":"Feature","properties":{"GID_3":"ZWE.10.11.19_2","GID_0":"ZWE","country":"Zimbabwe","GID_1":"ZWE.10_1","province":"Midlands","NL_NAME_1":"NA","GID_2":"ZWE.10.11_2","county":"Shurugwi","NL_NAME_2":"NA","city":"Ward4","VARNAME_3":"NA","NL_NAME_3":"NA","TYPE_3":"Ward","ENGTYPE_3":"Ward","CC_3":"NA","HASC_3":"NA","name":"Ward4.city"},
"geometry":{"type": "MultiPolygon","coordinates": [[[[30.4314,-19.9861,967.0692],[30.4279,-19.985,967.6986],[30.4333,-19.9622,978.9099],[30.4325,-19.9612,985.1228],[30.4258,-19.9629,980.6614],[30.4227,-19.9611,978.4204],[30.4263,-19.9521,976.4697],[30.4254,-19.9433,977.9268],[30.4274,-19.941,984.46],[30.4288,-19.9424,979.0068],[30.43,-19.9378,1002.1059],[30.434,-19.938,983.0413],[30.4354,-19.9228,1076.4152],[30.325,-19.9208,1049.8013],[30.3523,-19.9969,1017.4789],[30.431,-19.9901,976.5558],[30.4314,-19.9861,967.0692]]]]}}