{"type":"Feature","properties":{"GID_3":"ZWE.9.2.3_2","GID_0":"ZWE","country":"Zimbabwe","GID_1":"ZWE.9_1","province":"MatabelelandSouth","NL_NAME_1":"NA","GID_2":"ZWE.9.2_2","county":"BeitbridgeUrban","NL_NAME_2":"NA","city":"Ward3","VARNAME_3":"NA","NL_NAME_3":"NA","TYPE_3":"Ward","ENGTYPE_3":"Ward","CC_3":"NA","HASC_3":"NA","name":"Ward3.city"},
"geometry":{"type": "MultiPolygon","coordinates": [[[[30.0517,-22.1718,518.6685],[30.0514,-22.1625,528.8134],[30.0317,-22.1589,526.895],[30.0221,-22.1592,532.808],[29.9879,-22.1527,531.5978],[29.9985,-22.1841,510.3192],[29.9909,-22.2037,468.9568],[29.9947,-22.2032,475.0228],[30.0139,-22.1874,498.2496],[30.0165,-22.1893,492.1509],[30.0219,-22.1863,485.1632],[30.0323,-22.1847,495.4964],[30.039,-22.1773,507.7781],[30.0473,-22.1723,517.7222],[30.0517,-22.1718,518.6685]]]]}}