{"type": "Feature","bbox": [31.3243,-17.4698,31.4009,-17.3708],"geometry": {"type": "MultiPolygon","coordinates": [[[[31.3243,-17.4029,1094.1243],[31.3465,-17.4031,1143.1479],[31.3516,-17.4056,1110.2167],[31.3519,-17.4274,1122.5739],[31.3549,-17.4343,1134.6432],[31.3559,-17.4417,1142.2107],[31.3533,-17.4465,1151.4712],[31.3548,-17.4532,1161.7822],[31.361,-17.4646,1263.0662],[31.368,-17.4671,1229.0978],[31.3961,-17.4698,1216.1863],[31.4009,-17.4531,1099.1991],[31.3899,-17.4225,1169.9534],[31.3912,-17.4002,1163.3567],[31.3851,-17.3708,1047.2516],[31.3816,-17.3721,1028.4199],[31.3743,-17.3789,1077.7888],[31.3676,-17.3789,1130.7053],[31.3666,-17.382,1089.929],[31.3574,-17.3811,1141.099],[31.3426,-17.384,1102.4546],[31.3339,-17.39,1099.0096],[31.3285,-17.3912,1105.3804],[31.3257,-17.3947,1101.6638],[31.3243,-17.4029,1094.1243]]]]}
,"properties": {"GID_3": "ZWE.4.1.21_2","GID_0": "ZWE","country": "Zimbabwe","GID_1": "ZWE.4_1","province": "MashonalandCentral","NL_NAME_1": "NA","GID_2": "ZWE.4.1_2","county": "Bindura","NL_NAME_2": "NA","city": "Ward9","VARNAME_3": "NA","NL_NAME_3": "NA","TYPE_3": "Ward","ENGTYPE_3": "Ward","CC_3": "NA","HASC_3": "NA","name": "Ward9.city","area_km2": 46.75078,"hist_schema_id": "Elevation0-9000","hist_area_km2": {"1025": 0.70821,"1050": 0.91052,"1075": 2.93373,"1100": 13.06945,"1125": 14.30252,"1150": 5.68417,"1175": 2.48795,"1200": 1.67878,"1225": 2.12367,"1250": 2.12365,"1275": 0.66744,"1300": 0.06068}}}