{"type":"Feature","properties":{"GID_3":"ZWE.10.8.6_2","GID_0":"ZWE","country":"Zimbabwe","GID_1":"ZWE.10_1","province":"Midlands","NL_NAME_1":"NA","GID_2":"ZWE.10.8_2","county":"KwekweUrban","NL_NAME_2":"NA","city":"Ward14","VARNAME_3":"NA","NL_NAME_3":"NA","TYPE_3":"Ward","ENGTYPE_3":"Ward","CC_3":"NA","HASC_3":"NA","name":"Ward14.city"},
"geometry":{"type": "MultiPolygon","coordinates": [[[[29.8198,-18.9682,1230.689],[29.8335,-18.9642,1229.0243],[29.8482,-18.9381,1212.5743],[29.8564,-18.9346,1208.6379],[29.8392,-18.9183,1199.9152],[29.8342,-18.927,1210.2057],[29.8334,-18.9348,1212.8491],[29.8311,-18.9399,1212.7373],[29.8276,-18.9391,1210.9875],[29.8269,-18.9454,1218.035],[29.8248,-18.9482,1219.6406],[29.8157,-18.9522,1231.9113],[29.8198,-18.9682,1230.689]]]]}}