{"type": "Feature","bbox": [31.5413,-19.6745,31.7591,-19.5188],"geometry": {"type": "MultiPolygon","coordinates": [[[[31.6821,-19.5188,939.0],[31.6731,-19.5231,944.8248],[31.6709,-19.5202,949.4661],[31.668,-19.5212,951.8694],[31.6607,-19.5305,955.9362],[31.6537,-19.5262,968.963],[31.6507,-19.5262,986.6535],[31.6475,-19.5303,965.5541],[31.6432,-19.5307,965.7836],[31.6386,-19.5289,977.9733],[31.637,-19.5359,974.4437],[31.6344,-19.5373,981.3582],[31.6324,-19.5437,984.4982],[31.6287,-19.5482,986.376],[31.6235,-19.5499,993.4634],[31.619,-19.5558,996.752],[31.6122,-19.56,997.8062],[31.5998,-19.5654,1021.7991],[31.5967,-19.5727,1016.8077],[31.5946,-19.5725,1022.5521],[31.5921,-19.5756,1026.8541],[31.5858,-19.5761,1034.6218],[31.58,-19.5792,1041.0652],[31.5611,-19.5576,1102.3564],[31.5611,-19.563,1082.3595],[31.5505,-19.5648,1168.2601],[31.552,-19.5776,1059.4735],[31.5413,-19.5833,1042.3973],[31.5483,-19.5935,1041.1326],[31.544,-19.6065,1038.6498],[31.5544,-19.6088,1048.4478],[31.5686,-19.604,1059.0924],[31.5741,-19.6103,1067.8005],[31.5826,-19.6112,1078.6442],[31.5869,-19.614,1087.3096],[31.5898,-19.6227,1067.943],[31.598,-19.6169,1052.7347],[31.6038,-19.6156,1050.0093],[31.6067,-19.617,1049.4199],[31.6167,-19.6297,1030.9288],[31.6164,-19.6371,1028.1404],[31.6206,-19.6409,1028.5603],[31.6243,-19.6473,1011.0242],[31.6377,-19.6502,1001.7213],[31.6402,-19.6544,993.1733],[31.645,-19.6548,988.5522],[31.6456,-19.6581,984.41],[31.6493,-19.6619,985.8084],[31.6498,-19.6662,979.9872],[31.6558,-19.6736,973.8877],[31.6709,-19.6745,966.3023],[31.6744,-19.6736,963.0234],[31.6779,-19.669,964.3766],[31.6864,-19.6676,959.9377],[31.6851,-19.6569,969.015],[31.6887,-19.6433,980.1184],[31.6935,-19.6373,982.8722],[31.7007,-19.6327,968.8276],[31.6911,-19.6343,980.7906],[31.6813,-19.6249,1004.3831],[31.672,-19.6225,1007.9529],[31.6692,-19.614,1023.0872],[31.6798,-19.6122,1002.0544],[31.6976,-19.6248,979.004],[31.7214,-19.6085,950.844],[31.7231,-19.6052,951.3118],[31.7278,-19.6025,949.2891],[31.7355,-19.6016,939.64],[31.7417,-19.5968,939.8159],[31.7508,-19.5927,917.762],[31.7591,-19.5836,915.9399],[31.7549,-19.5858,910.7198],[31.7388,-19.5836,920.5054],[31.7361,-19.5797,916.433],[31.7334,-19.5596,939.0],[31.7265,-19.5424,939.0],[31.7143,-19.5405,939.0],[31.7095,-19.5286,939.0],[31.7044,-19.525,939.0],[31.6838,-19.5228,939.0],[31.6821,-19.5188,939.0]]]]}
,"properties": {"GID_3": "ZWE.7.5.5_2","GID_0": "ZWE","country": "Zimbabwe","GID_1": "ZWE.7_1","province": "Masvingo","NL_NAME_1": "NA","GID_2": "ZWE.7.5_2","county": "Gutu","NL_NAME_2": "NA","city": "Ward13","VARNAME_3": "NA","NL_NAME_3": "NA","TYPE_3": "Ward","ENGTYPE_3": "Ward","CC_3": "NA","HASC_3": "NA","name": "Ward13.city","area_km2": 188.2637,"hist_schema_id": "Elevation0-9000","hist_area_km2": {"900": 0.4395,"925": 3.2959,"950": 32.0058,"975": 37.5126,"1000": 29.421,"1025": 25.1875,"1050": 36.5317,"1075": 19.9545,"1100": 2.8963,"1125": 0.6592,"1150": 0.1199,"1175": 0.1199,"1200": 0.04,"1225": 0.0599,"1250": 0.02}}}