{"type":"Feature","properties":{"GID_3":"ZWE.7.4.32_2","GID_0":"ZWE","country":"Zimbabwe","GID_1":"ZWE.7_1","province":"Masvingo","NL_NAME_1":"NA","GID_2":"ZWE.7.4_2","county":"Chivi","NL_NAME_2":"NA","city":"Ward9","VARNAME_3":"NA","NL_NAME_3":"NA","TYPE_3":"Ward","ENGTYPE_3":"Ward","CC_3":"NA","HASC_3":"NA","name":"Ward9.city"},
"geometry":{"type": "MultiPolygon","coordinates": [[[[30.3602,-20.2528,865.3338],[30.3593,-20.2508,861.8151],[30.3554,-20.2503,857.5417],[30.3541,-20.24,864.9834],[30.3477,-20.2258,861.3251],[30.348,-20.2188,867.2195],[30.3507,-20.2156,871.6643],[30.3481,-20.2123,872.8483],[30.3502,-20.2079,872.7057],[30.3331,-20.2003,891.1473],[30.3177,-20.1897,886.5258],[30.3111,-20.1886,881.2028],[30.3055,-20.1895,879.4432],[30.2975,-20.1864,871.1891],[30.2972,-20.1886,873.8922],[30.3027,-20.1986,866.4868],[30.2921,-20.2075,864.6341],[30.2915,-20.2123,862.0129],[30.2947,-20.2171,858.7784],[30.2895,-20.2261,856.0],[30.288,-20.2243,857.6843],[30.283,-20.2279,853.6372],[30.2778,-20.229,850.5958],[30.2773,-20.2374,844.6456],[30.2795,-20.2425,845.9471],[30.2751,-20.2512,839.098],[30.2749,-20.2567,836.6437],[30.2689,-20.2612,836.8576],[30.2671,-20.272,827.6023],[30.2613,-20.2764,825.9889],[30.2602,-20.2835,872.6522],[30.2485,-20.3107,829.5612],[30.2624,-20.3058,832.537],[30.2799,-20.3044,819.8592],[30.3142,-20.288,828.544],[30.3252,-20.2805,832.2421],[30.3276,-20.2825,832.8126],[30.3392,-20.2767,844.295],[30.3482,-20.2626,855.1083],[30.3599,-20.2578,869.0698],[30.3602,-20.2528,865.3338]]]]}}