{"type":"Feature","properties":{"GID_3":"ZWE.10.2.29_2","GID_0":"ZWE","country":"Zimbabwe","GID_1":"ZWE.10_1","province":"Midlands","NL_NAME_1":"NA","GID_2":"ZWE.10.2_2","county":"GokweNorth","NL_NAME_2":"NA","city":"Ward35","VARNAME_3":"NA","NL_NAME_3":"NA","TYPE_3":"Ward","ENGTYPE_3":"Ward","CC_3":"NA","HASC_3":"NA","name":"Ward35.city"},
"geometry":{"type": "MultiPolygon","coordinates": [[[[28.9999,-17.8964,1001.4733],[28.9977,-17.8748,937.1647],[28.9849,-17.8593,922.8906],[28.981,-17.8189,936.3279],[28.9615,-17.8066,958.6475],[28.9606,-17.8004,988.5154],[28.9557,-17.7978,1036.8192],[28.9524,-17.7983,1007.4274],[28.9483,-17.7941,1036.7103],[28.9416,-17.7933,939.2771],[28.9373,-17.7899,910.5089],[28.9329,-17.7888,889.7321],[28.917,-17.7946,865.4667],[28.9013,-17.791,852.3406],[28.8994,-17.7883,850.5043],[28.8948,-17.7899,848.0413],[28.8943,-17.7879,849.6295],[28.8907,-17.7857,848.0205],[28.8884,-17.7882,842.9745],[28.8855,-17.7884,839.6422],[28.8817,-17.7839,841.8785],[28.8782,-17.787,835.0901],[28.8717,-17.7868,839.2473],[28.87,-17.789,835.5725],[28.8674,-17.788,829.6797],[28.8672,-17.7899,824.3372],[28.8648,-17.7899,819.2241],[28.861,-17.7857,830.9686],[28.8593,-17.7889,816.5922],[28.8537,-17.787,837.9379],[28.849,-17.7909,808.3837],[28.8409,-17.7869,802.2257],[28.8359,-17.7873,797.2291],[28.8298,-17.785,793.7617],[28.8267,-17.7875,793.4373],[28.8239,-17.7862,791.3513],[28.8239,-17.7893,791.0135],[28.8217,-17.7893,789.2375],[28.8229,-17.7918,787.2072],[28.8201,-17.7935,785.0648],[28.8187,-17.791,788.3918],[28.8176,-17.7936,782.9865],[28.8156,-17.7879,786.55],[28.8109,-17.7832,780.1379],[28.8066,-17.7842,779.4],[28.7959,-17.7777,770.5889],[28.7995,-17.7853,773.1088],[28.7969,-17.7875,773.1121],[28.7952,-17.7867,773.1121],[28.7945,-17.7887,773.2587],[28.7982,-17.7903,774.402],[28.7985,-17.7937,776.1909],[28.8071,-17.802,781.114],[28.8074,-17.8098,783.3671],[28.8102,-17.8106,784.1962],[28.8116,-17.8137,785.6096],[28.815,-17.8137,786.5783],[28.82,-17.8163,788.94],[28.825,-17.8276,792.8854],[28.8241,-17.8319,793.769],[28.8275,-17.8318,796.5539],[28.8305,-17.8338,808.7545],[28.8289,-17.8379,797.9841],[28.8351,-17.8411,816.8655],[28.8323,-17.8444,801.3605],[28.835,-17.8517,806.4205],[28.8311,-17.8575,806.0707],[28.8275,-17.8586,808.0815],[28.8296,-17.863,809.2809],[28.8292,-17.8672,810.1319],[28.8322,-17.8681,812.5187],[28.83,-17.8722,813.6364],[28.8303,-17.8737,814.7778],[28.8332,-17.8736,815.9688],[28.8318,-17.8766,815.6735],[28.8408,-17.8678,830.314],[28.8465,-17.8648,834.9757],[28.8553,-17.8642,825.007],[28.8635,-17.8658,828.8446],[28.8864,-17.8621,834.4213],[28.9012,-17.853,834.9884],[28.9139,-17.8526,847.8568],[28.9172,-17.8549,841.9832],[28.9227,-17.8638,845.1384],[28.9343,-17.8715,858.7986],[28.9416,-17.8732,862.957],[28.9626,-17.8851,907.4824],[28.9805,-17.8861,912.3915],[28.9899,-17.895,944.3755],[28.9981,-17.8978,968.6161],[28.9999,-17.8964,1001.4733]]]]}}