{"type": "Feature","bbox": [26.515,-18.3302,26.5885,-18.1913],"geometry": {"type": "MultiPolygon","coordinates": [[[[26.5232,-18.3302,779.7783],[26.5257,-18.3149,805.3088],[26.5461,-18.2869,843.6225],[26.5466,-18.2775,782.301],[26.5326,-18.2619,700.4921],[26.5336,-18.2463,650.1748],[26.5661,-18.2103,624.5394],[26.5885,-18.1947,577.5186],[26.5876,-18.1938,574.3444],[26.5809,-18.1948,588.9507],[26.5714,-18.1913,656.5385],[26.5552,-18.2025,654.8887],[26.515,-18.2435,646.9791],[26.5166,-18.2502,644.8845],[26.5174,-18.3277,785.0745],[26.5232,-18.3302,779.7783]]]]}
,"properties": {"GID_3": "ZWE.8.4.11_2","GID_0": "ZWE","country": "Zimbabwe","GID_1": "ZWE.8_1","province": "MatabelelandNorth","NL_NAME_1": "NA","GID_2": "ZWE.8.4_2","county": "HwangeUrban","NL_NAME_2": "NA","city": "Ward5","VARNAME_3": "NA","NL_NAME_3": "NA","TYPE_3": "Ward","ENGTYPE_3": "Ward","CC_3": "NA","HASC_3": "NA","name": "Ward5.city","area_km2": 30.34335,"hist_schema_id": "Elevation0-9000","hist_area_km2": {"575": 0.90636,"600": 3.50427,"625": 6.66561,"650": 4.75227,"675": 1.34918,"700": 1.34891,"725": 1.369,"750": 1.34884,"775": 1.34873,"800": 1.52987,"825": 1.4092,"850": 1.89231,"875": 2.03311,"900": 0.8857}}}