{"type":"Feature","properties":{"GID_3":"ZWE.10.11.14_2","GID_0":"ZWE","country":"Zimbabwe","GID_1":"ZWE.10_1","province":"Midlands","NL_NAME_1":"NA","GID_2":"ZWE.10.11_2","county":"Shurugwi","NL_NAME_2":"NA","city":"Ward21","VARNAME_3":"NA","NL_NAME_3":"NA","TYPE_3":"Ward","ENGTYPE_3":"Ward","CC_3":"NA","HASC_3":"NA","name":"Ward21.city"},
"geometry":{"type": "MultiPolygon","coordinates": [[[[29.8734,-20.0614,1101.5444],[29.9019,-20.0718,1108.3909],[29.9384,-20.0077,1070.7124],[29.9771,-20.0006,1042.0168],[29.9862,-19.9733,1052.5081],[29.9782,-19.904,1212.1051],[29.9809,-19.8825,1260.6544],[29.9274,-19.8652,1128.3154],[29.9255,-19.8558,1132.8085],[29.9231,-19.8567,1123.9984],[29.9202,-19.8485,1124.2041],[29.9155,-19.8428,1129.986],[29.9148,-19.8351,1135.2626],[29.902,-19.8281,1142.0979],[29.9008,-19.8257,1154.0835],[29.8854,-19.8453,1239.9604],[29.8391,-19.8664,1201.0336],[29.8407,-19.8681,1186.2244],[29.8394,-19.87,1183.4177],[29.8364,-19.8694,1195.8986],[29.837,-19.8875,1176.1046],[29.844,-19.8899,1171.0836],[29.8412,-19.896,1163.5886],[29.8446,-19.8948,1175.6172],[29.848,-19.8957,1169.4899],[29.7868,-19.9234,1215.726],[29.7977,-19.9449,1208.7732],[29.7982,-19.9526,1180.3392],[29.8014,-19.9541,1187.2666],[29.8004,-20.0032,1176.5753],[29.8094,-20.0001,1171.8326],[29.8756,-20.0057,1162.506],[29.8734,-20.0614,1101.5444]]]]}}