{"type":"Feature","properties":{"GID_3":"ZWE.7.2.16_2","GID_0":"ZWE","country":"Zimbabwe","GID_1":"ZWE.7_1","province":"Masvingo","NL_NAME_1":"NA","GID_2":"ZWE.7.2_2","county":"Chiredzi","NL_NAME_2":"NA","city":"Ward23","VARNAME_3":"NA","NL_NAME_3":"NA","TYPE_3":"Ward","ENGTYPE_3":"Ward","CC_3":"NA","HASC_3":"NA","name":"Ward23.city"},
"geometry":{"type": "MultiPolygon","coordinates": [[[[31.7947,-20.7574,493.3781],[31.8986,-20.7525,438.9011],[31.9007,-20.7485,448.1673],[31.8911,-20.7418,441.8253],[31.8886,-20.7333,454.0944],[31.8816,-20.7331,448.768],[31.8805,-20.7281,451.3951],[31.8658,-20.7268,454.929],[31.8608,-20.7222,455.6421],[31.8618,-20.7189,457.7771],[31.8484,-20.7093,463.8288],[31.8407,-20.7083,463.8999],[31.8365,-20.6999,466.3613],[31.831,-20.6965,468.3839],[31.826,-20.6962,467.0726],[31.8255,-20.692,467.4764],[31.8181,-20.6884,469.8136],[31.8149,-20.6807,473.9489],[31.8165,-20.6771,473.8208],[31.8097,-20.6701,476.2068],[31.8079,-20.6578,484.556],[31.8053,-20.6592,483.1013],[31.8072,-20.6547,481.6543],[31.7998,-20.647,483.9543],[31.7978,-20.6425,489.8776],[31.7891,-20.6412,488.0084],[31.7913,-20.6392,494.3074],[31.7869,-20.6368,496.3294],[31.7872,-20.6332,497.1226],[31.7827,-20.6321,494.2718],[31.7848,-20.6297,493.3814],[31.7808,-20.6271,496.1622],[31.7801,-20.6232,498.0601],[31.7499,-20.6328,518.3989],[31.7246,-20.6432,513.9139],[31.7178,-20.6521,511.7947],[31.6879,-20.6026,781.1245],[31.6332,-20.6027,594.2492],[31.6126,-20.6264,653.1986],[31.6126,-20.6285,561.6654],[31.6167,-20.6301,517.1],[31.6176,-20.6341,512.4837],[31.6272,-20.6336,517.9513],[31.6337,-20.6351,513.064],[31.6403,-20.6337,516.5292],[31.6434,-20.6354,514.4454],[31.6753,-20.6381,509.0722],[31.679,-20.6402,508.0921],[31.679,-20.6457,507.3194],[31.6863,-20.6533,506.7976],[31.6824,-20.6603,505.6699],[31.6796,-20.6611,496.9231],[31.6775,-20.664,498.6988],[31.6755,-20.6632,498.0702],[31.6733,-20.666,493.1543],[31.6764,-20.6797,502.9992],[31.7229,-20.6613,503.7803],[31.7363,-20.6828,489.4797],[31.7067,-20.6966,500.2889],[31.7295,-20.7124,494.5478],[31.753,-20.7371,498.8514],[31.7716,-20.7429,496.3775],[31.7806,-20.7422,496.9478],[31.7844,-20.7463,502.848],[31.79,-20.7486,495.9308],[31.7903,-20.7561,494.2062],[31.7947,-20.7574,493.3781]]]]}}