{"type":"Feature","properties":{"GID_3":"ZWE.5.8.10_2","GID_0":"ZWE","country":"Zimbabwe","GID_1":"ZWE.5_1","province":"MashonalandEast","NL_NAME_1":"NA","GID_2":"ZWE.5.8_2","county":"Mutoko","NL_NAME_2":"NA","city":"Ward18","VARNAME_3":"NA","NL_NAME_3":"NA","TYPE_3":"Ward","ENGTYPE_3":"Ward","CC_3":"NA","HASC_3":"NA","name":"Ward18.city"},
"geometry":{"type": "MultiPolygon","coordinates": [[[[32.5502,-17.3172,1146.8273],[32.5175,-17.3158,1114.4167],[32.4853,-17.329,938.2856],[32.4856,-17.3354,928.1594],[32.4911,-17.3416,925.3826],[32.4917,-17.3572,902.9489],[32.4985,-17.3655,903.5425],[32.4984,-17.3676,893.9153],[32.4926,-17.3692,955.6005],[32.4794,-17.3813,922.6435],[32.4476,-17.3614,1040.5558],[32.4206,-17.3422,994.7323],[32.4157,-17.3493,1004.0568],[32.4117,-17.3654,1041.4062],[32.4061,-17.3685,1048.6493],[32.4175,-17.3891,1089.9762],[32.426,-17.3995,1056.5867],[32.432,-17.4147,1068.767],[32.4667,-17.4157,1201.0812],[32.4637,-17.4337,1143.7506],[32.4678,-17.4429,1167.6345],[32.466,-17.4695,1381.6616],[32.4706,-17.4868,1376.2336],[32.4708,-17.4921,1337.6434],[32.4689,-17.4966,1261.9679],[32.4824,-17.5061,871.5842],[32.5091,-17.4924,850.966],[32.5259,-17.4913,825.7812],[32.5324,-17.4829,827.0596],[32.5391,-17.4826,822.0181],[32.5471,-17.479,815.2673],[32.5558,-17.4721,814.4423],[32.5686,-17.4704,799.4484],[32.5704,-17.4605,808.4412],[32.5761,-17.4593,792.3602],[32.5801,-17.4522,796.1121],[32.589,-17.4471,774.7869],[32.5961,-17.4401,768.8904],[32.6008,-17.4323,761.5734],[32.6004,-17.4223,759.0588],[32.6026,-17.418,771.5277],[32.6103,-17.4165,750.8755],[32.6117,-17.4096,755.7653],[32.6179,-17.4044,776.9181],[32.6335,-17.3999,738.8619],[32.6426,-17.3923,720.814],[32.6418,-17.3866,733.2816],[32.6395,-17.384,708.3008],[32.6405,-17.38,717.2697],[32.6426,-17.3776,728.8718],[32.65,-17.375,706.3877],[32.6555,-17.3698,707.072],[32.6624,-17.356,705.3301],[32.6135,-17.3408,813.6471],[32.5931,-17.3361,968.0931],[32.5517,-17.3222,1138.5995],[32.5495,-17.3197,1154.2776],[32.5502,-17.3172,1146.8273]]]]}}