{"type":"Feature","properties":{"GID_3":"ZWE.10.1.15_2","GID_0":"ZWE","country":"Zimbabwe","GID_1":"ZWE.10_1","province":"Midlands","NL_NAME_1":"NA","GID_2":"ZWE.10.1_2","county":"Chirumhanzu","NL_NAME_2":"NA","city":"Ward22","VARNAME_3":"NA","NL_NAME_3":"NA","TYPE_3":"Ward","ENGTYPE_3":"Ward","CC_3":"NA","HASC_3":"NA","name":"Ward22.city"},
"geometry":{"type": "MultiPolygon","coordinates": [[[[30.2911,-19.3219,1445.8462],[30.2034,-19.1913,1362.5693],[30.1899,-19.202,1354.4045],[30.1751,-19.1799,1324.3207],[30.1731,-19.1624,1334.3595],[30.1574,-19.1639,1313.0095],[30.1154,-19.2236,1366.9266],[30.1711,-19.2492,1368.2169],[30.1663,-19.2736,1408.2137],[30.1354,-19.2501,1377.9521],[30.1148,-19.2695,1424.7192],[30.0716,-19.284,1407.7122],[30.0639,-19.2952,1404.0803],[30.0358,-19.2981,1392.7273],[30.0371,-19.3255,1377.9071],[30.0749,-19.325,1416.3528],[30.0737,-19.3481,1418.8094],[30.1302,-19.3566,1432.0365],[30.1165,-19.3951,1404.5216],[30.1264,-19.3963,1312.9202],[30.1269,-19.3934,1324.2216],[30.1297,-19.3903,1361.7852],[30.1535,-19.401,1477.2483],[30.1699,-19.4061,1482.4276],[30.1871,-19.4071,1395.5576],[30.1758,-19.4338,1461.1046],[30.2331,-19.4606,1350.8802],[30.2247,-19.4404,1390.4977],[30.2668,-19.4057,1404.7589],[30.3014,-19.3966,1416.9927],[30.3321,-19.3835,1415.0646],[30.2911,-19.3219,1445.8462]],
[[30.1652,-19.3469,1478.9677],[30.1601,-19.3419,1469.6487],[30.1391,-19.3329,1460.5742],[30.1304,-19.319,1440.5798],[30.1855,-19.3096,1498.8505],[30.2119,-19.3455,1459.9553],[30.1652,-19.3469,1478.9677]]]]}}