{"type": "Feature","bbox": [30.4258,-16.2669,30.5674,-16.1454],"geometry": {"type": "MultiPolygon","coordinates": [[[[30.5301,-16.2669,389.0609],[30.5383,-16.2645,392.5566],[30.5414,-16.2596,385.4054],[30.5358,-16.255,393.0034],[30.54,-16.2472,387.2013],[30.5437,-16.2437,383.8239],[30.5451,-16.2487,383.3176],[30.5477,-16.2487,387.3208],[30.5499,-16.2413,392.784],[30.5535,-16.2389,385.1413],[30.5565,-16.2399,387.4651],[30.5586,-16.237,385.8442],[30.5592,-16.2291,381.8332],[30.5613,-16.2276,389.1214],[30.5626,-16.2143,382.68],[30.5611,-16.2122,382.9504],[30.5525,-16.21,379.3553],[30.5518,-16.2084,375.9072],[30.5539,-16.2064,380.8406],[30.5498,-16.2029,381.5366],[30.5529,-16.2015,376.7629],[30.5565,-16.2035,377.3404],[30.5585,-16.202,375.877],[30.5596,-16.1981,373.9432],[30.5637,-16.1981,373.8564],[30.5643,-16.1951,372.9561],[30.5612,-16.1916,378.2645],[30.5618,-16.1892,379.702],[30.5674,-16.1892,370.9506],[30.5649,-16.1808,374.5854],[30.565,-16.1748,380.2908],[30.5609,-16.1709,380.1801],[30.5547,-16.1707,380.1167],[30.55,-16.1686,387.1628],[30.5485,-16.1661,387.8985],[30.5387,-16.166,389.0587],[30.5295,-16.1639,396.7425],[30.5199,-16.1583,403.6203],[30.5132,-16.1602,426.6881],[30.5081,-16.1577,433.1761],[30.5014,-16.1591,435.6952],[30.4973,-16.1566,438.5777],[30.4932,-16.1565,443.1186],[30.4778,-16.1603,461.6167],[30.465,-16.1582,470.9383],[30.4615,-16.1571,482.2596],[30.4569,-16.1521,476.9759],[30.4436,-16.149,476.2778],[30.441,-16.1454,481.8144],[30.4311,-16.163,447.6051],[30.4258,-16.1765,443.1283],[30.4259,-16.1795,440.8948],[30.4299,-16.1848,436.262],[30.4309,-16.1916,422.9891],[30.4346,-16.1935,418.1955],[30.4337,-16.1983,413.3434],[30.4364,-16.2032,406.523],[30.4364,-16.2087,394.8133],[30.4408,-16.2089,398.0672],[30.4404,-16.2118,391.3531],[30.4438,-16.2117,396.1128],[30.4452,-16.2134,389.1096],[30.4536,-16.2117,383.9256],[30.4551,-16.2142,383.3295],[30.4659,-16.2158,379.651],[30.4674,-16.2134,379.1999],[30.472,-16.2169,377.2413],[30.4751,-16.2134,375.1005],[30.4833,-16.2148,384.9353],[30.493,-16.2188,399.3112],[30.5002,-16.2246,394.1791],[30.5003,-16.229,395.2391],[30.515,-16.2494,391.2697],[30.5185,-16.2508,393.0094],[30.5207,-16.2559,396.4739],[30.5301,-16.2669,389.0609]]]]}
,"properties": {"GID_3": "ZWE.4.6.17_2","GID_0": "ZWE","country": "Zimbabwe","GID_1": "ZWE.4_1","province": "MashonalandCentral","NL_NAME_1": "NA","GID_2": "ZWE.4.6_2","county": "Mbire","NL_NAME_2": "NA","city": "Ward9","VARNAME_3": "NA","NL_NAME_3": "NA","TYPE_3": "Ward","ENGTYPE_3": "Ward","CC_3": "NA","HASC_3": "NA","name": "Ward9.city","area_km2": 109.60155,"hist_schema_id": "Elevation0-9000","hist_area_km2": {"350": 0.02036,"375": 39.39702,"400": 43.3045,"425": 16.08664,"450": 8.3696,"475": 2.42343}}}