{"type":"Feature","properties":{"GID_3":"ZWE.8.3.11_2","GID_0":"ZWE","country":"Zimbabwe","GID_1":"ZWE.8_1","province":"MatabelelandNorth","NL_NAME_1":"NA","GID_2":"ZWE.8.3_2","county":"Hwange","NL_NAME_2":"NA","city":"Ward19","VARNAME_3":"NA","NL_NAME_3":"NA","TYPE_3":"Ward","ENGTYPE_3":"Ward","CC_3":"NA","HASC_3":"NA","name":"Ward19.city"},
"geometry":{"type": "MultiPolygon","coordinates": [[[[25.9734,-19.0543,1037.8813],[25.9679,-19.0606,1037.2394],[25.963,-19.0793,1033.959],[25.9635,-19.0991,1035.4541],[25.966,-19.1066,1034.2374],[25.9697,-19.1122,1033.1384],[25.9756,-19.1296,1031.5117],[25.9953,-19.1491,1030.5581],[26.0422,-19.2075,993.2766],[26.0445,-19.2133,989.8118],[26.0444,-19.236,983.9045],[26.0565,-19.2499,982.8372],[26.0619,-19.2602,980.8523],[26.0717,-19.269,982.1519],[26.077,-19.2961,978.9038],[26.0912,-19.3216,977.9623],[26.0987,-19.3458,981.6228],[26.1102,-19.3621,979.321],[26.1273,-19.4254,974.1984],[26.1423,-19.4362,982.7275],[26.1417,-19.4463,983.074],[26.1482,-19.4651,984.1572],[26.15,-19.482,984.899],[26.1543,-19.4995,981.8085],[26.1591,-19.5055,976.0558],[26.161,-19.5194,971.816],[26.1692,-19.5413,964.0514],[26.1967,-19.5561,968.088],[26.2067,-19.5598,966.4766],[26.2153,-19.56,966.3418],[26.2405,-19.5803,961.9192],[26.2448,-19.5822,962.7391],[26.312,-19.5736,970.3107],[26.3258,-19.5914,968.4876],[26.3359,-19.5997,968.0673],[26.3502,-19.6087,967.6526],[26.3572,-19.611,967.8414],[26.3389,-19.6319,965.7399],[26.3335,-19.6438,962.6702],[26.3294,-19.6484,961.5829],[26.3291,-19.6632,956.377],[26.3389,-19.6645,958.6794],[26.3507,-19.6724,966.251],[26.3666,-19.6714,969.2996],[26.3869,-19.6665,969.7988],[26.3911,-19.6674,970.0667],[26.3965,-19.6814,965.8871],[26.4057,-19.6906,965.1045],[26.4104,-19.7022,959.2007],[26.4153,-19.7234,960.0527],[26.4318,-19.7406,955.2586],[26.4421,-19.7464,954.7831],[26.4528,-19.7499,955.9901],[26.4693,-19.751,959.064],[26.4923,-19.7552,950.0518],[26.5007,-19.7573,945.2711],[26.5114,-19.7652,942.9121],[26.5259,-19.7655,940.5778],[26.5367,-19.7747,940.6479],[26.5569,-19.7821,938.902],[26.5721,-19.7932,940.9979],[26.5793,-19.8055,941.7674],[26.5945,-19.8442,945.3368],[26.6163,-19.876,948.3395],[26.6227,-19.8786,949.1969],[26.6443,-19.8813,951.8071],[26.6748,-19.8882,953.4764],[26.6812,-19.8864,954.5875],[26.6989,-19.8871,959.8239],[26.7187,-19.8567,958.4022],[26.7443,-19.7696,960.6833],[26.7435,-19.7665,959.6077],[26.7583,-19.7525,962.3109],[26.7781,-19.6988,962.7371],[26.7856,-19.6715,963.3408],[26.8062,-19.6248,962.325],[26.8087,-19.6061,963.9071],[26.8235,-19.5719,961.049],[26.8235,-19.5688,960.2917],[26.8482,-19.5034,961.4393],[26.8476,-19.4997,960.4407],[26.8639,-19.4558,961.1353],[26.8638,-19.4526,960.4231],[26.8721,-19.4472,962.6987],[26.8705,-19.4431,963.2351],[26.8714,-19.4402,962.8083],[26.8689,-19.4349,960.3202],[26.8724,-19.431,962.6359],[26.8724,-19.4256,962.1984],[26.8755,-19.4207,962.1239],[26.8837,-19.4136,962.5803],[26.8878,-19.4028,963.2328],[26.8871,-19.3955,963.061],[26.8943,-19.3859,964.6281],[26.895,-19.3817,964.2285],[26.9084,-19.3675,966.9356],[26.9084,-19.3644,965.0077],[26.9241,-19.3487,965.3666],[26.9289,-19.3403,966.2604],[26.9345,-19.3406,967.0073],[26.9391,-19.3367,967.2013],[26.9421,-19.3382,967.8444],[26.9597,-19.3372,968.6055],[26.9653,-19.3339,970.7123],[26.9774,-19.3364,970.4263],[26.9836,-19.3336,970.8141],[26.9933,-19.3323,972.2873],[26.9904,-19.3291,975.7709],[26.9913,-19.3275,984.8679],[27.0,-19.3317,973.1786],[27.0089,-19.3326,973.5201],[27.0173,-19.3298,974.4596],[27.0305,-19.3286,974.8089],[27.061,-19.3225,987.8269],[27.0655,-19.3261,977.6866],[27.0677,-19.3224,987.9565],[27.0742,-19.3247,980.0552],[27.0883,-19.325,978.3636],[27.099,-19.3213,979.6264],[27.1017,-19.319,982.5966],[27.1065,-19.3184,981.239],[27.109,-19.3198,979.4944],[27.1121,-19.3172,981.353],[27.1193,-19.3195,985.0282],[27.1265,-19.3196,980.313],[27.1321,-19.3177,980.7012],[27.1346,-19.3147,986.1492],[27.1417,-19.3162,989.1445],[27.1537,-19.3145,989.0354],[27.1653,-19.3179,983.61],[27.1801,-19.3173,985.3179],[27.2046,-19.3234,986.4382],[27.2117,-19.3193,986.1793],[27.2259,-19.3177,988.162],[27.2308,-19.3142,990.1342],[27.2343,-19.3137,989.5939],[27.2345,-19.312,989.3862],[27.2313,-19.3089,990.4241],[27.2339,-19.3016,989.8368],[27.2336,-19.2934,990.673],[27.2433,-19.2835,992.7314],[27.2428,-19.2812,1006.6879],[27.2677,-19.2635,1007.9117],[27.2788,-19.2627,995.0487],[27.2799,-19.2549,995.1829],[27.2787,-19.2529,998.3603],[27.2801,-19.2506,1006.2617],[27.2913,-19.2408,1002.3602],[27.3,-19.2355,1002.9648],[27.303,-19.2358,999.3399],[27.3062,-19.2334,1005.4781],[27.3068,-19.2368,996.9382],[27.3091,-19.2364,998.9318],[27.3218,-19.2294,998.9286],[27.3238,-19.2269,1004.7352],[27.3413,-19.2259,1006.3253],[27.3495,-19.228,1003.6856],[27.3539,-19.225,1006.8102],[27.357,-19.2248,1003.5258],[27.3584,-19.2163,1002.0495],[27.3749,-19.225,1003.5684],[27.3906,-19.2288,1006.8613],[27.3984,-19.2274,1004.6314],[27.4082,-19.219,1007.2365],[27.4184,-19.2135,1008.514],[27.4402,-19.2115,1011.3671],[27.4494,-19.217,1009.8019],[27.4532,-19.2172,1010.4041],[27.455,-19.2149,1008.0652],[27.4535,-19.2024,1009.9491],[27.4599,-19.1973,1012.5198],[27.4595,-19.19,1013.649],[27.4556,-19.1854,1012.5147],[27.4565,-19.1726,1012.7173],[27.4526,-19.1602,1014.0498],[27.4492,-19.1546,1014.5999],[27.4441,-19.1513,1013.2319],[27.4429,-19.1465,1012.71],[27.4455,-19.1417,1014.9425],[27.4454,-19.1344,1015.1368],[27.4476,-19.131,1016.8237],[27.4453,-19.1258,1015.0186],[27.4665,-19.0981,1018.9202],[27.4683,-19.0981,1018.9938],[27.2831,-18.9558,1035.3464],[27.3664,-18.86,1038.462],[27.3363,-18.8056,1038.8562],[27.2427,-18.7828,1044.4657],[27.1816,-18.7776,1043.8876],[27.1534,-18.7612,1048.177],[27.157,-18.7317,1038.0518],[27.1415,-18.7334,1047.9834],[27.036,-18.6659,1078.8174],[27.0742,-18.5986,1040.3948],[27.0713,-18.5996,1054.3792],[27.0555,-18.5917,1043.4619],[27.0376,-18.571,1075.5769],[26.9994,-18.5513,1054.9795],[26.9916,-18.5449,1076.72],[26.9852,-18.5351,1043.7843],[26.9022,-18.542,1094.7628],[26.891,-18.5737,1102.4521],[26.8825,-18.5859,1109.5159],[26.8381,-18.5639,1047.6383],[26.7644,-18.5014,1047.4978],[26.7323,-18.4855,920.2577],[26.7106,-18.4696,980.3529],[26.725,-18.4296,963.2339],[26.7187,-18.4157,920.0258],[26.707,-18.4133,808.45],[26.6923,-18.4272,802.3408],[26.6361,-18.4555,793.1788],[26.5808,-18.4523,797.191],[26.5727,-18.4562,807.9783],[26.5694,-18.4554,826.4492],[26.5689,-18.4609,805.1781],[26.5618,-18.4606,784.0383],[26.5345,-18.4707,846.7834],[26.5308,-18.4659,815.4758],[26.5332,-18.4604,779.4026],[26.533,-18.456,858.4095],[26.528199999999998,-18.4495,771.55],[26.5219,-18.4526,784.7942],[26.5106,-18.4502,810.9728],[26.5035,-18.4513,821.4004],[26.4994,-18.4445,833.303],[26.4841,-18.4464,900.3673],[26.3929,-18.4839,923.6328],[26.379,-18.4803,901.7054],[26.3599,-18.4823,922.6812],[26.3457,-18.4742,873.9677],[26.3342,-18.4619,894.7002],[26.3192,-18.4521,822.7697],[26.3201,-18.4373,823.9425],[26.3108,-18.4338,811.6815],[26.3091,-18.4241,808.4575],[26.3011,-18.4084,793.9941],[26.2967,-18.4037,801.7222],[26.2865,-18.399,775.0289],[26.2888,-18.3884,758.4901],[26.2862,-18.3821,778.5919],[26.2804,-18.3842,772.3341],[26.2237,-18.3628,865.0707],[26.2206,-18.3594,871.0683],[26.2086,-18.3551,893.6001],[26.2056,-18.3347,926.4781],[26.1959,-18.3279,959.1738],[26.1888,-18.3279,1017.3596],[26.1848,-18.3308,1027.4021],[26.176,-18.3249,1008.9387],[26.1721,-18.2977,942.5134],[26.1562,-18.2885,905.0326],[26.0985,-18.3056,875.8304],[26.067,-18.3003,896.6058],[26.0116,-18.2941,889.6793],[26.0076,-18.2988,919.6007],[26.0102,-18.3056,913.1547],[26.0018,-18.3106,919.47],[25.981,-18.3041,922.517],[25.9446,-18.3082,931.6661],[25.9427,-18.3213,951.8256],[25.9365,-18.3255,949.2744],[25.9272,-18.3259,971.0045],[25.9227,-18.3377,966.2555],[25.9147,-18.3338,967.5009],[25.9058,-18.341,959.9586],[25.8965,-18.3392,953.9575],[25.8896,-18.3326,947.2942],[25.8899,-18.3337,959.6087],[25.8861,-18.3275,932.3909],[25.882,-18.3334,962.0151],[25.8662,-18.3202,963.0796],[25.8568,-18.3206,936.6702],[25.8493,-18.3146,934.8972],[25.8605,-18.3024,919.9384],[25.8623,-18.3053,920.0915],[25.8761,-18.2948,907.2857],[25.8779,-18.2834,911.2625],[25.9006,-18.2751,900.3438],[25.9012,-18.2488,911.9688],[25.9048,-18.2344,918.9394],[25.8552,-18.2333,962.3187],[25.8486,-18.2252,947.8862],[25.8136,-18.2161,971.7866],[25.8071,-18.2042,985.7064],[25.7983,-18.1991,993.2845],[25.7975,-18.183,1002.7303],[25.8006,-18.175,1008.1472],[25.8008,-18.1529,1022.5155],[25.7951,-18.147,1029.5731],[25.7307,-18.1715,1108.0625],[25.6762,-18.1678,1103.5553],[25.6727,-18.1059,1046.2716],[25.6803,-18.0912,1057.4352],[25.7296,-18.0648,1047.4469],[25.7443,-18.0636,975.165],[25.7448,-18.053,969.0371],[25.7489,-18.0356,958.3982],[25.7663,-18.0179,941.4876],[25.7663,-18.0099,953.5247],[25.8099,-17.9695,907.5436],[25.8095,-17.9252,961.7039],[25.8173,-17.9092,906.5426],[25.8203,-17.8977,888.1271],[25.8212,-17.8849,886.3411],[25.8104,-17.8831,885.0],[25.8007,-17.8772,891.8144],[25.774,-17.8505,887.5],[25.7612,-17.8421,897.4648],[25.7514,-17.8406,898.2846],[25.7471,-17.8416,900.1606],[25.7375,-17.8369,900.2004],[25.7227,-17.8349,904.5982],[25.7054,-17.83,901.1444],[25.699,-17.824,894.5],[25.6962,-17.8117,894.5],[25.6886,-17.8042,904.7676],[25.6794,-17.8036,906.1669],[25.6735,-17.8052,905.6002],[25.6545,-17.8171,906.7015],[25.642,-17.8274,905.1812],[25.6181,-17.8354,904.2226],[25.5761,-17.8347,903.3456],[25.5578,-17.8313,910.1588],[25.5493,-17.8338,912.0297],[25.5368,-17.8478,906.0],[25.5275,-17.8534,913.509],[25.5131,-17.8543,914.5758],[25.4738,-17.8403,918.8883],[25.4628,-17.8384,920.5278],[25.4451,-17.841,918.367],[25.403,-17.8389,930.0562],[25.3943,-17.8366,922.5259],[25.3897,-17.8332,925.4495],[25.3837,-17.8331,924.1781],[25.3823,-17.83,931.7076],[25.3792,-17.8285,928.0044],[25.3579,-17.8305,923.0659],[25.3433,-17.8295,921.9642],[25.3219,-17.8193,922.2154],[25.3148,-17.8101,922.3177],[25.2677,-17.7825,930.4977],[25.2655,-17.7899,922.1616],[25.2687,-17.7891,928.7136],[25.2719,-17.7937,923.7793],[25.2703,-17.7989,921.3364],[25.2639,-17.7995,925.0067],[25.2648,-17.8161,930.2044],[25.2392,-17.8732,960.8298],[25.2405,-17.89,981.235],[25.2426,-17.8971,993.5704],[25.2377,-17.9095,1002.7203],[25.2525,-17.9373,1019.6264],[25.2594,-17.9442,1027.0695],[25.2656,-17.9466,1027.1945],[25.2686,-17.9516,1040.9407],[25.2824,-17.9869,1052.2397],[25.281,-17.9926,1052.4183],[25.2821,-18.0055,1052.2645],[25.2915,-18.0286,1052.606],[25.3043,-18.0487,1053.0759],[25.3166,-18.0621,1054.3418],[25.3221,-18.0776,1057.3938],[25.3336,-18.0799,1057.0526],[25.3393,-18.0836,1057.951],[25.3627,-18.0919,1061.84],[25.366,-18.0972,1061.3931],[25.3658,-18.1089,1061.2794],[25.3687,-18.1135,1059.2898],[25.3728,-18.1164,1055.8074],[25.3885,-18.1171,1056.6317],[25.3949,-18.1203,1057.875],[25.4192,-18.1557,1073.776],[25.4247,-18.1653,1076.8458],[25.4281,-18.1776,1077.871],[25.4445,-18.2021,1079.9407],[25.4451,-18.2102,1079.0973],[25.4479,-18.2168,1078.1389],[25.4561,-18.2241,1080.7767],[25.4614,-18.2349,1074.7605],[25.4666,-18.2581,1071.5245],[25.4901,-18.2961,1071.9468],[25.496,-18.3123,1069.9241],[25.5006,-18.315,1070.0068],[25.5179,-18.3595,1061.5815],[25.518,-18.3701,1062.51],[25.5214,-18.3792,1063.4329],[25.575,-18.4323,1074.9077],[25.5821,-18.4453,1060.4943],[25.6046,-18.4752,1060.7266],[25.6194,-18.4853,1065.4211],[25.642,-18.4912,1038.5518],[25.649,-18.4952,1041.9758],[25.6516,-18.4994,1038.0],[25.6539,-18.5122,1047.0769],[25.6569,-18.5175,1053.498],[25.6658,-18.5256,1054.4414],[25.6739,-18.5454,1062.5015],[25.6817,-18.5578,1067.6542],[25.6915,-18.5693,1075.5281],[25.7197,-18.5906,1105.6497],[25.7336,-18.5927,1103.1682],[25.7596,-18.6031,1105.412],[25.7662,-18.6105,1097.0671],[25.7756,-18.6156,1090.2322],[25.7784,-18.6205,1087.7925],[25.783,-18.623,1082.7021],[25.7878,-18.6339,1071.5714],[25.7909,-18.6609,1062.9678],[25.7973,-18.6718,1056.0369],[25.7985,-18.6776,1062.874],[25.8041,-18.6838,1060.8119],[25.8034,-18.6864,1058.9976],[25.7974,-18.6898,1063.24],[25.7918,-18.6964,1069.531],[25.7935,-18.7061,1083.1084],[25.7911,-18.7178,1086.8068],[25.7967,-18.7505,1078.1401],[25.8072,-18.7887,1066.4419],[25.8195,-18.8038,1068.5627],[25.8233,-18.8194,1069.1404],[25.8229,-18.8282,1075.2482],[25.8261,-18.8349,1073.3298],[25.8287,-18.8367,1074.1565],[25.8377,-18.8423,1077.2498],[25.8466,-18.8444,1087.1046],[25.8551,-18.8526,1084.5719],[25.8637,-18.8534,1071.7548],[25.8743,-18.8592,1069.2421],[25.9059,-18.8849,1072.4313],[25.9249,-18.8968,1069.0306],[25.9401,-18.8992,1068.4558],[25.9504,-18.908,1069.9678],[25.9684,-18.9382,1060.4388],[25.9705,-18.9482,1055.9275],[25.9778,-18.9622,1052.9321],[25.9856,-18.9733,1050.7939],[25.9872,-18.9859,1047.1133],[25.9967,-19.0252,1038.6725],[25.9967,-19.0302,1037.9709],[25.9928,-19.0347,1038.6766],[25.9917,-19.0398,1036.4639],[25.9807,-19.0471,1037.5747],[25.9734,-19.0543,1037.8813]],
[[26.8667,-18.6038,1107.9688],[26.8632,-18.6083,1105.95],[26.8795,-18.6214,1098.3269],[26.8728,-18.6305,1096.068],[26.8903,-18.6435,1092.8208],[26.8789,-18.6573,1092.4567],[26.8444,-18.6308,1103.0687],[26.8539,-18.62,1100.642],[26.8487,-18.6197,1098.921],[26.8418,-18.6133,1100.6377],[26.8348,-18.6094,1084.0696],[26.8335,-18.6066,1083.4309],[26.8335,-18.6042,1071.4398],[26.8429,-18.5928,1119.1128],[26.8667,-18.6038,1107.9688]]]]}}