{"type":"Feature","properties":{"GID_3":"ZWE.10.8.11_2","GID_0":"ZWE","country":"Zimbabwe","GID_1":"ZWE.10_1","province":"Midlands","NL_NAME_1":"NA","GID_2":"ZWE.10.8_2","county":"KwekweUrban","NL_NAME_2":"NA","city":"Ward6","VARNAME_3":"NA","NL_NAME_3":"NA","TYPE_3":"Ward","ENGTYPE_3":"Ward","CC_3":"NA","HASC_3":"NA","name":"Ward6.city"},
"geometry":{"type": "MultiPolygon","coordinates": [[[[29.8304,-18.8882,1176.4501],[29.83,-18.8707,1182.756],[29.821,-18.8777,1192.5948],[29.8186,-18.8861,1192.5157],[29.7807,-18.9105,1187.8235],[29.7295,-18.8985,1148.6315],[29.7295,-18.902,1154.1565],[29.7361,-18.9037,1169.0731],[29.7374,-18.9093,1152.7068],[29.7487,-18.911,1156.5916],[29.747,-18.9145,1151.6339],[29.7326,-18.92,1161.0021],[29.7661,-18.9294,1236.8352],[29.7779,-18.9265,1222.5953],[29.7784,-18.9223,1219.6858],[29.7766,-18.9241,1223.7607],[29.7776,-18.9207,1217.3955],[29.7796,-18.9206,1210.4619],[29.7829,-18.9249,1206.6541],[29.7832,-18.9233,1205.5165],[29.7937,-18.9171,1209.1951],[29.7948,-18.9211,1210.6561],[29.7938,-18.9307,1207.5555],[29.7992,-18.9288,1228.2981],[29.7997,-18.9311,1229.8749],[29.8061,-18.931,1215.3523],[29.8043,-18.9328,1217.2706],[29.806,-18.9339,1215.3612],[29.805,-18.9371,1221.9901],[29.807,-18.9389,1218.5341],[29.8094,-18.9395,1215.5155],[29.8081,-18.9338,1212.4481],[29.8123,-18.9343,1206.8643],[29.8124,-18.9296,1207.2582],[29.8144,-18.9298,1204.5786],[29.8172,-18.9249,1199.1111],[29.8233,-18.9244,1201.1755],[29.8259,-18.9282,1201.9585],[29.8277,-18.9392,1210.9875],[29.8311,-18.9399,1212.7373],[29.8334,-18.9348,1212.8491],[29.8342,-18.927,1210.2057],[29.8392,-18.9183,1199.9152],[29.8365,-18.9183,1203.2776],[29.8366,-18.9132,1201.6426],[29.8305,-18.9041,1192.1238],[29.8304,-18.8882,1176.4501]]]]}}