{"type": "Feature","bbox": [30.1698,-19.8025,30.2852,-19.6852],"geometry": {"type": "MultiPolygon","coordinates": [[[[30.209,-19.7822,1087.7329],[30.2203,-19.78,1096.1451],[30.2242,-19.7703,1103.3156],[30.2444,-19.7711,1130.9027],[30.248,-19.7728,1123.2832],[30.2536,-19.7714,1119.057],[30.2547,-19.7764,1110.7111],[30.2578,-19.775,1114.9705],[30.2601,-19.776,1117.4771],[30.2676,-19.7909,1090.6183],[30.2735,-19.7934,1096.3079],[30.2749,-19.799,1088.8547],[30.2844,-19.8025,1076.7009],[30.2838,-19.7947,1083.6464],[30.2852,-19.7908,1096.3773],[30.2829,-19.7862,1096.2344],[30.2748,-19.7807,1104.5671],[30.2771,-19.7718,1111.1405],[30.2791,-19.77,1118.6001],[30.2765,-19.7632,1121.7864],[30.2752,-19.7132,1123.0879],[30.2639,-19.7123,1133.77],[30.2589,-19.7091,1133.0981],[30.2509,-19.7104,1140.5995],[30.2482,-19.7049,1150.1365],[30.2374,-19.6975,1165.9845],[30.224,-19.6955,1181.0547],[30.2185,-19.6984,1185.0366],[30.1996,-19.6907,1232.996],[30.1917,-19.6855,1237.3755],[30.1843,-19.6852,1240.0392],[30.1764,-19.694,1194.688],[30.1735,-19.7024,1190.9514],[30.1741,-19.7059,1182.1055],[30.1698,-19.7143,1166.355],[30.171,-19.7162,1165.8066],[30.1802,-19.7188,1160.9716],[30.1917,-19.7288,1146.625],[30.1942,-19.7354,1133.9978],[30.2027,-19.7436,1125.3943],[30.2065,-19.7512,1113.5122],[30.2095,-19.7522,1114.9069],[30.2116,-19.7585,1102.8188],[30.209,-19.7592,1107.604],[30.2082,-19.7622,1111.7211],[30.2116,-19.7698,1098.7419],[30.2098,-19.7709,1095.475],[30.209,-19.7822,1087.7329]]]]}
,"properties": {"GID_3": "ZWE.10.11.4_2","GID_0": "ZWE","country": "Zimbabwe","GID_1": "ZWE.10_1","province": "Midlands","NL_NAME_1": "NA","GID_2": "ZWE.10.11_2","county": "Shurugwi","NL_NAME_2": "NA","city": "Ward12","VARNAME_3": "NA","NL_NAME_3": "NA","TYPE_3": "Ward","ENGTYPE_3": "Ward","CC_3": "NA","HASC_3": "NA","name": "Ward12.city","area_km2": 77.0334,"hist_schema_id": "Elevation0-9000","hist_area_km2": {"1075": 0.41894,"1100": 5.92553,"1125": 17.9789,"1150": 27.28105,"1175": 14.35063,"1200": 8.82262,"1225": 2.23577,"1250": 0.01996}}}