{"type":"Feature","properties":{"GID_3":"ZWE.5.8.4_2","GID_0":"ZWE","country":"Zimbabwe","GID_1":"ZWE.5_1","province":"MashonalandEast","NL_NAME_1":"NA","GID_2":"ZWE.5.8_2","county":"Mutoko","NL_NAME_2":"NA","city":"Ward12","VARNAME_3":"NA","NL_NAME_3":"NA","TYPE_3":"Ward","ENGTYPE_3":"Ward","CC_3":"NA","HASC_3":"NA","name":"Ward12.city"},
"geometry":{"type": "MultiPolygon","coordinates": [[[[32.2588,-17.4049,1203.0658],[32.2737,-17.4024,1362.4443],[32.2805,-17.406,1163.3591],[32.2865,-17.4011,1151.8834],[32.289,-17.3894,1156.6505],[32.294,-17.3862,1199.6864],[32.3096,-17.3851,1135.4893],[32.3231,-17.3861,1138.7653],[32.3327,-17.3826,1119.4797],[32.3296,-17.3742,1047.4352],[32.3294,-17.3641,1047.134],[32.3363,-17.3488,1031.6425],[32.3404,-17.3431,1027.1516],[32.3329,-17.3416,1036.2291],[32.3295,-17.3446,1053.125],[32.3236,-17.3466,1064.8003],[32.3168,-17.3467,1121.917],[32.3139,-17.3369,1198.5974],[32.3077,-17.3255,1166.9952],[32.3201,-17.3089,1077.7952],[32.3208,-17.3039,1064.5864],[32.3251,-17.2974,1024.657],[32.3284,-17.2877,998.9996],[32.3148,-17.2923,1056.0079],[32.3033,-17.3006,1060.6234],[32.2903,-17.2871,950.5712],[32.2847,-17.2763,921.1816],[32.2794,-17.2721,917.2303],[32.2766,-17.2661,900.309],[32.276,-17.271,903.2642],[32.2692,-17.2789,924.396],[32.2576,-17.2823,958.2986],[32.255,-17.2852,956.5118],[32.2457,-17.3026,986.0089],[32.2472,-17.3122,978.8247],[32.2374,-17.3256,1030.1833],[32.2357,-17.3309,1022.4272],[32.232,-17.3333,1034.5299],[32.2358,-17.3373,1080.0502],[32.2402,-17.3466,1077.1729],[32.2715,-17.3783,1148.1476],[32.2625,-17.3863,1359.2559],[32.2588,-17.4049,1203.0658]]]]}}