{"type": "Feature","bbox": [29.1275,-17.1097,29.3618,-16.8888],"geometry": {"type": "MultiPolygon","coordinates": [[[[29.29,-16.9021,1115.526],[29.2801,-16.9095,1098.8843],[29.2755,-16.917,1093.748],[29.2815,-16.9278,1064.7041],[29.2797,-16.9405,1054.6755],[29.2733,-16.9532,1052.9032],[29.2659,-16.9599,1039.3525],[29.2609,-16.959,1035.5671],[29.2589,-16.9549,1033.991],[29.2553,-16.954,1035.1239],[29.2517,-16.956,1041.9368],[29.2491,-16.9607,1027.605],[29.235,-16.9622,1026.3831],[29.2341,-16.9657,1024.9462],[29.2263,-16.9714,1020.119],[29.2223,-16.9705,1014.4327],[29.219,-16.9658,1021.4531],[29.2121,-16.9643,1006.2393],[29.2117,-16.9608,1006.7079],[29.2091,-16.9612,1006.335],[29.2051,-16.9574,1009.7065],[29.2018,-16.9584,997.3497],[29.1998,-16.9534,988.732],[29.2004,-16.9502,994.3947],[29.1981,-16.9521,988.1281],[29.1968,-16.9503,994.4188],[29.1929,-16.9509,989.3114],[29.1892,-16.9484,993.6022],[29.1762,-16.9568,987.9514],[29.1765,-16.9549,980.4282],[29.1679,-16.9525,990.7338],[29.1692,-16.9499,992.2362],[29.1676,-16.9496,992.2362],[29.1633,-16.9531,968.4736],[29.1603,-16.9469,975.1962],[29.1568,-16.9538,945.4155],[29.1521,-16.9485,942.1362],[29.1469,-16.9489,945.6675],[29.1443,-16.954,939.9349],[29.1447,-16.9574,939.0156],[29.1275,-16.9538,930.1983],[29.1734,-17.1097,989.3668],[29.1753,-17.1096,880.549],[29.1761,-17.0999,890.5717],[29.1841,-17.1017,903.0613],[29.1833,-17.0997,921.8771],[29.1854,-17.0981,936.2167],[29.196,-17.1004,901.5318],[29.1961,-17.0978,924.9384],[29.1987,-17.0984,900.9718],[29.2009,-17.0967,904.465],[29.2025,-17.0918,927.1667],[29.2102,-17.0864,932.0002],[29.2131,-17.0864,918.1773],[29.2143,-17.0899,911.1001],[29.2175,-17.0872,926.6379],[29.2214,-17.0879,918.0275],[29.2212,-17.0846,920.4128],[29.2249,-17.0841,921.5322],[29.226,-17.0769,930.2769],[29.2287,-17.075,933.9412],[29.2377,-17.0735,942.4676],[29.2409,-17.0694,961.2397],[29.2442,-17.0695,948.2388],[29.2457,-17.0658,959.019],[29.2479,-17.0657,954.6707],[29.2511,-17.0626,958.7935],[29.2542,-17.0568,967.9208],[29.258,-17.0549,967.7048],[29.2585,-17.049,983.5748],[29.2638,-17.0459,977.8495],[29.2659,-17.0414,977.044],[29.2655,-17.0382,1011.2264],[29.2695,-17.0374,984.7385],[29.2686,-17.0349,984.9057],[29.2727,-17.0286,1004.1378],[29.2722,-17.026,998.9032],[29.2739,-17.0233,1005.6268],[29.2887,-17.0256,1017.1815],[29.2966,-17.0213,1044.1692],[29.3059,-17.0234,1031.3523],[29.3062,-17.0198,1038.698],[29.3168,-17.0118,1046.0745],[29.3216,-17.0139,1044.4081],[29.3265,-17.0106,1049.153],[29.3292,-17.0071,1050.0529],[29.3289,-17.0039,1064.2247],[29.3307,-17.0026,1064.3755],[29.3406,-17.0004,1065.7388],[29.3492,-16.9956,1080.1736],[29.3493,-16.99,1108.1353],[29.3578,-16.9801,1122.5314],[29.3618,-16.9671,1162.7289],[29.3403,-16.9715,1127.5111],[29.3307,-16.9628,1107.6775],[29.3299,-16.9593,1102.0126],[29.3316,-16.9514,1115.7397],[29.3304,-16.9445,1111.1823],[29.3413,-16.9338,1121.2305],[29.3431,-16.9255,1138.657],[29.3345,-16.9288,1121.5486],[29.3278,-16.9256,1114.9149],[29.3224,-16.9188,1137.5897],[29.3174,-16.9251,1131.0613],[29.312,-16.9239,1113.845],[29.3069,-16.919,1089.8458],[29.3082,-16.9153,1094.3723],[29.3244,-16.9066,1140.4042],[29.3371,-16.9068,1159.0093],[29.3363,-16.897,1147.1328],[29.3304,-16.8925,1139.483],[29.3208,-16.8891,1134.2119],[29.3107,-16.8888,1132.0133],[29.3059,-16.8902,1117.4558],[29.3013,-16.8942,1114.3231],[29.2936,-16.8947,1102.7516],[29.29,-16.9021,1115.526]]]]}
,"properties": {"GID_3": "ZWE.6.4.18_2","GID_0": "ZWE","country": "Zimbabwe","GID_1": "ZWE.6_1","province": "MashonalandWest","NL_NAME_1": "NA","GID_2": "ZWE.6.4_2","county": "Hurungwe","NL_NAME_2": "NA","city": "Ward25","VARNAME_3": "NA","NL_NAME_3": "NA","TYPE_3": "Ward","ENGTYPE_3": "Ward","CC_3": "NA","HASC_3": "NA","name": "Ward25.city","area_km2": 271.1092,"hist_schema_id": "Elevation0-9000","hist_area_km2": {"875": 0.2026,"900": 1.0741,"925": 6.263,"950": 21.5079,"975": 37.0986,"1000": 52.8554,"1025": 41.3417,"1050": 28.0228,"1075": 36.0551,"1100": 27.5812,"1125": 15.2124,"1150": 3.4279,"1175": 0.4259,"1200": 0.0406}}}