{"type": "Feature","id": "525","bbox": [30.87903,-18.05419,31.2221,-17.6661],"geometry": {"type": "Polygon","coordinates": [[[31.1495,-17.70047,1444.5427],[31.13121,-17.69742,1543.4302],[31.12392,-17.69411,1557.8475],[31.11958,-17.68781,1553.1448],[31.11689,-17.68052,1539.6556],[31.11519,-17.67246,1527.5129],[31.11209,-17.66895,1529.0278],[31.10743,-17.66709,1507.6387],[31.08868,-17.6661,1475.0403],[31.08573,-17.70925,1541.6116],[31.07782,-17.72512,1519.7056],[31.07131,-17.73148,1507.4707],[31.0646,-17.73483,1499.9961],[31.05824,-17.73613,1492.5363],[31.03979,-17.73566,1488.0601],[31.03002,-17.73928,1477.7947],[31.01824,-17.74088,1471.6659],[31.00847,-17.74036,1471.9779],[31.00346,-17.73902,1466.2161],[30.99835,-17.73597,1466.7538],[30.98207,-17.72171,1464.5045],[30.97044,-17.75266,1490.2614],[30.94264,-17.78408,1445.1842],[30.9307,-17.7923,1437.7256],[30.91985,-17.797,1430.7186],[30.9107,-17.79886,1432.6418],[30.90605,-17.8032,1442.3206],[30.90357,-17.81002,1432.9873],[30.90156,-17.8216,1434.1942],[30.90156,-17.82925,1422.9697],[30.90419,-17.83498,1410.074],[30.90807,-17.83943,1410.3497],[30.9107,-17.84563,1413.0853],[30.91039,-17.85736,1414.3724],[30.90404,-17.87054,1394.7454],[30.90264,-17.87906,1413.6228],[30.90481,-17.8849,1399.7285],[30.9107,-17.88914,1410.0215],[30.93163,-17.9001,1423.2441],[30.93675,-17.90625,1415.8601],[30.94109,-17.91322,1410.8831],[30.94403,-17.92299,1400.6541],[30.94295,-17.9281,1389.1116],[30.93861,-17.9326,1391.8706],[30.90605,-17.94371,1387.291],[30.87903,-17.94903,1388.6769],[30.9059,-17.97255,1381.4459],[30.92528,-17.98025,1401.2373],[30.93814,-17.9835,1395.2009],[30.97633,-17.99885,1405.7408],[31.02537,-18.02949,1405.422],[31.04801,-18.04846,1403.1892],[31.05715,-18.05249,1389.629],[31.06325,-18.05419,1403.8263],[31.06728,-18.05363,1410.486],[31.07085,-18.0527,1412.8217],[31.07441,-18.05115,1414.7842],[31.08279,-18.04572,1419.1658],[31.0879,-18.04329,1428.7257],[31.09441,-18.04174,1431.2677],[31.10743,-18.04045,1438.3844],[31.11286,-18.03833,1441.8018],[31.13012,-18.02593,1462.9344],[31.13322,-18.02185,1464.4121],[31.13229,-18.01952,1459.981],[31.12309,-18.01296,1452.3368],[31.11958,-18.00877,1443.1732],[31.1203,-18.00391,1447.2159],[31.12361,-17.99632,1440.553],[31.13787,-17.99017,1454.0355],[31.14764,-17.97921,1479.3682],[31.15136,-17.96262,1487.0588],[31.15182,-17.95771,1479.5321],[31.15105,-17.94655,1465.2151],[31.14996,-17.94061,1464.6593],[31.14702,-17.92971,1463.062],[31.14717,-17.92655,1461.2056],[31.14841,-17.92361,1464.4287],[31.18505,-17.90816,1504.0731],[31.19358,-17.90247,1493.5686],[31.19885,-17.89674,1495.7905],[31.19978,-17.88635,1503.6279],[31.20164,-17.87968,1512.8602],[31.20552,-17.8726,1535.3218],[31.21513,-17.86325,1545.7019],[31.21978,-17.8571,1534.2379],[31.2221,-17.85183,1545.104],[31.22179,-17.84832,1545.1812],[31.22055,-17.84367,1548.8828],[31.2111,-17.82454,1586.4387],[31.20815,-17.81591,1588.5],[31.20583,-17.80584,1570.078],[31.20536,-17.79995,1592.478],[31.20614,-17.78858,1538.1895],[31.2049,-17.78233,1481.6143],[31.20195,-17.77633,1522.042],[31.19792,-17.77008,1495.4127],[31.1959,-17.76331,1488.6168],[31.1959,-17.75649,1420.7938],[31.20025,-17.73964,1379.0798],[31.20102,-17.72817,1428.3961],[31.19994,-17.71732,1347.3694],[31.19653,-17.70667,1382.6261],[31.19172,-17.70217,1429.8884],[31.18226,-17.69954,1535.7087],[31.1495,-17.70047,1444.5427]]]}
,"properties": {"ISO3166-1-Alpha-3": "ZWE","country": "Zimbabwe","fill": "#F0F","name": "Harare","area_km2": 932.1759,"hist_schema_id": "Elevation0-9000","hist_area_km2": {"1325": 0.0202,"1350": 0.6463,"1375": 28.9854,"1400": 87.4368,"1425": 147.6965,"1450": 176.5892,"1475": 154.719,"1500": 135.1419,"1525": 104.2877,"1550": 63.6077,"1575": 28.968,"1600": 4.0773}}}