{"type": "Feature","bbox": [26.4806,-18.3719,26.5181,-18.339],"geometry": {"type": "MultiPolygon","coordinates": [[[[26.4998,-18.3454,732.2883],[26.4856,-18.342,716.626],[26.4812,-18.339,707.6266],[26.4827,-18.354,729.493],[26.4806,-18.369,753.1294],[26.4834,-18.3716,754.3979],[26.491,-18.3719,750.6778],[26.4967,-18.3701,758.4286],[26.5181,-18.3598,760.618],[26.508,-18.3458,737.9344],[26.4998,-18.3454,732.2883]]]]}
,"properties": {"GID_3": "ZWE.8.4.14_2","GID_0": "ZWE","country": "Zimbabwe","GID_1": "ZWE.8_1","province": "MatabelelandNorth","NL_NAME_1": "NA","GID_2": "ZWE.8.4_2","county": "HwangeUrban","NL_NAME_2": "NA","city": "Ward8","VARNAME_3": "NA","NL_NAME_3": "NA","TYPE_3": "Ward","ENGTYPE_3": "Ward","CC_3": "NA","HASC_3": "NA","name": "Ward8.city","area_km2": 9.075601,"hist_schema_id": "Elevation0-9000","hist_area_km2": {"700": 0.020125,"725": 2.334411,"750": 5.111238,"775": 1.368352,"800": 0.241475}}}