{"type": "Feature","bbox": [30.0495,-16.4037,30.2759,-16.0886],"geometry": {"type": "MultiPolygon","coordinates": [[[[30.2586,-16.2744,896.7465],[30.2583,-16.2695,783.5497],[30.2602,-16.2681,791.192],[30.2588,-16.2632,724.2003],[30.2619,-16.2611,627.7427],[30.2601,-16.2578,583.7292],[30.2611,-16.2549,565.1235],[30.2596,-16.2517,560.8655],[30.2638,-16.2437,515.1757],[30.2638,-16.2298,483.1197],[30.2685,-16.225,475.795],[30.2683,-16.2166,472.659],[30.2728,-16.2137,454.2513],[30.2707,-16.2096,448.357],[30.2725,-16.2074,447.8985],[30.2722,-16.2037,442.0862],[30.2742,-16.2015,441.9283],[30.2759,-16.1924,439.13],[30.2747,-16.1895,444.9825],[30.2717,-16.1912,437.5266],[30.2703,-16.1893,443.8081],[30.2738,-16.1828,449.2318],[30.2697,-16.1824,430.4572],[30.2692,-16.18,431.1635],[30.2667,-16.1787,432.3635],[30.2681,-16.1715,427.8581],[30.2658,-16.1701,428.7166],[30.2649,-16.1665,434.1077],[30.2681,-16.1662,423.3672],[30.2685,-16.1628,424.1182],[30.266,-16.1636,419.4926],[30.2643,-16.162,419.5956],[30.2641,-16.1598,424.4202],[30.267,-16.1603,416.0797],[30.2668,-16.1586,422.8523],[30.2638,-16.1563,422.9845],[30.2625,-16.1527,420.0895],[30.2662,-16.1516,416.0828],[30.2681,-16.1431,409.3441],[30.2644,-16.1421,400.6497],[30.2641,-16.139,416.8931],[30.2604,-16.1344,432.6881],[30.2606,-16.1312,439.5477],[30.2559,-16.1282,438.3727],[30.2529,-16.1228,455.0415],[30.2433,-16.1237,483.8121],[30.2388,-16.1202,500.4498],[30.2321,-16.1201,492.9876],[30.2301,-16.1176,503.5542],[30.2285,-16.1185,486.3365],[30.2188,-16.1154,481.0618],[30.2045,-16.1182,492.0897],[30.2004,-16.1177,490.4409],[30.1967,-16.1231,507.8659],[30.1952,-16.1201,494.6925],[30.1906,-16.1185,483.9741],[30.188,-16.1225,509.2391],[30.1844,-16.1234,505.1237],[30.1798,-16.1199,520.641],[30.1676,-16.1172,505.8701],[30.16,-16.1117,507.83],[30.1513,-16.1101,501.9604],[30.1432,-16.1055,503.4974],[30.1416,-16.11,515.7412],[30.1323,-16.1108,509.3239],[30.1262,-16.1093,525.8158],[30.1191,-16.1032,531.4569],[30.1155,-16.1027,536.7512],[30.111,-16.0991,534.4545],[30.1096,-16.0917,544.5273],[30.1065,-16.0897,541.9551],[30.0994,-16.0886,518.3983],[30.0915,-16.0974,498.6937],[30.0905,-16.1009,492.4923],[30.0853,-16.1013,485.8463],[30.0827,-16.1045,475.8675],[30.0856,-16.1044,481.5398],[30.0868,-16.107,468.8136],[30.0851,-16.112,471.3559],[30.0858,-16.117,449.4096],[30.0932,-16.1222,450.3273],[30.1001,-16.1212,465.0849],[30.1042,-16.1247,465.2939],[30.0985,-16.1262,447.2418],[30.1027,-16.1283,441.7843],[30.0991,-16.1311,457.5231],[30.1016,-16.137,451.0453],[30.1098,-16.1469,442.756],[30.112,-16.1581,434.2343],[30.1189,-16.1636,433.5154],[30.1178,-16.1649,435.3383],[30.1139,-16.1642,446.4352],[30.1131,-16.1661,444.9283],[30.1205,-16.172,434.7891],[30.1247,-16.1728,424.8244],[30.1286,-16.1711,438.4362],[30.1245,-16.1685,426.1804],[30.1279,-16.1624,443.2942],[30.1303,-16.1624,443.6511],[30.1337,-16.1656,422.481],[30.1397,-16.1611,428.5511],[30.1384,-16.1677,416.8722],[30.1415,-16.1778,418.4507],[30.1352,-16.1858,424.7891],[30.1272,-16.1889,433.2511],[30.1236,-16.1921,434.9656],[30.1199,-16.203,428.4379],[30.1121,-16.213,423.0627],[30.1078,-16.2142,444.4446],[30.0956,-16.2279,443.6252],[30.0901,-16.228,440.4113],[30.0932,-16.2488,430.6228],[30.0904,-16.26,435.2034],[30.0952,-16.2745,454.9333],[30.0949,-16.2835,463.1854],[30.0904,-16.2879,482.4833],[30.0941,-16.2934,461.5869],[30.0893,-16.303,479.4428],[30.0917,-16.307,489.5741],[30.0891,-16.3085,495.1932],[30.0858,-16.3176,479.2952],[30.0741,-16.3205,497.0349],[30.0636,-16.3328,496.3116],[30.0657,-16.3378,492.6341],[30.0651,-16.343,488.7579],[30.0584,-16.3455,552.2028],[30.0582,-16.3541,502.4815],[30.0542,-16.358,530.9982],[30.0546,-16.3618,501.3314],[30.0503,-16.3656,515.9477],[30.0495,-16.3758,509.7892],[30.0512,-16.3826,541.9749],[30.0495,-16.3866,552.4292],[30.0541,-16.3913,684.6814],[30.0609,-16.3937,718.2089],[30.0656,-16.3982,708.4773],[30.0753,-16.3997,793.5107],[30.0801,-16.4037,883.0696],[30.0834,-16.4036,846.6114],[30.0862,-16.4011,792.5859],[30.0864,-16.3987,793.0518],[30.081,-16.3919,890.6271],[30.0812,-16.3891,764.272],[30.0913,-16.3725,831.858],[30.1059,-16.3734,809.5292],[30.1105,-16.373,798.0526],[30.118,-16.3693,801.8389],[30.1442,-16.3688,875.5931],[30.1465,-16.3682,885.7709],[30.1533,-16.361,863.22],[30.1639,-16.3548,817.4935],[30.1964,-16.3497,989.4414],[30.2084,-16.3364,848.45],[30.2103,-16.328,646.253],[30.2057,-16.3156,614.7238],[30.2082,-16.3121,679.3561],[30.2143,-16.3096,746.1407],[30.214,-16.3064,692.3863],[30.2093,-16.3048,702.8267],[30.2069,-16.2996,721.8936],[30.2075,-16.2757,826.231],[30.2177,-16.2682,647.3823],[30.2342,-16.2649,708.2745],[30.2409,-16.2655,878.3223],[30.2442,-16.2673,878.3535],[30.2482,-16.2731,960.1974],[30.2542,-16.2762,1069.3542],[30.2586,-16.2744,896.7465]]]]}
,"properties": {"GID_3": "ZWE.4.6.3_2","GID_0": "ZWE","country": "Zimbabwe","GID_1": "ZWE.4_1","province": "MashonalandCentral","NL_NAME_1": "NA","GID_2": "ZWE.4.6_2","county": "Mbire","NL_NAME_2": "NA","city": "Ward11","VARNAME_3": "NA","NL_NAME_3": "NA","TYPE_3": "Ward","ENGTYPE_3": "Ward","CC_3": "NA","HASC_3": "NA","name": "Ward11.city","area_km2": 450.8533,"hist_schema_id": "Elevation0-9000","hist_area_km2": {"400": 2.5049,"425": 42.6619,"450": 94.7859,"475": 83.9431,"500": 55.2086,"525": 37.3293,"550": 28.5116,"575": 22.1397,"600": 18.1298,"625": 18.0075,"650": 13.3883,"675": 11.2314,"700": 6.4702,"725": 3.3571,"750": 2.4415,"775": 2.2583,"800": 1.8514,"825": 1.7294,"850": 1.8514,"875": 1.3021,"900": 0.468,"925": 0.3866,"950": 0.5087,"975": 0.2238,"1000": 0.0611,"1025": 0.0204,"1050": 0.0407,"1075": 0.0204,"1100": 0.0204}}}