{"type":"Feature","properties":{"GID_3":"ZWE.7.2.11_2","GID_0":"ZWE","country":"Zimbabwe","GID_1":"ZWE.7_1","province":"Masvingo","NL_NAME_1":"NA","GID_2":"ZWE.7.2_2","county":"Chiredzi","NL_NAME_2":"NA","city":"Ward19","VARNAME_3":"NA","NL_NAME_3":"NA","TYPE_3":"Ward","ENGTYPE_3":"Ward","CC_3":"NA","HASC_3":"NA","name":"Ward19.city"},
"geometry":{"type": "MultiPolygon","coordinates": [[[[31.664,-21.0548,423.4752],[31.6393,-21.0356,415.7546],[31.6244,-21.0296,415.3428],[31.6009,-21.0343,419.7519],[31.5984,-21.0438,414.0594],[31.5934,-21.0504,408.3482],[31.5886,-21.0649,398.9323],[31.604,-21.0813,385.2759],[31.6167,-21.0814,386.9563],[31.626,-21.0788,396.583],[31.637,-21.0718,405.1829],[31.6439,-21.0703,406.3563],[31.6473,-21.0768,400.4362],[31.6463,-21.0919,397.7485],[31.6508,-21.1006,390.015],[31.6694,-21.0834,401.2032],[31.6834,-21.0662,402.8851],[31.6966,-21.0658,404.4474],[31.7247,-21.0914,387.3762],[31.7339,-21.0931,397.754],[31.7466,-21.0894,368.7069],[31.7553,-21.0808,361.4149],[31.7818,-21.0773,343.9731],[31.7892,-21.0892,338.4493],[31.8001,-21.0914,333.7296],[31.8047,-21.0996,330.1836],[31.8133,-21.1018,325.8514],[31.8225,-21.1084,326.9803],[31.8259,-21.1165,321.7825],[31.8338,-21.1168,314.93],[31.8321,-21.1093,322.5813],[31.8353,-21.095,325.8247],[31.8239,-21.0895,330.5106],[31.8147,-21.0712,335.837],[31.8084,-21.0624,326.3821],[31.7904,-21.0618,339.4544],[31.7874,-21.057,329.3122],[31.7822,-21.0364,328.2547],[31.7758,-21.0297,333.5487],[31.7695,-21.0272,343.6353],[31.7574,-21.0269,336.1082],[31.7538,-21.0253,335.5448],[31.7525,-21.0229,338.2838],[31.7545,-21.0178,355.7847],[31.7494,-21.0145,340.2452],[31.7478,-21.0113,342.5518],[31.7324,-21.0147,366.1421],[31.7109,-21.0231,377.5554],[31.696,-21.0246,392.019],[31.6899,-21.0318,394.8608],[31.6869,-21.0395,402.8127],[31.6693,-21.0591,419.2798],[31.664,-21.0548,423.4752]]]]}}