{"type": "Feature","bbox": [28.5544,-17.5536,28.7739,-17.3786],"geometry": {"type": "MultiPolygon","coordinates": [[[[28.5544,-17.5182,652.1536],[28.5544,-17.5226,652.1569],[28.5627,-17.5293,658.8965],[28.5646,-17.5364,657.8177],[28.5699,-17.5447,656.7637],[28.5749,-17.5324,663.1298],[28.5787,-17.5331,663.7884],[28.5833,-17.5397,662.1741],[28.5954,-17.5448,663.063],[28.5965,-17.5426,668.5838],[28.590699999999998,-17.5382,665.9379],[28.5922,-17.5339,666.8376],[28.5984,-17.5353,670.2982],[28.6033,-17.5394,667.5974],[28.6126,-17.5355,688.189],[28.6171,-17.5362,683.9043],[28.6194,-17.5385,680.8966],[28.6192,-17.541,671.2354],[28.6136,-17.5412,670.8893],[28.611,-17.5436,670.4831],[28.6132,-17.5477,670.9352],[28.6128,-17.5523,671.3326],[28.6148,-17.5536,672.6949],[28.6204,-17.5515,674.0651],[28.6233,-17.5471,683.2998],[28.6272,-17.5504,676.3035],[28.6288,-17.5505,675.701],[28.6294,-17.5485,680.4037],[28.6329,-17.5501,678.4474],[28.6332,-17.5464,681.2349],[28.6354,-17.544,697.668],[28.6451,-17.5386,694.9941],[28.6482,-17.5382,690.8644],[28.6523,-17.5402,689.8906],[28.6576,-17.5379,692.9434],[28.6631,-17.5398,694.3745],[28.6789,-17.5371,705.7313],[28.6819,-17.5338,710.4357],[28.6845,-17.5353,706.8242],[28.6863,-17.5318,713.3082],[28.6888,-17.5321,711.1161],[28.6933,-17.527,716.7164],[28.6997,-17.5242,722.0156],[28.7106,-17.51,735.6866],[28.7195,-17.5086,740.9326],[28.729,-17.5026,751.5889],[28.7308,-17.4996,755.0172],[28.7303,-17.4976,758.8035],[28.7331,-17.4941,767.2134],[28.7336,-17.4895,817.1047],[28.7123,-17.4985,874.4805],[28.7025,-17.495,880.5728],[28.6997,-17.4918,835.8116],[28.7,-17.4892,818.5292],[28.7025,-17.4859,840.655],[28.7122,-17.4832,866.4274],[28.7184,-17.477,851.2477],[28.7261,-17.4755,835.4568],[28.7396,-17.4612,821.2521],[28.7433,-17.4601,790.0308],[28.7441,-17.4563,777.8629],[28.7397,-17.4506,761.6901],[28.7386,-17.4467,756.8704],[28.7457,-17.436,737.8102],[28.7449,-17.428,727.2167],[28.75,-17.4207,719.9095],[28.7504,-17.4145,713.3028],[28.7538,-17.4122,711.8699],[28.7523,-17.4118,711.8699],[28.7539,-17.4114,709.6066],[28.7525,-17.4095,714.5822],[28.7531,-17.4075,724.8311],[28.7562,-17.4079,709.8086],[28.7571,-17.4053,710.0989],[28.7593,-17.4084,707.9616],[28.7613,-17.4055,707.0054],[28.76,-17.4025,721.2914],[28.7644,-17.4014,702.2565],[28.765,-17.3981,710.4709],[28.771,-17.3969,708.7555],[28.7704,-17.3944,701.4081],[28.7732,-17.3916,699.3456],[28.7739,-17.3854,714.7229],[28.7714,-17.3865,698.1564],[28.7711,-17.3896,708.2426],[28.7664,-17.3911,714.1401],[28.7643,-17.3897,718.8717],[28.7628,-17.3906,725.2202],[28.7617,-17.3888,714.3115],[28.7595,-17.3907,713.2986],[28.7545,-17.3897,717.7435],[28.7512,-17.3922,723.0771],[28.7484,-17.3917,725.1739],[28.7467,-17.3891,730.4257],[28.7333,-17.3909,740.8172],[28.726,-17.3876,751.8336],[28.7239,-17.3887,752.3065],[28.7205,-17.3845,766.0436],[28.7155,-17.3873,763.61],[28.7143,-17.3849,765.6038],[28.7083,-17.3824,775.8876],[28.7073,-17.3803,785.4854],[28.7042,-17.3811,785.4494],[28.7012,-17.3786,799.3444],[28.6752,-17.4035,848.2623],[28.6788,-17.4119,832.3138],[28.6462,-17.4348,829.7932],[28.6304,-17.4538,802.3795],[28.5952,-17.4816,795.3449],[28.5794,-17.499,711.6784],[28.574,-17.5005,713.5284],[28.5704,-17.5103,685.0978],[28.5684,-17.5121,679.928],[28.5623,-17.5162,665.36],[28.5544,-17.5182,652.1536]]]]}
,"properties": {"GID_3": "ZWE.10.2.32_2","GID_0": "ZWE","country": "Zimbabwe","GID_1": "ZWE.10_1","province": "Midlands","NL_NAME_1": "NA","GID_2": "ZWE.10.2_2","county": "GokweNorth","NL_NAME_2": "NA","city": "Ward5","VARNAME_3": "NA","NL_NAME_3": "NA","TYPE_3": "Ward","ENGTYPE_3": "Ward","CC_3": "NA","HASC_3": "NA","name": "Ward5.city","area_km2": 202.6042,"hist_schema_id": "Elevation0-9000","hist_area_km2": {"650": 3.1135,"675": 17.8525,"700": 34.495,"725": 49.7314,"750": 49.6167,"775": 19.2358,"800": 11.4077,"825": 9.5067,"850": 5.3192,"875": 2.3257}}}