{"type": "Feature","bbox": [27.2602,-18.187,27.7866,-17.8739],"geometry": {"type": "MultiPolygon","coordinates": [[[[27.2602,-18.0515,789.218],[27.2702,-18.0503,800.911],[27.2949,-18.0588,816.8431],[27.3109,-18.0584,843.3328],[27.3313,-18.0546,851.7941],[27.3357,-18.056,852.694],[27.339,-18.0609,850.5906],[27.3411,-18.0709,880.4578],[27.3396,-18.0764,858.6775],[27.3422,-18.0833,857.9609],[27.3391,-18.0989,866.7054],[27.3421,-18.1059,847.3442],[27.3418,-18.118,820.2473],[27.3452,-18.1262,809.6974],[27.3495,-18.1208,826.3004],[27.3521,-18.1205,815.8557],[27.3575,-18.116,820.2418],[27.3691,-18.1108,817.8304],[27.3776,-18.1101,817.3415],[27.3771,-18.116,820.5442],[27.3787,-18.1178,824.3829],[27.3814,-18.1173,840.73],[27.3851,-18.123,817.6111],[27.391,-18.119,831.4435],[27.3972,-18.1177,833.8054],[27.4091,-18.1252,831.3112],[27.4158,-18.1232,831.5956],[27.4197,-18.125,824.1871],[27.4312,-18.121,830.7432],[27.4394,-18.1154,846.9339],[27.4438,-18.1206,837.7435],[27.4528,-18.1243,854.2877],[27.4539,-18.1279,846.3451],[27.4628,-18.1234,854.7661],[27.4663,-18.1262,848.9321],[27.4669,-18.1226,867.8286],[27.4694,-18.1223,857.3858],[27.4694,-18.1251,847.2313],[27.4715,-18.1254,846.1256],[27.4721,-18.1218,851.4799],[27.481,-18.1237,859.7619],[27.4851,-18.1218,859.4987],[27.4888,-18.1234,854.4796],[27.492,-18.1214,857.3251],[27.5021,-18.1198,864.7469],[27.5016,-18.1177,860.6195],[27.5076,-18.1177,858.3989],[27.5129,-18.1152,859.5772],[27.5126,-18.1118,860.1202],[27.5106,-18.1118,858.5466],[27.5095,-18.1086,864.0356],[27.511,-18.1081,868.4728],[27.5118,-18.1006,866.9159],[27.5183,-18.1012,872.2855],[27.5186,-18.1027,868.7174],[27.522,-18.1017,870.396],[27.523,-18.1035,872.9072],[27.5209,-18.1045,874.9705],[27.5213,-18.1077,877.7003],[27.5289,-18.1068,908.9747],[27.5302,-18.1111,913.5325],[27.5362,-18.1154,946.6284],[27.5402,-18.1225,913.0654],[27.545,-18.1251,900.0187],[27.5453,-18.1225,901.9692],[27.5479,-18.1201,910.0861],[27.5524,-18.124,904.9335],[27.5552,-18.1231,909.5818],[27.5577,-18.119,905.023],[27.5576,-18.1145,929.2744],[27.5622,-18.1146,911.1262],[27.5643,-18.1164,912.3509],[27.5657,-18.1145,911.3671],[27.5658,-18.109,918.4407],[27.5679,-18.1082,922.02],[27.57,-18.1104,911.3168],[27.5748,-18.1099,916.8221],[27.5807,-18.1054,914.387],[27.5845,-18.1048,916.833],[27.5862,-18.1017,924.3522],[27.5878,-18.1017,916.6326],[27.5872,-18.1087,924.1454],[27.5848,-18.1102,927.8106],[27.5849,-18.1119,925.3911],[27.5954,-18.1069,924.8184],[27.6017,-18.1098,923.8712],[27.605,-18.1097,926.6705],[27.6062,-18.1085,925.3598],[27.6066,-18.1001,928.1809],[27.6094,-18.0968,930.8842],[27.6131,-18.0993,925.4645],[27.6145,-18.0913,927.119],[27.6331,-18.0919,930.0718],[27.6381,-18.0876,937.2339],[27.6411,-18.0893,930.8694],[27.6436,-18.0841,935.2985],[27.6465,-18.0852,934.4596],[27.6482,-18.0842,933.8274],[27.648,-18.0807,935.6259],[27.6512,-18.0811,938.6613],[27.6522,-18.0878,940.5428],[27.6622,-18.0878,942.6766],[27.6657,-18.0902,942.2104],[27.666,-18.0922,941.9978],[27.668,-18.0921,943.5062],[27.6682,-18.0897,942.2416],[27.6751,-18.0891,957.8062],[27.6813,-18.094,951.4306],[27.6838,-18.091,979.4095],[27.6854,-18.0939,950.5829],[27.6827,-18.1083,951.9052],[27.6806,-18.11,951.4879],[27.6787,-18.1091,950.9354],[27.6743,-18.1182,954.144],[27.6681,-18.1248,962.3383],[27.6675,-18.1276,970.7899],[27.6704,-18.1275,967.7493],[27.6706,-18.1315,957.6635],[27.6672,-18.134,962.6163],[27.6627,-18.1468,961.6038],[27.6605,-18.1476,960.371],[27.6582,-18.1591,965.1799],[27.6552,-18.1602,963.7831],[27.6558,-18.1666,964.904],[27.6543,-18.1685,964.6567],[27.6516,-18.1686,966.2852],[27.6512,-18.1734,972.16],[27.6481,-18.1777,970.2828],[27.6478,-18.1818,969.7729],[27.6505,-18.1824,968.8824],[27.6528,-18.187,971.0543],[27.6851,-18.1726,1002.6815],[27.7065,-18.158,990.851],[27.7588,-18.1084,1022.4222],[27.7715,-18.1046,1010.5061],[27.7866,-18.0925,992.6809],[27.7761,-18.0805,989.0212],[27.7663,-18.0733,984.1528],[27.7578,-18.073,976.3077],[27.7448,-18.069,970.6191],[27.7303,-18.07,968.1439],[27.7271,-18.0667,966.9609],[27.7216,-18.0664,965.0116],[27.7166,-18.0681,962.0278],[27.7156,-18.0704,961.5483],[27.6985,-18.0711,955.9636],[27.702,-18.0696,955.9526],[27.7032,-18.0604,961.2494],[27.7131,-18.0478,970.5099],[27.7171,-18.0371,983.2684],[27.7213,-18.0318,989.5856],[27.7238,-18.0175,993.222],[27.7234,-18.013,989.747],[27.7201,-18.0081,984.6387],[27.7094,-17.9987,1035.4871],[27.7133,-17.9868,944.7408],[27.7119,-17.97,933.5079],[27.7151,-17.9676,938.2558],[27.7144,-17.9652,945.7546],[27.7174,-17.9657,938.1791],[27.7186,-17.9623,951.6029],[27.7217,-17.9636,943.1906],[27.7272,-17.96,951.6904],[27.7313,-17.9516,958.4915],[27.7354,-17.9502,959.8402],[27.7409,-17.9414,970.6053],[27.7437,-17.9412,970.104],[27.7466,-17.9377,981.1534],[27.7507,-17.9373,977.2207],[27.7523,-17.9355,981.6489],[27.7452,-17.9306,983.9976],[27.7364,-17.9356,995.7395],[27.7274,-17.9344,977.6125],[27.7255,-17.9296,975.3323],[27.7165,-17.927,977.4928],[27.7114,-17.9137,961.5306],[27.7018,-17.9111,942.626],[27.6979,-17.9073,928.6754],[27.6925,-17.9087,921.4297],[27.692,-17.9064,899.611],[27.686,-17.9056,906.2745],[27.6847,-17.9011,865.3851],[27.6765,-17.9064,859.8307],[27.675,-17.9025,858.5323],[27.6759,-17.8957,861.4091],[27.6712,-17.8943,872.6009],[27.655,-17.8944,907.1472],[27.6539,-17.8866,908.4379],[27.6471,-17.8817,903.4144],[27.6408,-17.8804,920.6284],[27.6316,-17.8739,988.8942],[27.6269,-17.885,936.9271],[27.6118,-17.8963,864.8178],[27.6085,-17.9012,856.8068],[27.6047,-17.9218,764.3926],[27.5889,-17.9173,768.6626],[27.5846,-17.9212,756.6735],[27.5834,-17.9263,750.076],[27.5845,-17.93,750.3822],[27.5814,-17.934,751.4445],[27.5771,-17.9348,750.7568],[27.5828,-17.9428,754.097],[27.5819,-17.9515,761.5027],[27.5748,-17.9549,758.5934],[27.5748,-17.9606,764.7458],[27.5713,-17.9657,764.2672],[27.5755,-17.9685,768.9975],[27.5775,-17.9724,766.5268],[27.5795,-17.9724,766.7135],[27.5821,-17.9789,770.212],[27.5773,-17.9797,774.3236],[27.5746,-17.9818,775.6694],[27.5707,-17.9808,775.5007],[27.5691,-17.9823,775.7587],[27.57,-17.9846,778.1708],[27.5723,-17.9839,776.4578],[27.5688,-17.9877,775.2079],[27.5681,-17.991,782.272],[27.5717,-17.9944,782.6938],[27.5724,-17.9988,786.9009],[27.5651,-18.0055,787.017],[27.5667,-18.0136,791.1222],[27.561,-18.016,799.6389],[27.5588,-18.0297,806.5547],[27.5551,-18.0326,812.8793],[27.5482,-18.0338,814.1255],[27.545,-18.0292,836.309],[27.5278,-18.0261,853.0018],[27.514,-18.016,885.2388],[27.5012,-18.0123,890.1296],[27.5034,-17.9994,897.3762],[27.4973,-17.9994,892.3893],[27.378,-17.9403,806.921],[27.3091,-17.9945,667.1429],[27.2952,-18.0154,904.524],[27.271,-18.0366,859.902],[27.2602,-18.0515,789.218]]]]}
,"properties": {"GID_3": "ZWE.8.1.8_2","GID_0": "ZWE","country": "Zimbabwe","GID_1": "ZWE.8_1","province": "MatabelelandNorth","NL_NAME_1": "NA","GID_2": "ZWE.8.1_2","county": "Binga","NL_NAME_2": "NA","city": "Ward16","VARNAME_3": "NA","NL_NAME_3": "NA","TYPE_3": "Ward","ENGTYPE_3": "Ward","CC_3": "NA","HASC_3": "NA","name": "Ward16.city","area_km2": 820.5783,"hist_schema_id": "Elevation0-9000","hist_area_km2": {"650": 0.3428,"675": 1.3108,"700": 1.452,"725": 4.6386,"750": 14.582,"775": 37.3328,"800": 39.0237,"825": 62.0191,"850": 87.7188,"875": 120.0494,"900": 104.6286,"925": 87.1557,"950": 78.4899,"975": 116.3685,"1000": 44.6633,"1025": 16.428,"1050": 4.3542,"1075": 0.0202}}}