{"type": "Feature","bbox": [28.4454,-18.65,28.5838,-18.5584],"geometry": {"type": "MultiPolygon","coordinates": [[[[28.5314,-18.6458,1132.4137],[28.566,-18.6461,1115.8605],[28.5838,-18.6429,1106.4883],[28.5789,-18.638,1113.0215],[28.5787,-18.6339,1121.1481],[28.5753,-18.629,1130.8611],[28.5664,-18.6199,1138.9878],[28.5619,-18.6178,1150.6278],[28.5607,-18.5852,1186.3892],[28.5592,-18.5822,1173.4921],[28.5472,-18.5718,1146.9286],[28.5415,-18.5584,1132.5649],[28.5121,-18.5601,1122.4714],[28.51,-18.559,1128.3955],[28.4955,-18.5624,1121.4414],[28.4878,-18.5611,1117.9958],[28.4846,-18.5648,1115.1464],[28.4756,-18.5613,1117.9005],[28.4731,-18.5657,1112.7738],[28.464,-18.6141,1205.3525],[28.4564,-18.626,1205.3474],[28.4454,-18.6359,1198.4749],[28.4472,-18.6398,1199.2327],[28.4526,-18.6439,1174.7653],[28.4632,-18.6482,1143.6361],[28.5048,-18.65,1150.7705],[28.5119,-18.6475,1143.7061],[28.5314,-18.6458,1132.4137]]]]}
,"properties": {"GID_3": "ZWE.8.6.30_2","GID_0": "ZWE","country": "Zimbabwe","GID_1": "ZWE.8_1","province": "MatabelelandNorth","NL_NAME_1": "NA","GID_2": "ZWE.8.6_2","county": "Nkayi","NL_NAME_2": "NA","city": "Ward9","VARNAME_3": "NA","NL_NAME_3": "NA","TYPE_3": "Ward","ENGTYPE_3": "Ward","CC_3": "NA","HASC_3": "NA","name": "Ward9.city","area_km2": 101.21231,"hist_schema_id": "Elevation0-9000","hist_area_km2": {"1100": 0.26117,"1125": 16.29731,"1150": 29.31701,"1175": 22.02258,"1200": 32.69131,"1225": 0.62293}}}