{"type":"Feature","properties":{"GID_3":"ZWE.4.9.15_2","GID_0":"ZWE","country":"Zimbabwe","GID_1":"ZWE.4_1","province":"MashonalandCentral","NL_NAME_1":"NA","GID_2":"ZWE.4.9_2","county":"Rushinga","NL_NAME_2":"NA","city":"Ward22","VARNAME_3":"NA","NL_NAME_3":"NA","TYPE_3":"Ward","ENGTYPE_3":"Ward","CC_3":"NA","HASC_3":"NA","name":"Ward22.city"},
"geometry":{"type": "MultiPolygon","coordinates": [[[[32.4443,-16.4819,572.8811],[32.412,-16.4696,577.0476],[32.3482,-16.452,567.8441],[32.3452,-16.4499,562.4418],[32.315,-16.4427,535.5193],[32.3157,-16.4484,552.0818],[32.3073,-16.4538,577.9331],[32.306,-16.4619,574.6318],[32.3151,-16.4738,620.0916],[32.3143,-16.4766,607.6448],[32.3159,-16.4815,618.9492],[32.3237,-16.4888,635.825],[32.3228,-16.4923,630.1231],[32.3257,-16.5012,659.2845],[32.3209,-16.5033,665.3662],[32.3224,-16.513,671.2936],[32.321,-16.515,670.2531],[32.3257,-16.5205,692.9479],[32.3221,-16.5226,681.6539],[32.3196,-16.5266,703.4288],[32.3205,-16.5362,701.7151],[32.3138,-16.5415,710.6657],[32.3178,-16.5448,719.915],[32.3204,-16.5509,729.3141],[32.3173,-16.5531,736.8442],[32.3168,-16.5568,739.087],[32.3136,-16.5583,742.0723],[32.3103,-16.5666,757.4783],[32.3065,-16.57,765.0396],[32.3149,-16.5771,785.4484],[32.3175,-16.5774,781.2054],[32.3189,-16.5753,775.5761],[32.3229,-16.5803,793.9708],[32.3229,-16.5834,822.6589],[32.3277,-16.5869,810.6361],[32.3354,-16.5893,790.3594],[32.3369,-16.5923,771.1645],[32.3415,-16.5933,758.4186],[32.3608,-16.5943,731.5006],[32.3684,-16.5885,735.8139],[32.3791,-16.5908,724.305],[32.3847,-16.5879,730.5178],[32.3898,-16.5826,757.861],[32.402,-16.5854,777.093],[32.4234,-16.5656,711.3549],[32.4251,-16.5611,692.3359],[32.4236,-16.5525,670.5294],[32.4276,-16.5468,654.9307],[32.4334,-16.5318,629.7307],[32.4435,-16.5218,626.5566],[32.4434,-16.5202,619.5576],[32.4395,-16.5188,604.7891],[32.4393,-16.517,609.9373],[32.4448,-16.5111,601.0395],[32.4497,-16.5087,589.5881],[32.4556,-16.5018,575.4758],[32.4583,-16.5017,572.9702],[32.4623,-16.4947,571.4772],[32.4617,-16.4892,559.2042],[32.4443,-16.4819,572.8811]]]]}}