{"type":"Feature","properties":{"GID_3":"ZWE.4.2.9_2","GID_0":"ZWE","country":"Zimbabwe","GID_1":"ZWE.4_1","province":"MashonalandCentral","NL_NAME_1":"NA","GID_2":"ZWE.4.2_2","county":"BinduraUrban","NL_NAME_2":"NA","city":"Ward6","VARNAME_3":"NA","NL_NAME_3":"NA","TYPE_3":"Ward","ENGTYPE_3":"Ward","CC_3":"NA","HASC_3":"NA","name":"Ward6.city"},
"geometry":{"type": "MultiPolygon","coordinates": [[[[31.347,-17.3205,1074.0112],[31.3508,-17.3218,1064.6324],[31.3529,-17.3204,1069.9861],[31.3529,-17.3166,1080.6162],[31.3476,-17.3155,1088.4956],[31.347,-17.3205,1074.0112]]]]}}