{"type":"Feature","properties":{"GID_3":"ZWE.7.8.16_2","GID_0":"ZWE","country":"Zimbabwe","GID_1":"ZWE.7_1","province":"Masvingo","NL_NAME_1":"NA","GID_2":"ZWE.7.8_2","county":"Mwenezi","NL_NAME_2":"NA","city":"Ward7","VARNAME_3":"NA","NL_NAME_3":"NA","TYPE_3":"Ward","ENGTYPE_3":"Ward","CC_3":"NA","HASC_3":"NA","name":"Ward7.city"},
"geometry":{"type": "MultiPolygon","coordinates": [[[[30.6049,-21.0197,639.5059],[30.598,-21.0123,644.9039],[30.5876,-21.0094,654.1436],[30.5843,-21.0003,657.0351],[30.5817,-20.9973,657.2131],[30.575,-20.9958,752.9899],[30.5686,-20.9988,649.1196],[30.5685,-21.0083,634.6082],[30.5627,-21.0131,632.2291],[30.5533,-21.0166,626.2666],[30.5526,-21.0186,632.9457],[30.5559,-21.0229,618.401],[30.5567,-21.0293,611.2527],[30.5526,-21.0308,609.275],[30.5499,-21.0354,605.5782],[30.5509,-21.0433,607.7419],[30.5459,-21.0442,602.007],[30.5435,-21.0508,593.7477],[30.5397,-21.0551,602.356],[30.5392,-21.0589,590.9171],[30.5353,-21.0619,589.9531],[30.5341,-21.0656,586.5202],[30.5374,-21.0699,600.072],[30.5348,-21.0735,588.8533],[30.538,-21.0781,581.6508],[30.5353,-21.0835,575.4728],[30.5371,-21.0906,573.2543],[30.5354,-21.0941,573.1932],[30.5347,-21.1042,570.1363],[30.5312,-21.1093,570.1562],[30.5311,-21.1122,565.663],[30.5334,-21.1207,562.7385],[30.5368,-21.1247,563.4852],[30.5344,-21.129,559.1277],[30.5279,-21.1309,565.915],[30.5359,-21.1388,565.2955],[30.5323,-21.1419,556.9854],[30.5332,-21.144,550.9415],[30.5317,-21.1465,563.9325],[30.535,-21.1468,556.1074],[30.535,-21.15,551.0517],[30.5391,-21.1492,560.0621],[30.5412,-21.1512,555.5948],[30.5374,-21.159,548.7512],[30.538,-21.1618,538.3455],[30.533,-21.1673,524.7577],[30.5322,-21.1707,522.905],[30.5431,-21.1834,530.7943],[30.5503,-21.189,527.3883],[30.561,-21.2055,519.1562],[30.5854,-21.2226,529.7398],[30.5966,-21.2331,513.3269],[30.5987,-21.231,523.6046],[30.6022,-21.2315,522.8625],[30.6031,-21.2302,521.8969],[30.6005,-21.2229,527.4381],[30.5931,-21.2196,526.3408],[30.5931,-21.2128,529.6993],[30.5967,-21.2028,533.8549],[30.5947,-21.202,530.073],[30.5947,-21.2,530.959],[30.5958,-21.1954,535.4045],[30.5994,-21.1924,535.9396],[30.5997,-21.1873,538.7606],[30.6017,-21.185,544.4816],[30.6049,-21.1856,541.812],[30.6066,-21.1811,546.3558],[30.6055,-21.1757,548.3759],[30.6021,-21.1746,545.2002],[30.602,-21.1728,546.1111],[30.6075,-21.1669,547.238],[30.61,-21.1627,551.3795],[30.6101,-21.1591,554.1702],[30.6118,-21.1603,551.5408],[30.6176,-21.154,555.1424],[30.615,-21.1488,558.6008],[30.6178,-21.1393,565.1191],[30.6134,-21.1325,564.8077],[30.6164,-21.1281,570.1041],[30.6174,-21.1218,574.5651],[30.6217,-21.1154,577.3313],[30.6064,-21.0746,632.8839],[30.6047,-21.0664,626.7669],[30.5983,-21.0237,686.828],[30.6049,-21.0197,639.5059]]]]}}