{"type":"Feature","properties":{"GID_3":"ZWE.7.2.10_2","GID_0":"ZWE","country":"Zimbabwe","GID_1":"ZWE.7_1","province":"Masvingo","NL_NAME_1":"NA","GID_2":"ZWE.7.2_2","county":"Chiredzi","NL_NAME_2":"NA","city":"Ward18","VARNAME_3":"NA","NL_NAME_3":"NA","TYPE_3":"Ward","ENGTYPE_3":"Ward","CC_3":"NA","HASC_3":"NA","name":"Ward18.city"},
"geometry":{"type": "MultiPolygon","coordinates": [[[[31.5415,-21.0462,405.4066],[31.5133,-20.9879,453.6912],[31.5089,-20.9888,452.29],[31.5075,-21.0007,440.3361],[31.5026,-21.0007,444.9854],[31.5,-20.9982,448.8313],[31.4993,-21.0013,447.1639],[31.4922,-21.0006,440.93],[31.4863,-21.0045,436.3243],[31.4894,-21.0139,436.9552],[31.4546,-21.019,412.5936],[31.4464,-21.0123,409.7818],[31.4347,-21.0191,411.1988],[31.446,-21.0274,414.3452],[31.4136,-21.034,414.832],[31.4223,-21.0569,388.8347],[31.4295,-21.0508,391.6664],[31.4332,-21.0432,395.7943],[31.4439,-21.0409,397.4402],[31.4507,-21.0434,411.0514],[31.438,-21.0475,397.2978],[31.4392,-21.0561,398.2378],[31.45,-21.0525,407.3765],[31.4516,-21.0578,411.3412],[31.4567,-21.0599,413.2515],[31.4597,-21.0566,413.6898],[31.4708,-21.0585,415.9766],[31.4707,-21.0616,408.8828],[31.4805,-21.0614,407.9933],[31.4787,-21.0785,394.5972],[31.4754,-21.0803,390.846],[31.4744,-21.0848,390.717],[31.4711,-21.0869,388.2802],[31.4721,-21.0897,384.7852],[31.4668,-21.0924,383.6238],[31.4652,-21.0909,383.6471],[31.4606,-21.0951,381.1716],[31.4599,-21.1046,379.004],[31.4575,-21.1091,376.9673],[31.4562,-21.1091,376.9673],[31.4561,-21.1207,372.1284],[31.4538,-21.1222,370.4025],[31.4538,-21.1243,368.9821],[31.4597,-21.1253,372.0588],[31.4622,-21.1281,365.8189],[31.4663,-21.1388,350.8268],[31.4871,-21.143,343.8135],[31.4976,-21.1467,343.1037],[31.4974,-21.1365,368.1062],[31.4992,-21.1308,373.0904],[31.5339,-21.0576,403.0251],[31.5415,-21.0462,405.4066]]]]}}