{"type": "Feature","bbox": [29.6933,-16.806,29.707,-16.7954],"geometry": {"type": "MultiPolygon","coordinates": [[[[29.6933,-16.7962,1246.082],[29.6958,-16.8007,1233.2708],[29.6979,-16.8001,1234.1052],[29.697,-16.806,1250.0345],[29.707,-16.8025,1230.4806],[29.7038,-16.7995,1217.2075],[29.6988,-16.7986,1223.0681],[29.6969,-16.7954,1238.4498],[29.6933,-16.7962,1246.082]]]]}
,"properties": {"GID_3": "ZWE.6.8.1_2","GID_0": "ZWE","country": "Zimbabwe","GID_1": "ZWE.6_1","province": "MashonalandWest","NL_NAME_1": "NA","GID_2": "ZWE.6.8_2","county": "Karoi","NL_NAME_2": "NA","city": "Ward1","VARNAME_3": "NA","NL_NAME_3": "NA","TYPE_3": "Ward","ENGTYPE_3": "Ward","CC_3": "NA","HASC_3": "NA","name": "Ward1.city","area_km2": 0.7104013,"hist_schema_id": "Elevation0-9000","hist_area_km2": {"1200": 0.0608911,"1225": 0.5277286,"1250": 0.1217816}}}