{"type": "Feature","bbox": [30.0645,-20.4842,30.2795,-20.1717],"geometry": {"type": "MultiPolygon","coordinates": [[[[30.2485,-20.3107,829.5612],[30.2602,-20.2835,872.6522],[30.2613,-20.2764,825.9889],[30.2671,-20.272,827.6023],[30.2689,-20.2612,836.8576],[30.2749,-20.2567,836.6437],[30.2751,-20.2512,839.098],[30.2795,-20.2425,845.9471],[30.2773,-20.2374,844.6456],[30.2778,-20.229,850.5958],[30.1978,-20.1717,905.4708],[30.156,-20.2077,865.2119],[30.1572,-20.2098,864.5512],[30.1558,-20.2122,866.204],[30.1507,-20.2168,858.6621],[30.1458,-20.2243,854.5901],[30.1418,-20.2188,863.9453],[30.1346,-20.2182,863.6796],[30.1162,-20.2487,872.7251],[30.1058,-20.2781,873.6712],[30.1337,-20.264,824.7595],[30.1382,-20.2684,829.1386],[30.144,-20.2699,833.0366],[30.1401,-20.3028,848.492],[30.1017,-20.326,1065.8926],[30.098,-20.3601,911.6974],[30.0984,-20.3766,881.5085],[30.0925,-20.3725,886.0348],[30.0913,-20.3673,888.0198],[30.0874,-20.3635,901.2081],[30.0866,-20.3668,888.8688],[30.085,-20.3673,892.6466],[30.0798,-20.3626,898.9581],[30.0675,-20.3628,903.7096],[30.0645,-20.3897,1043.2887],[30.1239,-20.4842,969.4507],[30.142,-20.4695,1190.365],[30.1409,-20.4583,936.23],[30.1449,-20.4579,932.5877],[30.1546,-20.4519,909.6015],[30.1607,-20.4438,896.2411],[30.1594,-20.4412,898.4995],[30.161,-20.4405,898.4995],[30.1607,-20.4036,842.968],[30.1664,-20.4015,853.0001],[30.1649,-20.3943,843.2281],[30.1689,-20.3904,836.0532],[30.1699,-20.3869,837.0536],[30.184,-20.3853,837.854],[30.1835,-20.3891,833.1077],[30.1869,-20.3905,831.2121],[30.2005,-20.3813,827.7091],[30.205,-20.3735,823.3419],[30.2042,-20.3686,824.0871],[30.2098,-20.3667,819.5373],[30.2125,-20.3605,822.75],[30.2234,-20.3601,817.1306],[30.2307,-20.3564,817.3871],[30.2416,-20.3559,809.0507],[30.2423,-20.3541,813.7245],[30.2387,-20.3483,808.181],[30.2393,-20.3471,813.4623],[30.2456,-20.3503,808.0272],[30.2472,-20.3488,811.7294],[30.2513,-20.3507,807.0605],[30.2555,-20.3499,801.3356],[30.244,-20.3357,811.0016],[30.243,-20.3324,804.0115],[30.2436,-20.322,810.1562],[30.2485,-20.3107,829.5612]]]]}
,"properties": {"GID_3": "ZWE.10.13.6_2","GID_0": "ZWE","country": "Zimbabwe","GID_1": "ZWE.10_1","province": "Midlands","NL_NAME_1": "NA","GID_2": "ZWE.10.13_2","county": "Zvishavane","NL_NAME_2": "NA","city": "Ward14","VARNAME_3": "NA","NL_NAME_3": "NA","TYPE_3": "Ward","ENGTYPE_3": "Ward","CC_3": "NA","HASC_3": "NA","name": "Ward14.city","area_km2": 368.3984,"hist_schema_id": "Elevation0-9000","hist_area_km2": {"800": 3.3797,"825": 52.3522,"850": 116.0965,"875": 99.675299999999993,"900": 40.3613,"925": 15.1845,"950": 11.2875,"975": 7.5504,"1000": 5.4639,"1025": 4.7088,"1050": 3.2982,"1075": 2.4835,"1100": 2.2451,"1125": 1.8876,"1150": 1.2318,"1175": 0.6556,"1200": 0.2583,"1225": 0.1391,"1250": 0.1391}}}