{"type":"Feature","properties":{"GID_2":"ZWE.2.4_2","GID_0":"ZWE","country":"Zimbabwe","GID_1":"ZWE.2_1","province":"Harare","NL_NAME_1":"NA","county":"HarareRural","VARNAME_2":"NA","NL_NAME_2":"NA","TYPE_2":"District","ENGTYPE_2":"District","CC_2":"NA","HASC_2":"NA","name":"Harare_Rural.county"},
"geometry":{"type": "MultiPolygon","coordinates": [[[[31.0561,-17.9793,1410.542],[31.0564,-17.9781,1410.542],[31.0592,-17.9783,1412.5184],[31.0649,-17.9801,1416.235],[31.068,-17.9834,1415.0869],[31.0838,-17.9838,1423.6499],[31.1032,-17.9867,1421.4355],[31.1135,-17.9945,1431.5],[31.1162,-17.9908,1442.3069],[31.1118,-17.988,1434.718],[31.1118,-17.9865,1435.6501],[31.1273,-17.9628,1435.9437],[31.1416,-17.959,1473.6168],[31.1339,-17.9505,1439.6285],[31.1373,-17.9498,1446.9033],[31.135,-17.947,1443.9891],[31.1363,-17.9463,1443.9891],[31.1361,-17.9289,1481.927],[31.1429,-17.9022,1502.375],[31.125,-17.888,1517.8469],[31.1207,-17.8883,1516.4922],[31.117,-17.8919,1512.2996],[31.1077,-17.8886,1515.4806],[31.064,-17.9004,1487.8088],[31.0286,-17.9072,1449.6112],[31.032,-17.9213,1453.5011],[31.0057,-17.9322,1441.2518],[30.9978,-17.9199,1422.3688],[30.9922,-17.9197,1418.3472],[30.991,-17.9225,1416.5632],[30.9852,-17.9193,1407.774],[30.9797,-17.9276,1416.0596],[30.9718,-17.9262,1414.0587],[30.9657,-17.9208,1406.8274],[30.9603,-17.9272,1403.1294],[30.9458,-17.9183,1408.4698],[30.9254,-17.9169,1418.4714],[30.8869,-17.9364,1365.9988],[30.8946,-17.9494,1369.7489],[30.9017,-17.9574,1374.0912],[30.9082,-17.9552,1377.6299],[30.909,-17.9562,1375.6995],[30.9043,-17.9617,1374.7603],[30.9055,-17.9641,1375.6328],[30.9076,-17.9642,1376.7167],[30.9116,-17.9597,1376.7339],[30.9222,-17.9601,1375.5737],[30.9366,-17.9692,1376.6552],[30.9417,-17.9715,1376.9895],[30.9472,-17.9713,1377.0236],[30.9477,-17.975,1377.005],[30.951,-17.9775,1379.0494],[30.9603,-17.9781,1379.1443],[30.9605,-17.9813,1382.6787],[30.9678,-17.9827,1380.917],[30.9711,-17.9783,1385.187],[30.974,-17.9783,1378.0547],[30.9803,-17.988,1380.7482],[30.9829,-17.9888,1379.5875],[30.9874,-17.9849,1379.6689],[30.9886,-17.9871,1384.561],[30.9881,-17.9911,1384.863],[30.995,-17.9976,1379.4473],[30.9997,-17.9977,1387.3674],[31.0,-17.9994,1383.6699],[31.0046,-17.9996,1388.1437],[31.0072,-17.9979,1384.0964],[31.0095,-18.0006,1388.2441],[31.0168,-18.0034,1391.5374],[31.0206,-18.0025,1386.1382],[31.0208,-17.9963,1385.9646],[31.0249,-17.9875,1387.8481],[31.0296,-17.9873,1394.3958],[31.0322,-17.9848,1394.4111],[31.0396,-17.9849,1401.8994],[31.0467,-17.9811,1405.5476],[31.0561,-17.9793,1410.542]]]]}}