{"type":"Feature","properties":{"GID_3":"ZWE.9.10.1_2","GID_0":"ZWE","country":"Zimbabwe","GID_1":"ZWE.9_1","province":"MatabelelandSouth","NL_NAME_1":"NA","GID_2":"ZWE.9.10_2","county":"Umzingwane","NL_NAME_2":"NA","city":"Ward1","VARNAME_3":"NA","NL_NAME_3":"NA","TYPE_3":"Ward","ENGTYPE_3":"Ward","CC_3":"NA","HASC_3":"NA","name":"Ward1.city"},
"geometry":{"type": "MultiPolygon","coordinates": [[[[28.7713,-20.166,1384.3131],[28.7759,-20.1714,1392.214],[28.7827,-20.1865,1353.8719],[28.7887,-20.1876,1324.1648],[28.792,-20.1859,1336.1375],[28.7984,-20.1901,1290.121],[28.8025,-20.1878,1306.2114],[28.8102,-20.1714,1330.4089],[28.8389,-20.1817,1308.7506],[28.8439,-20.1737,1336.8792],[28.846,-20.1664,1341.9456],[28.8371,-20.1575,1366.9166],[28.8179,-20.1428,1364.948],[28.813,-20.1414,1374.4929],[28.8032,-20.135,1366.942],[28.7947,-20.1345,1373.3442],[28.7917,-20.1219,1376.1427],[28.7787,-20.1255,1377.3182],[28.7733,-20.1334,1383.2141],[28.7767,-20.1347,1375.493],[28.7745,-20.1388,1377.2113],[28.7708,-20.137,1388.1366],[28.7678,-20.1404,1386.5525],[28.7812,-20.1429,1368.605],[28.7713,-20.166,1384.3131]]]]}}