{"type": "Feature","bbox": [31.6247,-21.0591,31.7478,-21.0045],"geometry": {"type": "MultiPolygon","coordinates": [[[[31.6693,-21.0591,419.2798],[31.6869,-21.0395,402.8127],[31.6899,-21.0318,394.8608],[31.696,-21.0246,392.019],[31.7109,-21.0231,377.5554],[31.7324,-21.0147,366.1421],[31.7478,-21.0113,342.5518],[31.745,-21.0045,352.517],[31.6247,-21.0295,415.564],[31.6393,-21.0356,415.7546],[31.6693,-21.0591,419.2798]]]]}
,"properties": {"GID_2": "ZWE.7.3_2","GID_0": "ZWE","country": "Zimbabwe","GID_1": "ZWE.7_1","province": "Masvingo","NL_NAME_1": "NA","county": "ChiredziUrban","VARNAME_2": "NA","NL_NAME_2": "NA","TYPE_2": "District","ENGTYPE_2": "District","CC_2": "NA","HASC_2": "NA","name": "Chiredzi_Urban.county","area_km2": 22.32319,"hist_schema_id": "Elevation0-9000","hist_area_km2": {"350": 1.06881,"375": 4.25525,"400": 9.99398,"425": 6.55003,"450": 0.37596,"475": 0.07915}}}