{"type": "Feature","bbox": [31.1574,-19.6606,31.1861,-19.6261],"geometry": {"type": "MultiPolygon","coordinates": [[[[31.1586,-19.6277,1375.3835],[31.1699,-19.6381,1405.1217],[31.1577,-19.6448,1424.8495],[31.1574,-19.6558,1443.1259],[31.1684,-19.6606,1430.9073],[31.1795,-19.6515,1429.9163],[31.1717,-19.6403,1411.8511],[31.1861,-19.6369,1381.4865],[31.1861,-19.6338,1366.0762],[31.174,-19.6339,1367.6947],[31.1706,-19.6261,1355.4105],[31.1586,-19.6277,1375.3835]]]]}
,"properties": {"GID_3": "ZWE.7.5.27_2","GID_0": "ZWE","country": "Zimbabwe","GID_1": "ZWE.7_1","province": "Masvingo","NL_NAME_1": "NA","GID_2": "ZWE.7.5_2","county": "Gutu","NL_NAME_2": "NA","city": "Ward33","VARNAME_3": "NA","NL_NAME_3": "NA","TYPE_3": "Ward","ENGTYPE_3": "Ward","CC_3": "NA","HASC_3": "NA","name": "Ward33.city","area_km2": 5.651006,"hist_schema_id": "Elevation0-9000","hist_area_km2": {"1350": 0.239639,"1375": 1.278055,"1400": 0.579103,"1425": 1.257973,"1450": 1.896887,"1475": 0.399348}}}