{"type":"Feature","properties":{"GID_3":"ZWE.7.4.27_2","GID_0":"ZWE","country":"Zimbabwe","GID_1":"ZWE.7_1","province":"Masvingo","NL_NAME_1":"NA","GID_2":"ZWE.7.4_2","county":"Chivi","NL_NAME_2":"NA","city":"Ward4","VARNAME_3":"NA","NL_NAME_3":"NA","TYPE_3":"Ward","ENGTYPE_3":"Ward","CC_3":"NA","HASC_3":"NA","name":"Ward4.city"},
"geometry":{"type": "MultiPolygon","coordinates": [[[[30.1875,-20.098,902.2753],[30.1767,-20.1001,901.4343],[30.1759,-20.1038,900.1643],[30.1719,-20.1082,897.1136],[30.1683,-20.1188,890.4108],[30.1666,-20.1211,892.3038],[30.1618,-20.1224,895.5877],[30.1582,-20.1267,885.2262],[30.1619,-20.1352,890.3245],[30.1667,-20.155,877.01],[30.164,-20.1695,873.9592],[30.1606,-20.1759,875.5089],[30.16,-20.1877,869.4421],[30.1523,-20.1906,873.4581],[30.1481,-20.1992,868.3167],[30.1536,-20.2004,872.2836],[30.1553,-20.202,872.6376],[30.1565,-20.2073,865.2119],[30.1585,-20.2065,880.5381],[30.1978,-20.1717,905.4708],[30.2637,-20.2192,850.1182],[30.2617,-20.2058,856.7903],[30.2578,-20.1958,868.8948],[30.2481,-20.1926,869.2437],[30.2463,-20.162,887.2781],[30.2421,-20.1602,885.3157],[30.2481,-20.1513,898.944],[30.2474,-20.1429,896.6371],[30.2548,-20.1385,905.7224],[30.2533,-20.1293,910.2146],[30.2477,-20.1254,909.9542],[30.2436,-20.1156,911.459],[30.2505,-20.1137,917.5275],[30.2532,-20.1092,919.8047],[30.2556,-20.1082,932.2082],[30.2531,-20.1061,925.2365],[30.2549,-20.1016,931.54],[30.2569,-20.1006,935.2448],[30.2506,-20.0966,953.5062],[30.2102,-20.0925,956.9997],[30.2013,-20.0932,945.9086],[30.1875,-20.098,902.2753]]]]}}