{"type": "Feature","bbox": [30.2823,-17.875,30.5985,-17.6162],"geometry": {"type": "MultiPolygon","coordinates": [[[[30.4854,-17.8414,1321.1967],[30.513,-17.8444,1342.3792],[30.5168,-17.8669,1341.1786],[30.5232,-17.875,1341.0496],[30.5273,-17.875,1341.4407],[30.5312,-17.8698,1341.8678],[30.5354,-17.8582,1343.5156],[30.5364,-17.8472,1344.5592],[30.5385,-17.8431,1339.5],[30.5451,-17.8582,1340.8019],[30.5482,-17.8603,1340.7391],[30.5512,-17.8588,1340.8828],[30.5594,-17.8588,1339.5],[30.5699,-17.8704,1348.6558],[30.5695,-17.8668,1351.5393],[30.5633,-17.8561,1348.3794],[30.5533,-17.8459,1345.7477],[30.5527,-17.8389,1345.4403],[30.5499,-17.8352,1340.881],[30.5506,-17.8319,1342.1523],[30.5575,-17.8269,1340.1895],[30.5585,-17.7942,1339.5],[30.5605,-17.7834,1339.5],[30.5663,-17.7771,1339.5],[30.5664,-17.7656,1344.2947],[30.5643,-17.7607,1339.5],[30.565,-17.7487,1346.3649],[30.5616,-17.7463,1341.9594],[30.5569,-17.7381,1341.1484],[30.5625,-17.7312,1341.3386],[30.5602,-17.7221,1348.4553],[30.5636,-17.7148,1344.0416],[30.5625,-17.7114,1343.3439],[30.5649,-17.7047,1345.2833],[30.5655,-17.6902,1347.4203],[30.5722,-17.6803,1349.8634],[30.5722,-17.6772,1351.552],[30.5766,-17.6711,1350.5369],[30.5779,-17.6635,1350.9797],[30.5808,-17.6587,1354.7223],[30.5917,-17.6528,1362.8585],[30.5985,-17.6446,1361.8489],[30.5981,-17.6379,1364.4353],[30.5932,-17.6374,1380.1145],[30.5381,-17.6162,1448.9905],[30.5596,-17.6477,1494.4579],[30.5201,-17.6471,1426.3943],[30.5228,-17.626,1430.4287],[30.5073,-17.6275,1431.803],[30.4952,-17.6251,1447.3932],[30.4857,-17.6284,1437.3782],[30.4921,-17.6507,1453.6757],[30.4831,-17.65,1453.7007],[30.4342,-17.6559,1398.439],[30.4345,-17.6654,1417.0253],[30.4322,-17.6749,1421.0901],[30.413,-17.6716,1430.5043],[30.4036,-17.6594,1405.9305],[30.3772,-17.6697,1387.2375],[30.3777,-17.6515,1408.1772],[30.3725,-17.641,1385.0762],[30.3154,-17.6649,1320.3529],[30.2834,-17.6833,1255.186],[30.2823,-17.6859,1257.0946],[30.2873,-17.6893,1260.0625],[30.2918,-17.6901,1259.3651],[30.2972,-17.6969,1275.9235],[30.3118,-17.7061,1270.1443],[30.32,-17.7191,1275.4264],[30.3339,-17.7334,1286.0199],[30.3383,-17.7415,1281.7371],[30.3433,-17.7437,1285.4128],[30.3486,-17.751,1282.189],[30.355,-17.7522,1284.2041],[30.3575,-17.7634,1281.3179],[30.3773,-17.7752,1291.2295],[30.3783,-17.7768,1292.2261],[30.377,-17.7807,1285.0034],[30.3796,-17.7842,1294.4186],[30.3824,-17.7857,1294.7627],[30.3891,-17.7855,1297.4897],[30.4172,-17.8032,1305.3424],[30.4206,-17.8017,1309.1573],[30.4259,-17.8031,1306.2263],[30.4279,-17.8321,1324.2106],[30.4428,-17.8279,1307.8295],[30.4495,-17.8302,1312.2644],[30.4569,-17.829,1312.8101],[30.464,-17.8351,1315.1116],[30.4747,-17.8327,1314.0356],[30.4856,-17.8339,1316.1703],[30.4883,-17.836,1315.4176],[30.4854,-17.8414,1321.1967]]]]}
,"properties": {"GID_3": "ZWE.6.13.14_2","GID_0": "ZWE","country": "Zimbabwe","GID_1": "ZWE.6_1","province": "MashonalandWest","NL_NAME_1": "NA","GID_2": "ZWE.6.13_2","county": "Zvimba","NL_NAME_2": "NA","city": "Ward21","VARNAME_3": "NA","NL_NAME_3": "NA","TYPE_3": "Ward","ENGTYPE_3": "Ward","CC_3": "NA","HASC_3": "NA","name": "Ward21.city","area_km2": 483.4676,"hist_schema_id": "Elevation0-9000","hist_area_km2": {"1250": 1.111,"1275": 7.4531,"1300": 29.9066,"1325": 75.1109,"1350": 150.3613,"1375": 87.3503,"1400": 57.4246,"1425": 40.2012,"1450": 22.2443,"1475": 7.7986,"1500": 4.4248,"1525": 0.0808}}}