{"type":"Feature","properties":{"GID_3":"ZWE.6.6.9_2","GID_0":"ZWE","country":"Zimbabwe","GID_1":"ZWE.6_1","province":"MashonalandWest","NL_NAME_1":"NA","GID_2":"ZWE.6.6_2","county":"Kariba","NL_NAME_2":"NA","city":"Ward6","VARNAME_3":"NA","NL_NAME_3":"NA","TYPE_3":"Ward","ENGTYPE_3":"Ward","CC_3":"NA","HASC_3":"NA","name":"Ward6.city"},
"geometry":{"type": "MultiPolygon","coordinates": [[[[28.1398,-17.1424,494.5508],[28.1445,-17.1478,497.2113],[28.1439,-17.1538,493.166],[28.1402,-17.1604,494.2378],[28.131,-17.1676,499.8356],[28.1362,-17.1835,498.7914],[28.1357,-17.1964,515.6371],[28.138,-17.1997,516.0823],[28.1458,-17.2046,521.4441],[28.1539,-17.2019,534.7755],[28.156,-17.2129,519.6329],[28.1525,-17.2182,524.5336],[28.1367,-17.2186,580.4281],[28.1372,-17.2271,541.8734],[28.1505,-17.2318,655.562],[28.15,-17.2341,638.5414],[28.1436,-17.2404,566.132],[28.1437,-17.2425,542.6713],[28.1641,-17.2496,563.4091],[28.1647,-17.2544,600.1326],[28.1601,-17.2564,579.0465],[28.1566,-17.2544,630.3732],[28.1541,-17.2579,572.3433],[28.1508,-17.2579,584.823],[28.1475,-17.2549,573.2401],[28.1496,-17.2504,610.0469],[28.1472,-17.2496,600.263],[28.1422,-17.2527,614.5248],[28.1421,-17.2608,565.6112],[28.1454,-17.2626,594.9727],[28.15,-17.2623,621.647],[28.153,-17.2659,564.2849],[28.1656,-17.2653,622.4149],[28.1706,-17.2677,630.3015],[28.172,-17.2727,565.8413],[28.166,-17.2737,573.4503],[28.1645,-17.279,581.7123],[28.168,-17.2804,609.5745],[28.1696,-17.283,562.4517],[28.1721,-17.2822,633.3228],[28.1721,-17.2858,560.5254],[28.1715,-17.2893,589.9056],[28.1654,-17.2966,581.3114],[28.1635,-17.3071,568.2822],[28.1718,-17.308,608.9294],[28.1731,-17.3234,584.2704],[28.1748,-17.3238,567.7424],[28.1758,-17.3199,571.0454],[28.1798,-17.3157,629.0749],[28.182,-17.3158,644.175],[28.1896,-17.3241,584.0601],[28.1979,-17.3291,597.251],[28.1933,-17.336,576.6921],[28.1963,-17.3418,605.5527],[28.2046,-17.3422,626.4729],[28.2099,-17.3504,654.4973],[28.2211,-17.35,635.67],[28.2338,-17.3551,632.7209],[28.2422,-17.3719,585.0483],[28.2392,-17.3844,610.6554],[28.2392,-17.3912,592.4854],[28.2431,-17.3999,600.3094],[28.2484,-17.3993,657.5092],[28.2527,-17.4021,650.6119],[28.2579,-17.3998,687.519],[28.265,-17.401,710.2876],[28.2756,-17.3955,701.2161],[28.2809,-17.3947,719.0294],[28.2915,-17.3836,705.2469],[28.2958,-17.3822,713.338],[28.3037,-17.3829,737.7455],[28.3076,-17.3812,782.1974],[28.3052,-17.377,732.45],[28.3099,-17.3712,772.3526],[28.3097,-17.3677,801.2352],[28.3124,-17.3648,803.5395],[28.3129,-17.3605,812.7027],[28.3152,-17.3569,817.6208],[28.3128,-17.3548,815.5018],[28.3104,-17.3424,771.7567],[28.3058,-17.3342,748.6202],[28.3013,-17.3159,699.6575],[28.2975,-17.3106,698.1616],[28.2977,-17.3085,711.493],[28.3014,-17.3047,733.6129],[28.3029,-17.2977,746.2966],[28.3081,-17.2943,752.5779],[28.3128,-17.2856,740.8838],[28.3225,-17.2839,771.3158],[28.3245,-17.2821,762.3474],[28.3296,-17.2657,769.1257],[28.3425,-17.257,785.32],[28.3476,-17.2508,804.9158],[28.3508,-17.2443,798.9826],[28.3497,-17.2355,783.6478],[28.3527,-17.2304,756.4506],[28.3533,-17.2262,755.0922],[28.3582,-17.2191,762.7811],[28.3544,-17.2092,715.9185],[28.3465,-17.2108,720.7449],[28.3321,-17.2091,695.764],[28.3284,-17.2056,662.1203],[28.3285,-17.2027,672.7235],[28.3131,-17.1911,648.3091],[28.3135,-17.1861,629.1235],[28.3119,-17.1802,632.908],[28.3098,-17.179,620.009],[28.3095,-17.1714,638.0563],[28.2978,-17.1686,626.9447],[28.2936,-17.1629,603.9257],[28.2878,-17.1653,593.4535],[28.286,-17.1712,597.5449],[28.2827,-17.1738,607.6804],[28.2828,-17.1766,578.3506],[28.2766,-17.1806,574.2533],[28.2715,-17.181,560.3442],[28.2727,-17.1773,572.2965],[28.2714,-17.1768,576.246],[28.2621,-17.1779,557.0524],[28.2621,-17.1829,562.0497],[28.2562,-17.1868,550.6287],[28.2573,-17.1895,550.1203],[28.2525,-17.1888,552.4888],[28.2495,-17.1912,551.8383],[28.2485,-17.1995,546.571],[28.2408,-17.2002,549.4116],[28.2367,-17.2032,542.6321],[28.2298,-17.1997,541.821],[28.2287,-17.2065,539.1402],[28.2243,-17.2064,538.6674],[28.2223,-17.2044,538.4631],[28.2208,-17.2053,538.9504],[28.2156,-17.2005,542.8925],[28.2203,-17.1982,540.6156],[28.2183,-17.1845,555.0733],[28.2223,-17.1745,570.7581],[28.2215,-17.1607,712.3945],[28.1917,-17.1286,524.6073],[28.1892,-17.1296,525.8696],[28.1896,-17.1315,520.0277],[28.1875,-17.1313,521.5513],[28.1876,-17.1356,519.4166],[28.185,-17.135,520.262],[28.1835,-17.1395,517.002],[28.181,-17.1393,515.2532],[28.1798,-17.1352,531.0914],[28.1752,-17.136,514.96],[28.1725,-17.1341,518.2662],[28.1685,-17.1352,509.1455],[28.1704,-17.1317,532.122],[28.1643,-17.13,559.9402],[28.1637,-17.1339,507.548],[28.1619,-17.1306,551.7532],[28.1582,-17.1333,503.8723],[28.1578,-17.13,525.6761],[28.1542,-17.1289,512.4755],[28.1529,-17.1317,500.7536],[28.1499,-17.1304,508.916],[28.145,-17.1322,502.6125],[28.145,-17.1359,497.5597],[28.1427,-17.1386,500.214],[28.1387,-17.1383,504.1262],[28.1407,-17.1408,494.42],[28.1398,-17.1424,494.5508]]]]}}