{"type": "Feature","bbox": [30.6695,-22.3453,31.1133,-22.0858],"geometry": {"type": "MultiPolygon","coordinates": [[[[31.023,-22.3251,228.3934],[31.0512,-22.3355,229.3058],[31.0705,-22.3374,233.0121],[31.087,-22.3453,228.3912],[31.0984,-22.3453,222.778],[31.0997,-22.343,229.3519],[31.1133,-22.3375,223.6936],[31.1133,-22.3353,221.2136],[31.1003,-22.3202,228.5681],[31.0986,-22.3143,229.4575],[31.0861,-22.302,230.8915],[31.0841,-22.2976,229.9119],[31.0841,-22.2897,264.0247],[31.0802,-22.2885,250.3877],[31.0725,-22.2938,235.4227],[31.0683,-22.2941,236.1353],[31.0611,-22.2852,309.6043],[31.0554,-22.2869,240.638],[31.0512,-22.2859,259.2924],[31.0497,-22.2831,241.5223],[31.0521,-22.2787,256.6476],[31.0496,-22.2716,244.0904],[31.0533,-22.2684,274.8314],[31.0533,-22.2666,273.6225],[31.0343,-22.2667,247.7986],[31.0308,-22.2634,244.0384],[31.0276,-22.2519,281.1294],[31.0242,-22.2509,297.2373],[31.0174,-22.2525,251.7574],[31.0131,-22.2504,245.9575],[31.0162,-22.2331,249.5372],[31.0209,-22.2328,256.8107],[31.0263,-22.2367,257.5439],[31.0318,-22.2358,252.5475],[31.0363,-22.2302,333.7762],[31.0345,-22.224,306.4642],[31.0204,-22.2184,292.8961],[31.0109,-22.2275,267.4688],[31.0059,-22.2246,263.6065],[31.0133,-22.2084,275.2358],[31.0024,-22.2072,272.3484],[31.0065,-22.1972,273.8475],[31.0098,-22.194,293.2289],[31.0053,-22.1786,295.3999],[30.9877,-22.1742,304.5465],[30.9894,-22.1692,312.4603],[30.9859,-22.1633,298.6247],[30.983,-22.1619,301.0963],[30.9626,-22.1598,312.2812],[30.9547,-22.1551,324.3592],[30.9479,-22.1365,305.2533],[30.9481,-22.125,308.0338],[30.9441,-22.1129,315.2913],[30.932,-22.1057,335.8452],[30.7561,-22.0858,455.2812],[30.7509,-22.1198,478.0951],[30.7359,-22.1326,469.8993],[30.718,-22.1443,479.8315],[30.7078,-22.1554,468.2737],[30.7002,-22.1604,481.8336],[30.6898,-22.1601,469.4503],[30.68,-22.1574,463.4616],[30.6793,-22.1621,457.8968],[30.6764,-22.1663,452.6199],[30.6782,-22.1709,451.0371],[30.675,-22.1769,446.0079],[30.6711,-22.1792,445.6553],[30.6721,-22.1899,439.4023],[30.67,-22.1942,440.0624],[30.6711,-22.1973,434.7103],[30.6695,-22.2009,433.8315],[30.6707,-22.2057,426.9267],[30.6733,-22.2087,425.8648],[30.6726,-22.2127,424.4592],[30.6786,-22.2179,418.5385],[30.6764,-22.2209,415.409],[30.678,-22.2237,415.8451],[30.6911,-22.2288,408.7654],[30.6955,-22.2341,405.7602],[30.6975,-22.2345,406.8007],[30.7017,-22.2411,402.6069],[30.7017,-22.2443,399.5394],[30.7105,-22.2435,396.9781],[30.715,-22.2394,393.769],[30.7204,-22.2392,393.3348],[30.7174,-22.2435,394.1875],[30.721,-22.2483,390.1775],[30.7211,-22.2518,392.748],[30.7182,-22.2548,387.8168],[30.7191,-22.2583,389.8151],[30.7258,-22.2614,380.9315],[30.74,-22.2627,385.4834],[30.7412,-22.2677,375.5468],[30.7345,-22.2703,373.7351],[30.7402,-22.28,367.7657],[30.7352,-22.284,360.4272],[30.7413,-22.2889,349.7218],[30.7407,-22.2942,338.2066],[30.7424,-22.2965,332.0296],[30.743,-22.306,311.7194],[30.7508,-22.3056,295.7571],[30.7586,-22.3026,303.4293],[30.7864,-22.3003,278.7232],[30.8317,-22.2894,312.7297],[30.839,-22.2891,302.8932],[30.8546,-22.2941,258.0072],[30.8656,-22.2952,251.6609],[30.8835,-22.3027,264.2804],[30.8991,-22.2943,279.5016],[30.9329,-22.3002,245.6998],[30.9397,-22.3033,369.048],[30.9458,-22.3124,283.2931],[30.9595,-22.3115,283.3192],[30.9705,-22.3137,263.2246],[30.9734,-22.3219,238.9585],[30.9823,-22.3256,257.3694],[30.9898,-22.325,233.4537],[30.9935,-22.3207,229.5],[30.9951,-22.3155,231.9565],[30.9992,-22.3137,298.8242],[31.023,-22.3251,228.3934]]]]}
,"properties": {"GID_3": "ZWE.9.1.1_2","GID_0": "ZWE","country": "Zimbabwe","GID_1": "ZWE.9_1","province": "MatabelelandSouth","NL_NAME_1": "NA","GID_2": "ZWE.9.1_2","county": "Beitbridge","NL_NAME_2": "NA","city": "Ward1","VARNAME_3": "NA","NL_NAME_3": "NA","TYPE_3": "Ward","ENGTYPE_3": "Ward","CC_3": "NA","HASC_3": "NA","name": "Ward1.city","area_km2": 715.0106,"hist_schema_id": "Elevation0-9000","hist_area_km2": {"225": 20.476,"250": 11.8887,"275": 22.3718,"300": 49.3394,"325": 77.2906,"350": 84.63,"375": 91.1085,"400": 110.0922,"425": 104.1034,"450": 96.9584,"475": 45.1221,"500": 1.6297}}}