{"type": "Feature","bbox": [30.447,-21.1673,30.5412,-20.9662],"geometry": {"type": "MultiPolygon","coordinates": [[[[30.4534,-21.0887,576.4529],[30.4619,-21.0979,576.9701],[30.4699,-21.0969,573.8158],[30.4721,-21.0991,574.1123],[30.4734,-21.1049,558.5907],[30.4727,-21.1261,559.7982],[30.4907,-21.1297,559.5324],[30.4997,-21.1428,545.3833],[30.5118,-21.1479,563.2784],[30.5322,-21.1641,539.4328],[30.533,-21.1673,524.7577],[30.5349,-21.1667,530.2029],[30.538,-21.1618,538.3455],[30.5374,-21.159,548.7512],[30.5412,-21.1512,555.5948],[30.5391,-21.1492,560.0621],[30.535,-21.15,551.0517],[30.535,-21.1468,556.1074],[30.5317,-21.1465,563.9325],[30.5332,-21.144,550.9415],[30.5323,-21.1419,556.9854],[30.5359,-21.1388,565.2955],[30.5279,-21.1309,565.915],[30.5344,-21.129,559.1277],[30.5368,-21.1247,563.4852],[30.5334,-21.1207,562.7385],[30.5311,-21.1101,568.2996],[30.5345,-21.1049,570.7582],[30.5371,-21.0899,573.2543],[30.534,-21.0757,585.5466],[30.5301,-21.0693,590.0201],[30.5255,-21.0655,588.8041],[30.527,-21.0592,592.6284],[30.5235,-21.052,594.7865],[30.5251,-21.0466,597.0702],[30.5239,-21.0435,599.7755],[30.528199999999998,-21.0438,604.1599],[30.5279,-21.0407,604.4484],[30.5314,-21.0372,609.9336],[30.5285,-21.0303,609.4941],[30.5297,-21.029,609.615],[30.5286,-21.0266,611.465],[30.5294,-21.0241,619.2023],[30.5209,-21.0085,621.1581],[30.5217,-20.9947,632.9294],[30.5132,-20.9662,665.4448],[30.5071,-20.9711,673.3656],[30.4994,-20.9698,701.2938],[30.494,-20.9788,670.9412],[30.4801,-20.9783,709.3852],[30.4706,-20.9834,696.7251],[30.4646,-20.9819,661.1057],[30.45,-20.984,651.5826],[30.449,-20.9865,640.3107],[30.4527,-21.0237,613.1405],[30.447,-21.029,606.9998],[30.4525,-21.0311,605.7599],[30.4534,-21.0344,604.0212],[30.4492,-21.0434,602.7429],[30.4545,-21.0617,592.5547],[30.4486,-21.0761,583.6843],[30.4534,-21.0887,576.4529]]]]}
,"properties": {"GID_3": "ZWE.7.8.15_2","GID_0": "ZWE","country": "Zimbabwe","GID_1": "ZWE.7_1","province": "Masvingo","NL_NAME_1": "NA","GID_2": "ZWE.7.8_2","county": "Mwenezi","NL_NAME_2": "NA","city": "Ward6","VARNAME_3": "NA","NL_NAME_3": "NA","TYPE_3": "Ward","ENGTYPE_3": "Ward","CC_3": "NA","HASC_3": "NA","name": "Ward6.city","area_km2": 136.9396,"hist_schema_id": "Elevation0-9000","hist_area_km2": {"525": 0.2373,"550": 7.0993,"575": 31.1329,"600": 40.2828,"625": 26.3796,"650": 17.3978,"675": 8.6697,"700": 3.0087,"725": 1.2866,"750": 0.9303,"775": 0.4354,"800": 0.0792}}}