{"type":"Feature","properties":{"GID_3":"ZWE.8.7.12_2","GID_0":"ZWE","country":"Zimbabwe","GID_1":"ZWE.8_1","province":"MatabelelandNorth","NL_NAME_1":"NA","GID_2":"ZWE.8.7_2","county":"Tsholotsho","NL_NAME_2":"NA","city":"Ward2","VARNAME_3":"NA","NL_NAME_3":"NA","TYPE_3":"Ward","ENGTYPE_3":"Ward","CC_3":"NA","HASC_3":"NA","name":"Ward2.city"},
"geometry":{"type": "MultiPolygon","coordinates": [[[[27.2607,-19.4731,1005.2944],[27.2742,-19.4736,1004.3719],[27.2799,-19.4799,1000.9008],[27.2854,-19.4807,1001.1595],[27.2914,-19.4648,1004.1906],[27.2949,-19.4635,1005.4199],[27.3124,-19.472,1009.3885],[27.3542,-19.4964,1017.2141],[27.3611,-19.4995,1022.1414],[27.3745,-19.5015,1023.1636],[27.3827,-19.5096,1020.2955],[27.3939,-19.5154,1018.28],[27.3945,-19.5243,1027.2626],[27.3697,-19.5623,1016.7576],[27.3905,-19.5894,1019.6136],[27.3934,-19.5905,1020.5944],[27.4249,-19.5866,1023.9896],[27.4329,-19.6028,1029.3076],[27.4368,-19.6077,1029.9724],[27.4461,-19.6147,1034.9058],[27.4517,-19.6149,1036.8149],[27.4566,-19.5982,1024.4438],[27.4621,-19.5864,1017.631],[27.4626,-19.5759,1018.7927],[27.4668,-19.5686,1022.7446],[27.469,-19.5607,1025.9607],[27.4705,-19.5517,1031.4673],[27.4687,-19.5444,1024.7876],[27.4698,-19.5343,1026.0358],[27.4762,-19.5182,1031.5769],[27.4743,-19.5088,1027.0507],[27.4751,-19.5055,1027.5686],[27.4818,-19.5029,1027.7937],[27.504,-19.5027,1025.1304],[27.5122,-19.4983,1027.6925],[27.5169,-19.4908,1030.2944],[27.5128,-19.4864,1028.4553],[27.5083,-19.4614,1023.3413],[27.5174,-19.4531,1030.1238],[27.5199,-19.4474,1024.7191],[27.5232,-19.4456,1024.9988],[27.53,-19.4456,1028.8633],[27.5366,-19.4518,1023.5684],[27.5392,-19.4508,1023.594],[27.5414,-19.4466,1023.2144],[27.5444,-19.431,1022.8717],[27.5352,-19.4211,1022.5306],[27.532,-19.412,1021.3275],[27.5508,-19.3645,1023.5649],[27.5364,-19.359,1021.9997],[27.516,-19.3372,1017.3098],[27.432,-19.3085,1016.344],[27.4155,-19.312,1014.7224],[27.4098,-19.3149,1011.8218],[27.4037,-19.3261,1013.5383],[27.4076,-19.3438,1011.6559],[27.4047,-19.3453,1010.3024],[27.3968,-19.3454,1005.3939],[27.3847,-19.354,1012.8807],[27.3813,-19.3508,1011.7899],[27.3797,-19.345,1004.3575],[27.3766,-19.3409,1004.308],[27.3695,-19.3389,1010.6147],[27.3583,-19.3286,1011.6751],[27.3268,-19.309,995.6108],[27.3134,-19.3069,996.1561],[27.279,-19.3095,991.0638],[27.2685,-19.3085,990.9313],[27.2444,-19.3127,992.5153],[27.2345,-19.3184,988.0198],[27.2286,-19.3177,987.6968],[27.2282,-19.3198,995.132],[27.2503,-19.3363,1006.1904],[27.2527,-19.3353,1006.4498],[27.2627,-19.3413,1006.1873],[27.2693,-19.3501,1007.775],[27.2678,-19.3591,1007.866],[27.2602,-19.3727,1008.4728],[27.2598,-19.3768,1008.6697],[27.2608,-19.3815,1007.9088],[27.2691,-19.3958,1007.3025],[27.2666,-19.4028,1006.89],[27.2502,-19.4312,998.7876],[27.2498,-19.4342,998.1985],[27.2527,-19.4531,1002.8525],[27.2582,-19.4587,1003.558],[27.2607,-19.4731,1005.2944]]]]}}