{"type":"Feature","properties":{"GID_3":"ZWE.3.8.15_2","GID_0":"ZWE","country":"Zimbabwe","GID_1":"ZWE.3_1","province":"Manicaland","NL_NAME_1":"NA","GID_2":"ZWE.3.8_2","county":"Mutasa","NL_NAME_2":"NA","city":"Ward22","VARNAME_3":"NA","NL_NAME_3":"NA","TYPE_3":"Ward","ENGTYPE_3":"Ward","CC_3":"NA","HASC_3":"NA","name":"Ward22.city"},
"geometry":{"type": "MultiPolygon","coordinates": [[[[32.7079,-18.9349,1560.7537],[32.73,-18.9282,1541.4563],[32.7307,-18.9254,1498.9215],[32.724,-18.8911,1389.2946],[32.7186,-18.8769,1423.6057],[32.7074,-18.8606,1479.8364],[32.6919,-18.8603,1352.6577],[32.6964,-18.8847,1361.7483],[32.691,-18.8865,1287.1281],[32.6766,-18.8805,1154.4358],[32.6763,-18.8819,1166.6892],[32.6589,-18.8873,1161.2317],[32.6582,-18.8889,1143.2507],[32.6606,-18.8907,1189.6038],[32.6577,-18.8912,1142.424],[32.6568,-18.8896,1155.7998],[32.6432,-18.891,1115.2119],[32.6384,-18.8977,1114.3086],[32.6305,-18.8986,1109.3291],[32.6241,-18.9012,1110.4128],[32.6304,-18.9171,1146.7156],[32.6356,-18.9206,1154.7958],[32.6257,-18.9348,1201.6378],[32.6234,-18.9355,1206.5399],[32.6195,-18.933,1190.2786],[32.6183,-18.9352,1198.719],[32.6163,-18.9348,1198.719],[32.6165,-18.9308,1176.4274],[32.6138,-18.9297,1175.4041],[32.6117,-18.9316,1154.8989],[32.6073,-18.9317,1144.8533],[32.6045,-18.9339,1153.3357],[32.6062,-18.9368,1231.9614],[32.597,-18.9413,1186.8932],[32.5961,-18.9388,1151.2018],[32.5882,-18.9354,1118.1422],[32.5881,-18.9273,1094.0226],[32.5711,-18.922,1082.967],[32.5687,-18.9393,1247.5514],[32.5588,-18.9529,1376.6775],[32.627,-18.9437,1393.8014],[32.661,-18.9347,1546.3069],[32.6917,-18.933,1689.9133],[32.7024,-18.9357,1597.0719],[32.7079,-18.9349,1560.7537]]]]}}