{"type":"Feature","properties":{"GID_3":"ZWE.2.3.22_2","GID_0":"ZWE","country":"Zimbabwe","GID_1":"ZWE.2_1","province":"Harare","NL_NAME_1":"NA","GID_2":"ZWE.2.3_2","county":"Harare","NL_NAME_2":"NA","city":"Ward3","VARNAME_3":"NA","NL_NAME_3":"NA","TYPE_3":"Ward","ENGTYPE_3":"Ward","CC_3":"NA","HASC_3":"NA","name":"Ward3.city"},
"geometry":{"type": "MultiPolygon","coordinates": [[[[31.046,-17.8524,1451.1531],[31.0437,-17.851,1454.4536],[31.0428,-17.8547,1451.4431],[31.0365,-17.8565,1465.2284],[31.0382,-17.8613,1457.7108],[31.0369,-17.8667,1456.774],[31.0423,-17.8677,1443.8671],[31.046,-17.8524,1451.1531]]]]}}