{"type": "Feature","bbox": [30.5912,-20.5776,30.717,-20.4365],"geometry": {"type": "MultiPolygon","coordinates": [[[[30.6976,-20.4365,771.2109],[30.6837,-20.4417,785.87],[30.6774,-20.4459,799.8376],[30.6708,-20.4537,792.3754],[30.667,-20.4547,792.0439],[30.6639,-20.4607,798.8582],[30.6543,-20.4686,818.2],[30.6494,-20.4772,890.4489],[30.6337,-20.4938,889.4012],[30.6307,-20.502,966.6432],[30.627,-20.5065,968.5308],[30.6067,-20.5272,938.4949],[30.5912,-20.5372,777.2034],[30.5917,-20.5451,771.0785],[30.5948,-20.549,770.9218],[30.5925,-20.5536,763.3959],[30.6023,-20.5623,758.6533],[30.6054,-20.5683,749.5776],[30.6244,-20.5583,766.3093],[30.6578,-20.5618,805.0898],[30.6599,-20.5724,921.7469],[30.6648,-20.5776,779.1653],[30.6684,-20.5723,785.0477],[30.6771,-20.5686,775.5179],[30.6824,-20.5696,782.2051],[30.6878,-20.5743,775.4048],[30.6954,-20.5748,756.0659],[30.7032,-20.5698,753.3439],[30.7087,-20.5631,743.7533],[30.7118,-20.5554,750.0856],[30.7095,-20.5505,746.8802],[30.7124,-20.5416,744.7059],[30.7101,-20.5199,744.4924],[30.7165,-20.511,762.8993],[30.717,-20.5056,768.486],[30.7135,-20.4984,748.7642],[30.7109,-20.4792,771.9908],[30.7028,-20.4625,754.0767],[30.7044,-20.4529,763.8265],[30.6976,-20.4365,771.2109]]]]}
,"properties": {"GID_3": "ZWE.7.4.13_2","GID_0": "ZWE","country": "Zimbabwe","GID_1": "ZWE.7_1","province": "Masvingo","NL_NAME_1": "NA","GID_2": "ZWE.7.4_2","county": "Chivi","NL_NAME_2": "NA","city": "Ward20","VARNAME_3": "NA","NL_NAME_3": "NA","TYPE_3": "Ward","ENGTYPE_3": "Ward","CC_3": "NA","HASC_3": "NA","name": "Ward20.city","area_km2": 117.59494,"hist_schema_id": "Elevation0-9000","hist_area_km2": {"725": 0.09927,"750": 9.45072,"775": 41.32078,"800": 38.56484,"825": 13.32545,"850": 4.48795,"875": 3.23684,"900": 2.52198,"925": 1.88642,"950": 1.4496,"975": 0.65532,"1000": 0.23831,"1025": 0.13902,"1050": 0.13902,"1075": 0.07943}}}