{"type":"Feature","properties":{"GID_3":"ZWE.5.4.23_2","GID_0":"ZWE","country":"Zimbabwe","GID_1":"ZWE.5_1","province":"MashonalandEast","NL_NAME_1":"NA","GID_2":"ZWE.5.4_2","county":"Marondera","NL_NAME_2":"NA","city":"Ward9","VARNAME_3":"NA","NL_NAME_3":"NA","TYPE_3":"Ward","ENGTYPE_3":"Ward","CC_3":"NA","HASC_3":"NA","name":"Ward9.city"},
"geometry":{"type": "MultiPolygon","coordinates": [[[[31.2086,-18.3908,1445.991],[31.2004,-18.3889,1441.408],[31.1946,-18.3895,1436.8639],[31.191,-18.3839,1437.6868],[31.1894,-18.3851,1424.3037],[31.187,-18.3841,1425.9177],[31.1823,-18.3793,1426.353],[31.1681,-18.3803,1410.8438],[31.1592,-18.3795,1406.8597],[31.1531,-18.3762,1406.2837],[31.1488,-18.3764,1393.8597],[31.1457,-18.3747,1387.9099],[31.1388,-18.3644,1390.4021],[31.135,-18.3652,1389.8499],[31.1143,-18.3539,1373.9067],[31.1125,-18.3537,1373.693],[31.1101,-18.357,1362.184],[31.1067,-18.3556,1368.7859],[31.1039,-18.3574,1363.396],[31.097,-18.358,1355.8197],[31.0994,-18.3697,1361.5],[31.0989,-18.3771,1365.1998],[31.1018,-18.3803,1373.6014],[31.1016,-18.384,1369.282],[31.1224,-18.3969,1393.9409],[31.128,-18.4086,1386.4556],[31.1398,-18.4164,1397.667],[31.1767,-18.4084,1439.4283],[31.1796,-18.4146,1451.5239],[31.1951,-18.4141,1464.7338],[31.2107,-18.4085,1465.7554],[31.2489,-18.4229,1484.9775],[31.25,-18.4205,1486.6958],[31.2627,-18.4128,1492.7507],[31.2776,-18.4061,1501.5803],[31.2706,-18.3934,1503.054],[31.2086,-18.3908,1445.991]]]]}}