{"type":"Feature","properties":{"GID_3":"ZWE.5.4.15_2","GID_0":"ZWE","country":"Zimbabwe","GID_1":"ZWE.5_1","province":"MashonalandEast","NL_NAME_1":"NA","GID_2":"ZWE.5.4_2","county":"Marondera","NL_NAME_2":"NA","city":"Ward22","VARNAME_3":"NA","NL_NAME_3":"NA","TYPE_3":"Ward","ENGTYPE_3":"Ward","CC_3":"NA","HASC_3":"NA","name":"Ward22.city"},
"geometry":{"type": "MultiPolygon","coordinates": [[[[31.8444,-18.4262,1330.5851],[31.845,-18.4149,1348.7029],[31.8364,-18.4029,1372.3412],[31.8313,-18.3999,1367.9006],[31.8308,-18.3974,1371.671],[31.8322,-18.3931,1388.4529],[31.8408,-18.3882,1394.9709],[31.8449,-18.3878,1394.2357],[31.8449,-18.3859,1398.9946],[31.8418,-18.3819,1390.4177],[31.837,-18.3818,1392.9062],[31.8355,-18.3783,1392.3456],[31.8305,-18.3773,1393.8969],[31.8251,-18.3691,1407.7065],[31.8203,-18.3671,1402.8914],[31.8173,-18.3632,1402.6189],[31.7567,-18.3612,1490.209],[31.7584,-18.3905,1432.3749],[31.7167,-18.4021,1602.1398],[31.6824,-18.414,1500.7961],[31.7236,-18.4249,1521.9685],[31.7032,-18.4361,1444.2798],[31.711,-18.4667,1405.8541],[31.7096,-18.4788,1392.3425],[31.7041,-18.4821,1381.6632],[31.7022,-18.4899,1367.6772],[31.6942,-18.4977,1375.3262],[31.6962,-18.526,1382.4025],[31.7323,-18.5551,1364.0529],[31.7404,-18.5699,1328.9244],[31.7322,-18.5831,1288.2861],[31.733,-18.588,1291.2808],[31.7378,-18.5911,1294.4246],[31.7448,-18.5917,1346.292],[31.7462,-18.5934,1300.548],[31.7462,-18.5986,1281.729],[31.7488,-18.6004,1284.579],[31.7509,-18.6013,1281.7065],[31.7556,-18.5973,1286.8318],[31.7564,-18.5914,1286.4658],[31.7708,-18.5795,1303.4028],[31.7699,-18.5736,1312.5977],[31.7716,-18.5707,1313.2076],[31.747,-18.5468,1369.4547],[31.7503,-18.5368,1360.394],[31.7218,-18.5133,1365.4594],[31.7494,-18.4989,1412.609],[31.7618,-18.4476,1493.3071],[31.8149,-18.4357,1381.7688],[31.8418,-18.4286,1342.6885],[31.8444,-18.4262,1330.5851]]]]}}