{"type": "Feature","bbox": [27.6887,-21.6169,28.394,-20.406],"geometry": {"type": "MultiPolygon","coordinates": [[[[28.3218,-21.4629,841.1526],[28.316,-21.4568,847.7399],[28.3048,-21.4542,850.9399],[28.2977,-21.4398,851.6788],[28.2891,-21.4347,854.0135],[28.2876,-21.4246,852.681],[28.2828,-21.418,859.7172],[28.2851,-21.4085,858.6918],[28.2817,-21.4075,862.049],[28.2754,-21.4098,857.7787],[28.2724,-21.4091,861.1527],[28.2712,-21.3999,862.2585],[28.2672,-21.3964,862.4219],[28.2602,-21.3842,868.9985],[28.2592,-21.3677,871.8356],[28.25,-21.3594,875.0453],[28.2401,-21.3531,878.0153],[28.2363,-21.3464,877.4191],[28.2286,-21.3419,882.1313],[28.2157,-21.3243,896.8112],[28.2036,-21.321,894.0182],[28.1967,-21.3138,891.7542],[28.1969,-21.3092,892.8671],[28.2031,-21.299,895.5922],[28.2087,-21.2977,897.053],[28.2117,-21.2953,898.8126],[28.2126,-21.2922,898.051],[28.2124,-21.289,899.8666],[28.2081,-21.2831,899.3669],[28.2054,-21.2749,903.5351],[28.1996,-21.2678,904.2303],[28.2,-21.2654,906.7175],[28.206,-21.2615,905.5594],[28.2038,-21.254,908.58],[28.2108,-21.2481,912.1083],[28.2092,-21.2437,915.317],[28.2038,-21.24,911.2538],[28.2085,-21.2324,917.1671],[28.2073,-21.224,915.0267],[28.2108,-21.2126,922.1103],[28.209,-21.2067,922.4608],[28.2029,-21.1972,922.9306],[28.2059,-21.1877,927.1887],[28.2163,-21.1803,930.5507],[28.2203,-21.171,934.1865],[28.2203,-21.1614,931.8168],[28.2178,-21.1544,935.3204],[28.2189,-21.1472,939.6232],[28.2123,-21.1386,940.6696],[28.217,-21.1356,940.8147],[28.2179,-21.13,943.4726],[28.2247,-21.1275,945.7126],[28.2318,-21.1188,949.1043],[28.2319,-21.1157,950.5317],[28.2283,-21.11,952.4631],[28.2284,-21.1053,953.9641],[28.2219,-21.101,956.9391],[28.2205,-21.0954,956.77],[28.2214,-21.0933,957.3154],[28.224,-21.0937,957.3273],[28.2277,-21.0904,960.3928],[28.2258,-21.0835,961.9478],[28.2268,-21.0807,963.7708],[28.225,-21.0788,964.5865],[28.2254,-21.0768,963.9227],[28.2232,-21.0764,964.7859],[28.2249,-21.0734,965.361],[28.223,-21.0663,967.0087],[28.2338,-21.0637,970.7977],[28.2323,-21.0599,971.47],[28.2353,-21.054,974.0411],[28.229,-21.0564,979.9653],[28.203,-21.0452,969.762],[28.2062,-21.026,973.3232],[28.1959,-20.9958,984.9237],[28.1935,-20.9928,990.3585],[28.1891,-20.9917,980.5425],[28.1883,-20.9864,983.2595],[28.1891,-20.98,985.0099],[28.1933,-20.9709,989.4114],[28.1982,-20.9639,997.919],[28.2036,-20.9606,996.4081],[28.2031,-20.9534,1003.3821],[28.1992,-20.9489,1005.0474],[28.202,-20.9471,999.7308],[28.2051,-20.9414,1000.0323],[28.2091,-20.9286,1008.0853],[28.2112,-20.9265,1010.4821],[28.2174,-20.9252,1013.1521],[28.2214,-20.9216,1014.7028],[28.2231,-20.9138,1019.8574],[28.2354,-20.9088,1024.724],[28.2384,-20.906,1029.9551],[28.236,-20.9002,1029.8132],[28.2373,-20.8965,1027.5944],[28.2421,-20.8913,1030.8188],[28.3105,-20.8335,1070.2434],[28.3039,-20.8262,1071.5288],[28.3036,-20.8212,1076.2192],[28.286,-20.8258,1080.1825],[28.2787,-20.8222,1082.5308],[28.271,-20.8107,1090.0531],[28.2651,-20.7935,1096.9894],[28.2544,-20.7725,1106.7366],[28.2548,-20.7672,1115.1484],[28.2528,-20.7649,1109.9939],[28.2476,-20.7632,1104.4169],[28.2431,-20.7552,1108.5039],[28.2427,-20.7505,1112.0583],[28.2364,-20.7441,1119.0891],[28.2317,-20.7359,1115.8468],[28.2322,-20.7317,1117.7515],[28.2291,-20.7284,1118.7948],[28.2185,-20.6926,1145.7854],[28.2169,-20.6756,1151.4998],[28.2131,-20.6713,1153.6108],[28.212,-20.6528,1170.4315],[28.2506,-20.5935,1338.524],[28.1837,-20.5506,1249.736],[28.2017,-20.5385,1308.3145],[28.2252,-20.5176,1384.4564],[28.2666,-20.489,1426.2443],[28.2695,-20.4615,1457.2179],[28.2987,-20.4479,1409.1432],[28.3013,-20.426,1389.999],[28.3083,-20.406,1399.4852],[28.2768,-20.427,1410.2032],[28.251,-20.4204,1418.9336],[28.2455,-20.4176,1421.7201],[28.2227,-20.4521,1420.7987],[28.2186,-20.4331,1444.5493],[28.2044,-20.4145,1427.7294],[28.1876,-20.4399,1454.3148],[28.1495,-20.4116,1443.2256],[28.0699,-20.4852,1476.2554],[28.0517,-20.491,1470.9897],[28.0003,-20.4953,1461.6926],[27.9916,-20.5006,1471.7065],[27.977,-20.5169,1440.6467],[27.9285,-20.4882,1437.2598],[27.9052,-20.5156,1350.0793],[27.8677,-20.5259,1363.6537],[27.8435,-20.5616,1315.8589],[27.819,-20.5931,1295.9351],[27.7858,-20.5634,1333.1332],[27.7731,-20.5544,1324.6509],[27.781,-20.5289,1382.165],[27.7238,-20.5128,1377.3765],[27.7303,-20.5231,1345.4288],[27.7277,-20.5318,1325.818],[27.7313,-20.5414,1312.6097],[27.7297,-20.543,1308.656],[27.7293,-20.555,1300.9301],[27.7207,-20.575,1272.0334],[27.7222,-20.5779,1271.2004],[27.7205,-20.5798,1266.2567],[27.7225,-20.5833,1266.8389],[27.7159,-20.5942,1259.1406],[27.7089,-20.5976,1245.6344],[27.7052,-20.6034,1241.9097],[27.7051,-20.6158,1234.8608],[27.7065,-20.6229,1230.3645],[27.7091,-20.624,1224.1232],[27.7055,-20.6442,1212.0918],[27.707,-20.6551,1203.3842],[27.7063,-20.665,1189.4052],[27.7128,-20.6732,1185.9185],[27.7144,-20.678,1181.7992],[27.7162,-20.6777,1183.5439],[27.7173,-20.6832,1176.2844],[27.7264,-20.6915,1170.7611],[27.7244,-20.6926,1171.9312],[27.7248,-20.6943,1169.1284],[27.7313,-20.699,1169.5104],[27.7315,-20.7017,1163.165],[27.7347,-20.7025,1164.8105],[27.7308,-20.7057,1164.2214],[27.7303,-20.7103,1158.5392],[27.7332,-20.7144,1156.6433],[27.7306,-20.7162,1157.9171],[27.7284,-20.7217,1151.7245],[27.7291,-20.7295,1147.8428],[27.7305,-20.732,1148.228],[27.7324,-20.7323,1147.9266],[27.7321,-20.737,1143.601],[27.7346,-20.7395,1144.2972],[27.7313,-20.7433,1138.4204],[27.736,-20.7604,1138.1017],[27.7351,-20.7663,1137.6948],[27.7281,-20.7754,1124.9246],[27.7273,-20.7811,1122.2545],[27.7316,-20.7949,1119.7294],[27.722,-20.8025,1118.5685],[27.716,-20.8324,1089.8297],[27.7171,-20.8361,1087.1196],[27.7148,-20.8389,1085.5897],[27.7134,-20.8492,1085.6185],[27.7084,-20.856,1082.7968],[27.698,-20.865,1077.5388],[27.6928,-20.8766,1069.6556],[27.6996,-20.8918,1059.837],[27.7026,-20.9129,1069.5985],[27.6903,-20.9329,1046.5525],[27.696,-20.9394,1048.8499],[27.6983,-20.9457,1046.9335],[27.7036,-20.9491,1042.2811],[27.7097,-20.956,1036.5702],[27.7092,-20.9621,1035.1505],[27.7124,-20.9676,1038.1094],[27.7022,-20.9857,1028.7325],[27.7026,-20.9906,1030.8369],[27.7074,-20.9991,1022.4143],[27.7035,-21.0006,1027.3508],[27.6965,-21.0066,1023.1957],[27.7006,-21.0114,1019.3839],[27.6992,-21.0168,1013.9801],[27.7028,-21.0212,1015.9861],[27.7015,-21.028,1009.5725],[27.7045,-21.037,1008.0867],[27.7003,-21.0483,1009.0852],[27.6887,-21.0576,1005.2349],[27.69,-21.0653,997.7339],[27.6965,-21.0743,997.9959],[27.6952,-21.081,995.2324],[27.6974,-21.0877,995.498],[27.6995,-21.089,993.3494],[27.701,-21.0985,990.6696],[27.7124,-21.1046,988.4721],[27.7173,-21.1122,987.5403],[27.724,-21.1153,982.1069],[27.7331,-21.1311,977.5427],[27.7471,-21.1395,976.0119],[27.7508,-21.1498,973.7139],[27.7536,-21.1524,973.441],[27.7583,-21.1542,970.8104],[27.7699,-21.1541,966.9999],[27.7789,-21.1574,965.7004],[27.7871,-21.1746,961.6056],[27.7902,-21.177,960.4451],[27.7936,-21.1769,960.5241],[27.8014,-21.1724,956.9004],[27.8049,-21.1737,956.7146],[27.8165,-21.1881,955.481],[27.8167,-21.191,950.2443],[27.814,-21.1942,951.3714],[27.8143,-21.1975,947.4161],[27.8197,-21.1984,948.9745],[27.8254,-21.2016,948.5234],[27.8298,-21.2117,941.9808],[27.8359,-21.2203,940.5045],[27.8433,-21.2289,942.9877],[27.8561,-21.2395,935.905],[27.8681,-21.267,930.2242],[27.8835,-21.279,923.6947],[27.8828,-21.2845,928.9807],[27.886,-21.2897,923.5056],[27.9035,-21.3007,914.562],[27.9169,-21.3222,913.2961],[27.9199,-21.3296,911.8259],[27.9174,-21.3442,905.3908],[27.9192,-21.3606,906.9106],[27.9295,-21.3748,898.8169],[27.9465,-21.3894,896.2084],[27.9485,-21.3975,894.7885],[27.9603,-21.4191,896.0779],[27.959,-21.4241,894.8455],[27.9541,-21.4299,889.9354],[27.9679,-21.4427,885.9712],[27.9738,-21.4529,882.666],[27.9802,-21.4565,881.2156],[27.9768,-21.4605,878.1305],[27.9729,-21.4603,884.522],[27.9712,-21.4637,882.3533],[27.9639,-21.4655,879.4959],[27.9593,-21.4688,874.1323],[27.9604,-21.4763,873.6151],[27.9757,-21.4785,873.6412],[27.9844,-21.4836,874.2478],[27.9833,-21.4874,867.6227],[27.9849,-21.4903,873.7822],[27.9751,-21.5004,868.5065],[27.9767,-21.5046,869.0505],[27.9712,-21.5116,864.1353],[27.9714,-21.5161,861.8939],[27.9783,-21.5224,864.0416],[27.9843,-21.515,856.0243],[27.9921,-21.5157,859.9569],[28.0037,-21.5138,861.7158],[28.0037,-21.5179,856.4113],[27.9977,-21.5224,853.6777],[27.9997,-21.5252,865.8026],[27.996,-21.5274,856.6891],[27.9968,-21.5305,856.0572],[28.0054,-21.539,861.1874],[28.0092,-21.551,848.8469],[28.0082,-21.5552,851.1493],[28.0201,-21.5727,848.0854],[28.052,-21.578,836.0726],[28.0678,-21.5772,840.2958],[28.0809,-21.5815,829.4659],[28.0938,-21.5773,832.6176],[28.0992,-21.5774,825.9765],[28.123,-21.585,816.7758],[28.1336,-21.5863,815.4443],[28.1443,-21.5912,818.8079],[28.1708,-21.5927,818.7092],[28.1975,-21.6017,802.9069],[28.2499,-21.5941,797.7856],[28.2861,-21.5908,795.0192],[28.2926,-21.5874,790.5289],[28.2988,-21.5912,795.5598],[28.3094,-21.5942,797.2608],[28.3254,-21.5955,787.901],[28.3391,-21.5988,789.9861],[28.3475,-21.6058,781.4467],[28.3618,-21.6021,773.6544],[28.3753,-21.6058,790.4158],[28.3817,-21.6085,782.1688],[28.3884,-21.6164,764.4967],[28.3927,-21.6169,767.9741],[28.394,-21.6117,767.4077],[28.3897,-21.6005,774.5603],[28.3887,-21.5936,775.1031],[28.3871,-21.5917,783.8692],[28.3798,-21.5929,782.1744],[28.3752,-21.5899,782.0547],[28.3708,-21.574,784.1602],[28.3671,-21.5674,788.6509],[28.3694,-21.5618,795.1771],[28.3794,-21.5613,794.8659],[28.3829,-21.5591,795.2512],[28.3814,-21.5444,804.0977],[28.3844,-21.54,803.6555],[28.3843,-21.5357,810.1625],[28.3733,-21.5222,823.306],[28.3593,-21.5118,823.1891],[28.3568,-21.507,818.2391],[28.357,-21.4988,826.3647],[28.3542,-21.4924,826.9105],[28.3423,-21.4927,835.8038],[28.3375,-21.4912,834.6425],[28.3336,-21.4873,833.4106],[28.3247,-21.4735,837.9801],[28.3218,-21.4629,841.1526]]]]}
,"properties": {"GID_2": "ZWE.9.7_2","GID_0": "ZWE","country": "Zimbabwe","GID_1": "ZWE.9_1","province": "MatabelelandSouth","NL_NAME_1": "NA","county": "Mangwe","VARNAME_2": "NA","NL_NAME_2": "NA","TYPE_2": "District","ENGTYPE_2": "District","CC_2": "NA","HASC_2": "NA","name": "Mangwe.county","area_km2": 5725.299,"hist_schema_id": "Elevation0-9000","hist_area_km2": {"775": 4.436,"800": 32.294,"825": 83.883,"850": 177.186,"875": 253.694,"900": 311.295,"925": 374.265,"950": 379.553,"975": 403.599,"1000": 396.125,"1025": 341.377,"1050": 261.932,"1075": 279.441,"1100": 265.822,"1125": 264.227,"1150": 253.829,"1175": 235.147,"1200": 247.029,"1225": 214.778,"1250": 164.532,"1275": 129.149,"1300": 100.425,"1325": 105.361,"1350": 101.125,"1375": 80.648,"1400": 72.165,"1425": 88.798,"1450": 85.568,"1475": 17.617}}}