{"type": "Feature","bbox": [30.6815,-17.891,30.7071,-17.8707],"geometry": {"type": "MultiPolygon","coordinates": [[[[30.6842,-17.8715,1353.4204],[30.6815,-17.8798,1355.3369],[30.6895,-17.891,1367.958],[30.7071,-17.8882,1351.1541],[30.7026,-17.8743,1355.7412],[30.687,-17.8707,1354.661],[30.6842,-17.8715,1353.4204]]]]}
,"properties": {"GID_3": "ZWE.6.11.7_2","GID_0": "ZWE","country": "Zimbabwe","GID_1": "ZWE.6_1","province": "MashonalandWest","NL_NAME_1": "NA","GID_2": "ZWE.6.11_2","county": "Norton","NL_NAME_2": "NA","city": "Ward3","VARNAME_3": "NA","NL_NAME_3": "NA","TYPE_3": "Ward","ENGTYPE_3": "Ward","CC_3": "NA","HASC_3": "NA","name": "Ward3.city","area_km2": 4.237393,"hist_schema_id": "Elevation0-9000","hist_area_km2": {"1350": 1.795862,"1375": 2.441532}}}