{"type":"Feature","properties":{"GID_3":"ZWE.3.9.18_2","GID_0":"ZWE","country":"Zimbabwe","GID_1":"ZWE.3_1","province":"Manicaland","NL_NAME_1":"NA","GID_2":"ZWE.3.9_2","county":"Nyanga","NL_NAME_2":"NA","city":"Ward25","VARNAME_3":"NA","NL_NAME_3":"NA","TYPE_3":"Ward","ENGTYPE_3":"Ward","CC_3":"NA","HASC_3":"NA","name":"Ward25.city"},
"geometry":{"type": "MultiPolygon","coordinates": [[[[32.9895,-18.2349,1367.231],[32.9892,-18.1949,1201.6976],[32.9566,-18.1971,1627.0542],[32.8929,-18.2215,1676.7887],[32.8486,-18.225,2103.8118],[32.8088,-18.215699999999998,2319.8188],[32.7649,-18.1841,2202.8271],[32.7566,-18.2195,1718.9211],[32.7591,-18.2314,1893.5715],[32.7445,-18.2456,1778.3926],[32.7516,-18.2518,1835.9836],[32.7336,-18.2601,1797.8119],[32.7209,-18.2544,1768.5994],[32.7259,-18.2512,1732.1844],[32.7265,-18.242,1712.0818],[32.7203,-18.2423,1756.0294],[32.7216,-18.2313,1712.5363],[32.7145,-18.2307,1759.3773],[32.6742,-18.2345,1425.6584],[32.6454,-18.2543,1350.5543],[32.6245,-18.2729,1452.9104],[32.6327,-18.3145,1881.2064],[32.64,-18.3862,2046.8669],[32.6428,-18.3861,1991.7275],[32.6908,-18.3617,1859.8232],[32.7268,-18.3379,1962.8685],[32.756,-18.3033,1912.1133],[32.7739,-18.3085,1968.0483],[32.7765,-18.3258,2026.0293],[32.7662,-18.3476,1904.5515],[32.7548,-18.395,2027.9198],[32.7537,-18.4156,1887.7607],[32.7741,-18.4175,1755.5183],[32.7871,-18.4308,1794.4718],[32.7918,-18.4273,1793.009],[32.7927,-18.4282,1812.9952],[32.8018,-18.4377,1543.8784],[32.8026,-18.4657,1730.3455],[32.7603,-18.4848,1920.6941],[32.7506,-18.4953,1819.6178],[32.7666,-18.499,1415.8347],[32.8019,-18.5111,919.4447],[32.8164,-18.4567,1424.1958],[32.8112,-18.4152,1756.7948],[32.9114,-18.3728,1024.0782],[32.9071,-18.3597,1051.5198],[32.8972,-18.3391,1033.3313],[32.8809,-18.3115,1312.2811],[32.904,-18.3032,1529.6382],[32.9246,-18.3355,970.9982],[32.9423,-18.3299,913.9828],[32.9494,-18.3048,1052.8208],[32.9539,-18.297,1081.5228],[32.9722,-18.2768,1033.3079],[32.9759,-18.2636,945.1703],[32.9739,-18.2566,1022.8693],[32.9628,-18.2522,1168.2758],[32.9642,-18.2487,1150.241],[32.9773,-18.2313,1319.4214],[32.9895,-18.2349,1367.231]]]]}}