{"type":"Feature","properties":{"GID_3":"ZWE.5.2.7_2","GID_0":"ZWE","country":"Zimbabwe","GID_1":"ZWE.5_1","province":"MashonalandEast","NL_NAME_1":"NA","GID_2":"ZWE.5.2_2","county":"Goromonzi","NL_NAME_2":"NA","city":"Ward15","VARNAME_3":"NA","NL_NAME_3":"NA","TYPE_3":"Ward","ENGTYPE_3":"Ward","CC_3":"NA","HASC_3":"NA","name":"Ward15.city"},
"geometry":{"type": "MultiPolygon","coordinates": [[[[31.1963,-17.7532,1408.4546],[31.2012,-17.7749,1476.6853],[31.2118,-17.7926,1507.8385],[31.1921,-17.805,1568.7239],[31.2097,-17.8126,1587.6127],[31.2032,-17.82,1588.8477],[31.214,-17.8192,1592.3163],[31.235,-17.8002,1502.6027],[31.2577,-17.8231,1475.8243],[31.2923,-17.8058,1415.4939],[31.3155,-17.7902,1379.3486],[31.2661,-17.7617,1456.616],[31.2677,-17.7464,1346.0645],[31.2491,-17.7434,1495.861],[31.2233,-17.7459,1379.3225],[31.202,-17.7412,1366.3511],[31.1959,-17.7494,1376.8683],[31.1963,-17.7532,1408.4546]]]]}}