{"type":"Feature","properties":{"GID_3":"ZWE.4.5.18_2","GID_0":"ZWE","country":"Zimbabwe","GID_1":"ZWE.4_1","province":"MashonalandCentral","NL_NAME_1":"NA","GID_2":"ZWE.4.5_2","county":"Mazowe","NL_NAME_2":"NA","city":"Ward25","VARNAME_3":"NA","NL_NAME_3":"NA","TYPE_3":"Ward","ENGTYPE_3":"Ward","CC_3":"NA","HASC_3":"NA","name":"Ward25.city"},
"geometry":{"type": "MultiPolygon","coordinates": [[[[30.971,-17.1765,1255.3376],[30.9847,-17.129,1308.874],[30.9646,-17.1367,1297.1725],[30.9639,-17.1278,1318.5712],[30.956,-17.1229,1435.3474],[30.9384,-17.102,1387.8032],[30.9244,-17.0949,1347.4402],[30.9139,-17.1052,1391.9923],[30.908,-17.1069,1424.2678],[30.9082,-17.1106,1396.269],[30.9059,-17.1141,1408.2057],[30.902,-17.1132,1433.6647],[30.9004,-17.1169,1404.3527],[30.9005,-17.1224,1404.1941],[30.9035,-17.131,1460.1167],[30.9026,-17.1349,1430.418],[30.9117,-17.1503,1399.1682],[30.9155,-17.173,1336.2233],[30.8894,-17.1822,1431.0084],[30.8815,-17.1962,1433.8596],[30.835,-17.234,1410.5544],[30.8498,-17.2512,1293.223],[30.8359,-17.2744,1425.1191],[30.861,-17.3224,1248.8177],[30.8667,-17.3227,1247.7383],[30.8682,-17.3254,1235.4221],[30.8727,-17.327,1237.877],[30.8857,-17.3197,1229.4174],[30.894,-17.3222,1219.1393],[30.901,-17.3188,1219.1694],[30.9048,-17.3199,1200.6584],[30.9121,-17.3119,1207.5155],[30.9199,-17.3085,1205.6887],[30.9275,-17.2663,1291.9755],[30.9339,-17.2684,1246.3933],[30.9285,-17.255,1239.6909],[30.928,-17.25,1230.5544],[30.9501,-17.2509,1404.7441],[30.971,-17.1765,1255.3376]]]]}}