{"type": "Feature","bbox": [32.3798,-18.2763,32.5996,-18.0473],"geometry": {"type": "MultiPolygon","coordinates": [[[[32.4184,-18.2763,1750.3807],[32.4273,-18.1954,1492.7783],[32.5062,-18.1821,1400.0637],[32.5276,-18.1697,1365.3314],[32.5643,-18.1671,1281.6167],[32.5754,-18.1581,1335.0349],[32.5909,-18.1385,1182.29],[32.5968,-18.1382,1175.3663],[32.5996,-18.1344,1170.2277],[32.5995,-18.1306,1181.8418],[32.5922,-18.1297,1149.364],[32.5863,-18.1232,1137.3865],[32.5876,-18.1166,1154.1254],[32.5858,-18.1138,1135.811],[32.586,-18.1089,1152.9253],[32.5813,-18.1081,1128.3564],[32.5845,-18.1025,1129.738],[32.5821,-18.0991,1138.5347],[32.5853,-18.0958,1124.359],[32.5821,-18.0876,1126.1995],[32.5825,-18.0821,1107.7039],[32.5765,-18.0759,1112.9645],[32.5763,-18.0715,1112.5012],[32.5705,-18.0689,1099.8562],[32.5676,-18.0611,1089.6816],[32.5677,-18.0549,1089.0333],[32.5622,-18.0473,1084.0977],[32.5575,-18.0494,1090.3015],[32.5577,-18.0575,1092.9409],[32.5536,-18.0581,1109.5006],[32.5551,-18.0616,1105.0352],[32.5517,-18.0665,1103.4557],[32.549,-18.0678,1117.9021],[32.5471,-18.0716,1107.3271],[32.5367,-18.0773,1120.715],[32.535,-18.0815,1116.1304],[32.5309,-18.0818,1136.0402],[32.5303,-18.0842,1124.0137],[32.5251,-18.0864,1126.8882],[32.5217,-18.0913,1125.6025],[32.5123,-18.0947,1145.868],[32.5082,-18.0982,1138.842],[32.4965,-18.1013,1167.4529],[32.4905,-18.1072,1169.7241],[32.486,-18.1086,1175.7605],[32.4842,-18.1159,1175.899],[32.4815,-18.1178,1189.4019],[32.4815,-18.1212,1172.4236],[32.4775,-18.1227,1208.3268],[32.476,-18.1293,1192.4752],[32.4684,-18.1382,1209.0809],[32.4602,-18.1513,1208.0181],[32.4495,-18.1523,1306.9164],[32.4443,-18.1564,1234.3521],[32.4395,-18.1557,1249.6195],[32.4365,-18.1571,1264.3235],[32.4329,-18.1624,1270.4396],[32.4193,-18.1755,1276.248],[32.414,-18.1771,1291.6261],[32.4092,-18.1814,1329.2166],[32.4054,-18.1826,1345.064],[32.4007,-18.188,1302.979],[32.3938,-18.1928,1340.9613],[32.3891,-18.1935,1391.3085],[32.3846,-18.1982,1321.3928],[32.383,-18.2052,1337.8533],[32.3798,-18.2092,1342.7407],[32.3806,-18.2136,1349.1019],[32.3838,-18.2149,1385.1941],[32.3871,-18.2225,1382.5415],[32.4025,-18.2398,1449.6678],[32.4016,-18.2422,1425.3862],[32.4067,-18.253,1525.3645],[32.4106,-18.269,1563.72],[32.4124,-18.2721,1609.0367],[32.4184,-18.2763,1750.3807]]]]}
,"properties": {"GID_3": "ZWE.3.9.8_2","GID_0": "ZWE","country": "Zimbabwe","GID_1": "ZWE.3_1","province": "Manicaland","NL_NAME_1": "NA","GID_2": "ZWE.3.9_2","county": "Nyanga","NL_NAME_2": "NA","city": "Ward16","VARNAME_3": "NA","NL_NAME_3": "NA","TYPE_3": "Ward","ENGTYPE_3": "Ward","CC_3": "NA","HASC_3": "NA","name": "Ward16.city","area_km2": 167.7064,"hist_schema_id": "Elevation0-9000","hist_area_km2": {"1075": 0.2822,"1100": 2.8623,"1125": 7.7799,"1150": 12.8175,"1175": 11.9096,"1200": 14.1053,"1225": 13.8022,"1250": 13.6001,"1275": 12.572,"1300": 15.4929,"1325": 12.1276,"1350": 9.0247,"1375": 8.9036,"1400": 7.0098,"1425": 5.4384,"1450": 4.2096,"1475": 3.3231,"1500": 3.6855,"1525": 3.2223,"1550": 1.7722,"1575": 1.2686,"1600": 1.3088,"1625": 0.6041,"1650": 0.2014,"1675": 0.2618,"1700": 0.1007,"1725": 0.0201}}}