{"type":"Feature","properties":{"GID_3":"ZWE.2.3.33_2","GID_0":"ZWE","country":"Zimbabwe","GID_1":"ZWE.2_1","province":"Harare","NL_NAME_1":"NA","GID_2":"ZWE.2.3_2","county":"Harare","NL_NAME_2":"NA","city":"Ward4","VARNAME_3":"NA","NL_NAME_3":"NA","TYPE_3":"Ward","ENGTYPE_3":"Ward","CC_3":"NA","HASC_3":"NA","name":"Ward4.city"},
"geometry":{"type": "MultiPolygon","coordinates": [[[[31.0497,-17.8411,1459.8341],[31.0473,-17.8359,1467.6465],[31.0437,-17.8428,1465.6449],[31.038,-17.8442,1482.5479],[31.0413,-17.8486,1465.7935],[31.0344,-17.854,1465.4116],[31.0365,-17.8565,1465.2284],[31.0428,-17.8547,1451.4431],[31.0437,-17.851,1454.4536],[31.046,-17.8524,1451.1531],[31.0452,-17.8442,1456.3253],[31.0497,-17.8411,1459.8341]]]]}}