{"type":"Feature","properties":{"GID_3":"ZWE.4.6.9_2","GID_0":"ZWE","country":"Zimbabwe","GID_1":"ZWE.4_1","province":"MashonalandCentral","NL_NAME_1":"NA","GID_2":"ZWE.4.6_2","county":"Mbire","NL_NAME_2":"NA","city":"Ward17","VARNAME_3":"NA","NL_NAME_3":"NA","TYPE_3":"Ward","ENGTYPE_3":"Ward","CC_3":"NA","HASC_3":"NA","name":"Ward17.city"},
"geometry":{"type": "MultiPolygon","coordinates": [[[[30.5609,-16.1709,380.1801],[30.565,-16.1748,380.2908],[30.5649,-16.1808,374.5854],[30.5674,-16.1892,370.9506],[30.5618,-16.1892,379.702],[30.5612,-16.1916,378.2645],[30.5643,-16.1951,372.9561],[30.5637,-16.1981,373.8564],[30.5596,-16.1981,373.9432],[30.5585,-16.202,375.877],[30.5565,-16.2035,377.3404],[30.5529,-16.2015,376.7629],[30.5498,-16.2029,381.5366],[30.5539,-16.2064,380.8406],[30.5518,-16.2084,375.9072],[30.557,-16.2073,384.0904],[30.5713,-16.2179,385.2717],[30.5859,-16.2252,388.7901],[30.5997,-16.2271,394.4428],[30.6147,-16.2251,396.7222],[30.618,-16.2289,397.6974],[30.6253,-16.232,401.4819],[30.6276,-16.2365,402.0034],[30.6379,-16.239,408.503],[30.6457,-16.2487,412.6373],[30.6538,-16.2461,415.4531],[30.6557,-16.2461,416.8996],[30.6558,-16.2474,417.9476],[30.6588,-16.2461,416.6972],[30.6608,-16.248,417.5854],[30.6614,-16.2461,417.8027],[30.6714,-16.2474,423.4357],[30.6763,-16.2519,424.7126],[30.6889,-16.258,428.7965],[30.6993,-16.2599,435.0032],[30.7085,-16.2562,440.6967],[30.7209,-16.2593,453.7112],[30.7158,-16.2544,447.3041],[30.7029,-16.247,441.2036],[30.6993,-16.2417,436.9227],[30.6936,-16.2384,439.0136],[30.6931,-16.2316,433.4755],[30.6855,-16.2252,429.7104],[30.6845,-16.2219,426.1579],[30.673,-16.2088,419.9185],[30.6592,-16.1983,411.081],[30.6509,-16.1966,410.7343],[30.6379,-16.1902,400.8657],[30.62,-16.1778,387.1576],[30.6113,-16.1744,385.2016],[30.6035,-16.1646,383.96],[30.5924,-16.1638,389.8376],[30.5854,-16.1601,384.7729],[30.5827,-16.1613,386.4611],[30.576,-16.1606,380.3829],[30.573,-16.1611,375.4326],[30.5609,-16.1709,380.1801]]]]}}