{"type": "Feature","bbox": [32.4734,-16.6101,32.6141,-16.5255],"geometry": {"type": "MultiPolygon","coordinates": [[[[32.5492,-16.5255,557.2162],[32.5429,-16.5268,561.8195],[32.5402,-16.5312,571.3878],[32.5391,-16.5404,587.633],[32.5349,-16.5477,602.8113],[32.5292,-16.5484,624.2385],[32.5223,-16.5517,645.3115],[32.509,-16.5609,663.1938],[32.4976,-16.5645,700.326],[32.4879,-16.5653,737.1241],[32.4766,-16.5739,715.9709],[32.4734,-16.5791,737.6245],[32.4774,-16.5801,727.4455],[32.4911,-16.5899,703.7779],[32.5003,-16.5924,684.4566],[32.5033,-16.5988,670.9675],[32.5038,-16.5963,673.1945],[32.5038,-16.6022,664.1815],[32.5089,-16.6091,654.0081],[32.5338,-16.6072,653.7079],[32.5395,-16.6101,644.9948],[32.5404,-16.6067,654.2864],[32.5434,-16.6062,646.53],[32.5465,-16.6033,654.0281],[32.5611,-16.6055,694.4036],[32.5607,-16.5989,686.8623],[32.5643,-16.596,713.2034],[32.58,-16.6043,673.3525],[32.5876,-16.6058,658.4709],[32.5958,-16.6019,638.2147],[32.5958,-16.599,632.6566],[32.5983,-16.5975,627.8364],[32.5988,-16.5946,630.0343],[32.6019,-16.5936,619.1117],[32.6044,-16.5887,608.4913],[32.605,-16.5813,606.6172],[32.6014,-16.5769,593.7335],[32.6116,-16.5725,569.0669],[32.6116,-16.5603,541.4139],[32.6131,-16.5598,540.3931],[32.6121,-16.5573,555.2709],[32.6141,-16.5546,551.7489],[32.5492,-16.5255,557.2162]]]]}
,"properties": {"GID_3": "ZWE.4.9.13_2","GID_0": "ZWE","country": "Zimbabwe","GID_1": "ZWE.4_1","province": "MashonalandCentral","NL_NAME_1": "NA","GID_2": "ZWE.4.9_2","county": "Rushinga","NL_NAME_2": "NA","city": "Ward20","VARNAME_3": "NA","NL_NAME_3": "NA","TYPE_3": "Ward","ENGTYPE_3": "Ward","CC_3": "NA","HASC_3": "NA","name": "Ward20.city","area_km2": 82.70829,"hist_schema_id": "Elevation0-9000","hist_area_km2": {"525": 0.02032,"550": 3.06891,"575": 11.25947,"600": 9.77537,"625": 9.18543,"650": 14.20424,"675": 19.30402,"700": 10.83065,"725": 3.88125,"750": 0.93477,"775": 0.22353,"800": 0.02032}}}