{"type": "Feature","bbox": [27.814,-21.2933,28.0134,-21.1016],"geometry": {"type": "MultiPolygon","coordinates": [[[[27.8143,-21.1975,947.4161],[27.8197,-21.1984,948.9745],[27.8254,-21.2016,948.5234],[27.8298,-21.2117,941.9808],[27.8359,-21.2203,940.5045],[27.8433,-21.2289,942.9877],[27.8563,-21.2397,936.2827],[27.8681,-21.267,930.2242],[27.8835,-21.279,923.6947],[27.8828,-21.2845,928.9807],[27.8845,-21.288,919.2136],[27.8922,-21.2933,921.7012],[28.0134,-21.1585,976.0545],[27.9719,-21.16,988.5733],[27.9612,-21.1647,992.548],[27.9626,-21.1575,993.2446],[27.9586,-21.1409,993.4238],[27.9602,-21.1233,1000.826],[27.9521,-21.1016,1012.6794],[27.9459,-21.1016,1013.8976],[27.9413,-21.1124,1010.4653],[27.9367,-21.117,1013.7241],[27.9337,-21.1175,1008.3372],[27.9354,-21.1221,1005.3704],[27.9327,-21.129,1009.0154],[27.9278,-21.1337,1016.561],[27.9243,-21.1398,1014.7257],[27.9042,-21.1486,971.4177],[27.9045,-21.1517,981.9856],[27.9005,-21.1553,966.8676],[27.9008,-21.1568,963.8456],[27.894,-21.1608,961.0741],[27.8843,-21.1752,954.1373],[27.8761,-21.1775,954.6358],[27.8753,-21.1804,957.1272],[27.8663,-21.1812,970.5767],[27.8628,-21.1883,962.4208],[27.8584,-21.1891,957.3893],[27.8377,-21.1813,954.7893],[27.8273,-21.1801,966.2799],[27.8235,-21.1776,968.8718],[27.8143,-21.1849,953.1639],[27.8168,-21.1896,950.2443],[27.814,-21.1942,951.3714],[27.8143,-21.1975,947.4161]]]]}
,"properties": {"GID_3": "ZWE.9.7.7_2","GID_0": "ZWE","country": "Zimbabwe","GID_1": "ZWE.9_1","province": "MatabelelandSouth","NL_NAME_1": "NA","GID_2": "ZWE.9.7_2","county": "Mangwe","NL_NAME_2": "NA","city": "Ward15","VARNAME_3": "NA","NL_NAME_3": "NA","TYPE_3": "Ward","ENGTYPE_3": "Ward","CC_3": "NA","HASC_3": "NA","name": "Ward15.city","area_km2": 169.346,"hist_schema_id": "Elevation0-9000","hist_area_km2": {"925": 13.2978,"950": 69.9067,"975": 55.7091,"1000": 28.5338,"1025": 1.8986}}}