{"type":"Feature","properties":{"GID_3":"ZWE.5.1.18_2","GID_0":"ZWE","country":"Zimbabwe","GID_1":"ZWE.5_1","province":"MashonalandEast","NL_NAME_1":"NA","GID_2":"ZWE.5.1_2","county":"Chikomba","NL_NAME_2":"NA","city":"Ward25","VARNAME_3":"NA","NL_NAME_3":"NA","TYPE_3":"Ward","ENGTYPE_3":"Ward","CC_3":"NA","HASC_3":"NA","name":"Ward25.city"},
"geometry":{"type": "MultiPolygon","coordinates": [[[[31.4058,-18.9747,1206.077],[31.4147,-18.9815,1401.9003],[31.4318,-18.9878,1374.3107],[31.4437,-18.9901,1387.7994],[31.4478,-18.9946,1364.6699],[31.4541,-18.9939,1336.2471],[31.4573,-18.9856,1304.6193],[31.4601,-18.9846,1298.8289],[31.4884,-18.9873,1242.365],[31.5129,-18.984,1215.2061],[31.5205,-18.9865,1189.2378],[31.523,-18.9843,1216.5909],[31.5291,-18.985,1161.3396],[31.5332,-18.9781,1183.6714],[31.538,-18.9783,1149.4526],[31.5378,-18.9732,1181.1888],[31.5402,-18.9682,1208.2312],[31.5398,-18.9574,1251.0532],[31.5324,-18.9475,1253.6356],[31.5427,-18.933,1199.726],[31.5423,-18.9288,1236.8914],[31.5445,-18.923,1220.0916],[31.5432,-18.9078,1247.3274],[31.5449,-18.9029,1230.0516],[31.5437,-18.9001,1233.413],[31.5407,-18.8963,1284.1064],[31.5359,-18.8938,1271.7374],[31.526,-18.8936,1272.6025],[31.5231,-18.8895,1261.3229],[31.5236,-18.8852,1252.9058],[31.5008,-18.8845,1385.1906],[31.4823,-18.8797,1365.5483],[31.4646,-18.8784,1378.2272],[31.4541,-18.8796,1386.0316],[31.4476,-18.8732,1342.2837],[31.4369,-18.8746,1379.6957],[31.425,-18.8722,1396.2386],[31.4168,-18.8742,1403.7667],[31.4087,-18.8719,1454.1539],[31.3972,-18.8718,1474.762],[31.3956,-18.8779,1450.0225],[31.3967,-18.888,1408.9548],[31.4011,-18.8931,1398.0631],[31.4019,-18.8995,1410.7798],[31.3973,-18.906,1415.2529],[31.3912,-18.9074,1400.2573],[31.3847,-18.9195,1359.438],[31.3821,-18.9298,1302.8931],[31.3794,-18.9323,1282.416],[31.3803,-18.9401,1282.7384],[31.3836,-18.9436,1302.5173],[31.3848,-18.9497,1299.9128],[31.3937,-18.9649,1225.1782],[31.3975,-18.9681,1224.5024],[31.4018,-18.9679,1272.0322],[31.4058,-18.9747,1206.077]]]]}}