{"type": "Feature","bbox": [32.3322,-18.6009,32.4877,-18.4703],"geometry": {"type": "MultiPolygon","coordinates": [[[[32.3374,-18.5769,1365.6196],[32.3486,-18.567,1424.6937],[32.3673,-18.5685,1398.1886],[32.3766,-18.5793,1286.2109],[32.3821,-18.5748,1330.9023],[32.3878,-18.5746,1346.9015],[32.4016,-18.5839,1231.3757],[32.4061,-18.582,1203.7816],[32.4102,-18.5769,1213.5713],[32.421,-18.5745,1173.21],[32.4238,-18.5762,1205.823],[32.4283,-18.5847,1165.166],[32.4259,-18.5867,1178.3956],[32.4267,-18.5888,1163.0468],[32.4304,-18.591,1171.1674],[32.4302,-18.5931,1150.6619],[32.4371,-18.597,1140.2574],[32.4395,-18.6009,1143.1063],[32.4501,-18.5908,1191.7646],[32.4524,-18.5923,1170.8071],[32.4545,-18.5915,1182.5253],[32.4581,-18.5861,1207.653],[32.4574,-18.5828,1207.5781],[32.4588,-18.5807,1212.7529],[32.4567,-18.5782,1207.1985],[32.4651,-18.5686,1258.6703],[32.4699,-18.5662,1325.5214],[32.4713,-18.5629,1328.6536],[32.4747,-18.5613,1306.4697],[32.4746,-18.555,1336.3213],[32.4807,-18.5415,1351.4114],[32.4863,-18.5374,1355.99],[32.4841,-18.5291,1385.5908],[32.4877,-18.5229,1389.8171],[32.4224,-18.4816,1683.2688],[32.4256,-18.4703,1456.4299],[32.4201,-18.4705,1496.1909],[32.4037,-18.481,1420.9777],[32.3992,-18.4809,1439.0884],[32.393,-18.4733,1567.2094],[32.3845,-18.4721,1431.3268],[32.3769,-18.4736,1365.5002],[32.3701,-18.4812,1343.532],[32.3596,-18.4843,1604.2598],[32.349,-18.4915,1489.9526],[32.3476,-18.4963,1368.9883],[32.34,-18.4999,1399.4402],[32.3361,-18.5074,1628.816],[32.3322,-18.5539,1579.8331],[32.3344,-18.556,1494.2262],[32.3328,-18.5634,1414.9492],[32.3374,-18.5769,1365.6196]]]]}
,"properties": {"GID_3": "ZWE.3.5.14_2","GID_0": "ZWE","country": "Zimbabwe","GID_1": "ZWE.3_1","province": "Manicaland","NL_NAME_1": "NA","GID_2": "ZWE.3.5_2","county": "Makoni","NL_NAME_2": "NA","city": "Ward21","VARNAME_3": "NA","NL_NAME_3": "NA","TYPE_3": "Ward","ENGTYPE_3": "Ward","CC_3": "NA","HASC_3": "NA","name": "Ward21.city","area_km2": 151.9564,"hist_schema_id": "Elevation0-9000","hist_area_km2": {"1150": 0.3416,"1175": 1.7484,"1200": 5.1654,"1225": 6.4119,"1250": 7.8998,"1275": 7.7998,"1300": 9.2876,"1325": 11.3989,"1350": 12.8664,"1375": 12.1825,"1400": 13.911,"1425": 12.5239,"1450": 11.4788,"1475": 9.2676,"1500": 7.8606,"1525": 4.8851,"1550": 4.4228,"1575": 3.3171,"1600": 2.7542,"1625": 2.3118,"1650": 1.7892,"1675": 1.5278,"1700": 0.5428,"1725": 0.1407,"1750": 0.0402,"1775": 0.0804}}}