{"type":"Feature","properties":{"GID_3":"ZWE.7.4.26_2","GID_0":"ZWE","country":"Zimbabwe","GID_1":"ZWE.7_1","province":"Masvingo","NL_NAME_1":"NA","GID_2":"ZWE.7.4_2","county":"Chivi","NL_NAME_2":"NA","city":"Ward32","VARNAME_3":"NA","NL_NAME_3":"NA","TYPE_3":"Ward","ENGTYPE_3":"Ward","CC_3":"NA","HASC_3":"NA","name":"Ward32.city"},
"geometry":{"type": "MultiPolygon","coordinates": [[[[30.5675,-20.6508,702.8986],[30.5742,-20.6562,701.6897],[30.5745,-20.6656,717.0362],[30.5775,-20.6727,749.8493],[30.5729,-20.6792,692.7353],[30.5778,-20.6831,691.4543],[30.583,-20.6993,681.4142],[30.5829,-20.7052,681.9679],[30.5877,-20.7133,682.9966],[30.590699999999998,-20.724,672.3203],[30.6069,-20.7268,677.5063],[30.6073,-20.7344,675.2308],[30.6136,-20.7349,748.2845],[30.6148,-20.7418,655.2703],[30.6225,-20.7423,657.7186],[30.6275,-20.7531,639.0189],[30.6347,-20.7474,640.9415],[30.6338,-20.7401,652.0034],[30.6395,-20.7313,657.2656],[30.6395,-20.7278,661.433],[30.6412,-20.7286,652.7321],[30.6436,-20.7257,658.3528],[30.6417,-20.7154,664.8756],[30.6481,-20.7162,671.5442],[30.6514,-20.7141,677.4548],[30.6543,-20.709,693.3041],[30.6538,-20.7072,691.7655],[30.6702,-20.7037,685.6848],[30.6842,-20.7032,974.7228],[30.6939,-20.7054,765.3702],[30.7018,-20.7032,663.0089],[30.7044,-20.7061,660.9077],[30.7096,-20.7045,665.115],[30.7071,-20.6971,667.0646],[30.6947,-20.6813,675.7224],[30.6898,-20.6782,683.0792],[30.6837,-20.6684,687.4813],[30.6855,-20.6633,693.8191],[30.6802,-20.6598,697.6461],[30.6764,-20.6424,704.2798],[30.6536,-20.6272,736.0316],[30.6601,-20.613,743.198],[30.6502,-20.6163,746.7712],[30.6268,-20.6083,759.9882],[30.5849,-20.6086,716.0078],[30.5775,-20.6199,714.3738],[30.5734,-20.622,710.132],[30.5696,-20.6343,714.058],[30.5704,-20.6419,707.2323],[30.5784,-20.6493,700.9316],[30.5743,-20.6509,701.0203],[30.5675,-20.6508,702.8986]]]]}}