{"type": "Feature","bbox": [25.8095,-17.9737,25.8546,-17.8849],"geometry": {"type": "MultiPolygon","coordinates": [[[[25.8223,-17.964,906.3355],[25.8302,-17.9596,907.0279],[25.8368,-17.9482,912.6719],[25.8497,-17.9389,848.0521],[25.8475,-17.9344,846.5402],[25.8546,-17.9256,850.7868],[25.8546,-17.9224,882.0],[25.8513,-17.9179,886.3671],[25.8529,-17.9096,882.5],[25.8498,-17.9016,883.0],[25.8458,-17.8986,883.125],[25.8438,-17.8934,887.0409],[25.8398,-17.8897,887.7095],[25.831,-17.8853,884.0],[25.8212,-17.8849,886.3411],[25.8203,-17.8977,888.1271],[25.8173,-17.9092,906.5426],[25.8095,-17.9252,961.7039],[25.81,-17.9737,914.434],[25.8134,-17.9688,906.0785],[25.8223,-17.964,906.3355]]]]}
,"properties": {"GID_2": "ZWE.8.9_2","GID_0": "ZWE","country": "Zimbabwe","GID_1": "ZWE.8_1","province": "MatabelelandNorth","NL_NAME_1": "NA","county": "VictoriaFalls","VARNAME_2": "NA","NL_NAME_2": "NA","TYPE_2": "District","ENGTYPE_2": "District","CC_2": "NA","HASC_2": "NA","name": "Victoria_Falls.county","area_km2": 29.59373,"hist_schema_id": "Elevation0-9000","hist_area_km2": {"775": 0.16138,"800": 0.06052,"825": 0.16138,"850": 0.18155,"875": 4.86223,"900": 8.55376,"925": 5.16403,"950": 3.40902,"975": 6.19265,"1000": 0.84722}}}