{"type":"Feature","properties":{"GID_3":"ZWE.3.3.8_2","GID_0":"ZWE","country":"Zimbabwe","GID_1":"ZWE.3_1","province":"Manicaland","NL_NAME_1":"NA","GID_2":"ZWE.3.3_2","county":"Chipinge","NL_NAME_2":"NA","city":"Ward16","VARNAME_3":"NA","NL_NAME_3":"NA","TYPE_3":"Ward","ENGTYPE_3":"Ward","CC_3":"NA","HASC_3":"NA","name":"Ward16.city"},
"geometry":{"type": "MultiPolygon","coordinates": [[[[32.4981,-20.3476,1120.9041],[32.4937,-20.3479,1072.0844],[32.4867,-20.357,885.485],[32.4795,-20.3624,863.6794],[32.4727,-20.3634,824.0499],[32.4702,-20.3669,805.8496],[32.4516,-20.3741,750.5839],[32.4377,-20.3765,677.3973],[32.4339,-20.3808,665.507],[32.427,-20.3848,652.9485],[32.4231,-20.3848,643.5429],[32.4207,-20.3872,668.4769],[32.4124,-20.3891,577.9662],[32.4102,-20.3917,552.0708],[32.4001,-20.3945,503.1316],[32.3956,-20.3942,483.7757],[32.3883,-20.389,469.8831],[32.3839,-20.3913,465.4861],[32.3821,-20.3903,463.9128],[32.3771,-20.3913,458.6357],[32.3691,-20.3895,451.4533],[32.3648,-20.3851,449.4975],[32.3534,-20.3834,439.8832],[32.349,-20.3849,438.8235],[32.3478,-20.3907,438.9389],[32.2912,-20.3863,433.5292],[32.2886,-20.4009,429.0],[32.2889,-20.4108,429.1878],[32.317,-20.411,435.0259],[32.334,-20.4158,434.0949],[32.3399,-20.4201,433.4183],[32.3422,-20.4255,430.6526],[32.3402,-20.4381,428.7056],[32.3418,-20.444,428.038],[32.3353,-20.461,426.0551],[32.3469,-20.4597,430.6863],[32.3625,-20.4671,435.1798],[32.3675,-20.4719,439.415],[32.385,-20.4759,453.2061],[32.3905,-20.481,463.768],[32.4016,-20.483,605.2812],[32.4065,-20.4824,687.2231],[32.4092,-20.4854,591.4414],[32.46,-20.4431,1081.0369],[32.4733,-20.395,1194.8896],[32.5004,-20.3471,1133.7688],[32.4981,-20.3476,1120.9041]]]]}}