{"type":"Feature","properties":{"GID_3":"ZWE.10.7.33_2","GID_0":"ZWE","country":"Zimbabwe","GID_1":"ZWE.10_1","province":"Midlands","NL_NAME_1":"NA","GID_2":"ZWE.10.7_2","county":"Kwekwe","NL_NAME_2":"NA","city":"Ward9","VARNAME_3":"NA","NL_NAME_3":"NA","TYPE_3":"Ward","ENGTYPE_3":"Ward","CC_3":"NA","HASC_3":"NA","name":"Ward9.city"},
"geometry":{"type": "MultiPolygon","coordinates": [[[[29.3875,-18.5041,1030.2466],[29.384,-18.5079,1032.8193],[29.3846,-18.5115,1034.666],[29.3811,-18.5143,1034.1575],[29.3787,-18.526,1035.8538],[29.3856,-18.5306,1038.7233],[29.3901,-18.539,1045.5054],[29.3904,-18.5493,1050.8112],[29.3923,-18.553,1056.136],[29.3914,-18.5578,1064.8746],[29.3944,-18.5628,1068.8391],[29.3929,-18.5686,1073.1565],[29.3951,-18.5724,1073.4167],[29.3927,-18.5775,1079.6702],[29.3962,-18.5893,1091.0532],[29.3912,-18.5996,1095.7013],[29.391,-18.607,1094.3558],[29.386,-18.6142,1101.2158],[29.3827,-18.6288,1104.1481],[29.3783,-18.6348,1103.6934],[29.3684,-18.6366,1092.9062],[29.3602,-18.6573,1111.4202],[29.3517,-18.6611,1127.6932],[29.3485,-18.6721,1145.064],[29.3549,-18.6781,1141.2722],[29.3836,-18.6614,1149.9779],[29.3856,-18.6572,1144.0277],[29.3935,-18.6539,1139.1179],[29.4014,-18.6534,1136.3379],[29.4088,-18.6561,1112.8879],[29.4217,-18.6572,1111.3523],[29.4319,-18.6443,1110.9556],[29.444,-18.6429,1100.3074],[29.4583,-18.6295,1084.2373],[29.473,-18.6252,1074.9419],[29.4746,-18.6216,1072.8176],[29.4843,-18.6145,1071.8721],[29.4898,-18.6167,1054.0503],[29.4947,-18.6089,1049.0885],[29.4949,-18.5989,1043.5676],[29.5002,-18.5904,1042.1316],[29.5059,-18.5868,1039.5298],[29.51,-18.5762,1037.6829],[29.5145,-18.5746,1038.1664],[29.5191,-18.5771,1034.3922],[29.5224,-18.5768,1020.1122],[29.5217,-18.5682,1015.5245],[29.5276,-18.564,1012.6111],[29.5302,-18.5639,1009.9589],[29.5289,-18.5607,1020.9105],[29.5243,-18.5588,1029.342],[29.5241,-18.5516,1037.2642],[29.5177,-18.5468,1047.3845],[29.5136,-18.5373,1061.9321],[29.5141,-18.5346,1069.2122],[29.5092,-18.5335,1069.9595],[29.5012,-18.5376,1069.9105],[29.4981,-18.5306,1073.5728],[29.4986,-18.5258,1078.709],[29.4964,-18.5234,1082.3538],[29.4897,-18.5279,1080.2083],[29.4692,-18.5331,1093.8323],[29.4635,-18.5376,1090.832],[29.4593,-18.5387,1091.963],[29.4553,-18.5467,1093.0251],[29.4455,-18.5489,1092.4731],[29.442,-18.5517,1092.0679],[29.4358,-18.5522,1084.8914],[29.4291,-18.5566,1092.2333],[29.4286,-18.5436,1082.3942],[29.4317,-18.5163,1060.796],[29.4238,-18.5066,1042.7886],[29.4207,-18.4907,1029.1611],[29.4087,-18.4715,1018.9929],[29.4078,-18.4755,1016.9296],[29.4042,-18.4763,1019.8243],[29.4015,-18.4792,1021.2661],[29.398,-18.4862,1019.6003],[29.3965,-18.4938,1022.5632],[29.3918,-18.496,1029.4763],[29.3875,-18.5041,1030.2466]]]]}}