{"type": "Feature","bbox": [27.3544,-17.8542,27.6233,-17.572],"geometry": {"type": "MultiPolygon","coordinates": [[[[27.3788,-17.843,577.1389],[27.3841,-17.8446,566.2126],[27.3934,-17.8416,601.2285],[27.402,-17.8474,585.7772],[27.4021,-17.8505,616.8871],[27.4054,-17.8535,593.5083],[27.4088,-17.8542,594.3634],[27.4104,-17.8529,588.9691],[27.4116,-17.8446,606.6964],[27.4171,-17.8421,621.4213],[27.4211,-17.8481,591.7727],[27.4225,-17.847,596.2891],[27.4215,-17.842,617.5775],[27.4228,-17.840699999999998,623.5818],[27.4264,-17.8402,628.1803],[27.4345,-17.8428,609.603],[27.4371,-17.8397,627.4593],[27.4372,-17.834,648.9286],[27.44,-17.8323,688.1198],[27.4482,-17.8361,780.5843],[27.4503,-17.8386,755.0968],[27.4584,-17.8375,773.0195],[27.4598,-17.8446,694.6964],[27.4616,-17.8463,696.616],[27.4709,-17.8415,845.2585],[27.4754,-17.844,799.5576],[27.4797,-17.8392,854.0212],[27.4849,-17.8381,794.9371],[27.4931,-17.8332,804.8242],[27.4962,-17.8389,819.033],[27.5064,-17.8372,812.6257],[27.5086,-17.8356,809.8539],[27.5114,-17.8368,796.8851],[27.515,-17.8356,800.4326],[27.5181,-17.8374,806.2614],[27.5233,-17.8375,807.2202],[27.527,-17.8409,809.9891],[27.5406,-17.8353,849.2436],[27.545,-17.8355,846.7465],[27.5546,-17.832,866.8373],[27.5597,-17.8323,860.8448],[27.5633,-17.8295,861.6298],[27.5715,-17.8304,873.9918],[27.5891,-17.8209,884.8595],[27.6066,-17.8087,841.1198],[27.6233,-17.8063,823.879],[27.6177,-17.797,837.799],[27.6109,-17.7785,881.5767],[27.6015,-17.7593,1114.1575],[27.6153,-17.7505,1123.2423],[27.5864,-17.7179,653.4894],[27.5853,-17.7171,653.4894],[27.5237,-17.7363,682.7889],[27.5227,-17.7245,650.8777],[27.526,-17.7172,640.0155],[27.5202,-17.698,610.2584],[27.5153,-17.6977,606.9315],[27.5113,-17.6955,603.2252],[27.5107,-17.6928,599.4756],[27.5057,-17.6903,593.2759],[27.5,-17.6846,585.8311],[27.5001,-17.6814,589.6399],[27.487,-17.6798,577.6251],[27.4848,-17.6767,571.1592],[27.4856,-17.6718,567.5208],[27.4838,-17.6684,564.9782],[27.4772,-17.6642,568.5542],[27.474,-17.6595,582.974],[27.4678,-17.657,566.1478],[27.4672,-17.6526,561.1005],[27.4607,-17.6476,554.5774],[27.4609,-17.6441,554.5482],[27.4675,-17.6423,549.412],[27.4783,-17.6292,547.1751],[27.4762,-17.6265,545.053],[27.4701,-17.6255,546.7352],[27.4737,-17.6225,546.8918],[27.4724,-17.6191,564.3774],[27.4732,-17.6141,568.7998],[27.4702,-17.6073,535.6882],[27.475,-17.6037,538.5095],[27.475,-17.5979,502.0315],[27.4799,-17.5908,486.2582],[27.4732,-17.5847,490.1736],[27.4713,-17.5799,483.5],[27.472,-17.5768,490.0321],[27.4661,-17.572,504.8788],[27.3544,-17.6636,540.9781],[27.4326,-17.6932,622.5221],[27.429,-17.7033,628.5092],[27.4187,-17.7117,634.9342],[27.4131,-17.7222,615.6485],[27.4131,-17.7292,602.256],[27.4169,-17.7381,599.5893],[27.4135,-17.7535,611.6703],[27.4163,-17.7735,657.1482],[27.4167,-17.7947,720.655],[27.4196,-17.8028,749.2542],[27.4168,-17.808,746.3934],[27.4068,-17.8055,752.1443],[27.3971,-17.8063,778.3882],[27.3873,-17.8123,738.971],[27.3788,-17.843,577.1389]]]]}
,"properties": {"GID_3": "ZWE.8.1.22_2","GID_0": "ZWE","country": "Zimbabwe","GID_1": "ZWE.8_1","province": "MatabelelandNorth","NL_NAME_1": "NA","GID_2": "ZWE.8.1_2","county": "Binga","NL_NAME_2": "NA","city": "Ward6","VARNAME_3": "NA","NL_NAME_3": "NA","TYPE_3": "Ward","ENGTYPE_3": "Ward","CC_3": "NA","HASC_3": "NA","name": "Ward6.city","area_km2": 400.8467,"hist_schema_id": "Elevation0-9000","hist_area_km2": {"475": 1.7786,"500": 2.971,"525": 5.1326,"550": 19.4374,"575": 45.1135,"600": 53.1235,"625": 38.9383,"650": 17.8899,"675": 14.4768,"700": 16.6165,"725": 16.5146,"750": 14.5966,"775": 10.7002,"800": 9.1656,"825": 9.7706,"850": 14.6959,"875": 19.9442,"900": 12.8794,"925": 8.9231,"950": 8.1964,"975": 7.2881,"1000": 6.218,"1025": 6.6218,"1050": 8.4792,"1075": 15.7881,"1100": 14.3349,"1125": 1.2519}}}