{"type":"Feature","properties":{"GID_3":"ZWE.10.3.3_2","GID_0":"ZWE","country":"Zimbabwe","GID_1":"ZWE.10_1","province":"Midlands","NL_NAME_1":"NA","GID_2":"ZWE.10.3_2","county":"GokweSouth","NL_NAME_2":"NA","city":"Ward11","VARNAME_3":"NA","NL_NAME_3":"NA","TYPE_3":"Ward","ENGTYPE_3":"Ward","CC_3":"NA","HASC_3":"NA","name":"Ward11.city"},
"geometry":{"type": "MultiPolygon","coordinates": [[[[28.7486,-17.8795,867.151],[28.7336,-17.883,816.994],[28.7288,-17.8874,806.6885],[28.7188,-17.8925,792.5248],[28.705,-17.8946,779.6737],[28.7048,-17.9027,781.3141],[28.7,-17.9121,788.0225],[28.6897,-17.912,794.2437],[28.689,-17.9134,792.6308],[28.6907,-17.9154,793.6819],[28.6896,-17.9191,797.73],[28.6875,-17.9215,800.5259],[28.6853,-17.9215,801.1924],[28.685,-17.924,802.0187],[28.6785,-17.9243,805.0732],[28.6757,-17.9258,804.9464],[28.6688,-17.9407,812.9359],[28.6626,-17.9406,817.1523],[28.6571,-17.946,821.2198],[28.6593,-17.9536,822.4915],[28.651,-17.953,828.0527],[28.6477,-17.9559,829.5711],[28.6472,-17.9595,828.1909],[28.6426,-17.9596,833.9649],[28.6401,-17.9634,834.1033],[28.6361,-17.9651,840.1331],[28.6369,-17.9672,838.159],[28.628,-17.9719,846.962],[28.6255,-17.9841,850.0275],[28.6272,-17.9877,852.6296],[28.624,-17.989,856.1661],[28.6229,-17.9933,853.7401],[28.6187,-17.9965,855.464],[28.6191,-18.0002,859.6149],[28.6147,-18.0018,861.7923],[28.6174,-18.0082,868.5425],[28.6159,-18.0092,868.9671],[28.6166,-18.0125,868.5402],[28.6132,-18.0202,873.5099],[28.6105,-18.0211,883.6126],[28.6038,-18.0197,902.5131],[28.6031,-18.0244,883.3039],[28.6009,-18.0274,896.4056],[28.5939,-18.0301,919.1169],[28.5884,-18.029,939.0934],[28.5859,-18.0304,940.5349],[28.5721,-18.0266,970.0268],[28.571,-18.0288,963.2606],[28.5734,-18.0378,974.2276],[28.5704,-18.0435,984.1268],[28.5642,-18.0429,1123.4929],[28.5584,-18.0393,1106.588],[28.5506,-18.0393,1041.7687],[28.5427,-18.0475,1023.4496],[28.5415,-18.053,1045.8606],[28.5383,-18.0549,1061.0723],[28.5346,-18.0613,1155.7657],[28.5388,-18.0638,1129.6838],[28.541,-18.0601,1079.5126],[28.5426,-18.0656,1131.726],[28.5459,-18.0608,1107.2285],[28.5471,-18.0617,1183.821],[28.5452,-18.0681,1188.783],[28.5481,-18.0689,1136.5591],[28.5483,-18.0714,1174.1946],[28.5463,-18.0726,1192.7007],[28.5447,-18.0768,1196.2513],[28.542,-18.0769,1210.7767],[28.5428,-18.0802,1154.5542],[28.5386,-18.0819,1213.8364],[28.5413,-18.0862,1152.6749],[28.539,-18.0909,1208.9226],[28.541,-18.0933,1192.9739],[28.5452,-18.0944,1189.1376],[28.5473,-18.0905,1115.2084],[28.5507,-18.0922,1151.009],[28.5541,-18.0908,1209.5819],[28.5509,-18.0849,1130.3787],[28.5576,-18.0848,1157.2738],[28.5559,-18.0804,1092.6777],[28.5582,-18.0765,1079.1802],[28.5644,-18.0744,1042.5862],[28.5655,-18.0774,1120.4161],[28.5679,-18.0774,1071.3589],[28.5694,-18.0811,1097.2638],[28.568,-18.0836,1213.6663],[28.5692,-18.0862,1171.012],[28.567,-18.0889,1211.9001],[28.5688,-18.0928,1072.3733],[28.5675,-18.1025,1189.8663],[28.5762,-18.0985,1065.5945],[28.58,-18.0995,1132.5112],[28.5823,-18.103,1129.6216],[28.5911,-18.0978,1109.3922],[28.5924,-18.0952,1197.7319],[28.588,-18.0834,1043.7601],[28.5926,-18.0843,1101.8757],[28.5957,-18.0909,1061.4912],[28.5994,-18.0936,1157.6494],[28.5996,-18.0995,1160.1073],[28.5964,-18.1001,1196.1689],[28.5928,-18.1056,1195.7253],[28.5878,-18.1056,1202.0577],[28.5914,-18.1098,1129.6658],[28.591,-18.1148,1176.4702],[28.5851,-18.122,1182.5378],[28.5835,-18.1253,1186.9336],[28.5841,-18.1285,1161.5339],[28.5883,-18.1253,1130.3027],[28.590699999999998,-18.1281,1168.5591],[28.5926,-18.1252,1176.2698],[28.5965,-18.1279,1167.1907],[28.601,-18.1222,1191.8274],[28.5997,-18.116,1166.4343],[28.6006,-18.1125,1097.5348],[28.6048,-18.109,1187.1198],[28.6084,-18.109,1185.75],[28.6129,-18.1131,1116.9854],[28.6219,-18.1103,1100.4952],[28.6232,-18.1125,1082.1001],[28.6218,-18.1197,1174.8505],[28.6167,-18.1209,1177.6272],[28.619,-18.1235,1104.3073],[28.6182,-18.1252,1149.0935],[28.6093,-18.1295,1185.2858],[28.6062,-18.1271,1188.0237],[28.6055,-18.128,1185.0983],[28.6069,-18.1321,1155.8783],[28.6087,-18.1317,1135.2869],[28.6106,-18.1334,1141.0601],[28.6093,-18.1407,1144.4479],[28.6122,-18.1432,1123.348],[28.6145,-18.1425,1116.3203],[28.6191,-18.1304,1081.2893],[28.6225,-18.1246,1039.3418],[28.6281,-18.121,1053.2148],[28.6345,-18.1057,1014.0188],[28.6404,-18.1015,995.1692],[28.6492,-18.1017,968.3029],[28.6575,-18.0968,953.6711],[28.6621,-18.0889,944.5287],[28.6701,-18.0876,932.3384],[28.6716,-18.0835,928.2126],[28.6756,-18.0797,926.4767],[28.6754,-18.0766,923.3116],[28.6806,-18.0682,916.121],[28.6787,-18.068,912.7869],[28.6785,-18.0647,908.6788],[28.6845,-18.0615,896.387],[28.6958,-18.0486,882.1406],[28.6957,-18.0453,880.4743],[28.6923,-18.0421,878.798],[28.701,-18.0376,870.3713],[28.7025,-18.0331,870.0053],[28.7081,-18.028,865.4433],[28.7085,-18.0243,864.0566],[28.7054,-18.0229,861.0727],[28.7061,-18.0162,861.7625],[28.7112,-18.0146,852.8766],[28.7203,-18.0075,851.1865],[28.7263,-17.9997,841.6882],[28.7212,-17.9911,841.8934],[28.7243,-17.9915,835.6125],[28.7257,-17.9894,835.1001],[28.7281,-17.9907,833.183],[28.7297,-17.9832,830.3541],[28.7363,-17.981,823.5815],[28.7399,-17.9768,825.5813],[28.7446,-17.9758,824.8207],[28.7428,-17.9714,818.4955],[28.7472,-17.9688,814.5108],[28.7467,-17.9592,808.8803],[28.75,-17.9573,809.3017],[28.7549,-17.96,812.0099],[28.7585,-17.9655,812.0699],[28.7571,-17.969,811.2961],[28.7584,-17.9716,813.6491],[28.7662,-17.9708,815.1834],[28.7795,-17.9605,826.9475],[28.788,-17.9563,835.3721],[28.7938,-17.9483,849.3948],[28.7988,-17.9456,861.0387],[28.8009,-17.9425,879.0702],[28.8059,-17.9408,876.1399],[28.8095,-17.9365,896.3942],[28.8092,-17.9335,892.1694],[28.8039,-17.9346,921.8514],[28.7961,-17.9308,909.0485],[28.7948,-17.9265,900.6069],[28.7902,-17.9211,903.3425],[28.7905,-17.9166,904.4418],[28.7884,-17.9149,904.4922],[28.7869,-17.91,904.1356],[28.7802,-17.9084,897.546],[28.7665,-17.9016,878.8382],[28.7567,-17.892,877.8802],[28.7525,-17.8817,876.8732],[28.7486,-17.8795,867.151]]]]}}