{"type":"Feature","properties":{"GID_2":"ZWE.6.13_2","GID_0":"ZWE","country":"Zimbabwe","GID_1":"ZWE.6_1","province":"MashonalandWest","NL_NAME_1":"NA","county":"Zvimba","VARNAME_2":"NA","NL_NAME_2":"NA","TYPE_2":"District","ENGTYPE_2":"District","CC_2":"NA","HASC_2":"NA","name":"Zvimba.county"},
"geometry":{"type": "MultiPolygon","coordinates": [[[[30.0996,-17.8593,1103.4509],[30.103,-17.8567,1113.0259],[30.1073,-17.8638,1102.4867],[30.1137,-17.8622,1103.1785],[30.1132,-17.8601,1104.9705],[30.1157,-17.8605,1107.4263],[30.119,-17.8622,1108.2637],[30.1214,-17.8674,1104.5887],[30.1257,-17.868,1109.2831],[30.1292,-17.873,1109.3857],[30.1329,-17.8718,1109.088],[30.1346,-17.8667,1121.3931],[30.1384,-17.8682,1115.5693],[30.1388,-17.8663,1116.1808],[30.1421,-17.8648,1120.6476],[30.148,-17.8584,1125.2017],[30.1487,-17.8553,1130.0519],[30.1558,-17.8569,1131.9712],[30.1576,-17.854,1137.5349],[30.1623,-17.8523,1144.8119],[30.1665,-17.8535,1134.4673],[30.1698,-17.8569,1140.7839],[30.1848,-17.8541,1156.3646],[30.2023,-17.8548,1177.2255],[30.2022,-17.8569,1169.9756],[30.2094,-17.8573,1191.1748],[30.2144,-17.861,1185.1984],[30.224,-17.8616,1203.3522],[30.228,-17.8653,1202.8372],[30.2359,-17.8625,1205.7765],[30.2422,-17.8628,1214.7091],[30.2537,-17.8698,1208.4567],[30.2595,-17.866,1224.3157],[30.2652,-17.8681,1218.1565],[30.2691,-17.8638,1229.8035],[30.2757,-17.8663,1224.3979],[30.2805,-17.8702,1225.318],[30.2875,-17.869,1233.4871],[30.2967,-17.873,1229.8601],[30.2985,-17.8709,1238.2488],[30.3035,-17.8728,1240.2402],[30.3118,-17.866,1249.4244],[30.3182,-17.8643,1250.3599],[30.3325,-17.8655,1261.0625],[30.3438,-17.8692,1261.6384],[30.3517,-17.8618,1267.3892],[30.3621,-17.8584,1272.1743],[30.3913,-17.8404,1303.8385],[30.409,-17.8224,1322.8893],[30.4199,-17.8473,1334.6711],[30.4278,-17.8322,1324.2106],[30.4428,-17.8279,1307.8295],[30.4495,-17.8302,1312.2644],[30.4569,-17.829,1312.8101],[30.464,-17.8351,1315.1116],[30.4747,-17.8327,1314.0356],[30.4847,-17.8337,1316.1703],[30.4883,-17.8354,1315.4176],[30.4853,-17.8414,1321.1967],[30.513,-17.8444,1342.3792],[30.5169,-17.8673,1341.1786],[30.5245,-17.8754,1340.8058],[30.5273,-17.875,1341.4407],[30.5312,-17.8698,1341.8678],[30.5354,-17.8582,1343.5156],[30.5364,-17.8472,1344.5592],[30.5385,-17.8431,1339.5],[30.5451,-17.8582,1340.8019],[30.5482,-17.8603,1340.7391],[30.5512,-17.8588,1340.8828],[30.5594,-17.8588,1339.5],[30.5699,-17.8704,1348.6558],[30.5695,-17.8668,1351.5393],[30.5633,-17.8561,1348.3794],[30.5533,-17.8459,1345.7477],[30.5527,-17.8389,1345.4403],[30.5499,-17.8352,1340.881],[30.5506,-17.8319,1342.1523],[30.559,-17.8262,1339.7664],[30.5634,-17.8286,1340.175],[30.5661,-17.8276,1339.5],[30.5712,-17.8294,1339.5],[30.5697,-17.8347,1343.5132],[30.5706,-17.8365,1341.7849],[30.5782,-17.8378,1339.5],[30.5821,-17.8411,1339.5],[30.586,-17.8405,1339.5],[30.5842,-17.8449,1344.3027],[30.5877,-17.8478,1342.7561],[30.5909,-17.8436,1339.7598],[30.5947,-17.8471,1339.7266],[30.596,-17.8515,1340.713],[30.5988,-17.8509,1339.5],[30.604,-17.8573,1347.3942],[30.6035,-17.8511,1347.0876],[30.5981,-17.8397,1345.5769],[30.5978,-17.8343,1341.9569],[30.6033,-17.8262,1339.5],[30.6075,-17.8258,1339.5],[30.6126,-17.8297,1342.2426],[30.6142,-17.8282,1339.5],[30.6179,-17.8299,1340.2588],[30.6214,-17.8295,1339.5],[30.6244,-17.8317,1339.5],[30.6261,-17.8406,1343.0282],[30.6307,-17.8466,1344.6715],[30.6322,-17.8514,1342.4669],[30.633,-17.846,1348.3059],[30.6308,-17.8395,1343.9573],[30.6333,-17.8299,1340.2808],[30.6457,-17.8342,1339.8088],[30.648,-17.8376,1341.5232],[30.6501,-17.835,1339.8289],[30.6554,-17.835,1339.5],[30.6594,-17.8411,1339.7833],[30.6659,-17.8423,1339.5],[30.6676,-17.844,1339.5],[30.6677,-17.8478,1340.3044],[30.666,-17.8534,1341.9607],[30.6737,-17.8479,1339.5],[30.6761,-17.8503,1339.5],[30.6772,-17.8545,1340.7922],[30.68,-17.8528,1339.5],[30.6829,-17.8535,1339.5],[30.6859,-17.8579,1342.3586],[30.686,-17.8527,1339.5],[30.6892,-17.8496,1340.4248],[30.6938,-17.8465,1341.02],[30.7006,-17.8462,1339.5],[30.7061,-17.8529,1340.8087],[30.7063,-17.8597,1344.0745],[30.7106,-17.8649,1341.016],[30.7125,-17.875,1341.7419],[30.7152,-17.869,1344.0482],[30.7151,-17.8573,1340.5624],[30.7168,-17.8547,1342.5911],[30.7204,-17.856,1339.5],[30.7315,-17.8524,1340.9124],[30.7367,-17.8634,1341.3729],[30.7383,-17.8619,1343.5601],[30.739,-17.8559,1344.214],[30.7414,-17.8551,1344.926],[30.745,-17.862,1342.5359],[30.7507,-17.8664,1343.2991],[30.7546,-17.8682,1345.5674],[30.7604,-17.8654,1348.524],[30.7678,-17.8783,1348.3053],[30.7374,-17.9047,1386.5676],[30.7514,-17.9212,1404.0287],[30.7513,-17.9237,1407.0437],[30.8014,-17.9434,1391.436],[30.8178,-17.9197,1383.9863],[30.8225,-17.9194,1371.0205],[30.8309,-17.9201,1376.3821],[30.8374,-17.9297,1373.988],[30.8411,-17.9451,1374.5566],[30.8442,-17.9445,1383.8352],[30.8439,-17.932,1378.0579],[30.8472,-17.929,1380.3495],[30.8447,-17.9244,1363.9434],[30.858,-17.9268,1375.6814],[30.8618,-17.9238,1363.0],[30.8637,-17.9253,1367.0057],[30.8628,-17.9277,1377.2863],[30.8707,-17.9347,1369.114],[30.8733,-17.9316,1375.785],[30.882,-17.9353,1364.0276],[30.8945,-17.949,1369.7489],[30.8869,-17.9364,1365.9988],[30.9366,-17.9119,1406.1007],[30.8774,-17.8755,1409.6858],[30.8811,-17.8741,1412.4705],[30.8858,-17.8677,1399.7283],[30.8968,-17.8691,1391.6072],[30.8991,-17.8657,1392.3118],[30.8901,-17.8264,1422.5654],[30.8832,-17.8111,1471.0311],[30.8959,-17.8011,1452.3113],[30.8893,-17.796,1454.1406],[30.8902,-17.7805,1441.804],[30.9052,-17.7772,1441.7084],[30.9185,-17.7794,1447.329],[30.9086,-17.7643,1457.8438],[30.9486,-17.7571,1469.4561],[30.9508,-17.7094,1448.5619],[30.9625,-17.7139,1452.9609],[30.9579,-17.6693,1484.5503],[30.9554,-17.6605,1480.254],[30.9305,-17.6621,1463.4773],[30.9285,-17.7006,1444.9443],[30.9127,-17.6872,1437.7086],[30.8671,-17.6645,1435.3517],[30.8446,-17.6505,1420.5059],[30.8375,-17.6627,1418.0417],[30.7899,-17.64,1406.0322],[30.7601,-17.6043,1402.4811],[30.7854,-17.5577,1465.9033],[30.7285,-17.5526,1433.7168],[30.6912,-17.5596,1413.9656],[30.6448,-17.5519,1405.4573],[30.6115,-17.5519,1421.9153],[30.6124,-17.5183,1454.3264],[30.617,-17.5022,1433.4365],[30.6213,-17.4763,1440.4376],[30.6195,-17.455,1384.1801],[30.6324,-17.4063,1499.8912],[30.6214,-17.3681,1534.8826],[30.6177,-17.3628,1455.6041],[30.6578,-17.2791,1505.5094],[30.6685,-17.2512,1479.1691],[30.6714,-17.241,1467.0834],[30.6551,-17.2362,1342.1945],[30.682,-17.2177,1583.9102],[30.7183,-17.1558,1623.2058],[30.7389,-17.0613,1606.2738],[30.6921,-17.0508,1297.626],[30.6693,-17.0632,1260.1904],[30.663,-17.0362,1286.0435],[30.6406,-17.0481,1205.7817],[30.6365,-17.0274,1178.9713],[30.6335,-17.0251,1182.1011],[30.619,-17.0298,1158.6141],[30.6114,-17.0293,1149.8182],[30.5984,-17.0313,1160.3547],[30.5808,-17.0425,1247.1141],[30.5769,-17.0518,1231.1848],[30.5463,-17.0524,1133.5221],[30.5446,-17.0499,1110.1934],[30.545,-17.0402,1103.4652],[30.5422,-17.0216,1133.1609],[30.5394,-17.0151,1081.048],[30.5368,-17.013,1079.7954],[30.5404,-17.0018,1080.5559],[30.5369,-16.998,1066.1279],[30.542,-16.9882,1088.6167],[30.5507,-16.9863,1045.0659],[30.5524,-16.9815,1051.5647],[30.5502,-16.9793,1032.761],[30.5487,-16.9727,1056.7946],[30.5324,-16.9685,1031.2926],[30.5296,-16.9665,1031.4408],[30.53,-16.9643,1017.446],[30.5337,-16.9629,1026.4183],[30.5339,-16.9614,1040.6774],[30.5276,-16.9595,1010.1505],[30.527,-16.9427,1010.4602],[30.5208,-16.9371,993.3137],[30.5221,-16.9317,1006.2342],[30.5188,-16.9222,987.8905],[30.5234,-16.9181,980.4348],[30.5229,-16.9082,976.85],[30.5253,-16.8845,979.0051],[30.5208,-16.8727,954.9294],[30.518,-16.8704,957.4919],[30.5231,-16.8654,952.2923],[30.5204,-16.863,947.0148],[30.5203,-16.8601,943.8116],[30.5241,-16.8533,947.3057],[30.5213,-16.8471,960.0016],[30.5181,-16.8473,954.8229],[30.5098,-16.8415,928.0646],[30.5113,-16.8368,939.0753],[30.5101,-16.8345,947.9111],[30.5052,-16.8352,929.2117],[30.5031,-16.8337,923.3882],[30.5037,-16.8312,931.9142],[30.5057,-16.8312,923.7604],[30.5037,-16.8171,919.0369],[30.5016,-16.815,918.1411],[30.4976,-16.8153,916.0905],[30.4964,-16.8135,929.1757],[30.4971,-16.8058,926.2122],[30.4891,-16.8023,905.9818],[30.4855,-16.8118,910.4877],[30.4795,-16.8195,924.344],[30.4723,-16.8192,924.4106],[30.4634,-16.8263,921.6472],[30.4648,-16.8336,930.3181],[30.4618,-16.8439,934.3168],[30.4547,-16.8433,930.6714],[30.4404,-16.8475,939.6271],[30.4301,-16.8433,938.1744],[30.427,-16.8448,936.98],[30.4247,-16.8491,937.5107],[30.4252,-16.861,933.567],[30.4222,-16.867,934.9582],[30.4236,-16.881,941.346],[30.4174,-16.8782,956.9613],[30.4109,-16.8802,947.3461],[30.4041,-16.8797,961.6566],[30.396,-16.8939,945.8099],[30.3844,-16.8977,962.5953],[30.3812,-16.9006,960.3006],[30.3757,-16.9063,952.6464],[30.3745,-16.9132,958.0178],[30.3715,-16.9186,958.8949],[30.3637,-16.9244,963.2056],[30.3614,-16.9287,959.632],[30.3616,-16.9334,965.7286],[30.3704,-16.9379,970.8182],[30.3696,-16.9412,964.895],[30.3641,-16.9479,981.2271],[30.3641,-16.95,970.8068],[30.3665,-16.9522,977.6344],[30.3739,-16.9517,979.5837],[30.3758,-16.9647,993.62],[30.3653,-16.9624,989.2806],[30.3575,-16.9631,986.8153],[30.3461,-16.9672,992.1987],[30.3418,-16.972,989.7358],[30.3436,-16.9761,990.2346],[30.3389,-16.9815,984.3921],[30.3382,-16.9915,988.0599],[30.3445,-16.9968,1001.9043],[30.345,-16.999,1004.5134],[30.3443,-17.0003,988.4714],[30.3384,-16.9999,1004.2394],[30.3338,-17.0039,1004.6077],[30.3329,-17.0081,998.6385],[30.3379,-17.0386,1005.0414],[30.3365,-17.0597,1025.5201],[30.3303,-17.0709,1036.8005],[30.3337,-17.0797,1032.24],[30.333,-17.0847,1032.8518],[30.3292,-17.0898,1042.0291],[30.3305,-17.0974,1037.332],[30.3277,-17.1,1040.802],[30.3156,-17.1041,1055.7812],[30.3096,-17.11,1043.2363],[30.311,-17.1145,1042.1235],[30.3091,-17.1196,1042.4116],[30.297,-17.1259,1058.8702],[30.2956,-17.1318,1046.6332],[30.2959,-17.1446,1045.25],[30.2942,-17.1485,1050.665],[30.2814,-17.1531,1087.2233],[30.2729,-17.158,1054.5686],[30.2721,-17.164,1055.6425],[30.2749,-17.1685,1065.8005],[30.2731,-17.1759,1059.7921],[30.2747,-17.1794,1068.4316],[30.2743,-17.1841,1059.2491],[30.2702,-17.1883,1077.7339],[30.2671,-17.1962,1064.7488],[30.2663,-17.2056,1069.9807],[30.2608,-17.21,1079.6821],[30.2554,-17.2174,1077.6138],[30.2545,-17.2224,1071.9299],[30.2549,-17.2287,1087.4373],[30.2632,-17.248,1092.0563],[30.259,-17.2533,1083.8433],[30.2551,-17.2528,1102.4487],[30.255,-17.2583,1094.3708],[30.2577,-17.2636,1097.1968],[30.265,-17.2669,1107.2717],[30.2673,-17.2771,1087.7227],[30.2617,-17.2796,1088.2904],[30.2541,-17.2777,1103.3938],[30.246,-17.2837,1101.5776],[30.2388,-17.2924,1099.5024],[30.2382,-17.3007,1100.6129],[30.2399,-17.3057,1104.677],[30.2311,-17.3148,1112.8525],[30.2265,-17.3238,1117.5164],[30.2202,-17.3272,1116.9312],[30.2158,-17.3394,1109.4761],[30.217,-17.3451,1114.3313],[30.2137,-17.3497,1106.2473],[30.2181,-17.3558,1110.9001],[30.2225,-17.3687,1122.355],[30.2164,-17.374,1125.3389],[30.2077,-17.3906,1130.3835],[30.2104,-17.3964,1132.1848],[30.207,-17.3995,1137.5728],[30.205,-17.4098,1142.0533],[30.2099,-17.4245,1147.2859],[30.209,-17.4282,1153.0514],[30.2049,-17.4331,1147.7197],[30.2059,-17.4435,1148.049],[30.1973,-17.4452,1149.9216],[30.197,-17.4466,1151.7838],[30.2009,-17.4651,1166.0887],[30.2045,-17.4673,1174.0],[30.2079,-17.4673,1174.0],[30.2106,-17.4709,1174.0],[30.2111,-17.4774,1174.0],[30.2154,-17.4854,1174.0],[30.2165,-17.5037,1174.0],[30.2184,-17.5065,1174.0],[30.2259,-17.511,1174.0],[30.2262,-17.5146,1174.0],[30.2288,-17.518,1175.1373],[30.228,-17.5216,1174.0],[30.2232,-17.5271,1174.0],[30.2265,-17.5363,1174.0],[30.2251,-17.544,1180.8513],[30.2281,-17.5639,1180.9135],[30.2202,-17.5773,1185.6887],[30.221,-17.5875,1187.4453],[30.2151,-17.5972,1198.9426],[30.2131,-17.6002,1204.1614],[30.1706,-17.6082,1257.3682],[30.0104,-17.6351,1231.7932],[30.0104,-17.6397,1256.8589],[29.9886,-17.6557,1096.2764],[29.9809,-17.6679,1197.5557],[29.9624,-17.7048,1257.3562],[29.9563,-17.7115,1276.1625],[29.9545,-17.7263,1289.9297],[29.951,-17.7307,1242.3462],[29.9518,-17.7415,1259.7727],[29.9471,-17.754,1258.6309],[29.9484,-17.7655,1171.9822],[29.9442,-17.7676,1231.6083],[29.9374,-17.7758,1118.9866],[29.9313,-17.7884,1203.2445],[29.9278,-17.7929,1139.9402],[29.9194,-17.796,1152.7495],[29.8998,-17.8111,1122.1562],[29.888,-17.8154,1134.7024],[29.8841,-17.8184,1181.42],[29.878,-17.825,1153.6373],[29.8633,-17.8492,1136.5271],[29.8417,-17.8533,1114.8114],[29.836,-17.8524,928.8241],[29.834,-17.8564,919.4945],[29.8348,-17.8604,940.9633],[29.8382,-17.8638,944.7454],[29.851,-17.8678,971.7625],[29.8708,-17.8818,996.7109],[29.882,-17.8825,948.3316],[29.8902,-17.8796,978.9564],[29.9022,-17.8832,977.1158],[29.9047,-17.8824,992.0726],[29.9047,-17.8795,971.9921],[29.911,-17.8743,1011.6813],[29.9218,-17.8725,1022.3005],[29.9378,-17.8659,989.9874],[29.9412,-17.8658,984.8336],[29.9451,-17.8691,977.8096],[29.9456,-17.8648,977.3839],[29.9486,-17.8618,987.2303],[29.952,-17.8625,989.8009],[29.9576,-17.8667,986.2334],[29.9628,-17.8645,991.0742],[29.9675,-17.8598,997.8231],[29.9715,-17.8634,989.2636],[29.9782,-17.8609,1026.8235],[29.9816,-17.8635,1004.4979],[29.9984,-17.8625,1026.049],[30.0175,-17.8658,1019.3126],[30.0199,-17.8641,1033.342],[30.0289,-17.8645,1073.1698],[30.0323,-17.866,1025.9906],[30.0366,-17.8725,1029.3705],[30.0383,-17.8707,1036.7322],[30.0423,-17.871,1037.22],[30.041,-17.8664,1042.5229],[30.0454,-17.8643,1068.2625],[30.049,-17.8674,1057.0979],[30.0553,-17.8661,1055.2784],[30.0573,-17.8716,1057.1276],[30.0679,-17.8694,1075.9414],[30.0729,-17.8727,1071.172],[30.0763,-17.8706,1065.241],[30.0765,-17.8668,1073.8436],[30.0833,-17.862,1082.9224],[30.0996,-17.8593,1103.4509]]]]}}