{"type":"Feature","properties":{"GID_3":"ZWE.9.4.23_2","GID_0":"ZWE","country":"Zimbabwe","GID_1":"ZWE.9_1","province":"MatabelelandSouth","NL_NAME_1":"NA","GID_2":"ZWE.9.4_2","county":"Gwanda","NL_NAME_2":"NA","city":"Ward8","VARNAME_3":"NA","NL_NAME_3":"NA","TYPE_3":"Ward","ENGTYPE_3":"Ward","CC_3":"NA","HASC_3":"NA","name":"Ward8.city"},
"geometry":{"type": "MultiPolygon","coordinates": [[[[28.8621,-20.7881,1048.1694],[28.8523,-20.7856,1043.4221],[28.8461,-20.7824,1040.1732],[28.8436,-20.7792,1042.3026],[28.8413,-20.7801,1038.3158],[28.8372,-20.7764,1042.2822],[28.8279,-20.7733,1043.5391],[28.8084,-20.7701,1044.7477],[28.7987,-20.7702,1017.4724],[28.7895,-20.7674,1011.3289],[28.7905,-20.7954,997.3169],[28.7882,-20.824,985.7107],[28.7616,-20.811,1026.2817],[28.7493,-20.7997,1035.6431],[28.7431,-20.801,1099.4907],[28.732,-20.7956,1052.677],[28.7194,-20.795,1031.074],[28.7067,-20.8024,1008.9657],[28.6926,-20.8025,1033.5435],[28.6905,-20.8038,1026.4136],[28.7061,-20.8538,1052.8279],[28.6991,-20.9487,1047.1411],[28.7624,-20.9945,928.1674],[28.7937,-20.9595,1000.4672],[28.8021,-20.8951,970.5098],[28.8621,-20.7881,1048.1694]]]]}}