{"type": "Feature","bbox": [29.7661,-18.942,29.7899,-18.9262],"geometry": {"type": "MultiPolygon","coordinates": [[[[29.7661,-18.9294,1236.8352],[29.7723,-18.9305,1215.349],[29.7729,-18.9339,1207.9395],[29.7723,-18.9409,1198.9219],[29.7748,-18.942,1193.6578],[29.7862,-18.9315,1215.7715],[29.7899,-18.9317,1207.0615],[29.787,-18.9263,1203.6365],[29.7783,-18.9276,1222.5953],[29.7773,-18.9262,1222.4843],[29.7661,-18.9294,1236.8352]]]]}
,"properties": {"GID_3": "ZWE.10.8.14_2","GID_0": "ZWE","country": "Zimbabwe","GID_1": "ZWE.10_1","province": "Midlands","NL_NAME_1": "NA","GID_2": "ZWE.10.8_2","county": "KwekweUrban","NL_NAME_2": "NA","city": "Ward9","VARNAME_3": "NA","NL_NAME_3": "NA","TYPE_3": "Ward","ENGTYPE_3": "Ward","CC_3": "NA","HASC_3": "NA","name": "Ward9.city","area_km2": 1.945356,"hist_schema_id": "Elevation0-9000","hist_area_km2": {"1200": 1.002754,"1225": 0.902492,"1250": 0.020056,"1300": 0.020056}}}