{"type": "Feature","bbox": [32.0313,-18.3105,32.0814,-18.2676],"geometry": {"type": "MultiPolygon","coordinates": [[[[32.0347,-18.2987,1578.4557],[32.0682,-18.3105,1549.5607],[32.0814,-18.2867,1537.6541],[32.065,-18.2822,1552.0619],[32.0528,-18.2751,1551.7141],[32.0464,-18.2743,1554.9763],[32.0466,-18.2726,1559.7969],[32.0486,-18.2727,1556.4109],[32.0498,-18.2708,1548.7236],[32.0484,-18.2677,1554.6747],[32.0467,-18.2698,1556.4185],[32.0313,-18.2676,1584.2186],[32.0347,-18.2987,1578.4557]]]]}
,"properties": {"GID_3": "ZWE.3.5.26_2","GID_0": "ZWE","country": "Zimbabwe","GID_1": "ZWE.3_1","province": "Manicaland","NL_NAME_1": "NA","GID_2": "ZWE.3.5_2","county": "Makoni","NL_NAME_2": "NA","city": "Ward32","VARNAME_3": "NA","NL_NAME_3": "NA","TYPE_3": "Ward","ENGTYPE_3": "Ward","CC_3": "NA","HASC_3": "NA","name": "Ward32.city","area_km2": 14.59508,"hist_schema_id": "Elevation0-9000","hist_area_km2": {"1525": 1.08702,"1550": 6.24058,"1575": 4.71077,"1600": 2.51646,"1625": 0.04026}}}