{"type": "Feature","bbox": [31.0419,-17.877,31.0643,-17.8411],"geometry": {"type": "MultiPolygon","coordinates": [[[[31.0643,-17.8708,1466.7863],[31.0497,-17.8411,1459.8341],[31.0464,-17.8425,1456.8131],[31.0452,-17.8442,1456.3253],[31.0464,-17.847,1455.797],[31.0451,-17.8485,1452.2992],[31.0455,-17.8581,1447.3627],[31.0419,-17.8706,1450.626],[31.0421,-17.877,1441.6373],[31.0593,-17.8761,1455.1027],[31.0616,-17.8746,1454.1355],[31.0616,-17.8709,1462.9426],[31.0643,-17.8708,1466.7863]]]]}
,"properties": {"GID_3": "ZWE.2.3.1_2","GID_0": "ZWE","country": "Zimbabwe","GID_1": "ZWE.2_1","province": "Harare","NL_NAME_1": "NA","GID_2": "ZWE.2.3_2","county": "Harare","NL_NAME_2": "NA","city": "Ward10","VARNAME_3": "NA","NL_NAME_3": "NA","TYPE_3": "Ward","ENGTYPE_3": "Ward","CC_3": "NA","HASC_3": "NA","name": "Ward10.city","area_km2": 5.408264,"hist_schema_id": "Elevation0-9000","hist_area_km2": {"1450": 3.087552,"1475": 2.320712}}}