{"type": "Feature","bbox": [31.5372,-17.212,31.7322,-17.0693],"geometry": {"type": "MultiPolygon","coordinates": [[[[31.5372,-17.0765,981.0585],[31.5392,-17.113,1004.4628],[31.6585,-17.1168,908.3452],[31.6456,-17.1925,1074.0828],[31.6448,-17.212,981.6199],[31.6686,-17.205,1066.042],[31.686,-17.2025,1034.7322],[31.6861,-17.1927,1060.7604],[31.7322,-17.1616,1073.1899],[31.7197,-17.1218,863.9681],[31.7208,-17.1189,854.358],[31.7142,-17.1164,867.9069],[31.7041,-17.1172,865.2743],[31.698,-17.1147,871.1068],[31.6939,-17.1152,866.8685],[31.6908,-17.1122,877.3176],[31.6857,-17.1107,872.965],[31.6848,-17.1068,879.6257],[31.6735,-17.1072,891.4109],[31.672,-17.1087,882.7111],[31.6633,-17.1067,887.6774],[31.6613,-17.1037,906.8313],[31.6587,-17.1091,889.205],[31.6526,-17.1086,891.0886],[31.6506,-17.1076,891.5082],[31.6501,-17.1036,894.7301],[31.6475,-17.1046,894.1562],[31.644,-17.1002,895.2617],[31.6359,-17.0996,896.253],[31.6303,-17.0957,912.6909],[31.6267,-17.0966,899.5547],[31.6201,-17.0878,911.728],[31.6105,-17.0833,913.1497],[31.6085,-17.0808,923.4492],[31.6049,-17.0808,913.1347],[31.5912,-17.0738,952.9613],[31.5851,-17.0743,926.9993],[31.58,-17.0693,954.1922],[31.5744,-17.0693,945.5541],[31.5708,-17.0717,939.5713],[31.5678,-17.0702,955.3218],[31.5652,-17.0736,943.8762],[31.5503,-17.0718,960.0786],[31.5372,-17.0765,981.0585]]]]}
,"properties": {"GID_3": "ZWE.4.10.20_2","GID_0": "ZWE","country": "Zimbabwe","GID_1": "ZWE.4_1","province": "MashonalandCentral","NL_NAME_1": "NA","GID_2": "ZWE.4.10_2","county": "Shamva","NL_NAME_2": "NA","city": "Ward27","VARNAME_3": "NA","NL_NAME_3": "NA","TYPE_3": "Ward","ENGTYPE_3": "Ward","CC_3": "NA","HASC_3": "NA","name": "Ward27.city","area_km2": 115.02374,"hist_schema_id": "Elevation0-9000","hist_area_km2": {"850": 0.40526,"875": 7.17295,"900": 17.46608,"925": 19.28909,"950": 21.9233,"975": 22.04422,"1000": 13.25132,"1025": 7.96225,"1050": 2.79518,"1075": 1.74187,"1100": 0.58738,"1125": 0.28357,"1150": 0.10127}}}