{"type": "Feature","bbox": [30.2733,-19.7754,30.3465,-19.5816],"geometry": {"type": "MultiPolygon","coordinates": [[[[30.2733,-19.5816,1203.3718],[30.2765,-19.7632,1121.7864],[30.3039,-19.7612,1124.2354],[30.3094,-19.7754,1104.1151],[30.3418,-19.7625,1060.4175],[30.3461,-19.7563,1059.4442],[30.3465,-19.7432,1064.2235],[30.3447,-19.7397,1073.7649],[30.3401,-19.7364,1076.8646],[30.3365,-19.7361,1084.5934],[30.3305,-19.7407,1089.3552],[30.3225,-19.7396,1083.7812],[30.317,-19.736,1089.7297],[30.3148,-19.7323,1098.8567],[30.3083,-19.7288,1088.6448],[30.3054,-19.721,1096.6902],[30.3071,-19.7114,1106.7147],[30.3003,-19.703,1102.4095],[30.3009,-19.6985,1105.0203],[30.298,-19.6913,1107.6383],[30.3034,-19.6839,1111.0242],[30.304,-19.6672,1114.255],[30.3083,-19.6598,1119.7274],[30.3072,-19.6546,1116.5232],[30.3089,-19.6465,1127.4067],[30.3127,-19.6452,1124.4889],[30.3081,-19.6352,1131.1128],[30.3081,-19.6314,1133.425],[30.305,-19.6271,1139.6453],[30.3064,-19.62,1142.1893],[30.3034,-19.616,1144.4719],[30.3066,-19.609,1157.5247],[30.3031,-19.6031,1159.007],[30.3048,-19.5987,1161.2327],[30.3052,-19.5895,1167.3075],[30.2733,-19.5816,1203.3718]]]]}
,"properties": {"GID_3": "ZWE.10.11.18_2","GID_0": "ZWE","country": "Zimbabwe","GID_1": "ZWE.10_1","province": "Midlands","NL_NAME_1": "NA","GID_2": "ZWE.10.11_2","county": "Shurugwi","NL_NAME_2": "NA","city": "Ward3","VARNAME_3": "NA","NL_NAME_3": "NA","TYPE_3": "Ward","ENGTYPE_3": "Ward","CC_3": "NA","HASC_3": "NA","name": "Ward3.city","area_km2": 77.21612,"hist_schema_id": "Elevation0-9000","hist_area_km2": {"1050": 0.27936,"1075": 5.58742,"1100": 14.32841,"1125": 22.49449,"1150": 15.01433,"1175": 12.14211,"1200": 7.03041,"1225": 0.33958}}}