{"type":"Feature","properties":{"GID_3":"ZWE.4.1.3_2","GID_0":"ZWE","country":"Zimbabwe","GID_1":"ZWE.4_1","province":"MashonalandCentral","NL_NAME_1":"NA","GID_2":"ZWE.4.1_2","county":"Bindura","NL_NAME_2":"NA","city":"Ward11","VARNAME_3":"NA","NL_NAME_3":"NA","TYPE_3":"Ward","ENGTYPE_3":"Ward","CC_3":"NA","HASC_3":"NA","name":"Ward11.city"},
"geometry":{"type": "MultiPolygon","coordinates": [[[[31.2361,-17.3623,1099.0255],[31.2316,-17.3623,1105.7072],[31.2311,-17.3652,1083.885],[31.2265,-17.3632,1092.1831],[31.2199,-17.3636,1100.3167],[31.2188,-17.3656,1090.5338],[31.2029,-17.3694,1128.5879],[31.1963,-17.3737,1113.8765],[31.1936,-17.3815,1136.5],[31.1824,-17.3859,1139.3772],[31.1746,-17.3922,1136.5],[31.17,-17.3921,1151.4821],[31.1685,-17.3931,1136.5],[31.169,-17.396,1136.5],[31.1664,-17.3955,1136.5],[31.1623,-17.3999,1136.5],[31.1598,-17.3989,1150.9648],[31.1551,-17.4018,1160.5895],[31.1536,-17.4047,1138.9266],[31.1483,-17.4057,1180.9561],[31.1469,-17.4128,1154.3157],[31.1485,-17.4163,1150.2649],[31.1449,-17.4232,1171.0341],[31.1451,-17.4272,1156.7896],[31.1423,-17.4296,1170.073],[31.1384,-17.438,1181.802],[31.138,-17.4448,1180.1541],[31.1552,-17.4517,1249.2809],[31.1739,-17.4559,1238.9128],[31.2278,-17.4737,1451.8665],[31.2386,-17.4706,1271.0188],[31.2365,-17.4684,1266.4275],[31.2346,-17.4507,1309.6232],[31.228,-17.4487,1328.4622],[31.2229,-17.4413,1359.4341],[31.2173,-17.4446,1452.5898],[31.2146,-17.4534,1459.323],[31.21,-17.4539,1461.7903],[31.2014,-17.4494,1320.455],[31.1928,-17.439,1299.8995],[31.1879,-17.4213,1174.585],[31.1842,-17.4213,1162.8958],[31.1853,-17.4077,1146.2153],[31.2015,-17.404,1389.7852],[31.2138,-17.4064,1359.848],[31.2171,-17.4043,1395.2261],[31.2264,-17.4025,1322.2913],[31.2266,-17.4011,1336.6575],[31.2178,-17.3932,1302.5333],[31.2177,-17.3891,1264.5806],[31.2203,-17.3861,1227.5454],[31.2198,-17.3788,1140.5859],[31.2218,-17.3783,1142.3688],[31.2236,-17.3848,1234.4464],[31.2256,-17.3866,1285.2903],[31.234,-17.3847,1273.1937],[31.2351,-17.3764,1232.2887],[31.2336,-17.3739,1191.1606],[31.2342,-17.3646,1088.744],[31.2361,-17.3623,1099.0255]]]]}}