{"type": "Feature","bbox": [32.632,-18.8125,32.8724,-18.6758],"geometry": {"type": "MultiPolygon","coordinates": [[[[32.8057,-18.7854,1803.0392],[32.8146,-18.7788,1811.0792],[32.8448,-18.7764,1529.3915],[32.8465,-18.774,1544.0673],[32.8686,-18.7765,1106.1289],[32.8724,-18.76,1134.8169],[32.8637,-18.7462,1424.3472],[32.8428,-18.7433,1695.8679],[32.817,-18.7491,1725.5233],[32.8055,-18.7493,1638.282],[32.7633,-18.7262,1728.0317],[32.7758,-18.7122,1715.4027],[32.7492,-18.6788,1638.1285],[32.7355,-18.6924,1628.6512],[32.7237,-18.6924,1611.7371],[32.7252,-18.6807,1519.2112],[32.7172,-18.6838,1546.5654],[32.721,-18.6885,1590.6201],[32.7121,-18.6925,1591.3298],[32.7155,-18.695,1624.9681],[32.7117,-18.6976,1672.0082],[32.6853,-18.6758,1459.6804],[32.672,-18.685,1434.3438],[32.6681,-18.6793,1457.9067],[32.6549,-18.6872,1476.3613],[32.6382,-18.6909,1420.5247],[32.6378,-18.6895,1413.8582],[32.632,-18.6896,1432.882],[32.652,-18.7227,1528.7319],[32.6682,-18.7165,1801.6389],[32.6965,-18.7151,1813.0559],[32.6962,-18.7619,1534.02],[32.726,-18.7821,1614.1345],[32.741,-18.8113,1874.0621],[32.7487,-18.8087,1841.0916],[32.7519,-18.8125,1810.2985],[32.7564,-18.8124,1780.7012],[32.7783,-18.7967,1819.8784],[32.7841,-18.7974,1741.7908],[32.7911,-18.7951,1721.7834],[32.7973,-18.7896,1821.2921],[32.8057,-18.7854,1803.0392]]]]}
,"properties": {"GID_3": "ZWE.3.8.10_2","GID_0": "ZWE","country": "Zimbabwe","GID_1": "ZWE.3_1","province": "Manicaland","NL_NAME_1": "NA","GID_2": "ZWE.3.8_2","county": "Mutasa","NL_NAME_2": "NA","city": "Ward18","VARNAME_3": "NA","NL_NAME_3": "NA","TYPE_3": "Ward","ENGTYPE_3": "Ward","CC_3": "NA","HASC_3": "NA","name": "Ward18.city","area_km2": 155.985,"hist_schema_id": "Elevation0-9000","hist_area_km2": {"1025": 0.0401,"1050": 0.0402,"1075": 0.1807,"1100": 0.1807,"1125": 0.2208,"1150": 0.1405,"1175": 0.1606,"1200": 0.2811,"1225": 0.2409,"1250": 0.3614,"1275": 0.3011,"1300": 0.3814,"1325": 0.3011,"1350": 0.4015,"1375": 0.6424,"1400": 0.6826,"1425": 2.0283,"1450": 3.4944,"1475": 6.3258,"1500": 8.233,"1525": 7.2684,"1550": 13.2307,"1575": 12.7891,"1600": 12.2274,"1625": 14.5567,"1650": 15.4402,"1675": 16.765,"1700": 14.0539,"1725": 10.8014,"1750": 5.9224,"1775": 3.7942,"1800": 2.7705,"1825": 1.2446,"1850": 0.4818}}}