{"type": "Feature","bbox": [30.1751,-17.3788,30.195,-17.3633],"geometry": {"type": "MultiPolygon","coordinates": [[[[30.195,-17.3702,1158.2041],[30.1893,-17.3633,1147.5734],[30.1833,-17.3659,1162.6787],[30.1839,-17.3651,1162.6787],[30.1795,-17.3638,1167.1133],[30.1751,-17.367,1159.2605],[30.1887,-17.3788,1191.979],[30.1924,-17.376,1177.7168],[30.195,-17.3702,1158.2041]]]]}
,"properties": {"GID_3": "ZWE.6.3.1_2","GID_0": "ZWE","country": "Zimbabwe","GID_1": "ZWE.6_1","province": "MashonalandWest","NL_NAME_1": "NA","GID_2": "ZWE.6.3_2","county": "Chinhoyi","NL_NAME_2": "NA","city": "Ward1","VARNAME_3": "NA","NL_NAME_3": "NA","TYPE_3": "Ward","ENGTYPE_3": "Ward","CC_3": "NA","HASC_3": "NA","name": "Ward1.city","area_km2": 1.962825,"hist_schema_id": "Elevation0-9000","hist_area_km2": {"1150": 0.485652,"1175": 1.456939,"1200": 0.020234}}}