{"type":"Feature","properties":{"GID_3":"ZWE.7.6.4_2","GID_0":"ZWE","country":"Zimbabwe","GID_1":"ZWE.7_1","province":"Masvingo","NL_NAME_1":"NA","GID_2":"ZWE.7.6_2","county":"Masvingo","NL_NAME_2":"NA","city":"Ward12","VARNAME_3":"NA","NL_NAME_3":"NA","TYPE_3":"Ward","ENGTYPE_3":"Ward","CC_3":"NA","HASC_3":"NA","name":"Ward12.city"},
"geometry":{"type": "MultiPolygon","coordinates": [[[[30.826,-20.2634,1137.4557],[30.8258,-20.2659,1136.3976],[30.8302,-20.275,1152.8103],[30.8259,-20.2808,1170.3621],[30.8305,-20.2847,1144.3173],[30.8322,-20.29,1121.6409],[30.8292,-20.2937,1126.072],[30.8317,-20.2982,1165.062],[30.8451,-20.3074,1208.2356],[30.8487,-20.322,1195.5935],[30.8534,-20.326,1190.4681],[30.8534,-20.3322,1124.5382],[30.8584,-20.3278,1152.9637],[30.8632,-20.3262,1161.5865],[30.8722,-20.3261,1179.3883],[30.8757,-20.328,1128.8901],[30.8855,-20.3275,1096.7869],[30.8908,-20.3199,1082.2052],[30.8955,-20.3244,1090.7344],[30.8979,-20.3137,1061.3086],[30.9018,-20.3088,1078.9098],[30.911,-20.3123,1178.0044],[30.9061,-20.2937,1115.4106],[30.9234,-20.2798,1183.6342],[30.9221,-20.2559,1093.3281],[30.9137,-20.2552,1086.5474],[30.8992,-20.2233,1072.2986],[30.8987,-20.2407,1081.1875],[30.8714,-20.2694,1075.9635],[30.867,-20.2659,1092.3904],[30.826,-20.2634,1137.4557]]]]}}