{"type":"Feature","properties":{"GID_3":"ZWE.2.2.1_2","GID_0":"ZWE","country":"Zimbabwe","GID_1":"ZWE.2_1","province":"Harare","NL_NAME_1":"NA","GID_2":"ZWE.2.2_2","county":"Epworth","NL_NAME_2":"NA","city":"Ward1","VARNAME_3":"NA","NL_NAME_3":"NA","TYPE_3":"Ward","ENGTYPE_3":"Ward","CC_3":"NA","HASC_3":"NA","name":"Ward1.city"},
"geometry":{"type": "MultiPolygon","coordinates": [[[[31.1303,-17.8654,1534.3607],[31.1244,-17.8718,1521.0986],[31.1201,-17.8736,1512.6213],[31.1176,-17.882,1527.2997],[31.125,-17.888,1517.8469],[31.1325,-17.8901,1515.0608],[31.1416,-17.8892,1499.6758],[31.1443,-17.891,1497.3606],[31.1412,-17.8855,1501.463],[31.1418,-17.8841,1506.7272],[31.1548,-17.8719,1531.1798],[31.1303,-17.8654,1534.3607]]]]}}