{"type":"Feature","properties":{"GID_3":"ZWE.4.3.25_2","GID_0":"ZWE","country":"Zimbabwe","GID_1":"ZWE.4_1","province":"MashonalandCentral","NL_NAME_1":"NA","GID_2":"ZWE.4.3_2","county":"Centenary/Muzarabani","NL_NAME_2":"NA","city":"Ward5","VARNAME_3":"NA","NL_NAME_3":"NA","TYPE_3":"Ward","ENGTYPE_3":"Ward","CC_3":"NA","HASC_3":"NA","name":"Ward5.city"},
"geometry":{"type": "MultiPolygon","coordinates": [[[[31.0341,-16.2743,381.6566],[31.0352,-16.2716,384.9077],[31.0329,-16.2706,378.8407],[31.0344,-16.2687,385.394],[31.0281,-16.2679,379.8212],[31.0211,-16.2619,378.6248],[31.0198,-16.2589,377.9114],[31.0204,-16.2546,376.1361],[31.0182,-16.2544,374.1159],[31.0195,-16.251,373.3347],[31.0166,-16.2493,373.1182],[31.0171,-16.2437,375.4938],[31.0158,-16.2416,373.765],[31.0184,-16.2401,374.0291],[31.0157,-16.2297,369.5572],[31.0178,-16.2279,368.8697],[31.0181,-16.2188,365.9199],[31.0206,-16.217,367.9569],[31.0206,-16.2106,366.9554],[31.0192,-16.2083,364.0633],[31.0216,-16.2088,365.1552],[31.0235,-16.2056,365.1995],[31.0207,-16.205,364.5472],[31.0232,-16.2023,365.1012],[31.02,-16.1941,366.4964],[31.0205,-16.1921,364.8411],[31.0227,-16.1927,361.3969],[31.0209,-16.1913,364.8411],[31.0208,-16.1839,359.9496],[31.0256,-16.1831,361.6967],[31.028199999999998,-16.1791,359.7467],[31.027,-16.1766,357.4466],[31.0296,-16.1729,354.8724],[31.0318,-16.1732,355.4862],[31.0309,-16.1682,352.7142],[31.0335,-16.1667,355.5605],[31.0166,-16.1652,357.3947],[31.0077,-16.1716,355.9333],[30.9993,-16.1846,356.9847],[30.9816,-16.1941,368.0809],[30.9815,-16.2058,362.1287],[30.9717,-16.2269,366.9382],[30.9731,-16.2319,364.7049],[30.9715,-16.2347,373.3808],[30.9753,-16.2365,368.6105],[30.9776,-16.2429,375.5677],[30.974,-16.2445,369.1244],[30.973,-16.2469,366.6113],[30.9653,-16.2489,377.9411],[30.9633,-16.2509,376.5687],[30.9635,-16.2549,375.4563],[30.9668,-16.2531,369.8354],[30.9713,-16.2552,375.1219],[30.9705,-16.2609,366.7589],[30.965,-16.2597,370.0005],[30.9549,-16.265,376.721],[30.9567,-16.2735,372.9153],[30.9521,-16.2796,372.4727],[30.9521,-16.2828,370.4787],[30.9598,-16.2826,371.9755],[30.9596,-16.2782,376.4591],[30.9615,-16.2769,375.5961],[30.9646,-16.2806,383.3583],[30.9615,-16.2914,377.6797],[30.9565,-16.2971,385.2419],[30.9566,-16.3007,376.6042],[30.9589,-16.3031,385.1443],[30.9565,-16.31,379.9701],[30.9532,-16.3124,392.7948],[30.9532,-16.3142,392.9871],[30.9552,-16.3162,375.7787],[30.9571,-16.3137,378.8579],[30.963,-16.3115,388.05],[30.9686,-16.3137,394.0806],[30.97,-16.3254,390.8748],[30.9777,-16.3264,402.4003],[30.9831,-16.3444,398.0693],[30.9823,-16.3465,384.1528],[30.9747,-16.3459,399.8228],[30.9733,-16.3492,389.1733],[30.968,-16.3526,405.3301],[30.9727,-16.3588,386.4007],[30.977,-16.3584,385.3552],[30.9766,-16.3527,398.351],[30.981,-16.3523,405.9505],[30.9829,-16.3532,406.4813],[30.9817,-16.3547,387.658],[30.986,-16.3567,387.1238],[30.9906,-16.3542,407.955],[30.9897,-16.3534,407.955],[30.9987,-16.353,407.985],[31.0078,-16.3444,411.0392],[31.0168,-16.3392,407.7359],[31.0283,-16.3388,406.8014],[31.0333,-16.3321,404.503],[31.0368,-16.3321,401.2195],[31.0434,-16.3216,397.5691],[31.0499,-16.3217,396.7565],[31.0584,-16.3165,392.5164],[31.0576,-16.3129,390.3935],[31.0532,-16.3068,391.4477],[31.0508,-16.3083,391.4481],[31.0505,-16.304,390.4334],[31.0521,-16.3033,390.4334],[31.0474,-16.3019,392.4159],[31.0461,-16.2952,387.4248],[31.0382,-16.291,386.6158],[31.0381,-16.2883,385.1852],[31.0342,-16.2866,385.0722],[31.035,-16.2778,383.016],[31.034,-16.2765,383.016],[31.0351,-16.2751,382.6776],[31.0341,-16.2743,381.6566]]]]}}