{"type": "Feature","bbox": [28.3535,-18.5155,28.5833,-18.4169],"geometry": {"type": "MultiPolygon","coordinates": [[[[28.5832,-18.5094,1243.3428],[28.5833,-18.4926,1239.4626],[28.58,-18.4801,1214.8284],[28.5816,-18.4722,1198.1487],[28.5748,-18.4588,1154.3354],[28.5756,-18.4567,1159.3955],[28.5726,-18.4511,1144.725],[28.5687,-18.4227,1127.4974],[28.5296,-18.4233,1108.4656],[28.5229,-18.4266,1104.5734],[28.5134,-18.4281,1102.2625],[28.5019,-18.4263,1104.3148],[28.4951,-18.4215,1110.443],[28.4822,-18.4245,1100.656],[28.48,-18.4223,1105.3577],[28.4725,-18.4239,1100.3718],[28.4671,-18.421,1101.4764],[28.462,-18.4207,1098.4756],[28.4479,-18.4225,1089.9214],[28.4408,-18.4199,1093.938],[28.4317,-18.4212,1095.3628],[28.4231,-18.4262,1092.5105],[28.4194,-18.424,1092.157],[28.4019,-18.4233,1075.7517],[28.4025,-18.4198,1085.691],[28.3967,-18.4169,1085.6985],[28.3918,-18.4197,1078.3271],[28.39,-18.4183,1083.231],[28.3885,-18.4199,1077.0702],[28.3763,-18.4226,1074.5724],[28.37,-18.4202,1079.5188],[28.3653,-18.4225,1077.9319],[28.3653,-18.4204,1083.0598],[28.3635,-18.4216,1079.4757],[28.361,-18.4197,1079.3022],[28.354,-18.4191,1083.3455],[28.3535,-18.4237,1068.426],[28.357,-18.427,1070.4849],[28.3559,-18.4281,1073.8212],[28.3587,-18.4292,1071.6666],[28.3593,-18.4351,1077.6154],[28.3633,-18.4357,1086.3004],[28.3616,-18.4368,1078.7501],[28.3645,-18.4444,1090.1117],[28.368,-18.4443,1086.2352],[28.3674,-18.4465,1091.5779],[28.3703,-18.4465,1088.1726],[28.3732,-18.4508,1091.9037],[28.3743,-18.4552,1099.5293],[28.3727,-18.4601,1101.0596],[28.379,-18.465,1106.3064],[28.379,-18.4693,1109.2775],[28.3813,-18.4715,1115.4548],[28.3837,-18.4796,1120.8035],[28.3877,-18.4834,1126.3273],[28.3895,-18.4905,1138.3596],[28.3946,-18.4915,1150.3318],[28.4019,-18.5076,1203.5203],[28.5626,-18.5155,1233.0571],[28.5832,-18.5094,1243.3428]]]]}
,"properties": {"GID_3": "ZWE.10.3.1_2","GID_0": "ZWE","country": "Zimbabwe","GID_1": "ZWE.10_1","province": "Midlands","NL_NAME_1": "NA","GID_2": "ZWE.10.3_2","county": "GokweSouth","NL_NAME_2": "NA","city": "Ward1","VARNAME_3": "NA","NL_NAME_3": "NA","TYPE_3": "Ward","ENGTYPE_3": "Ward","CC_3": "NA","HASC_3": "NA","name": "Ward1.city","area_km2": 206.8369,"hist_schema_id": "Elevation0-9000","hist_area_km2": {"1075": 10.5,"1100": 36.6471,"1125": 49.6557,"1150": 36.2991,"1175": 21.8583,"1200": 21.2739,"1225": 27.2248,"1250": 3.3779}}}