{"type": "Feature","bbox": [32.5469,-16.7418,32.6562,-16.5546],"geometry": {"type": "MultiPolygon","coordinates": [[[[32.6141,-16.5546,551.7489],[32.6121,-16.5573,555.2709],[32.6131,-16.5598,540.3931],[32.6116,-16.5603,541.4139],[32.6116,-16.5725,569.0669],[32.6014,-16.5769,593.7335],[32.605,-16.5813,606.6172],[32.6044,-16.5887,608.4913],[32.6019,-16.5936,619.1117],[32.5988,-16.5946,630.0343],[32.5983,-16.5975,627.8364],[32.5958,-16.599,632.6566],[32.5958,-16.6019,638.2147],[32.5876,-16.6058,658.4709],[32.58,-16.6043,673.3525],[32.5643,-16.596,713.2034],[32.5607,-16.5989,686.8623],[32.5611,-16.6067,686.1267],[32.5774,-16.6229,669.0923],[32.5799,-16.6294,650.9915],[32.5773,-16.633,639.1112],[32.5761,-16.6411,627.121],[32.57,-16.6547,606.2282],[32.57,-16.6613,595.4636],[32.5631,-16.6689,593.3616],[32.5597,-16.6803,570.4164],[32.5539,-16.6803,571.8306],[32.5558,-16.6829,564.2033],[32.5509,-16.6942,538.4084],[32.5509,-16.7004,530.7751],[32.5474,-16.7056,524.1816],[32.5478,-16.7089,524.0964],[32.5501,-16.7081,520.3489],[32.552,-16.7129,511.725],[32.5469,-16.7229,494.1562],[32.5501,-16.7277,497.176],[32.5619,-16.7299,472.3327],[32.5751,-16.739,478.749],[32.5835,-16.7415,473.1612],[32.5937,-16.7418,457.92],[32.6205,-16.7348,458.7498],[32.6301,-16.732,450.0366],[32.6383,-16.7267,460.0787],[32.6384,-16.7196,468.88],[32.6334,-16.7195,473.5149],[32.6337,-16.7159,483.6718],[32.6311,-16.7122,499.8011],[32.6378,-16.7085,511.0138],[32.6305,-16.7012,512.6921],[32.6342,-16.6982,515.8196],[32.6369,-16.6926,519.6209],[32.6293,-16.6811,548.1968],[32.6357,-16.6747,591.9918],[32.6348,-16.67,569.0428],[32.6395,-16.6583,640.0802],[32.638,-16.6539,627.1794],[32.6252,-16.6401,656.026],[32.6262,-16.6271,636.9525],[32.6317,-16.6194,654.5753],[32.6236,-16.6104,676.4402],[32.621,-16.6037,788.5548],[32.6249,-16.6,687.4584],[32.6354,-16.5951,627.3043],[32.6562,-16.5935,618.1067],[32.6561,-16.5745,560.8964],[32.6141,-16.5546,551.7489]]]]}
,"properties": {"GID_3": "ZWE.4.9.12_2","GID_0": "ZWE","country": "Zimbabwe","GID_1": "ZWE.4_1","province": "MashonalandCentral","NL_NAME_1": "NA","GID_2": "ZWE.4.9_2","county": "Rushinga","NL_NAME_2": "NA","city": "Ward2","VARNAME_3": "NA","NL_NAME_3": "NA","TYPE_3": "Ward","ENGTYPE_3": "Ward","CC_3": "NA","HASC_3": "NA","name": "Ward2.city","area_km2": 131.6628,"hist_schema_id": "Elevation0-9000","hist_area_km2": {"450": 0.7716,"475": 4.2437,"500": 6.3962,"525": 7.534,"550": 9.953,"575": 14.8289,"600": 24.2532,"625": 28.0921,"650": 15.134,"675": 9.2433,"700": 5.4444,"725": 2.0922,"750": 1.0968,"775": 1.0561,"800": 0.7514,"825": 0.4874,"850": 0.1422,"875": 0.1218,"900": 0.0203}}}