{"type":"Feature","properties":{"GID_3":"ZWE.3.1.18_2","GID_0":"ZWE","country":"Zimbabwe","GID_1":"ZWE.3_1","province":"Manicaland","NL_NAME_1":"NA","GID_2":"ZWE.3.1_2","county":"Buhera","NL_NAME_2":"NA","city":"Ward26","VARNAME_3":"NA","NL_NAME_3":"NA","TYPE_3":"Ward","ENGTYPE_3":"Ward","CC_3":"NA","HASC_3":"NA","name":"Ward26.city"},
"geometry":{"type": "MultiPolygon","coordinates": [[[[31.9038,-19.7211,784.6581],[31.9191,-19.7548,752.6354],[31.9267,-19.768,753.1313],[31.9678,-19.7996,718.0348],[31.9778,-19.8402,690.5717],[31.9848,-19.849,696.8402],[32.0002,-19.858,674.3594],[32.0037,-19.8578,683.0677],[32.0166,-19.8632,675.4912],[32.027,-19.8654,677.8531],[32.0403,-19.8647,649.0275],[32.0504,-19.8621,657.6752],[32.0569,-19.863,641.013],[32.0582,-19.8588,656.0707],[32.0667,-19.8524,659.2103],[32.0691,-19.8489,663.0903],[32.0691,-19.8384,669.0693],[32.0762,-19.8325,675.1704],[32.0751,-19.8178,689.1238],[32.0735,-19.8143,690.1521],[32.0755,-19.8111,695.3081],[32.0737,-19.8032,701.8136],[32.075,-19.7966,706.9604],[32.0739,-19.7866,720.6708],[32.0716,-19.7838,718.2296],[32.0632,-19.7826,732.649],[32.0561,-19.7792,740.3885],[32.056,-19.7767,742.1484],[32.05,-19.7737,750.7489],[32.049,-19.7706,757.6015],[32.0464,-19.7696,756.3757],[32.0441,-19.7659,761.6219],[32.0449,-19.7611,770.2897],[32.0404,-19.7514,778.0752],[32.0372,-19.7502,782.2613],[32.0343,-19.7515,788.0638],[32.0316,-19.7467,793.1755],[32.0218,-19.745,807.7799],[32.0152,-19.7387,858.1391],[32.0132,-19.7123,852.7698],[32.0071,-19.7121,865.0165],[31.9999,-19.7088,883.4319],[31.9971,-19.7096,878.8818],[31.9947,-19.7057,892.1274],[31.9939,-19.6962,906.5408],[31.9919,-19.6945,924.1395],[31.9908,-19.6885,917.7975],[31.9743,-19.6761,914.7047],[31.9623,-19.6862,896.8856],[31.9467,-19.6867,873.6043],[31.9388,-19.6937,871.4302],[31.9364,-19.6981,848.0496],[31.9352,-19.6975,866.1837],[31.9332,-19.6994,844.3289],[31.9292,-19.6984,842.9427],[31.9235,-19.7014,827.9239],[31.9204,-19.704,828.9168],[31.9182,-19.7118,819.3505],[31.911,-19.7146,793.71],[31.9038,-19.7211,784.6581]]]]}}