{"type": "Feature","bbox": [28.9339,-20.3158,28.9557,-20.2788],"geometry": {"type": "MultiPolygon","coordinates": [[[[28.9557,-20.2847,1149.8186],[28.9508,-20.2794,1157.3138],[28.9482,-20.2808,1149.1792],[28.9445,-20.2788,1151.4058],[28.9421,-20.2828,1154.9696],[28.9357,-20.2855,1157.495],[28.9367,-20.2887,1156.2955],[28.9339,-20.291,1161.3937],[28.9352,-20.2976,1167.6259],[28.9406,-20.2977,1165.6978],[28.9428,-20.3158,1181.7886],[28.9554,-20.3155,1171.2056],[28.9557,-20.2847,1149.8186]]]]}
,"properties": {"GID_3": "ZWE.9.10.8_2","GID_0": "ZWE","country": "Zimbabwe","GID_1": "ZWE.9_1","province": "MatabelelandSouth","NL_NAME_1": "NA","GID_2": "ZWE.9.10_2","county": "Umzingwane","NL_NAME_2": "NA","city": "Ward16","VARNAME_3": "NA","NL_NAME_3": "NA","TYPE_3": "Ward","ENGTYPE_3": "Ward","CC_3": "NA","HASC_3": "NA","name": "Ward16.city","area_km2": 6.502623,"hist_schema_id": "Elevation0-9000","hist_area_km2": {"1150": 3.301149,"1175": 3.201474}}}