{"type": "Feature","bbox": [27.797,-20.0466,27.906,-19.9519],"geometry": {"type": "MultiPolygon","coordinates": [[[[27.797,-19.9919,1188.3308],[27.8088,-20.0028,1197.282],[27.8116,-20.0169,1203.2355],[27.8138,-20.0166,1204.0054],[27.8162,-20.0134,1205.5237],[27.8196,-20.0056,1202.27],[27.8225,-20.0111,1205.233],[27.8235,-20.0415,1218.5461],[27.8284,-20.0466,1223.2191],[27.8332,-20.0466,1224.7344],[27.8415,-20.0295,1217.5767],[27.8483,-20.0268,1217.5361],[27.8551,-20.0277,1219.3564],[27.8615,-20.0157,1213.8556],[27.8717,-20.012,1194.9395],[27.8975,-20.0079,1166.5162],[27.9019,-20.0047,1160.6934],[27.9033,-19.9941,1144.1382],[27.906,-19.9922,1144.3787],[27.8796,-19.959,1152.9403],[27.8654,-19.9634,1164.2881],[27.8508,-19.9629,1195.9214],[27.8234,-19.9519,1190.8715],[27.8233,-19.9703,1193.1866],[27.8211,-19.9746,1193.6757],[27.816,-19.9778,1193.814],[27.8025,-19.9806,1190.0906],[27.7972,-19.988,1189.7754],[27.797,-19.9919,1188.3308]]]]}
,"properties": {"GID_3": "ZWE.8.7.9_2","GID_0": "ZWE","country": "Zimbabwe","GID_1": "ZWE.8_1","province": "MatabelelandNorth","NL_NAME_1": "NA","GID_2": "ZWE.8.7_2","county": "Tsholotsho","NL_NAME_2": "NA","city": "Ward17","VARNAME_3": "NA","NL_NAME_3": "NA","TYPE_3": "Ward","ENGTYPE_3": "Ward","CC_3": "NA","HASC_3": "NA","name": "Ward17.city","area_km2": 61.30731,"hist_schema_id": "Elevation0-9000","hist_area_km2": {"1150": 5.40009,"1175": 16.19937,"1200": 33.15415,"1225": 6.5537}}}