{"type": "Feature","bbox": [29.9912,-19.9995,30.1447,-19.9348],"geometry": {"type": "MultiPolygon","coordinates": [[[[29.9912,-19.9697,1023.7809],[30.001,-19.9826,1008.611],[30.0035,-19.9883,990.6569],[30.0063,-19.9836,997.1562],[30.015,-19.9777,1025.9026],[30.0184,-19.9817,1031.5275],[30.0168,-19.988,1019.0938],[30.0228,-19.9953,1002.2038],[30.0307,-19.9878,1021.3041],[30.0347,-19.9885,1001.9983],[30.0355,-19.9995,992.3374],[30.0399,-19.9948,1005.1011],[30.046,-19.9947,999.9609],[30.0534,-19.989,1022.5185],[30.0666,-19.9858,1026.0981],[30.0677,-19.9698,1045.7097],[30.0776,-19.9669,1022.4628],[30.0805,-19.9644,1027.545],[30.0856,-19.9641,1026.7385],[30.1038,-19.9718,1002.5224],[30.1112,-19.9669,1040.0291],[30.1171,-19.9679,1004.5901],[30.1205,-19.9703,1005.4094],[30.1243,-19.9698,1010.3763],[30.138,-19.9732,974.6529],[30.139,-19.9701,972.0546],[30.143,-19.9678,974.0967],[30.1447,-19.9604,981.7768],[30.1433,-19.9586,989.1895],[30.0919,-19.9439,1254.2852],[30.078,-19.9432,1069.1963],[30.0474,-19.9348,1111.058],[30.0333,-19.9394,1081.1388],[29.9912,-19.9697,1023.7809]]]]}
,"properties": {"GID_3": "ZWE.10.13.1_2","GID_0": "ZWE","country": "Zimbabwe","GID_1": "ZWE.10_1","province": "Midlands","NL_NAME_1": "NA","GID_2": "ZWE.10.13_2","county": "Zvishavane","NL_NAME_2": "NA","city": "Ward1","VARNAME_3": "NA","NL_NAME_3": "NA","TYPE_3": "Ward","ENGTYPE_3": "Ward","CC_3": "NA","HASC_3": "NA","name": "Ward1.city","area_km2": 53.40755,"hist_schema_id": "Elevation0-9000","hist_area_km2": {"975": 1.19568,"1000": 5.47995,"1025": 17.6755,"1050": 19.0116,"1075": 7.47379,"1100": 1.47487,"1125": 0.15944,"1150": 0.15944,"1175": 0.05979,"1200": 0.1993,"1225": 0.03986,"1250": 0.09965,"1275": 0.11958,"1300": 0.17937,"1325": 0.07972}}}