{"type": "Feature","bbox": [31.3275,-20.5752,31.546,-20.4443],"geometry": {"type": "MultiPolygon","coordinates": [[[[31.3548,-20.4943,643.6242],[31.3502,-20.4999,639.0336],[31.3451,-20.5026,653.3121],[31.3465,-20.5099,635.9029],[31.3434,-20.5161,633.3512],[31.3472,-20.5151,637.1989],[31.3471,-20.5196,627.6094],[31.3374,-20.5192,623.0624],[31.3378,-20.5242,615.0168],[31.3275,-20.5707,590.5042],[31.3281,-20.5752,582.3433],[31.3305,-20.5752,587.4365],[31.3387,-20.5663,630.0383],[31.3456,-20.5675,593.8711],[31.353,-20.5635,598.106],[31.3544,-20.5611,620.028],[31.3629,-20.5604,604.7626],[31.366,-20.5573,621.5315],[31.3725,-20.5561,619.5941],[31.3763,-20.5517,622.1055],[31.3871,-20.5499,631.368],[31.3922,-20.5472,650.7594],[31.3971,-20.547,644.6985],[31.3989,-20.5451,652.1014],[31.4081,-20.5443,665.1609],[31.4169,-20.5386,676.5243],[31.4189,-20.5391,668.9641],[31.4215,-20.536,683.2621],[31.4243,-20.5372,677.5978],[31.4264,-20.5341,683.1674],[31.4426,-20.5221,702.6132],[31.4681,-20.5073,710.8763],[31.4739,-20.5071,697.1583],[31.48,-20.5004,697.2456],[31.4904,-20.4945,707.2478],[31.5001,-20.4943,681.0684],[31.5047,-20.4922,678.537],[31.5097,-20.4928,664.6157],[31.5262,-20.4874,659.676],[31.5401,-20.4856,647.428],[31.546,-20.4827,662.0366],[31.5305,-20.4716,671.1992],[31.5244,-20.4692,674.8292],[31.5279,-20.4494,678.1375],[31.5226,-20.4446,676.6232],[31.5208,-20.4449,686.3669],[31.5179,-20.4504,676.2195],[31.5092,-20.4505,683.3389],[31.5053,-20.4542,686.4088],[31.5024,-20.4548,680.8811],[31.5009,-20.4522,681.4204],[31.5018,-20.4461,690.5663],[31.4883,-20.4443,698.9567],[31.484,-20.4476,711.1889],[31.4808,-20.4474,717.0502],[31.4799,-20.4495,714.7708],[31.4753,-20.4488,720.5576],[31.4752,-20.4512,708.8743],[31.4729,-20.4514,713.79],[31.4689,-20.4598,718.4249],[31.4631,-20.4614,720.5259],[31.4604,-20.4582,728.3802],[31.4549,-20.4587,731.8571],[31.4464,-20.4654,736.5183],[31.4413,-20.4724,744.9606],[31.431,-20.4632,729.8407],[31.4173,-20.4618,694.3108],[31.4073,-20.4576,691.6041],[31.4022,-20.4617,677.9021],[31.3929,-20.4619,667.1154],[31.3929,-20.4648,667.3697],[31.3905,-20.4667,665.1353],[31.3841,-20.4658,656.3],[31.3777,-20.4687,653.8737],[31.3761,-20.4782,651.4759],[31.3654,-20.4823,658.3604],[31.3587,-20.4888,648.1652],[31.3585,-20.4932,642.7882],[31.3548,-20.4943,643.6242]]]]}
,"properties": {"GID_3": "ZWE.7.9.17_2","GID_0": "ZWE","country": "Zimbabwe","GID_1": "ZWE.7_1","province": "Masvingo","NL_NAME_1": "NA","GID_2": "ZWE.7.9_2","county": "Zaka","NL_NAME_2": "NA","city": "Ward24","VARNAME_3": "NA","NL_NAME_3": "NA","TYPE_3": "Ward","ENGTYPE_3": "Ward","CC_3": "NA","HASC_3": "NA","name": "Ward24.city","area_km2": 140.7045,"hist_schema_id": "Elevation0-9000","hist_area_km2": {"600": 1.2308,"625": 3.5339,"650": 12.7676,"675": 23.7311,"700": 22.6013,"725": 20.0197,"750": 18.351,"775": 14.8356,"800": 7.0901,"825": 4.1904,"850": 3.4755,"875": 3.2173,"900": 2.3038,"925": 1.9662,"950": 0.9931,"975": 0.3972}}}