{"type": "Feature","bbox": [29.0147,-20.1914,29.2455,-19.9559],"geometry": {"type": "MultiPolygon","coordinates": [[[[29.0571,-19.9564,1355.6205],[29.0147,-19.9744,1340.2289],[29.0199,-20.0063,1341.3374],[29.0402,-20.003,1320.1287],[29.0566,-20.101,1251.0543],[29.0892,-20.1081,1249.0911],[29.0887,-20.1485,1234.7462],[29.158,-20.1912,1204.5914],[29.2102,-20.1914,1183.5077],[29.2455,-20.1615,1170.3857],[29.2413,-20.1568,1175.8538],[29.2449,-20.1536,1176.506],[29.2448,-20.151,1179.6326],[29.2403,-20.1474,1178.6575],[29.237,-20.1413,1178.7939],[29.2317,-20.1376,1176.5957],[29.2324,-20.1315,1179.8547],[29.2051,-20.0886,1200.7622],[29.2063,-20.0611,1210.7806],[29.1962,-20.006,1234.5],[29.1666,-20.0211,1272.3525],[29.1224,-20.0086,1294.8857],[29.0583,-19.9559,1354.8069],[29.0571,-19.9564,1355.6205]]]]}
,"properties": {"GID_3": "ZWE.9.6.10_2","GID_0": "ZWE","country": "Zimbabwe","GID_1": "ZWE.9_1","province": "MatabelelandSouth","NL_NAME_1": "NA","GID_2": "ZWE.9.6_2","county": "Insiza","NL_NAME_2": "NA","city": "Ward18","VARNAME_3": "NA","NL_NAME_3": "NA","TYPE_3": "Ward","ENGTYPE_3": "Ward","CC_3": "NA","HASC_3": "NA","name": "Ward18.city","area_km2": 332.5497,"hist_schema_id": "Elevation0-9000","hist_area_km2": {"1150": 0.7164,"1175": 17.7726,"1200": 57.864,"1225": 83.7022,"1250": 78.6041,"1275": 43.4029,"1300": 28.3297,"1325": 18.6505,"1350": 3.5072}}}