{"type":"Feature","properties":{"GID_3":"ZWE.8.5.7_2","GID_0":"ZWE","country":"Zimbabwe","GID_1":"ZWE.8_1","province":"MatabelelandNorth","NL_NAME_1":"NA","GID_2":"ZWE.8.5_2","county":"Lupane","NL_NAME_2":"NA","city":"Ward15","VARNAME_3":"NA","NL_NAME_3":"NA","TYPE_3":"Ward","ENGTYPE_3":"Ward","CC_3":"NA","HASC_3":"NA","name":"Ward15.city"},
"geometry":{"type": "MultiPolygon","coordinates": [[[[27.7874,-18.7843,951.9619],[27.777,-18.7796,945.9927],[27.7652,-18.769,946.0845],[27.7576,-18.7667,949.6016],[27.7478,-18.7674,949.1525],[27.7448,-18.7725,944.3607],[27.7388,-18.7756,950.7449],[27.7391,-18.781,954.8772],[27.7436,-18.7859,964.8341],[27.7426,-18.79,968.7211],[27.7366,-18.7943,975.8992],[27.7282,-18.7884,974.1066],[27.7185,-18.8017,1051.2712],[27.707,-18.8226,1051.7371],[27.6971,-18.845,1016.3842],[27.6952,-18.8537,1003.6386],[27.7083,-18.8709,978.0234],[27.6989,-18.8764,965.1603],[27.6954,-18.8763,966.7835],[27.6907,-18.8827,959.5998],[27.685,-18.8859,963.0112],[27.6829,-18.8904,952.6837],[27.69,-18.8923,961.0832],[27.7012,-18.8925,963.2496],[27.7053,-18.8948,955.2332],[27.7085,-18.899,959.4712],[27.7135,-18.9122,958.1278],[27.7199,-18.9194,957.4435],[27.7273,-18.9247,958.1088],[27.7429,-18.9242,962.8652],[27.7441,-18.9262,965.989],[27.7518,-18.9292,965.4489],[27.7547,-18.9378,954.9656],[27.7503,-18.9505,974.0299],[27.7662,-18.9496,973.3224],[27.7639,-18.9366,957.7839],[27.7679,-18.937,962.2469],[27.7715,-18.9404,960.7085],[27.7839,-18.9384,965.8007],[27.7863,-18.9399,961.1378],[27.819,-18.9396,969.1395],[27.8191,-18.9345,1009.2792],[27.8112,-18.9316,1009.825],[27.8113,-18.9256,1027.4733],[27.8178,-18.8736,1036.4568],[27.8289,-18.8477,1056.2533],[27.8302,-18.8418,1055.6797],[27.8294,-18.8325,1047.0742],[27.834,-18.8331,1045.9761],[27.8385,-18.8303,1020.5893],[27.855,-18.8309,1031.2762],[27.8824,-18.8359,1021.2976],[27.8891,-18.8358,1020.7823],[27.8981,-18.8257,991.1888],[27.9079,-18.8047,953.8244],[27.8842,-18.7968,955.0413],[27.8526,-18.799,956.0886],[27.8494,-18.7977,952.6227],[27.8425,-18.7887,960.5472],[27.8381,-18.7862,963.4235],[27.8193,-18.7884,947.9839],[27.8046,-18.7838,953.3187],[27.7936,-18.7855,948.7529],[27.7874,-18.7843,951.9619]]]]}}