{"type": "Feature","bbox": [29.6335,-20.867,29.7656,-20.7417],"geometry": {"type": "MultiPolygon","coordinates": [[[[29.6335,-20.8449,1043.8481],[29.6462,-20.8406,1051.8792],[29.6605,-20.8393,1033.8566],[29.674,-20.8428,1059.722],[29.6855,-20.8494,1045.1271],[29.7063,-20.8543,1118.4659],[29.7267,-20.8643,1074.4775],[29.737,-20.867,996.5587],[29.7392,-20.856,1056.7589],[29.7428,-20.8532,1009.4854],[29.7502,-20.836,930.9524],[29.7533,-20.8351,927.95],[29.7516,-20.8279,1059.0886],[29.7608,-20.8125,993.6246],[29.762,-20.8024,967.3098],[29.7656,-20.7993,944.2757],[29.7638,-20.7894,921.2349],[29.7656,-20.7861,921.5356],[29.7621,-20.7823,921.6425],[29.7644,-20.78,908.9073],[29.735,-20.7778,923.1478],[29.7297,-20.7749,923.2513],[29.7301,-20.7714,926.2754],[29.7251,-20.7639,933.5061],[29.7114,-20.7653,937.5266],[29.7013,-20.7639,938.8082],[29.6973,-20.7674,944.7375],[29.6915,-20.7614,949.2383],[29.6885,-20.7504,952.0312],[29.6825,-20.7513,952.7775],[29.6738,-20.7427,981.0808],[29.6613,-20.7417,964.1411],[29.6552,-20.7433,967.5881],[29.6506,-20.7557,1024.745],[29.6335,-20.8449,1043.8481]]]]}
,"properties": {"GID_3": "ZWE.10.9.28_2","GID_0": "ZWE","country": "Zimbabwe","GID_1": "ZWE.10_1","province": "Midlands","NL_NAME_1": "NA","GID_2": "ZWE.10.9_2","county": "Mberengwa","NL_NAME_2": "NA","city": "Ward34","VARNAME_3": "NA","NL_NAME_3": "NA","TYPE_3": "Ward","ENGTYPE_3": "Ward","CC_3": "NA","HASC_3": "NA","name": "Ward34.city","area_km2": 119.5521,"hist_schema_id": "Elevation0-9000","hist_area_km2": {"900": 0.09911,"925": 3.07239,"950": 9.99065,"975": 21.23015,"1000": 23.88424,"1025": 17.83687,"1050": 11.91043,"1075": 9.4528199999999991,"1100": 7.80795,"1125": 7.88695,"1150": 3.86409,"1175": 1.58519,"1200": 0.77274,"1225": 0.15851}}}