{"type":"Feature","properties":{"GID_3":"ZWE.5.6.13_2","GID_0":"ZWE","country":"Zimbabwe","GID_1":"ZWE.5_1","province":"MashonalandEast","NL_NAME_1":"NA","GID_2":"ZWE.5.6_2","county":"Mudzi","NL_NAME_2":"NA","city":"Ward4","VARNAME_3":"NA","NL_NAME_3":"NA","TYPE_3":"Ward","ENGTYPE_3":"Ward","CC_3":"NA","HASC_3":"NA","name":"Ward4.city"},
"geometry":{"type": "MultiPolygon","coordinates": [[[[32.4213,-16.8385,566.3717],[32.4138,-16.8397,569.3123],[32.4034,-16.8465,586.0968],[32.3964,-16.8458,569.5629],[32.3933,-16.8488,572.9586],[32.3911,-16.8614,581.9364],[32.3889,-16.8657,583.9979],[32.3832,-16.87,586.0216],[32.3753,-16.87,601.6395],[32.3709,-16.878,578.6558],[32.3583,-16.8872,590.3375],[32.3603,-16.8912,593.576],[32.359,-16.8936,588.413],[32.3531,-16.8959,600.7114],[32.3442,-16.8955,616.1818],[32.3422,-16.9012,597.212],[32.3347,-16.902,610.2216],[32.33,-16.9172,607.6575],[32.3233,-16.9287,605.0721],[32.3169,-16.9331,614.1221],[32.3236,-16.9471,618.3312],[32.3233,-16.9509,619.5265],[32.3213,-16.9513,615.8323],[32.3226,-16.954,607.1331],[32.3203,-16.9638,620.085],[32.3253,-16.9659,642.3237],[32.326,-16.9731,626.7087],[32.3286,-16.9747,642.3981],[32.3251,-16.9807,633.1213],[32.323,-16.9817,639.6901],[32.3229,-16.9845,633.6802],[32.3321,-16.9927,653.3223],[32.3418,-16.9954,662.8512],[32.336,-17.0063,666.375],[32.3322,-17.0076,683.8213],[32.3307,-17.0135,662.5175],[32.3417,-17.0152,691.9252],[32.3408,-17.0249,679.2128],[32.3458,-17.0287,694.0232],[32.3433,-17.0348,682.5999],[32.3493,-17.0363,701.4119],[32.3507,-17.0434,686.8454],[32.3538,-17.0454,708.1573],[32.3543,-17.0506,695.5203],[32.3649,-17.0539,792.6016],[32.3843,-17.0488,803.3004],[32.4005,-17.0488,777.2759],[32.4026,-17.0438,767.7698],[32.4124,-17.0476,742.3004],[32.416,-17.0464,735.1065],[32.4241,-17.0592,757.9742],[32.4208,-17.0673,756.6248],[32.4207,-17.0717,763.8613],[32.4227,-17.0726,760.0521],[32.4229,-17.0744,772.5696],[32.4212,-17.086,772.9305],[32.4431,-17.0982,833.4219],[32.4521,-17.0981,849.0837],[32.4566,-17.1014,847.2398],[32.4596,-17.0968,866.4014],[32.4597,-17.0886,895.9466],[32.4628,-17.0867,906.9066],[32.4641,-17.082,860.7349],[32.4702,-17.0761,831.0181],[32.4748,-17.0746,828.888],[32.4838,-17.068,808.0687],[32.4942,-17.0689,863.6824],[32.5004,-17.0676,833.3639],[32.5026,-17.0728,820.1712],[32.5077,-17.0771,859.8641],[32.517,-17.0719,830.0984],[32.5395,-17.0677,858.9467],[32.5364,-17.0643,912.317],[32.5366,-17.0599,882.962],[32.5344,-17.0565,877.4511],[32.5309,-17.0552,930.8405],[32.5127,-17.0377,812.8588],[32.5104,-17.0373,806.5264],[32.5069,-17.0399,767.2587],[32.5057,-17.0379,774.6652],[32.4984,-17.0349,758.2614],[32.4994,-17.0318,761.6895],[32.4975,-17.0257,753.8958],[32.4916,-17.0181,738.6232],[32.4949,-17.0127,736.5272],[32.492,-17.0093,737.4065],[32.4885,-17.0112,729.9053],[32.4859,-17.0103,724.0923],[32.4834,-17.0053,726.0386],[32.4761,-17.0006,715.9609],[32.4707,-16.9909,706.123],[32.4703,-16.9803,707.4795],[32.4675,-16.9779,704.4564],[32.4622,-16.965,704.5635],[32.4637,-16.9541,682.1279],[32.46,-16.9501,681.0013],[32.4595,-16.9471,669.8738],[32.4646,-16.942,676.0757],[32.4674,-16.9418,666.4041],[32.4694,-16.9381,663.4319],[32.4673,-16.9305,661.5032],[32.4696,-16.9283,654.8003],[32.4671,-16.9227,662.0627],[32.459,-16.9138,640.5913],[32.4583,-16.9092,640.5675],[32.4601,-16.9039,645.9186],[32.4534,-16.8972,625.6036],[32.4519,-16.8933,632.467],[32.443,-16.8876,648.0049],[32.4338,-16.8886,625.4419],[32.4292,-16.8845,628.6652],[32.4244,-16.8775,611.4266],[32.4239,-16.8729,626.1783],[32.4196,-16.8692,607.3034],[32.4196,-16.867,606.8992],[32.4221,-16.8659,590.3035],[32.4257,-16.8586,588.1391],[32.4226,-16.8537,568.0201],[32.4242,-16.8492,576.5546],[32.4191,-16.8463,559.6136],[32.4213,-16.8422,558.7847],[32.4213,-16.8385,566.3717]]]]}}