{"type": "Feature","bbox": [29.7406,-19.4661,29.7518,-19.4548],"geometry": {"type": "MultiPolygon","coordinates": [[[[29.7518,-19.4635,1430.2231],[29.749,-19.4548,1421.7075],[29.7406,-19.4579,1434.6473],[29.7463,-19.4661,1427.7927],[29.7518,-19.4635,1430.2231]]]]}
,"properties": {"GID_3": "ZWE.10.6.6_2","GID_0": "ZWE","country": "Zimbabwe","GID_1": "ZWE.10_1","province": "Midlands","NL_NAME_1": "NA","GID_2": "ZWE.10.6_2","county": "GweruUrban","NL_NAME_2": "NA","city": "Ward14","VARNAME_3": "NA","NL_NAME_3": "NA","TYPE_3": "Ward","ENGTYPE_3": "Ward","CC_3": "NA","HASC_3": "NA","name": "Ward14.city","area_km2": 0.8396215,"hist_schema_id": "Elevation0-9000","hist_area_km2": {"1425": 0.8396215}}}