{"type":"Feature","properties":{"GID_3":"ZWE.2.3.34_2","GID_0":"ZWE","country":"Zimbabwe","GID_1":"ZWE.2_1","province":"Harare","NL_NAME_1":"NA","GID_2":"ZWE.2.3_2","county":"Harare","NL_NAME_2":"NA","city":"Ward40","VARNAME_3":"NA","NL_NAME_3":"NA","TYPE_3":"Ward","ENGTYPE_3":"Ward","CC_3":"NA","HASC_3":"NA","name":"Ward40.city"},
"geometry":{"type": "MultiPolygon","coordinates": [[[[30.9393,-17.7842,1446.1836],[30.9299,-17.7809,1449.8306],[30.9052,-17.7772,1441.7084],[30.8902,-17.7805,1441.804],[30.8893,-17.796,1454.1406],[30.8959,-17.8011,1452.3113],[30.8832,-17.8111,1471.0311],[30.8882,-17.8208,1432.9586],[30.9083,-17.8181,1417.9559],[30.9123,-17.8139,1420.5618],[30.9123,-17.811,1422.7153],[30.9218,-17.8107,1433.8954],[30.9247,-17.8039,1436.356],[30.9305,-17.8002,1446.2305],[30.936,-17.7999,1455.9026],[30.9399,-17.8021,1468.2698],[30.9436,-17.7867,1448.7198],[30.9393,-17.7842,1446.1836]]]]}}