{"type":"Feature","properties":{"GID_3":"ZWE.5.3.5_2","GID_0":"ZWE","country":"Zimbabwe","GID_1":"ZWE.5_1","province":"MashonalandEast","NL_NAME_1":"NA","GID_2":"ZWE.5.3_2","county":"Hwedza","NL_NAME_2":"NA","city":"Ward13","VARNAME_3":"NA","NL_NAME_3":"NA","TYPE_3":"Ward","ENGTYPE_3":"Ward","CC_3":"NA","HASC_3":"NA","name":"Ward13.city"},
"geometry":{"type": "MultiPolygon","coordinates": [[[[31.7851,-19.048,872.9272],[31.786,-19.0442,882.0886],[31.7928,-19.0414,887.7717],[31.8027,-19.0409,890.5484],[31.8173,-19.0369,942.105],[31.857,-19.0098,955.1239],[31.8729,-19.0026,919.6678],[31.8763,-18.9984,909.2258],[31.8923,-18.9926,872.7678],[31.9029,-18.9857,877.8132],[31.9214,-18.9808,862.48],[31.9392,-18.9787,938.8562],[31.9708,-18.9674,829.9634],[31.9683,-18.9645,832.5855],[31.9673,-18.959,845.2195],[31.9566,-18.9481,842.8266],[31.9526,-18.9411,854.2935],[31.9483,-18.938,844.9706],[31.9515,-18.9257,878.3505],[31.8846,-18.9372,935.0542],[31.8629,-18.9326,957.0637],[31.8005,-18.9387,984.0089],[31.7902,-18.9409,990.8387],[31.7519,-18.9434,1024.7407],[31.7474,-18.9425,1041.4128],[31.6985,-18.9474,967.5198],[31.6835,-18.9445,931.5654],[31.6903,-18.9552,920.2894],[31.6983,-18.9759,908.9047],[31.7022,-18.9817,903.3329],[31.7012,-18.9928,900.5254],[31.7027,-18.9997,895.085],[31.7062,-19.0008,898.6935],[31.7053,-19.0072,892.8987],[31.715,-19.0175,903.2197],[31.7187,-19.0243,894.0298],[31.7228,-19.0248,892.9648],[31.7267,-19.0215,900.2922],[31.7294,-19.0218,904.0341],[31.7388,-19.0277,883.6912],[31.7473,-19.0279,892.4271],[31.7564,-19.031,887.7247],[31.7693,-19.0325,888.3727],[31.7744,-19.0349,885.5659],[31.7851,-19.048,872.9272]]]]}}