{"type": "Feature","bbox": [31.4632,-18.168,31.674,-17.9468],"geometry": {"type": "MultiPolygon","coordinates": [[[[31.5549,-17.9504,1315.1316],[31.5477,-17.9586,1356.75],[31.5408,-17.9594,1387.1643],[31.5321,-17.9653,1364.9602],[31.5219,-17.9671,1378.0474],[31.5122,-17.9656,1417.5056],[31.5114,-17.9691,1388.4734],[31.5067,-17.9665,1407.7784],[31.5045,-17.9674,1406.3787],[31.5045,-17.9707,1398.5453],[31.4994,-17.9757,1395.1687],[31.5031,-17.985,1450.6705],[31.5207,-17.9882,1441.9407],[31.5276,-17.9926,1408.9783],[31.5221,-17.9955,1420.2134],[31.517,-18.0021,1428.9758],[31.5126,-18.0029,1438.0477],[31.5124,-18.0098,1425.6637],[31.5091,-18.0137,1432.8534],[31.4894,-17.9985,1479.834],[31.4815,-18.0232,1497.4656],[31.4632,-18.0432,1502.8474],[31.4734,-18.0572,1504.1919],[31.477,-18.0513,1504.3093],[31.4821,-18.0483,1483.7811],[31.4927,-18.0579,1494.8818],[31.498,-18.0611,1487.5984],[31.5038,-18.0623,1502.7269],[31.5064,-18.0674,1503.6345],[31.5446,-18.0379,1518.1317],[31.5368,-18.063,1583.0668],[31.5425,-18.0773,1579.2427],[31.5502,-18.0827,1580.4307],[31.5657,-18.1214,1646.8193],[31.591,-18.168,1664.7792],[31.6245,-18.1454,1628.7537],[31.6348,-18.1466,1647.8564],[31.6586,-18.1204,1582.6611],[31.6704,-18.0937,1529.7229],[31.674,-18.0945,1495.7357],[31.6717,-18.0713,1494.4065],[31.6583,-18.067,1511.3357],[31.6371,-18.0768,1556.5164],[31.6202,-18.0601,1560.3853],[31.6129,-18.047,1556.4729],[31.6134,-18.0419,1539.7542],[31.6085,-18.015,1483.1775],[31.5708,-18.0068,1392.8838],[31.5692,-17.9976,1406.8317],[31.565,-17.9923,1372.4563],[31.567,-17.9844,1372.2623],[31.5652,-17.9776,1375.4333],[31.5629,-17.9754,1359.8839],[31.5663,-17.9641,1351.965],[31.5606,-17.9549,1294.504],[31.5593,-17.9468,1286.0881],[31.5549,-17.9504,1315.1316]]]]}
,"properties": {"GID_3": "ZWE.5.4.1_2","GID_0": "ZWE","country": "Zimbabwe","GID_1": "ZWE.5_1","province": "MashonalandEast","NL_NAME_1": "NA","GID_2": "ZWE.5.4_2","county": "Marondera","NL_NAME_2": "NA","city": "Ward1","VARNAME_3": "NA","NL_NAME_3": "NA","TYPE_3": "Ward","ENGTYPE_3": "Ward","CC_3": "NA","HASC_3": "NA","name": "Ward1.city","area_km2": 215.7868,"hist_schema_id": "Elevation0-9000","hist_area_km2": {"1275": 0.242,"1300": 0.1815,"1325": 0.5244,"1350": 2.6622,"1375": 5.0822,"1400": 9.6393,"1425": 15.0427,"1450": 19.4563,"1475": 28.2452,"1500": 27.1538,"1525": 22.6154,"1550": 22.1295,"1575": 22.4105,"1600": 19.7085,"1625": 13.2382,"1650": 6.79,"1675": 0.6648}}}