{"type": "Feature","bbox": [31.9858,-16.6107,32.1273,-16.4406],"geometry": {"type": "MultiPolygon","coordinates": [[[[32.0584,-16.4411,565.5007],[32.0545,-16.4532,557.9654],[32.048,-16.4612,678.7918],[32.0434,-16.4607,674.6708],[32.0256,-16.4681,626.6982],[32.0142,-16.47,737.7484],[32.0042,-16.4705,745.6452],[31.9959,-16.4694,750.9559],[31.9913,-16.4672,721.3739],[31.9867,-16.4698,677.6295],[31.9858,-16.473,655.0725],[31.9882,-16.4757,663.4058],[31.9884,-16.4788,660.9675],[31.9946,-16.4814,705.1389],[31.9993,-16.4872,701.9868],[32.0138,-16.4972,739.9335],[32.0139,-16.501,706.5345],[32.0219,-16.5008,757.6409],[32.021,-16.5029,720.9045],[32.0232,-16.5045,719.9357],[32.0284,-16.5046,774.2437],[32.0275,-16.5083,726.8019],[32.0393,-16.5181,783.8508],[32.0424,-16.5227,793.9593],[32.0481,-16.5246,795.386],[32.0461,-16.5265,787.8473],[32.0465,-16.5282,795.5499],[32.0566,-16.5318,827.4591],[32.0573,-16.534,818.8828],[32.0664,-16.5403,857.818],[32.0652,-16.5457,844.1018],[32.0714,-16.5563,885.8806],[32.0736,-16.5666,924.1943],[32.0692,-16.5701,933.029],[32.0719,-16.5781,949.8325],[32.0695,-16.5873,960.1921],[32.0671,-16.5893,980.306],[32.0699,-16.5924,975.3267],[32.0746,-16.5931,1004.3737],[32.0756,-16.604,973.5005],[32.0778,-16.6077,973.7596],[32.0846,-16.6107,943.9726],[32.0863,-16.5993,956.1619],[32.0853,-16.5943,976.1779],[32.0872,-16.5907,957.602],[32.0924,-16.5886,938.5001],[32.1017,-16.5876,921.819],[32.0981,-16.5832,930.3348],[32.1074,-16.5682,907.5074],[32.1077,-16.5632,894.1603],[32.1063,-16.5609,884.6016],[32.1152,-16.5514,866.7128],[32.1224,-16.5482,867.1342],[32.1228,-16.5401,813.5687],[32.1273,-16.5203,784.5131],[32.1265,-16.5136,728.1424],[32.1238,-16.5084,730.4092],[32.1086,-16.5017,699.5805],[32.1013,-16.4948,714.4247],[32.0972,-16.497,695.9651],[32.0972,-16.4953,703.9885],[32.0949,-16.4956,695.364],[32.0899,-16.4924,698.0079],[32.0852,-16.4926,674.7446],[32.0843,-16.4891,661.9973],[32.0807,-16.4877,672.0507],[32.0809,-16.4864,672.0507],[32.0829,-16.4875,661.0861],[32.0844,-16.4859,666.4931],[32.0816,-16.4822,669.9976],[32.0796,-16.4743,644.3244],[32.0801,-16.4691,667.8795],[32.0844,-16.4658,630.2113],[32.092,-16.4643,717.8484],[32.0814,-16.4611,607.5372],[32.0802,-16.4585,609.304],[32.0827,-16.4553,617.4423],[32.0768,-16.4508,582.7803],[32.0767,-16.4472,590.1382],[32.0718,-16.4453,571.0463],[32.0736,-16.4406,559.7592],[32.0584,-16.4411,565.5007]]]]}
,"properties": {"GID_3": "ZWE.4.9.25_2","GID_0": "ZWE","country": "Zimbabwe","GID_1": "ZWE.4_1","province": "MashonalandCentral","NL_NAME_1": "NA","GID_2": "ZWE.4.9_2","county": "Rushinga","NL_NAME_2": "NA","city": "Ward9","VARNAME_3": "NA","NL_NAME_3": "NA","TYPE_3": "Ward","ENGTYPE_3": "Ward","CC_3": "NA","HASC_3": "NA","name": "Ward9.city","area_km2": 106.90322,"hist_schema_id": "Elevation0-9000","hist_area_km2": {"550": 0.38635,"575": 1.64709,"600": 3.4567,"625": 3.04991,"650": 5.93693,"675": 9.00673,"700": 10.12452,"725": 10.04293,"750": 5.81411,"775": 5.30562,"800": 6.74861,"825": 7.4394,"850": 8.69921,"875": 8.37369,"900": 5.71102,"925": 6.09696,"950": 4.77585,"975": 3.08872,"1000": 1.13789,"1025": 0.06096}}}