{"type":"Feature","properties":{"GID_3":"ZWE.10.5.16_2","GID_0":"ZWE","country":"Zimbabwe","GID_1":"ZWE.10_1","province":"Midlands","NL_NAME_1":"NA","GID_2":"ZWE.10.5_2","county":"Gweru","NL_NAME_2":"NA","city":"Ward6","VARNAME_3":"NA","NL_NAME_3":"NA","TYPE_3":"Ward","ENGTYPE_3":"Ward","CC_3":"NA","HASC_3":"NA","name":"Ward6.city"},
"geometry":{"type": "MultiPolygon","coordinates": [[[[29.4979,-19.3836,1360.4677],[29.4977,-19.3774,1352.073],[29.4937,-19.3684,1334.6637],[29.4947,-19.365,1322.2878],[29.5023,-19.3595,1306.6625],[29.5022,-19.3567,1304.9574],[29.4993,-19.3543,1300.7509],[29.4883,-19.3507,1302.4799],[29.4923,-19.3455,1291.6691],[29.4959,-19.3343,1290.2588],[29.493,-19.3321,1298.0529],[29.4849,-19.3303,1286.7167],[29.4863,-19.325,1283.0137],[29.4773,-19.3173,1282.2173],[29.4762,-19.3145,1281.5057],[29.4664,-19.3109,1287.7139],[29.438,-19.2949,1290.2212],[29.4313,-19.2933,1296.8555],[29.4289,-19.295,1301.3911],[29.4271,-19.2996,1318.0325],[29.4228,-19.302,1323.5312],[29.4091,-19.2896,1320.8398],[29.4021,-19.2916,1318.1237],[29.3964,-19.289,1305.2562],[29.3834,-19.2869,1277.5364],[29.373,-19.3035,1261.0918],[29.4304,-19.3589,1288.424],[29.442,-19.3669,1298.4939],[29.454,-19.3707,1328.6311],[29.4653,-19.3671,1351.4297],[29.4688,-19.3685,1354.0397],[29.4741,-19.3544,1320.4387],[29.4979,-19.3836,1360.4677]]]]}}