{"type": "Feature","bbox": [31.0484,-18.0019,31.0554,-17.9955],"geometry": {"type": "MultiPolygon","coordinates": [[[[31.0484,-17.9987,1432.7318],[31.053,-18.0019,1441.2528],[31.0554,-17.9984,1441.0485],[31.0507,-17.9955,1435.032],[31.0484,-17.9987,1432.7318]]]]}
,"properties": {"GID_3": "ZWE.2.1.23_2","GID_0": "ZWE","country": "Zimbabwe","GID_1": "ZWE.2_1","province": "Harare","NL_NAME_1": "NA","GID_2": "ZWE.2.1_2","county": "Chitungwiza","NL_NAME_2": "NA","city": "Ward7","VARNAME_3": "NA","NL_NAME_3": "NA","TYPE_3": "Ward","ENGTYPE_3": "Ward","CC_3": "NA","HASC_3": "NA","name": "Ward7.city","area_km2": 0.2621405,"hist_schema_id": "Elevation0-9000","hist_area_km2": {"1425": 0.1613175,"1450": 0.100823}}}