{"type": "Feature","bbox": [28.955,-19.9744,29.2859,-19.6761],"geometry": {"type": "MultiPolygon","coordinates": [[[[29.1032,-19.7753,1401.4998],[29.0858,-19.8072,1387.9786],[29.0979,-19.814,1401.0417],[29.072,-19.83,1393.9578],[29.0466,-19.8532,1403.2849],[28.955,-19.8217,1373.5404],[28.9914,-19.9427,1368.9866],[28.9833,-19.9568,1371.2338],[29.0146,-19.9744,1340.2289],[29.1122,-19.9346,1338.8134],[29.0587,-19.8914,1395.5881],[29.1157,-19.8714,1379.7174],[29.1413,-19.849,1378.0405],[29.1264,-19.8166,1407.4108],[29.1479,-19.7853,1396.212],[29.1864,-19.7688,1401.6912],[29.1881,-19.7853,1419.2457],[29.195,-19.7796,1413.8743],[29.201,-19.779,1417.4379],[29.202,-19.7771,1416.5411],[29.2158,-19.7723,1429.0177],[29.2208,-19.7722,1434.9265],[29.2267,-19.7698,1441.281],[29.2347,-19.7701,1446.1678],[29.2321,-19.764,1442.5601],[29.2236,-19.7594,1432.6038],[29.22,-19.7534,1425.4525],[29.2205,-19.7472,1418.4763],[29.2772,-19.7145,1395.7764],[29.2859,-19.6984,1376.3842],[29.2589,-19.6841,1328.8523],[29.2524,-19.6837,1335.78],[29.2538,-19.7101,1374.1093],[29.2399,-19.7088,1391.3357],[29.2377,-19.6962,1362.0052],[29.1954,-19.6962,1402.2566],[29.1957,-19.6783,1383.0916],[29.1847,-19.6761,1380.2709],[29.1029,-19.7094,1356.6672],[29.1032,-19.7753,1401.4998]]]]}
,"properties": {"GID_3": "ZWE.9.6.15_2","GID_0": "ZWE","country": "Zimbabwe","GID_1": "ZWE.9_1","province": "MatabelelandSouth","NL_NAME_1": "NA","GID_2": "ZWE.9.6_2","county": "Insiza","NL_NAME_2": "NA","city": "Ward22","VARNAME_3": "NA","NL_NAME_3": "NA","TYPE_3": "Ward","ENGTYPE_3": "Ward","CC_3": "NA","HASC_3": "NA","name": "Ward22.city","area_km2": 350.0371,"hist_schema_id": "Elevation0-9000","hist_area_km2": {"1300": 0.0997,"1325": 13.5583,"1350": 98.2026,"1375": 129.0663,"1400": 89.2367,"1425": 18.7961,"1450": 1.0775}}}