{"type":"Feature","properties":{"GID_3":"ZWE.7.6.13_2","GID_0":"ZWE","country":"Zimbabwe","GID_1":"ZWE.7_1","province":"Masvingo","NL_NAME_1":"NA","GID_2":"ZWE.7.6_2","county":"Masvingo","NL_NAME_2":"NA","city":"Ward20","VARNAME_3":"NA","NL_NAME_3":"NA","TYPE_3":"Ward","ENGTYPE_3":"Ward","CC_3":"NA","HASC_3":"NA","name":"Ward20.city"},
"geometry":{"type": "MultiPolygon","coordinates": [[[[30.7567,-20.3718,868.9105],[30.791,-20.3979,888.4421],[30.7841,-20.411,989.3812],[30.7903,-20.4246,1016.6905],[30.7928,-20.4365,1067.8793],[30.7754,-20.4457,897.1825],[30.7658,-20.4464,865.8572],[30.7619,-20.4498,852.3105],[30.779,-20.4655,935.0338],[30.7859,-20.4613,991.1407],[30.7933,-20.4595,933.8089],[30.798,-20.4621,945.1765],[30.7993,-20.4645,917.9781],[30.8091,-20.4622,881.0339],[30.8148,-20.4588,950.2861],[30.8177,-20.4498,1002.7438],[30.8263,-20.4406,985.418],[30.8317,-20.4441,924.9655],[30.8362,-20.4357,867.503],[30.8515,-20.4473,832.0086],[30.8605,-20.4476,823.0823],[30.8671,-20.4424,828.7024],[30.8681,-20.4381,830.3067],[30.8633,-20.432,841.6895],[30.8593,-20.4208,864.9861],[30.8595,-20.4127,864.7711],[30.8622,-20.4087,876.5822],[30.8602,-20.4051,871.0348],[30.861,-20.4015,880.1791],[30.8588,-20.3974,873.1343],[30.8507,-20.3955,879.5781],[30.8424,-20.388,886.0],[30.8379,-20.3776,907.0532],[30.8411,-20.377,953.2139],[30.8418,-20.3736,979.7527],[30.8458,-20.3741,989.0282],[30.8468,-20.3728,1009.3555],[30.8379,-20.3602,1053.776],[30.8239,-20.3485,1076.8636],[30.8168,-20.3467,1094.7556],[30.8033,-20.3487,1183.6447],[30.7838,-20.3423,1098.374],[30.7792,-20.3504,1055.7373],[30.774,-20.3477,1053.0754],[30.7686,-20.3482,1023.6838],[30.7677,-20.3654,919.0033],[30.762,-20.3704,875.4089],[30.7592,-20.3701,871.9767],[30.7567,-20.3718,868.9105]]]]}}