{"type":"Feature","properties":{"GID_3":"ZWE.9.1.3_2","GID_0":"ZWE","country":"Zimbabwe","GID_1":"ZWE.9_1","province":"MatabelelandSouth","NL_NAME_1":"NA","GID_2":"ZWE.9.1_2","county":"Beitbridge","NL_NAME_2":"NA","city":"Ward11","VARNAME_3":"NA","NL_NAME_3":"NA","TYPE_3":"Ward","ENGTYPE_3":"Ward","CC_3":"NA","HASC_3":"NA","name":"Ward11.city"},
"geometry":{"type": "MultiPolygon","coordinates": [[[[29.6559,-21.7575,557.903],[29.6675,-21.7461,571.7983],[29.6696,-21.7156,571.8481],[29.6568,-21.7113,575.4478],[29.6574,-21.7077,574.2954],[29.6661,-21.702,575.1213],[29.6648,-21.6957,578.5723],[29.6587,-21.6941,581.4834],[29.651,-21.6981,585.6628],[29.6466,-21.6986,582.301],[29.6445,-21.6962,583.5475],[29.6464,-21.6832,583.3004],[29.6433,-21.6794,588.8611],[29.6993,-21.6468,614.5602],[29.7543,-21.5932,749.7366],[29.7755,-21.5527,901.369],[29.7803,-21.5391,747.7443],[29.7744,-21.5337,717.4211],[29.7717,-21.5274,715.7528],[29.7643,-21.529,707.0621],[29.7598,-21.528,697.5492],[29.7494,-21.531,684.0374],[29.7435,-21.5299,677.8152],[29.7291,-21.5321,665.5644],[29.7069,-21.5416,646.6515],[29.6986,-21.5389,649.4661],[29.663,-21.5343,664.0533],[29.6419,-21.5324,665.4949],[29.6344,-21.5334,659.5995],[29.6166,-21.5284,675.9],[29.6048,-21.5284,683.9684],[29.593,-21.5319,687.0864],[29.5957,-21.5424,672.9209],[29.5922,-21.5486,670.6711],[29.5916,-21.5553,666.4355],[29.5833,-21.5528,674.2067],[29.5751,-21.5539,682.3975],[29.567,-21.5593,683.6219],[29.5538,-21.5741,685.7428],[29.5476,-21.5733,681.3958],[29.5342,-21.5768,665.0847],[29.5107,-21.5758,642.0951],[29.5054,-21.5781,634.0443],[29.4986,-21.591,614.7656],[29.4967,-21.5919,612.729],[29.503,-21.605,607.9142],[29.5061,-21.616,604.4884],[29.5007,-21.6366,590.107],[29.5107,-21.6492,596.0396],[29.5242,-21.6602,580.2772],[29.5278,-21.6688,577.0701],[29.5433,-21.6724,594.522],[29.5605,-21.687,574.7441],[29.5642,-21.6964,573.5592],[29.567,-21.6994,575.2065],[29.578,-21.7044,576.1279],[29.5955,-21.7087,581.3429],[29.5976,-21.7133,571.1127],[29.6118,-21.718,573.8287],[29.6125,-21.7213,564.0403],[29.6052,-21.7334,564.0237],[29.605,-21.736,560.3603],[29.6077,-21.7396,561.8493],[29.6154,-21.7425,567.0601],[29.6237,-21.7487,561.0964],[29.6354,-21.7509,567.8505],[29.6478,-21.7566,558.1771],[29.6559,-21.7575,557.903]]]]}}