{"type":"Feature","properties":{"GID_3":"ZWE.4.1.13_2","GID_0":"ZWE","country":"Zimbabwe","GID_1":"ZWE.4_1","province":"MashonalandCentral","NL_NAME_1":"NA","GID_2":"ZWE.4.1_2","county":"Bindura","NL_NAME_2":"NA","city":"Ward20","VARNAME_3":"NA","NL_NAME_3":"NA","TYPE_3":"Ward","ENGTYPE_3":"Ward","CC_3":"NA","HASC_3":"NA","name":"Ward20.city"},
"geometry":{"type": "MultiPolygon","coordinates": [[[[31.3462,-17.2772,1069.1049],[31.3571,-17.2749,1051.2067],[31.3905,-17.2619,981.0782],[31.3971,-17.262,979.3691],[31.4022,-17.2652,978.4506],[31.4167,-17.2641,970.2524],[31.419,-17.2568,973.6234],[31.425,-17.2493,976.2206],[31.4322,-17.2482,977.5424],[31.4328,-17.2511,967.7449],[31.4424,-17.2506,965.7953],[31.4448,-17.2575,958.3356],[31.4549,-17.2588,959.5631],[31.4574,-17.2559,958.8729],[31.465699999999998,-17.2554,954.381],[31.4639,-17.2634,958.4199],[31.4681,-17.2641,955.4828],[31.4706,-17.2726,951.8588],[31.4834,-17.2742,947.6385],[31.4941,-17.2674,942.8181],[31.4936,-17.2713,939.8772],[31.4951,-17.2718,942.9577],[31.4954,-17.2047,1375.3506],[31.4451,-17.2028,1269.095],[31.4358,-17.2213,1114.7291],[31.3895,-17.2091,1029.5687],[31.3618,-17.1943,1311.3549],[31.3312,-17.1918,1101.8171],[31.2811,-17.1956,1083.5182],[31.2808,-17.196,1083.5182],[31.3005,-17.2163,1058.6621],[31.2897,-17.238,1017.4044],[31.296,-17.2396,1015.3084],[31.3034,-17.2482,1139.55],[31.3187,-17.2853,1163.6646],[31.3462,-17.2772,1069.1049]]]]}}