{"type": "Feature","bbox": [30.2597,-17.8187,30.3636,-17.6859],"geometry": {"type": "MultiPolygon","coordinates": [[[[30.2823,-17.6859,1257.0946],[30.2695,-17.7134,1268.2655],[30.2654,-17.714,1278.905],[30.2655,-17.7169,1273.5087],[30.2597,-17.7246,1286.3368],[30.2658,-17.7372,1298.1881],[30.2641,-17.7463,1303.8784],[30.2651,-17.7528,1307.6917],[30.2749,-17.7673,1324.9059],[30.2747,-17.7854,1338.5138],[30.2735,-17.7912,1329.191],[30.2712,-17.794,1324.1309],[30.2682,-17.8108,1311.5946],[30.277,-17.8061,1323.1437],[30.2861,-17.806,1331.467],[30.2933,-17.8078,1337.9624],[30.2996,-17.8057,1341.749],[30.3064,-17.8099,1336.2159],[30.3085,-17.8187,1311.7328],[30.3105,-17.8123,1324.3873],[30.3137,-17.8087,1339.3],[30.3275,-17.8039,1347.5374],[30.3401,-17.8056,1342.9647],[30.3437,-17.8081,1344.3914],[30.3462,-17.8044,1334.8058],[30.3479,-17.7902,1310.7548],[30.3517,-17.7787,1298.9967],[30.3603,-17.7725,1287.7828],[30.3636,-17.7673,1292.9456],[30.3573,-17.7632,1281.3179],[30.355,-17.7522,1284.2041],[30.3486,-17.751,1282.189],[30.3433,-17.7437,1285.4128],[30.3383,-17.7415,1281.7371],[30.3339,-17.7334,1286.0199],[30.32,-17.7191,1275.4264],[30.3118,-17.7061,1270.1443],[30.2972,-17.6969,1275.9235],[30.2918,-17.6901,1259.3651],[30.2873,-17.6893,1260.0625],[30.2823,-17.6859,1257.0946]]]]}
,"properties": {"GID_3": "ZWE.6.13.23_2","GID_0": "ZWE","country": "Zimbabwe","GID_1": "ZWE.6_1","province": "MashonalandWest","NL_NAME_1": "NA","GID_2": "ZWE.6.13_2","county": "Zvimba","NL_NAME_2": "NA","city": "Ward3","VARNAME_3": "NA","NL_NAME_3": "NA","TYPE_3": "Ward","ENGTYPE_3": "Ward","CC_3": "NA","HASC_3": "NA","name": "Ward3.city","area_km2": 92.13665,"hist_schema_id": "Elevation0-9000","hist_area_km2": {"1250": 2.10068,"1275": 14.70283,"1300": 26.09005,"1325": 32.12323,"1350": 17.11987}}}