{"type":"Feature","properties":{"GID_3":"ZWE.10.2.15_2","GID_0":"ZWE","country":"Zimbabwe","GID_1":"ZWE.10_1","province":"Midlands","NL_NAME_1":"NA","GID_2":"ZWE.10.2_2","county":"GokweNorth","NL_NAME_2":"NA","city":"Ward22","VARNAME_3":"NA","NL_NAME_3":"NA","TYPE_3":"Ward","ENGTYPE_3":"Ward","CC_3":"NA","HASC_3":"NA","name":"Ward22.city"},
"geometry":{"type": "MultiPolygon","coordinates": [[[[29.272,-17.3382,732.5565],[29.1525,-17.3886,819.2902],[29.1558,-17.3998,845.0281],[29.1643,-17.4108,819.4849],[29.1681,-17.42,833.7393],[29.1792,-17.4313,820.7059],[29.1999,-17.4463,842.5767],[29.2022,-17.4558,796.6407],[29.2052,-17.4575,797.0049],[29.2012,-17.4639,800.1193],[29.2026,-17.4681,799.7318],[29.2001,-17.4679,802.2607],[29.1987,-17.4732,801.3832],[29.2003,-17.474,801.3832],[29.2005,-17.479,802.5063],[29.1955,-17.4862,812.5445],[29.1982,-17.4868,806.4453],[29.1967,-17.4887,805.3714],[29.1978,-17.4926,807.4275],[29.1953,-17.4937,808.9829],[29.2013,-17.5019,814.9803],[29.2011,-17.5042,814.6286],[29.1938,-17.5224,822.1359],[29.1897,-17.5279,821.4207],[29.1881,-17.5457,831.316],[29.1925,-17.5555,840.2785],[29.1905,-17.5627,840.1111],[29.1925,-17.5753,848.3577],[29.1874,-17.5891,850.4443],[29.1934,-17.5913,866.7964],[29.2067,-17.5868,858.9796],[29.2492,-17.6008,868.3961],[29.2565,-17.6019,844.1873],[29.2827,-17.6205,806.8307],[29.295,-17.6149,816.0596],[29.2945,-17.6463,846.5792],[29.2991,-17.6573,832.5462],[29.2975,-17.6739,874.6703],[29.3012,-17.6878,878.3451],[29.2967,-17.7017,851.8969],[29.2969,-17.7059,858.5536],[29.301,-17.7155,833.7225],[29.3054,-17.7164,811.8096],[29.3339,-17.704,819.4597],[29.344,-17.6925,815.3015],[29.3462,-17.6861,819.8903],[29.3386,-17.6795,817.5257],[29.3352,-17.6671,801.2568],[29.3356,-17.6643,829.9476],[29.3447,-17.6585,813.4487],[29.3474,-17.6517,801.3594],[29.3402,-17.6446,803.2714],[29.3425,-17.6394,810.8434],[29.3404,-17.6258,800.4971],[29.3443,-17.6165,802.6907],[29.3299,-17.5993,804.8668],[29.3221,-17.6006,807.3658],[29.3208,-17.5993,791.0068],[29.315,-17.5835,789.3081],[29.3143,-17.5767,784.9557],[29.3161,-17.574,795.4308],[29.3244,-17.5697,791.1199],[29.3295,-17.5696,797.1221],[29.3334,-17.5676,796.3445],[29.3449,-17.552,790.7784],[29.3673,-17.5322,780.7263],[29.3699,-17.5271,795.143],[29.3672,-17.5218,786.1293],[29.3674,-17.5181,778.7467],[29.3777,-17.5134,780.7733],[29.3929,-17.5002,776.066],[29.4046,-17.4801,775.5841],[29.4067,-17.4686,774.0727],[29.4049,-17.4659,810.5844],[29.3913,-17.4725,798.6848],[29.3861,-17.4724,784.0198],[29.3685,-17.4651,779.7305],[29.359,-17.4583,769.3754],[29.3534,-17.4467,774.9342],[29.3376,-17.4385,774.7745],[29.3325,-17.4322,771.5726],[29.3284,-17.4159,779.8574],[29.3195,-17.4127,764.2133],[29.3152,-17.4074,775.8501],[29.3087,-17.4038,763.5353],[29.295,-17.3905,756.0714],[29.2802,-17.3813,752.8503],[29.276,-17.3707,748.4185],[29.2763,-17.3606,765.2219],[29.2785,-17.3524,758.0397],[29.272,-17.3382,732.5565]]]]}}