{"type": "Feature","bbox": [27.655,-19.5016,28.2138,-18.9567],"geometry": {"type": "MultiPolygon","coordinates": [[[[28.0904,-19.2872,1084.6462],[28.2138,-19.1887,1082.0114],[27.9669,-19.1148,1063.5325],[27.9692,-19.1081,1013.2554],[27.9634,-19.1055,1006.8997],[27.9535,-19.0975,986.5525],[27.9378,-19.092,985.182],[27.9278,-19.0794,990.8627],[27.922,-19.069,980.5782],[27.909,-19.0585,978.2043],[27.8885,-19.0453,975.6417],[27.8801,-19.0423,977.5581],[27.8655,-19.0332,970.8658],[27.8547,-19.0284,977.0766],[27.8499,-19.0197,997.0272],[27.8525,-18.9966,981.4386],[27.8447,-18.9845,965.9735],[27.8306,-18.9812,962.4656],[27.8181,-18.9739,968.3942],[27.7855,-18.9629,962.0],[27.7779,-18.9594,962.0],[27.7763,-18.9567,962.7203],[27.7557,-19.0001,989.1752],[27.7393,-19.0221,966.3591],[27.7426,-19.0283,966.7507],[27.7422,-19.0375,969.5557],[27.7362,-19.039,969.4294],[27.737,-19.0417,968.6799],[27.7427,-19.0417,970.9688],[27.7455,-19.0443,969.1625],[27.7467,-19.0428,967.4687],[27.7511,-19.0424,969.2675],[27.7512,-19.0501,970.0225],[27.754,-19.0478,969.1328],[27.7592,-19.0546,972.561],[27.7544,-19.0558,976.385],[27.7589,-19.0596,972.7443],[27.7581,-19.0635,975.9376],[27.7625,-19.0627,975.6691],[27.7649,-19.0688,973.4236],[27.7585,-19.0761,977.9739],[27.7602,-19.078,977.9913],[27.763,-19.0765,974.056],[27.763,-19.0788,974.7706],[27.7674,-19.0799,975.9897],[27.7658,-19.0853,976.2791],[27.7703,-19.0922,977.9165],[27.7767,-19.0914,977.6577],[27.7772,-19.0952,977.0406],[27.7728,-19.101,978.6535],[27.7881,-19.1032,979.748],[27.7909,-19.1097,980.3671],[27.7893,-19.1139,978.6606],[27.7922,-19.1154,981.0551],[27.8002,-19.1143,983.9071],[27.8092,-19.1242,985.5812],[27.8205,-19.128,984.7263],[27.8293,-19.1272,989.9749],[27.8277,-19.1233,998.611],[27.8301,-19.1229,1005.6966],[27.833,-19.1275,990.8453],[27.835,-19.1279,988.8805],[27.8374,-19.1237,1004.9355],[27.8394,-19.126,1001.3394],[27.8362,-19.1344,987.777],[27.8378,-19.1363,992.7048],[27.8418,-19.1317,985.9631],[27.8475,-19.1309,1003.7706],[27.8479,-19.1355,986.8635],[27.8524,-19.1397,986.9175],[27.8576,-19.1393,994.3177],[27.8593,-19.145,989.8633],[27.8689,-19.1435,992.845],[27.8709,-19.1385,1005.045],[27.8758,-19.1381,1010.0553],[27.885,-19.1403,1018.0133],[27.8814,-19.1445,991.8995],[27.8867,-19.148,991.961],[27.8919,-19.1437,1024.1384],[27.8932,-19.1545,994.8019],[27.8968,-19.1583,995.59],[27.7086,-19.2829,1011.6462],[27.7003,-19.2786,986.8583],[27.6953,-19.2859,989.3604],[27.6886,-19.284,988.5984],[27.6864,-19.2914,992.3757],[27.689,-19.2974,988.0419],[27.6848,-19.2982,987.4801],[27.6828,-19.3007,988.0497],[27.6823,-19.3107,994.8436],[27.6849,-19.3154,991.758],[27.6825,-19.3184,991.2904],[27.6749,-19.3137,991.5728],[27.6704,-19.3155,991.7114],[27.6692,-19.3196,993.0768],[27.6707,-19.3229,996.7145],[27.6761,-19.3199,997.182],[27.6778,-19.3248,995.1528],[27.6748,-19.3285,994.9969],[27.669,-19.3277,991.9049],[27.667,-19.3345,994.9087],[27.6751,-19.3336,993.1773],[27.6781,-19.337,996.468],[27.6778,-19.3402,995.4181],[27.6751,-19.3425,997.0582],[27.6723,-19.3418,996.913],[27.6658,-19.3375,996.95],[27.6639,-19.3337,993.5157],[27.6611,-19.3341,991.8315],[27.6588,-19.3402,996.2091],[27.6706,-19.3527,996.682],[27.6695,-19.3558,997.3882],[27.6651,-19.3583,994.7135],[27.6555,-19.3571,994.4408],[27.655,-19.3604,994.8239],[27.658,-19.3648,1000.2159],[27.6649,-19.3655,997.8146],[27.6655,-19.3678,1000.8719],[27.662,-19.373,996.5409],[27.6643,-19.3774,1002.9548],[27.6756,-19.3757,999.1759],[27.6791,-19.3784,998.808],[27.6819,-19.3842,1001.2571],[27.6868,-19.3854,999.6527],[27.6906,-19.3835,999.5566],[27.6937,-19.3776,1003.9904],[27.6998,-19.3764,1012.9205],[27.7028,-19.3809,1022.4322],[27.6935,-19.3904,1000.6051],[27.694,-19.3924,1006.6125],[27.6992,-19.3942,1003.0404],[27.7064,-19.3912,1025.6272],[27.7284,-19.4015,1030.6323],[27.7293,-19.404,1035.9995],[27.7274,-19.4057,1013.6937],[27.7221,-19.4034,1003.556],[27.7178,-19.4037,1003.1974],[27.7175,-19.4105,1004.8717],[27.7149,-19.4171,1003.946],[27.7158,-19.4214,1011.1348],[27.7272,-19.4264,1010.042],[27.7266,-19.4292,1010.7565],[27.7244,-19.43,1015.4939],[27.717,-19.4295,1010.4761],[27.7153,-19.4356,1011.2096],[27.715699999999998,-19.4414,1010.0774],[27.7244,-19.4534,1012.799],[27.7245,-19.4564,1009.3737],[27.7211,-19.4619,1011.9017],[27.7213,-19.4701,1012.5791],[27.7228,-19.4718,1015.7369],[27.7317,-19.4736,1011.3321],[27.7394,-19.4849,1012.5452],[27.7494,-19.4874,1013.6545],[27.757,-19.4969,1018.3122],[27.7696,-19.4944,1018.6183],[27.7731,-19.5001,1016.5321],[27.7754,-19.4992,1018.5612],[27.7799,-19.5016,1017.4871],[27.7859,-19.4979,1017.4799],[27.7897,-19.493,1018.2198],[27.7954,-19.4943,1018.832],[27.7987,-19.4915,1019.2572],[27.8087,-19.4884,1029.5837],[27.8164,-19.4935,1023.7387],[27.9362,-19.4102,1034.5452],[28.0904,-19.2872,1084.6462]]]]}
,"properties": {"GID_3": "ZWE.8.5.21_2","GID_0": "ZWE","country": "Zimbabwe","GID_1": "ZWE.8_1","province": "MatabelelandNorth","NL_NAME_1": "NA","GID_2": "ZWE.8.5_2","county": "Lupane","NL_NAME_2": "NA","city": "Ward28","VARNAME_3": "NA","NL_NAME_3": "NA","TYPE_3": "Ward","ENGTYPE_3": "Ward","CC_3": "NA","HASC_3": "NA","name": "Ward28.city","area_km2": 1475.173,"hist_schema_id": "Elevation0-9000","hist_area_km2": {"950": 0.341,"975": 38.092,"1000": 200.893,"1025": 406.924,"1050": 395.795,"1075": 344.555,"1100": 72.936,"1125": 15.637}}}