{"type":"Feature","properties":{"GID_3":"ZWE.6.6.2_2","GID_0":"ZWE","country":"Zimbabwe","GID_1":"ZWE.6_1","province":"MashonalandWest","NL_NAME_1":"NA","GID_2":"ZWE.6.6_2","county":"Kariba","NL_NAME_2":"NA","city":"Ward10","VARNAME_3":"NA","NL_NAME_3":"NA","TYPE_3":"Ward","ENGTYPE_3":"Ward","CC_3":"NA","HASC_3":"NA","name":"Ward10.city"},
"geometry":{"type": "MultiPolygon","coordinates": [[[[28.9217,-17.1075,591.243],[28.9209,-17.0988,638.8885],[28.9154,-17.0876,622.2189],[28.9124,-17.0826,704.8509],[28.9077,-17.0797,609.8073],[28.9014,-17.0668,628.6018],[28.8896,-17.0615,565.0421],[28.8866,-17.056,689.8015],[28.8731,-17.06,561.6553],[28.8692,-17.0493,640.1113],[28.8566,-17.0434,570.8217],[28.8555,-17.0482,649.3126],[28.8573,-17.0603,700.9119],[28.8562,-17.0619,694.3209],[28.8394,-17.0707,713.101],[28.8253,-17.0747,717.5583],[28.8227,-17.0775,710.4527],[28.8215,-17.084,713.639],[28.8188,-17.0889,711.49],[28.8078,-17.0941,707.664],[28.7888,-17.0996,705.8464],[28.7891,-17.1134,672.6635],[28.7843,-17.1239,668.5877],[28.7727,-17.1373,642.9698],[28.7683,-17.1538,664.271],[28.7689,-17.1614,651.205],[28.772,-17.1643,649.6541],[28.777,-17.1637,645.2949],[28.7791,-17.1576,649.0773],[28.7833,-17.1586,645.3077],[28.7869,-17.1625,641.3702],[28.7905,-17.157,642.5031],[28.7937,-17.1559,640.74],[28.7983,-17.1603,637.6901],[28.8014,-17.1579,633.5051],[28.8029,-17.1524,637.0405],[28.8079,-17.1501,632.8567],[28.8232,-17.1476,629.1614],[28.8321,-17.1474,624.0749],[28.8339,-17.1507,624.6544],[28.8514,-17.1548,669.5538],[28.855,-17.1534,678.1791],[28.8592,-17.1552,685.1943],[28.865,-17.1489,678.6916],[28.873,-17.1522,695.0557],[28.8815,-17.1519,660.5096],[28.8856,-17.1538,653.214],[28.8908,-17.1515,666.3519],[28.8919,-17.1474,638.86],[28.9004,-17.1411,632.4186],[28.9091,-17.1419,622.6987],[28.9164,-17.1372,618.9027],[28.9226,-17.1254,612.5256],[28.9228,-17.1194,587.7871],[28.9247,-17.1171,613.4378],[28.9217,-17.1075,591.243]]]]}}