{"type": "Feature","bbox": [32.2267,-21.0416,32.5186,-20.8532],"geometry": {"type": "MultiPolygon","coordinates": [[[[32.517,-20.9102,401.7999],[32.5186,-20.8889,380.6424],[32.5153,-20.8721,377.6711],[32.5104,-20.8574,355.8128],[32.5046,-20.8626,358.837],[32.497,-20.8641,361.8976],[32.4884,-20.8689,368.9655],[32.4777,-20.8669,373.8102],[32.4736,-20.8713,375.1853],[32.4643,-20.8747,379.8434],[32.4533,-20.8823,387.8444],[32.4426,-20.8754,399.2675],[32.4369,-20.8667,411.1909],[32.4319,-20.8643,414.5214],[32.4234,-20.8635,417.8498],[32.415,-20.8649,417.6893],[32.3994,-20.8575,408.8954],[32.3708,-20.8575,399.7661],[32.3553,-20.8532,400.8507],[32.344,-20.8534,405.2554],[32.3266,-20.8628,406.3853],[32.295,-20.8944,383.586],[32.2577,-20.8994,402.7143],[32.2267,-20.8975,404.4171],[32.2282,-20.902,401.5052],[32.2329,-20.9023,400.7826],[32.2469,-20.9089,395.1522],[32.2649,-20.9302,385.1046],[32.2789,-20.9398,379.6114],[32.2941,-20.9457,377.5247],[32.2963,-20.9533,373.1413],[32.2994,-20.9574,372.2893],[32.2997,-20.9718,367.0043],[32.304,-20.9745,366.6022],[32.3044,-20.9793,365.004],[32.3122,-20.9912,360.1015],[32.3157,-20.9926,361.0338],[32.3405,-20.9927,378.9711],[32.3518,-20.991,384.531],[32.359,-20.9942,388.9059],[32.3743,-20.9951,396.751],[32.3831,-20.9984,384.1856],[32.3853,-21.0007,379.6621],[32.3853,-21.0033,372.0755],[32.3889,-21.0067,363.828],[32.3913,-21.0052,365.747],[32.4,-21.0064,350.3997],[32.4093,-21.0039,343.5031],[32.421,-21.0052,323.4509],[32.4229,-21.0027,322.5589],[32.4279,-21.0026,316.6223],[32.4312,-21.0057,320.9356],[32.4274,-21.007,312.5602],[32.4273,-21.0098,309.3968],[32.4327,-21.0123,310.7726],[32.4371,-21.0186,304.8665],[32.4346,-21.0237,304.0988],[32.4349,-21.0274,300.7954],[32.437,-21.0287,297.4344],[32.4376,-21.0344,306.6193],[32.4403,-21.0356,305.0703],[32.4401,-21.0403,292.6081],[32.4423,-21.0416,290.7382],[32.4684,-21.0118,376.0473],[32.4811,-20.9926,403.7767],[32.5168,-20.9144,400.0584],[32.517,-20.9102,401.7999]]]]}
,"properties": {"GID_3": "ZWE.3.3.21_2","GID_0": "ZWE","country": "Zimbabwe","GID_1": "ZWE.3_1","province": "Manicaland","NL_NAME_1": "NA","GID_2": "ZWE.3.3_2","county": "Chipinge","NL_NAME_2": "NA","city": "Ward28","VARNAME_3": "NA","NL_NAME_3": "NA","TYPE_3": "Ward","ENGTYPE_3": "Ward","CC_3": "NA","HASC_3": "NA","name": "Ward28.city","area_km2": 349.5841,"hist_schema_id": "Elevation0-9000","hist_area_km2": {"300": 1.1083,"325": 7.0267,"350": 19.8154,"375": 119.9398,"400": 159.8887,"425": 37.3299,"450": 4.4752}}}