{"type": "Feature","bbox": [31.553,-18.1713,31.5641,-18.1633],"geometry": {"type": "MultiPolygon","coordinates": [[[[31.553,-18.1708,1638.7656],[31.5572,-18.1713,1647.6355],[31.5576,-18.1683,1638.7701],[31.5588,-18.1682,1645.714],[31.5589,-18.1699,1649.7781],[31.5622,-18.1697,1645.8188],[31.5641,-18.1643,1631.9467],[31.5565,-18.1633,1627.5184],[31.553,-18.1708,1638.7656]]]]}
,"properties": {"GID_3": "ZWE.5.5.9_2","GID_0": "ZWE","country": "Zimbabwe","GID_1": "ZWE.5_1","province": "MashonalandEast","NL_NAME_1": "NA","GID_2": "ZWE.5.5_2","county": "MaronderaUrban","NL_NAME_2": "NA","city": "Ward6","VARNAME_3": "NA","NL_NAME_3": "NA","TYPE_3": "Ward","ENGTYPE_3": "Ward","CC_3": "NA","HASC_3": "NA","name": "Ward6.city","area_km2": 0.6043589,"hist_schema_id": "Elevation0-9000","hist_area_km2": {"1625": 0.3424714,"1650": 0.2618875}}}