{"type": "Feature","bbox": [31.5625,-18.1865,31.5771,-18.1741],"geometry": {"type": "MultiPolygon","coordinates": [[[[31.5625,-18.1781,1654.7635],[31.5647,-18.1788,1659.4609],[31.5636,-18.1808,1663.3827],[31.5655,-18.1824,1670.7734],[31.5627,-18.1834,1670.4976],[31.568,-18.1865,1684.1033],[31.5726,-18.186,1689.1808],[31.5771,-18.1817,1692.061],[31.5723,-18.1775,1674.7203],[31.5715,-18.1741,1665.1914],[31.5666,-18.1743,1654.8027],[31.5663,-18.1756,1657.5619],[31.5625,-18.1763,1652.1141],[31.5625,-18.1781,1654.7635]]]]}
,"properties": {"GID_3": "ZWE.5.5.6_2","GID_0": "ZWE","country": "Zimbabwe","GID_1": "ZWE.5_1","province": "MashonalandEast","NL_NAME_1": "NA","GID_2": "ZWE.5.5_2","county": "MaronderaUrban","NL_NAME_2": "NA","city": "Ward3","VARNAME_3": "NA","NL_NAME_3": "NA","TYPE_3": "Ward","ENGTYPE_3": "Ward","CC_3": "NA","HASC_3": "NA","name": "Ward3.city","area_km2": 1.369775,"hist_schema_id": "Elevation0-9000","hist_area_km2": {"1650": 0.080577,"1675": 1.148195,"1700": 0.141003}}}