{"type":"Feature","properties":{"GID_3":"ZWE.10.2.27_2","GID_0":"ZWE","country":"Zimbabwe","GID_1":"ZWE.10_1","province":"Midlands","NL_NAME_1":"NA","GID_2":"ZWE.10.2_2","county":"GokweNorth","NL_NAME_2":"NA","city":"Ward33","VARNAME_3":"NA","NL_NAME_3":"NA","TYPE_3":"Ward","ENGTYPE_3":"Ward","CC_3":"NA","HASC_3":"NA","name":"Ward33.city"},
"geometry":{"type": "MultiPolygon","coordinates": [[[[28.6864,-17.7611,819.9836],[28.694,-17.7512,804.568],[28.7209,-17.7459,767.5146],[28.7247,-17.7422,760.4825],[28.729,-17.7425,768.5314],[28.7388,-17.7369,751.0829],[28.7418,-17.7334,747.1677],[28.7457,-17.7341,745.6339],[28.7486,-17.731,745.3533],[28.752,-17.7357,746.349],[28.7514,-17.7381,749.8263],[28.7538,-17.7397,747.1932],[28.7615,-17.7342,750.6003],[28.7655,-17.7395,753.0615],[28.7679,-17.7391,755.0736],[28.7689,-17.7409,752.1562],[28.7711,-17.7402,760.4872],[28.773,-17.7418,763.0011],[28.7749,-17.7447,758.4295],[28.7691,-17.7439,753.9532],[28.7684,-17.7516,757.5446],[28.7701,-17.7523,757.5446],[28.7711,-17.7506,757.7649],[28.7768,-17.7603,761.5679],[28.7762,-17.7617,762.9146],[28.782,-17.7637,764.5287],[28.7852,-17.7699,766.8],[28.7889,-17.7695,767.8231],[28.7917,-17.7731,770.0196],[28.8252,-17.7045,787.8676],[28.8181,-17.7075,781.5349],[28.8111,-17.7076,790.4769],[28.8066,-17.7125,783.2398],[28.8053,-17.7083,776.004],[28.7944,-17.7022,760.0756],[28.795,-17.6998,762.0921],[28.7822,-17.7011,752.778],[28.7841,-17.7005,754.6315],[28.7822,-17.698,756.6578],[28.7771,-17.6993,749.8581],[28.7771,-17.6981,749.8581],[28.7719,-17.6969,748.1457],[28.7719,-17.6932,752.3929],[28.7681,-17.6969,744.4043],[28.7661,-17.6927,753.3121],[28.7623,-17.6939,744.3907],[28.7559,-17.6928,740.739],[28.7546,-17.6946,737.1998],[28.7514,-17.6922,736.7234],[28.7489,-17.6947,735.7729],[28.745,-17.6928,735.2054],[28.7399,-17.6953,729.6133],[28.7386,-17.6917,731.6575],[28.7335,-17.6917,725.6434],[28.7334,-17.688,731.6583],[28.7296,-17.6862,728.4645],[28.727,-17.6795,723.3638],[28.732,-17.6752,726.3386],[28.7294,-17.6703,721.503],[28.7237,-17.6722,723.136],[28.7243,-17.6679,724.114],[28.7301,-17.6691,721.1437],[28.7345,-17.6666,721.1125],[28.7326,-17.6617,719.8426],[28.7281,-17.6648,720.6408],[28.7255,-17.6642,718.9565],[28.7255,-17.6611,720.5822],[28.7287,-17.6562,718.117],[28.7273,-17.6513,718.1841],[28.7228,-17.6507,714.5153],[28.7209,-17.6446,713.8779],[28.7234,-17.644,713.8007],[28.7228,-17.6409,711.2021],[28.7176,-17.6403,712.8174],[28.7176,-17.6385,712.4349],[28.7144,-17.6367,710.6062],[28.7143,-17.6312,710.3228],[28.7201,-17.6262,706.3867],[28.72,-17.6231,706.7342],[28.7187,-17.6231,707.4315],[28.7187,-17.6189,706.2669],[28.7206,-17.6158,706.0109],[28.7199,-17.6121,706.6688],[28.7148,-17.6121,706.2754],[28.7102,-17.6036,709.1197],[28.7039,-17.6067,701.0825],[28.7057,-17.5981,702.9881],[28.6974,-17.5927,725.4142],[28.6903,-17.597,696.4283],[28.6801,-17.594,693.1104],[28.6787,-17.5986,693.0283],[28.6808,-17.6006,697.0204],[28.6793,-17.6025,699.8964],[28.6818,-17.6027,694.6464],[28.6805,-17.6058,696.4774],[28.6821,-17.6061,707.7782],[28.6821,-17.6081,700.0994],[28.6834,-17.6076,703.9012],[28.6828,-17.6108,703.8281],[28.6852,-17.6127,706.0295],[28.6829,-17.6144,706.3217],[28.6885,-17.6185,708.5073],[28.6909,-17.6247,710.4522],[28.689,-17.6301,712.3936],[28.6899,-17.633,713.8926],[28.6865,-17.6354,715.2344],[28.6872,-17.6402,718.828],[28.683,-17.6529,729.7208],[28.6846,-17.6611,733.1427],[28.6863,-17.6628,742.3713],[28.6864,-17.6711,739.8771],[28.6887,-17.6752,742.4623],[28.6859,-17.6851,745.715],[28.6869,-17.6877,750.5698],[28.6922,-17.6873,774.3495],[28.6933,-17.6895,767.2467],[28.692,-17.6955,756.301],[28.688,-17.7001,758.5685],[28.6783,-17.7182,782.5242],[28.6815,-17.7272,781.7485],[28.6801,-17.7312,790.0858],[28.6835,-17.7361,791.1201],[28.6791,-17.7431,811.0659],[28.6798,-17.7481,822.6951],[28.6826,-17.7547,812.5178],[28.6823,-17.759,822.0253],[28.6864,-17.7611,819.9836]]]]}}