{"type":"Feature","properties":{"GID_3":"ZWE.7.2.8_2","GID_0":"ZWE","country":"Zimbabwe","GID_1":"ZWE.7_1","province":"Masvingo","NL_NAME_1":"NA","GID_2":"ZWE.7.2_2","county":"Chiredzi","NL_NAME_2":"NA","city":"Ward16","VARNAME_3":"NA","NL_NAME_3":"NA","TYPE_3":"Ward","ENGTYPE_3":"Ward","CC_3":"NA","HASC_3":"NA","name":"Ward16.city"},
"geometry":{"type": "MultiPolygon","coordinates": [[[[31.2679,-21.1357,385.0309],[31.2778,-21.0986,428.7804],[31.3539,-21.0687,416.5773],[31.3696,-21.0502,406.1554],[31.3715,-21.0381,403.614],[31.393,-21.0367,394.2792],[31.3818,-21.028199999999998,391.1654],[31.3833,-21.0279,389.7705],[31.3754,-21.0175,391.9317],[31.3742,-21.012,398.251],[31.3748,-21.0016,399.6109],[31.371,-20.9944,403.894],[31.3702,-20.9875,401.5],[31.3621,-20.9644,403.6389],[31.3598,-20.9436,414.7352],[31.3549,-20.9403,416.048],[31.348,-20.9313,414.8783],[31.3216,-20.9215,416.0609],[31.3114,-20.9025,429.4164],[31.3062,-20.8837,441.4112],[31.2914,-20.8567,450.5402],[31.286,-20.8502,439.0092],[31.2809,-20.8352,453.8612],[31.2777,-20.8326,460.7513],[31.2711,-20.8315,462.2909],[31.2628,-20.8482,457.8476],[31.244,-20.9014,466.0984],[31.2371,-20.9049,462.3101],[31.1993,-20.9207,475.2397],[31.1866,-20.887,518.7201],[31.2036,-20.8734,484.7278],[31.1902,-20.8687,479.5872],[31.1741,-20.8782,509.3537],[31.1335,-20.8921,497.6174],[31.102,-20.9166,498.3182],[31.0842,-20.9342,478.7211],[31.0797,-20.9283,477.8817],[31.0815,-20.9246,477.4211],[31.0775,-20.9207,488.2601],[31.0722,-20.9222,487.9562],[31.0702,-20.9214,486.1175],[31.0649,-20.9267,488.3488],[31.0584,-20.9217,482.7753],[31.0542,-20.9229,483.4839],[31.0394,-21.0127,444.9415],[31.0394,-21.0188,435.715],[31.0453,-21.0253,435.0587],[31.0521,-21.0402,426.053],[31.0587,-21.0471,423.1434],[31.062,-21.0542,422.5336],[31.1076,-21.0733,416.9999],[31.1097,-21.0773,415.1337],[31.1103,-21.092,413.1537],[31.1212,-21.1034,420.6315],[31.1264,-21.1149,407.9573],[31.1326,-21.1199,407.618],[31.1411,-21.1226,419.5854],[31.1464,-21.1262,409.3056],[31.1555,-21.1406,397.4722],[31.1648,-21.1433,393.0616],[31.1812,-21.1403,402.434],[31.1909,-21.1409,406.1526],[31.2116,-21.1496,389.3876],[31.2387,-21.1524,393.8195],[31.2591,-21.1486,386.0889],[31.2679,-21.1357,385.0309]]]]}}