{"type": "Feature","bbox": [30.6693,-20.9575,30.8185,-20.889],"geometry": {"type": "MultiPolygon","coordinates": [[[[30.6896,-20.907,568.0],[30.686,-20.9098,580.405],[30.6819,-20.9081,581.6788],[30.6693,-20.9288,582.7305],[30.6767,-20.9575,589.6835],[30.698,-20.9544,581.3284],[30.7019,-20.9563,576.0134],[30.712,-20.9456,578.4108],[30.7153,-20.9477,571.2598],[30.7241,-20.945,572.1456],[30.7299,-20.9455,568.3271],[30.745,-20.9524,561.2897],[30.7543,-20.9463,565.0651],[30.772,-20.946,561.7675],[30.7949,-20.93,563.3883],[30.8148,-20.9311,550.3405],[30.8185,-20.9273,545.9246],[30.8111,-20.9245,545.2325],[30.8108,-20.9203,549.7564],[30.8133,-20.9164,543.3037],[30.8118,-20.9133,548.5034],[30.7795,-20.889,571.3522],[30.7645,-20.8947,557.318],[30.7549,-20.9022,558.5007],[30.7376,-20.9123,561.6536],[30.71,-20.9129,575.2025],[30.702,-20.9099,584.8577],[30.6929,-20.9095,583.6953],[30.6896,-20.907,568.0]]]]}
,"properties": {"GID_3": "ZWE.7.8.1_2","GID_0": "ZWE","country": "Zimbabwe","GID_1": "ZWE.7_1","province": "Masvingo","NL_NAME_1": "NA","GID_2": "ZWE.7.8_2","county": "Mwenezi","NL_NAME_2": "NA","city": "Ward1","VARNAME_3": "NA","NL_NAME_3": "NA","TYPE_3": "Ward","ENGTYPE_3": "Ward","CC_3": "NA","HASC_3": "NA","name": "Ward1.city","area_km2": 64.91684,"hist_schema_id": "Elevation0-9000","hist_area_km2": {"550": 7.03087,"575": 38.26101,"600": 16.39699,"625": 1.7427,"650": 0.61391,"675": 0.45549,"700": 0.17823,"725": 0.13862,"750": 0.05941,"775": 0.03961}}}