{"type":"Feature","properties":{"GID_3":"ZWE.6.3.9_2","GID_0":"ZWE","country":"Zimbabwe","GID_1":"ZWE.6_1","province":"MashonalandWest","NL_NAME_1":"NA","GID_2":"ZWE.6.3_2","county":"Chinhoyi","NL_NAME_2":"NA","city":"Ward3","VARNAME_3":"NA","NL_NAME_3":"NA","TYPE_3":"Ward","ENGTYPE_3":"Ward","CC_3":"NA","HASC_3":"NA","name":"Ward3.city"},
"geometry":{"type": "MultiPolygon","coordinates": [[[[30.2097,-17.357,1122.8214],[30.2083,-17.3659,1155.694],[30.1998,-17.3742,1173.7893],[30.2158,-17.3753,1119.3955],[30.2225,-17.3687,1122.355],[30.2165,-17.353,1108.177],[30.2147,-17.3557,1115.5161],[30.2097,-17.357,1122.8214]]]]}}