{"type": "Feature","bbox": [31.7726,-18.7706,31.9132,-18.6404],"geometry": {"type": "MultiPolygon","coordinates": [[[[31.7726,-18.6438,1267.4713],[31.7736,-18.6491,1252.4097],[31.7814,-18.6543,1185.2971],[31.7817,-18.658,1173.048],[31.7857,-18.6631,1164.2488],[31.7859,-18.669,1160.3052],[31.7901,-18.6673,1174.8433],[31.7927,-18.668,1160.6525],[31.7956,-18.6761,1155.2621],[31.8133,-18.6948,1137.1565],[31.8303,-18.723,1138.8333],[31.8337,-18.7355,1131.791],[31.8297,-18.7436,1125.5515],[31.8297,-18.7471,1114.1969],[31.8417,-18.7463,1097.3632],[31.8482,-18.7517,1088.4845],[31.852,-18.7524,1076.0129],[31.8581,-18.7485,1102.7556],[31.8691,-18.7456,1083.5275],[31.8816,-18.7477,1048.7772],[31.8922,-18.7626,1006.2315],[31.8958,-18.7706,974.6595],[31.8977,-18.7691,980.0848],[31.9021,-18.7554,1035.2408],[31.9069,-18.7578,1045.0316],[31.9084,-18.7541,1058.4198],[31.9081,-18.7512,1057.9885],[31.9055,-18.7481,1059.1318],[31.909,-18.7468,1056.4078],[31.9074,-18.7414,1063.5148],[31.9097,-18.7375,1062.4109],[31.9089,-18.7256,1072.7876],[31.9113,-18.712,1097.3732],[31.909,-18.7017,1098.8662],[31.9119,-18.7006,1099.1996],[31.9132,-18.6969,1116.2241],[31.9109,-18.6897,1124.8799],[31.9105,-18.6677,1184.3866],[31.9061,-18.6687,1233.1541],[31.9028,-18.6758,1373.6406],[31.8993,-18.6779,1470.3762],[31.8982,-18.6851,1433.4019],[31.8938,-18.686,1480.1487],[31.8641,-18.667,1502.8762],[31.853,-18.666,1483.4768],[31.8495,-18.6643,1452.092],[31.8475,-18.661,1370.5941],[31.8453,-18.6484,1418.9189],[31.8388,-18.6432,1363.3191],[31.835,-18.6458,1450.5181],[31.821,-18.6463,1383.713],[31.8176,-18.6439,1412.1917],[31.7947,-18.6404,1439.8933],[31.7849,-18.6406,1291.0417],[31.779,-18.6463,1286.1185],[31.7726,-18.6438,1267.4713]]]]}
,"properties": {"GID_3": "ZWE.3.5.17_2","GID_0": "ZWE","country": "Zimbabwe","GID_1": "ZWE.3_1","province": "Manicaland","NL_NAME_1": "NA","GID_2": "ZWE.3.5_2","county": "Makoni","NL_NAME_2": "NA","city": "Ward24","VARNAME_3": "NA","NL_NAME_3": "NA","TYPE_3": "Ward","ENGTYPE_3": "Ward","CC_3": "NA","HASC_3": "NA","name": "Ward24.city","area_km2": 104.51261,"hist_schema_id": "Elevation0-9000","hist_area_km2": {"975": 0.28106,"1000": 0.72273,"1025": 0.74282,"1050": 1.16446,"1075": 2.99165,"1100": 8.37293,"1125": 11.22449,"1150": 15.7037,"1175": 19.22002,"1200": 19.24158,"1225": 9.6012,"1250": 4.19809,"1275": 2.39035,"1300": 1.70742,"1325": 1.2655,"1350": 1.40614,"1375": 1.0847,"1400": 1.08472,"1425": 0.7633,"1450": 0.5825,"1475": 0.54231,"1500": 0.18077,"1525": 0.04017}}}