{"type": "Feature","bbox": [28.4656,-20.1522,28.5017,-20.1395],"geometry": {"type": "MultiPolygon","coordinates": [[[[28.4656,-20.1471,1349.0632],[28.4755,-20.1476,1350.1237],[28.4814,-20.1507,1342.374],[28.4991,-20.1522,1373.1558],[28.5017,-20.1428,1370.8569],[28.4687,-20.1395,1342.3755],[28.4686,-20.1416,1343.8835],[28.4661,-20.1412,1339.707],[28.4656,-20.1471,1349.0632]]]]}
,"properties": {"GID_3": "ZWE.1.1.11_2","GID_0": "ZWE","country": "Zimbabwe","GID_1": "ZWE.1_1","province": "Bulawayo","NL_NAME_1": "NA","GID_2": "ZWE.1.1_2","county": "Bulawayo","NL_NAME_2": "NA","city": "Ward19","VARNAME_3": "NA","NL_NAME_3": "NA","TYPE_3": "Ward","ENGTYPE_3": "Ward","CC_3": "NA","HASC_3": "NA","name": "Ward19.city","area_km2": 3.563007,"hist_schema_id": "Elevation0-9000","hist_area_km2": {"1350": 2.249279,"1375": 1.313728}}}