{"type": "Feature","bbox": [30.5315,-20.4368,30.7035,-20.299],"geometry": {"type": "MultiPolygon","coordinates": [[[[30.5315,-20.3687,959.7855],[30.5332,-20.3738,956.9641],[30.5334,-20.3891,970.3635],[30.5373,-20.4027,946.4119],[30.5574,-20.4128,910.2986],[30.567,-20.4155,893.735],[30.5728,-20.4102,885.8898],[30.5831,-20.4175,904.5512],[30.5932,-20.4172,869.5444],[30.6055,-20.4143,887.4875],[30.6126,-20.4145,853.0806],[30.6208,-20.4181,856.2934],[30.6318,-20.4192,827.8527],[30.6418,-20.4163,817.1433],[30.6435,-20.4174,814.0994],[30.6431,-20.427,800.997],[30.6446,-20.429,796.8358],[30.6537,-20.4272,799.8415],[30.6738,-20.4277,783.6344],[30.6815,-20.425,786.8727],[30.6861,-20.4261,790.0856],[30.6918,-20.4328,778.6783],[30.6985,-20.4368,775.9149],[30.7035,-20.4313,760.751],[30.6967,-20.4153,769.8156],[30.6995,-20.409,772.5627],[30.6984,-20.4048,773.1472],[30.6796,-20.3828,774.5819],[30.6776,-20.3786,776.7999],[30.6776,-20.3711,787.0081],[30.6821,-20.3617,791.4027],[30.6821,-20.3515,791.804],[30.6846,-20.3374,801.6656],[30.6693,-20.3279,810.7753],[30.6547,-20.3111,822.727],[30.6521,-20.3171,817.5375],[30.6422,-20.3157,836.8856],[30.6122,-20.3207,873.6449],[30.6037,-20.316,876.5712],[30.5995,-20.3115,872.589],[30.596,-20.3037,894.5699],[30.5911,-20.299,887.7192],[30.583,-20.301,897.2906],[30.5521,-20.321,962.3691],[30.569,-20.3416,911.3564],[30.5582,-20.3667,981.9325],[30.5425,-20.3675,945.789],[30.5408,-20.3691,939.8542],[30.5315,-20.3687,959.7855]]]]}
,"properties": {"GID_3": "ZWE.7.4.8_2","GID_0": "ZWE","country": "Zimbabwe","GID_1": "ZWE.7_1","province": "Masvingo","NL_NAME_1": "NA","GID_2": "ZWE.7.4_2","county": "Chivi","NL_NAME_2": "NA","city": "Ward16","VARNAME_3": "NA","NL_NAME_3": "NA","TYPE_3": "Ward","ENGTYPE_3": "Ward","CC_3": "NA","HASC_3": "NA","name": "Ward16.city","area_km2": 165.072,"hist_schema_id": "Elevation0-9000","hist_area_km2": {"750": 0.0993,"775": 4.5308,"800": 19.3965,"825": 22.1811,"850": 21.0109,"875": 23.2564,"900": 26.9929,"925": 25.2444,"950": 13.5356,"975": 5.2667,"1000": 2.0073,"1025": 1.0931,"1050": 0.3577,"1075": 0.0596,"1100": 0.0397}}}