{"type": "Feature","bbox": [30.565,-19.8664,30.6655,-19.7741],"geometry": {"type": "MultiPolygon","coordinates": [[[[30.6643,-19.8635,1081.7385],[30.6631,-19.825,1147.0529],[30.6655,-19.8189,1155.9766],[30.6642,-19.8007,1156.7429],[30.662,-19.795,1148.5277],[30.6546,-19.7903,1154.1738],[30.6249,-19.7849,1112.1377],[30.6147,-19.7812,1126.7112],[30.6026,-19.7741,1132.548],[30.6045,-19.7803,1128.8751],[30.6069,-19.7821,1125.8193],[30.6061,-19.789,1120.679],[30.5976,-19.7817,1128.192],[30.5941,-19.7809,1135.9172],[30.5906,-19.7822,1142.8268],[30.59,-19.7909,1148.8972],[30.5837,-19.7962,1131.6676],[30.5859,-19.8089,1121.9773],[30.5814,-19.8085,1132.7664],[30.5732,-19.8216,1129.666],[30.5721,-19.8289,1117.4004],[30.5709,-19.8307,1120.2979],[30.5657,-19.8319,1112.0171],[30.5651,-19.8364,1108.6232],[30.5669,-19.8431,1104.5811],[30.565,-19.8478,1104.1924],[30.6339,-19.8664,1119.0547],[30.6643,-19.8635,1081.7385]]]]}
,"properties": {"GID_3": "ZWE.10.1.23_2","GID_0": "ZWE","country": "Zimbabwe","GID_1": "ZWE.10_1","province": "Midlands","NL_NAME_1": "NA","GID_2": "ZWE.10.1_2","county": "Chirumhanzu","NL_NAME_2": "NA","city": "Ward7","VARNAME_3": "NA","NL_NAME_3": "NA","TYPE_3": "Ward","ENGTYPE_3": "Ward","CC_3": "NA","HASC_3": "NA","name": "Ward7.city","area_km2": 76.45171,"hist_schema_id": "Elevation0-9000","hist_area_km2": {"1050": 0.73785,"1075": 13.22237,"1100": 28.50189,"1125": 26.5293,"1150": 7.28076,"1175": 0.17954}}}