{"type": "Feature","bbox": [25.8213,-17.9471,25.8322,-17.9399],"geometry": {"type": "MultiPolygon","coordinates": [[[[25.8213,-17.9445,985.7271],[25.8257,-17.9466,981.5096],[25.8281,-17.9449,978.4592],[25.8318,-17.9471,961.5408],[25.8322,-17.9439,961.5042],[25.8306,-17.9434,969.3537],[25.832,-17.9408,957.2372],[25.8291,-17.942,970.9211],[25.8231,-17.9399,983.7745],[25.8213,-17.9445,985.7271]]]]}
,"properties": {"GID_3": "ZWE.8.9.9_2","GID_0": "ZWE","country": "Zimbabwe","GID_1": "ZWE.8_1","province": "MatabelelandNorth","NL_NAME_1": "NA","GID_2": "ZWE.8.9_2","county": "VictoriaFalls","NL_NAME_2": "NA","city": "Ward7","VARNAME_3": "NA","NL_NAME_3": "NA","TYPE_3": "Ward","ENGTYPE_3": "Ward","CC_3": "NA","HASC_3": "NA","name": "Ward7.city","area_km2": 0.5446153,"hist_schema_id": "Elevation0-9000","hist_area_km2": {"950": 0.0403422,"975": 0.5042731}}}