{"type": "Feature","bbox": [31.3365,-17.3177,31.3452,-17.3069],"geometry": {"type": "MultiPolygon","coordinates": [[[[31.3431,-17.3091,1091.2952],[31.3365,-17.3069,1092.8943],[31.3391,-17.3177,1076.663],[31.3452,-17.316,1083.4871],[31.3431,-17.3091,1091.2952]]]]}
,"properties": {"GID_3": "ZWE.4.2.7_2","GID_0": "ZWE","country": "Zimbabwe","GID_1": "ZWE.4_1","province": "MashonalandCentral","NL_NAME_1": "NA","GID_2": "ZWE.4.2_2","county": "BinduraUrban","NL_NAME_2": "NA","city": "Ward4","VARNAME_3": "NA","NL_NAME_3": "NA","TYPE_3": "Ward","ENGTYPE_3": "Ward","CC_3": "NA","HASC_3": "NA","name": "Ward4.city","area_km2": 0.6679748,"hist_schema_id": "Elevation0-9000","hist_area_km2": {"1075": 0.5262807,"1100": 0.1416941}}}