{"type": "Feature","bbox": [31.0507,-17.9984,31.0614,-17.9856],"geometry": {"type": "MultiPolygon","coordinates": [[[[31.0519,-17.9939,1433.5872],[31.0507,-17.9955,1435.032],[31.0554,-17.9984,1441.0485],[31.0568,-17.9967,1441.5353],[31.0553,-17.9956,1438.9615],[31.0614,-17.9874,1428.8718],[31.0585,-17.9856,1429.6096],[31.0519,-17.9939,1433.5872]]]]}
,"properties": {"GID_3": "ZWE.2.1.24_2","GID_0": "ZWE","country": "Zimbabwe","GID_1": "ZWE.2_1","province": "Harare","NL_NAME_1": "NA","GID_2": "ZWE.2.1_2","county": "Chitungwiza","NL_NAME_2": "NA","city": "Ward8","VARNAME_3": "NA","NL_NAME_3": "NA","TYPE_3": "Ward","ENGTYPE_3": "Ward","CC_3": "NA","HASC_3": "NA","name": "Ward8.city","area_km2": 0.5847958,"hist_schema_id": "Elevation0-9000","hist_area_km2": {"1425": 0.4638056,"1450": 0.1209902}}}