{"type": "Feature","bbox": [30.8318,-20.0943,30.853,-20.0766],"geometry": {"type": "MultiPolygon","coordinates": [[[[30.8325,-20.0799,1064.248],[30.8318,-20.0893,1079.5455],[30.8387,-20.0877,1079.0726],[30.8397,-20.0943,1078.0129],[30.8462,-20.0911,1072.3251],[30.8479,-20.092,1063.1729],[30.853,-20.0855,1061.1051],[30.8503,-20.0777,1066.2438],[30.8477,-20.0766,1062.3843],[30.8374,-20.0796,1063.7035],[30.8328,-20.0787,1066.6627],[30.8325,-20.0799,1064.248]]]]}
,"properties": {"GID_3": "ZWE.7.7.8_2","GID_0": "ZWE","country": "Zimbabwe","GID_1": "ZWE.7_1","province": "Masvingo","NL_NAME_1": "NA","GID_2": "ZWE.7.7_2","county": "MasvingoUrban","NL_NAME_2": "NA","city": "Ward7","VARNAME_3": "NA","NL_NAME_3": "NA","TYPE_3": "Ward","ENGTYPE_3": "Ward","CC_3": "NA","HASC_3": "NA","name": "Ward7.city","area_km2": 2.80771,"hist_schema_id": "Elevation0-9000","hist_area_km2": {"1050": 0.557565,"1075": 2.250145}}}