{"type": "Feature","bbox": [29.4911,-16.7076,29.8217,-16.4322],"geometry": {"type": "MultiPolygon","coordinates": [[[[29.7306,-16.7027,1314.5828],[29.7606,-16.6699,1252.7556],[29.768,-16.6547,1232.7726],[29.774,-16.6672,1238.9418],[29.7692,-16.6734,1253.8761],[29.7764,-16.6703,1241.9314],[29.7808,-16.6729,1234.6785],[29.7894,-16.6701,1210.8713],[29.7937,-16.6707,1216.9072],[29.7995,-16.6695,1194.7991],[29.8021,-16.6668,1203.4669],[29.8062,-16.6698,1183.498],[29.8055,-16.6645,1187.6888],[29.8217,-16.6541,1186.0227],[29.8142,-16.6211,1243.7241],[29.797,-16.6233,1203.3328],[29.7738,-16.6152,1237.3846],[29.7851,-16.5905,1191.9031],[29.7574,-16.5822,1210.3953],[29.7495,-16.6073,1251.1871],[29.7261,-16.5994,1175.356],[29.7226,-16.6,1167.2102],[29.6919,-16.5378,1183.2362],[29.6574,-16.5504,1221.5901],[29.6453,-16.5415,1250.6549],[29.6373,-16.5227,1244.3201],[29.658,-16.4894,1233.1438],[29.6435,-16.4787,1286.2098],[29.6235,-16.4885,1247.1726],[29.6184,-16.478,1237.974],[29.6139,-16.4731,1224.9897],[29.5986,-16.4604,1195.9933],[29.594,-16.4629,1198.7477],[29.5697,-16.4322,1201.5525],[29.5359,-16.4534,1164.0339],[29.4997,-16.468,1095.9521],[29.5027,-16.4688,1103.975],[29.5134,-16.4674,1116.4609],[29.5132,-16.4722,1106.3281],[29.517,-16.477,1121.2269],[29.517,-16.4786,1111.0103],[29.5129,-16.481,1129.083],[29.5123,-16.4833,1117.2155],[29.5082,-16.4871,1134.8091],[29.4979,-16.4922,1161.821],[29.4911,-16.4976,1148.8176],[29.4945,-16.5022,1154.644],[29.4939,-16.5079,1158.95],[29.5014,-16.5217,1176.3105],[29.5147,-16.5545,1240.4008],[29.5346,-16.5784,1244.4243],[29.5587,-16.5666,1229.2731],[29.5711,-16.5895,1247.6886],[29.5771,-16.5911,1249.0334],[29.5843,-16.5957,1254.675],[29.605,-16.6421,1291.3994],[29.6115,-16.6601,1298.4174],[29.611,-16.6971,1311.0177],[29.6182,-16.691,1298.105],[29.6352,-16.6914,1302.2754],[29.6308,-16.6769,1281.6624],[29.6534,-16.6792,1277.9924],[29.6761,-16.6615,1261.5576],[29.6804,-16.6637,1264.5498],[29.6755,-16.6681,1278.4557],[29.6786,-16.6728,1280.5096],[29.6717,-16.692,1298.2751],[29.686,-16.6921,1284.8763],[29.6945,-16.7076,1285.3406],[29.7193,-16.7043,1316.2354],[29.7203,-16.7068,1315.4697],[29.7245,-16.7068,1324.7556],[29.7249,-16.7031,1318.1707],[29.7306,-16.7027,1314.5828]]]]}
,"properties": {"GID_3": "ZWE.6.4.1_2","GID_0": "ZWE","country": "Zimbabwe","GID_1": "ZWE.6_1","province": "MashonalandWest","NL_NAME_1": "NA","GID_2": "ZWE.6.4_2","county": "Hurungwe","NL_NAME_2": "NA","city": "Ward1","VARNAME_3": "NA","NL_NAME_3": "NA","TYPE_3": "Ward","ENGTYPE_3": "Ward","CC_3": "NA","HASC_3": "NA","name": "Ward1.city","area_km2": 456.7046,"hist_schema_id": "Elevation0-9000","hist_area_km2": {"1050": 0.0203,"1075": 0.1016,"1100": 0.5286,"1125": 6.7899,"1150": 24.616,"1175": 52.1549,"1200": 78.2682,"1225": 91.6125,"1250": 85.9893,"1275": 86.3595,"1300": 28.436,"1325": 1.8277}}}