{"type":"Feature","properties":{"GID_3":"ZWE.9.7.15_2","GID_0":"ZWE","country":"Zimbabwe","GID_1":"ZWE.9_1","province":"MatabelelandSouth","NL_NAME_1":"NA","GID_2":"ZWE.9.7_2","county":"Mangwe","NL_NAME_2":"NA","city":"Ward7","VARNAME_3":"NA","NL_NAME_3":"NA","TYPE_3":"Ward","ENGTYPE_3":"Ward","CC_3":"NA","HASC_3":"NA","name":"Ward7.city"},
"geometry":{"type": "MultiPolygon","coordinates": [[[[27.9174,-21.3442,905.3908],[27.9198,-21.3618,907.2114],[27.9295,-21.3748,898.8169],[27.9434,-21.3856,898.4832],[28.0228,-21.3108,937.71],[28.0225,-21.312,936.4336],[28.1284,-21.194,959.9302],[28.0873,-21.1355,986.6979],[28.0689,-21.0962,1004.3438],[27.8922,-21.2933,921.7012],[27.9028,-21.2999,914.562],[27.9171,-21.3225,913.2961],[27.9199,-21.3296,911.8259],[27.9174,-21.3442,905.3908]]]]}}