{"type":"Feature","properties":{"GID_3":"ZWE.8.6.12_2","GID_0":"ZWE","country":"Zimbabwe","GID_1":"ZWE.8_1","province":"MatabelelandNorth","NL_NAME_1":"NA","GID_2":"ZWE.8.6_2","county":"Nkayi","NL_NAME_2":"NA","city":"Ward2","VARNAME_3":"NA","NL_NAME_3":"NA","TYPE_3":"Ward","ENGTYPE_3":"Ward","CC_3":"NA","HASC_3":"NA","name":"Ward2.city"},
"geometry":{"type": "MultiPolygon","coordinates": [[[[28.9784,-18.5775,1155.2358],[28.9414,-18.5754,1173.7144],[28.8011,-18.5725,1121.3137],[28.8092,-18.5849,1113.3313],[28.8085,-18.5896,1113.6667],[28.8155,-18.6106,1100.9866],[28.8137,-18.6148,1098.7551],[28.8152,-18.618,1098.3574],[28.8132,-18.6201,1102.2676],[28.8134,-18.6229,1099.5336],[28.8173,-18.6277,1095.0875],[28.8229,-18.6285,1097.5278],[28.8289,-18.6363,1088.4359],[28.8343,-18.6395,1098.4637],[28.8386,-18.6448,1087.9733],[28.8374,-18.6507,1082.9241],[28.8386,-18.6513,1082.5911],[28.8406,-18.6496,1090.521],[28.8425,-18.6532,1079.9124],[28.8457,-18.6554,1079.465],[28.8464,-18.6605,1077.5847],[28.845,-18.6648,1076.1963],[28.8505,-18.6686,1075.3323],[28.8514,-18.6739,1076.9512],[28.8534,-18.6751,1079.9023],[28.8517,-18.677,1072.4946],[28.8544,-18.6786,1072.1411],[28.8539,-18.6846,1070.8132],[28.856,-18.6866,1069.8352],[28.8549,-18.6888,1067.3096],[28.8572,-18.6905,1071.0217],[28.8548,-18.6922,1066.3213],[28.8561,-18.6956,1064.6904],[28.8588,-18.6957,1068.8267],[28.8587,-18.7006,1063.1836],[28.8565,-18.6996,1066.8495],[28.857,-18.704,1062.0132],[28.8542,-18.7059,1065.2417],[28.8597,-18.7066,1061.7173],[28.8571,-18.7136,1062.1407],[28.8669,-18.7233,1066.0537],[28.9218,-18.7092,1107.271],[28.9006,-18.6807,1087.4116],[28.9028,-18.6698,1104.6917],[28.9023,-18.6584,1127.0408],[28.9047,-18.651,1147.5129],[28.9012,-18.6443,1159.6285],[28.9387,-18.6275,1144.6761],[28.9509,-18.6169,1192.3835],[28.9581,-18.6201,1190.7322],[28.9675,-18.6172,1196.2334],[28.9963,-18.6185,1142.754],[28.9952,-18.5961,1148.3782],[28.9913,-18.5891,1157.2637],[28.9784,-18.5775,1155.2358]]]]}}