{"type": "Feature","bbox": [30.5378,-16.5387,30.6856,-16.4284],"geometry": {"type": "MultiPolygon","coordinates": [[[[30.5486,-16.4676,946.9833],[30.5545,-16.4687,1002.1509],[30.5549,-16.4714,939.9166],[30.5577,-16.4727,983.1699],[30.5537,-16.4783,963.8528],[30.5545,-16.4826,957.7708],[30.5492,-16.4884,964.499],[30.5499,-16.4897,943.1127],[30.5554,-16.4887,1005.1549],[30.5527,-16.4946,963.1378],[30.5573,-16.4953,1060.2788],[30.5563,-16.4981,961.5461],[30.5576,-16.5015,979.8441],[30.5556,-16.5023,981.5616],[30.5505,-16.5099,984.4618],[30.5534,-16.5136,1010.024],[30.5522,-16.5169,984.4515],[30.5529,-16.5238,1014.2482],[30.5594,-16.5283,1011.5115],[30.5597,-16.5335,999.6307],[30.5567,-16.5339,1012.2523],[30.5567,-16.5352,1002.5833],[30.5581,-16.5381,998.4861],[30.5605,-16.5387,1006.8408],[30.5629,-16.5355,1007.6606],[30.567,-16.5384,1021.4595],[30.6262,-16.517,1118.1389],[30.6296,-16.5252,1114.6473],[30.6356,-16.5238,1105.5457],[30.6336,-16.5287,1082.3276],[30.6298,-16.5299,1077.0417],[30.6302,-16.5319,1069.2559],[30.6541,-16.5235,1096.0607],[30.6428,-16.5037,1116.6606],[30.6314,-16.4983,1075.0272],[30.6498,-16.4992,1129.6417],[30.6571,-16.4901,1149.5559],[30.6572,-16.4882,1143.2351],[30.6586,-16.4911,1147.4023],[30.6611,-16.4911,1139.9691],[30.6617,-16.5037,1144.6719],[30.6802,-16.5083,1260.8002],[30.6818,-16.5006,1132.6179],[30.6798,-16.499,1133.6233],[30.6805,-16.4933,1124.8601],[30.6851,-16.4898,1124.8639],[30.6856,-16.4859,1115.8201],[30.6808,-16.4836,1107.728],[30.6833,-16.4738,1145.9249],[30.6773,-16.4723,1107.4546],[30.6806,-16.4481,1109.8497],[30.6674,-16.4442,1090.8599],[30.6718,-16.4383,1086.8093],[30.6714,-16.4354,1073.5083],[30.6751,-16.4284,1079.8276],[30.6574,-16.43,1101.6339],[30.6502,-16.4384,1135.2062],[30.6453,-16.4572,1080.3633],[30.6072,-16.4542,1014.4955],[30.5521,-16.4439,853.6814],[30.5516,-16.4419,817.6954],[30.5523,-16.4467,846.6347],[30.5466,-16.4511,858.4156],[30.542,-16.4505,854.5054],[30.5378,-16.4535,861.7538],[30.5378,-16.4579,882.5245],[30.5413,-16.4639,882.9731],[30.5449,-16.4644,935.0903],[30.5486,-16.4676,946.9833]]]]}
,"properties": {"GID_3": "ZWE.4.4.9_2","GID_0": "ZWE","country": "Zimbabwe","GID_1": "ZWE.4_1","province": "MashonalandCentral","NL_NAME_1": "NA","GID_2": "ZWE.4.4_2","county": "Guruve","NL_NAME_2": "NA","city": "Ward17","VARNAME_3": "NA","NL_NAME_3": "NA","TYPE_3": "Ward","ENGTYPE_3": "Ward","CC_3": "NA","HASC_3": "NA","name": "Ward17.city","area_km2": 112.83538,"hist_schema_id": "Elevation0-9000","hist_area_km2": {"825": 0.02033,"850": 0.04067,"875": 0.16268,"900": 0.48801,"925": 0.91498,"950": 0.83364,"975": 2.39914,"1000": 7.54279,"1025": 12.6656,"1050": 16.97552,"1075": 17.93154,"1100": 22.54735,"1125": 22.42512,"1150": 6.95279,"1175": 0.67089,"1200": 0.20332,"1225": 0.04067,"1250": 0.02033}}}