{"type":"Feature","properties":{"GID_3":"ZWE.8.5.9_2","GID_0":"ZWE","country":"Zimbabwe","GID_1":"ZWE.8_1","province":"MatabelelandNorth","NL_NAME_1":"NA","GID_2":"ZWE.8.5_2","county":"Lupane","NL_NAME_2":"NA","city":"Ward17","VARNAME_3":"NA","NL_NAME_3":"NA","TYPE_3":"Ward","ENGTYPE_3":"Ward","CC_3":"NA","HASC_3":"NA","name":"Ward17.city"},
"geometry":{"type": "MultiPolygon","coordinates": [[[[28.1286,-18.8211,968.2266],[28.1277,-18.8263,973.0803],[28.1262,-18.8269,973.0223],[28.1262,-18.8313,983.6465],[28.1288,-18.838,983.9965],[28.1281,-18.8423,989.8682],[28.1304,-18.8543,1003.8765],[28.1343,-18.8609,1011.249],[28.1335,-18.8712,1022.9471],[28.1395,-18.8914,1106.6012],[28.1303,-18.9188,1118.3256],[28.223,-18.9174,1060.5281],[28.251,-18.9191,1100.2654],[28.3121,-18.9189,1127.9309],[28.3095,-18.8228,1003.69],[28.304,-18.812,988.3322],[28.3023,-18.803,982.1632],[28.2967,-18.8022,985.4681],[28.2904,-18.8095,986.194],[28.2857,-18.8098,981.3408],[28.2746,-18.8039,979.6483],[28.2666,-18.8112,981.023],[28.2612,-18.8132,978.7635],[28.2457,-18.8099,979.2],[28.2316,-18.8039,975.9702],[28.2195,-18.8024,975.3625],[28.2008,-18.8092,973.4908],[28.1939,-18.815,973.4126],[28.1853,-18.812,972.0648],[28.1732,-18.8123,972.007],[28.1669,-18.8135,971.053],[28.1414,-18.824,969.9344],[28.1286,-18.8211,968.2266]]]]}}