{"type": "Feature","bbox": [26.5021,-18.2178,26.9298,-17.9729],"geometry": {"type": "MultiPolygon","coordinates": [[[[26.8262,-17.9901,491.4743],[26.8179,-17.9973,531.675],[26.8008,-18.0255,484.0],[26.7873,-18.0294,491.0515],[26.7709,-18.0367,578.9644],[26.753,-18.0412,560.6029],[26.749,-18.0465,572.9749],[26.7377,-18.0543,581.3503],[26.7178,-18.0774,512.4672],[26.715,-18.0787,517.8467],[26.6976,-18.0783,505.6772],[26.6842,-18.0734,484.0],[26.6789,-18.0686,485.25],[26.6626,-18.0638,488.3076],[26.6471,-18.0547,490.0679],[26.6148,-18.0547,492.8408],[26.5975,-18.0495,494.9753],[26.5916,-18.0605,506.9621],[26.5819,-18.0704,505.9386],[26.5821,-18.0761,514.7401],[26.5765,-18.0818,510.9549],[26.5738,-18.0928,510.9732],[26.5693,-18.0995,526.5558],[26.56,-18.0982,539.5187],[26.544,-18.0908,564.1267],[26.5406,-18.0908,562.576],[26.5319,-18.1056,533.4453],[26.5202,-18.1107,552.712],[26.5128,-18.1216,550.8714],[26.5072,-18.1223,557.8237],[26.5067,-18.1271,554.5278],[26.5084,-18.1302,561.6354],[26.5038,-18.1322,574.9202],[26.5021,-18.1374,599.0394],[26.5096,-18.1466,624.39],[26.5152,-18.1481,724.324],[26.5152,-18.153,629.5674],[26.5173,-18.1555,668.4689],[26.5216,-18.1583,675.5563],[26.5271,-18.1592,694.9352],[26.5301,-18.1792,675.4529],[26.5359,-18.1882,657.7517],[26.5429,-18.1948,652.914],[26.5552,-18.2025,654.8887],[26.5714,-18.1913,656.5385],[26.5809,-18.1948,588.9507],[26.5853,-18.1949,580.4731],[26.59,-18.1913,594.6459],[26.5994,-18.192,586.9486],[26.6135,-18.1855,574.0493],[26.6203,-18.1878,578.5222],[26.6243,-18.1872,565.5999],[26.6314,-18.178,559.6035],[26.6362,-18.1683,566.8989],[26.6418,-18.1651,553.4831],[26.6426,-18.1605,594.3694],[26.6447,-18.1585,557.3945],[26.6589,-18.1478,550.0574],[26.6703,-18.142,538.6859],[26.6752,-18.1367,565.326],[26.68,-18.1369,540.3187],[26.6825,-18.1351,548.4794],[26.6946,-18.1444,637.2184],[26.7206,-18.1545,836.9101],[26.717,-18.1881,661.7985],[26.7209,-18.2003,629.4468],[26.7316,-18.2148,647.6273],[26.7423,-18.211,658.5279],[26.7498,-18.2152,647.8766],[26.7543,-18.2155,677.3801],[26.7587,-18.2075,668.1571],[26.7653,-18.2051,704.0624],[26.7815,-18.2031,751.1942],[26.7937,-18.2071,704.0591],[26.8054,-18.2051,700.4663],[26.8073,-18.2078,684.743],[26.8104,-18.2077,696.2014],[26.8119,-18.2132,643.5858],[26.8142,-18.2143,640.4622],[26.8207,-18.2112,654.7892],[26.8259,-18.2054,657.3889],[26.8309,-18.2058,615.4047],[26.8336,-18.2075,613.6021],[26.8341,-18.2099,608.0094],[26.8301,-18.2162,595.291],[26.8327,-18.2178,605.8324],[26.836,-18.2174,595.1865],[26.8397,-18.2106,568.7115],[26.8404,-18.2006,588.3456],[26.8457,-18.1953,651.9289],[26.8537,-18.2034,557.6626],[26.8688,-18.1914,564.2751],[26.8586,-18.1898,536.1832],[26.8558,-18.1873,533.7559],[26.8589,-18.1746,531.5996],[26.8677,-18.1663,529.7111],[26.869,-18.1605,576.1531],[26.8643,-18.1501,602.5314],[26.8531,-18.1463,522.4501],[26.8522,-18.1429,592.0237],[26.8624,-18.1264,513.4924],[26.8643,-18.1201,512.1661],[26.8636,-18.1057,513.4794],[26.8676,-18.0983,513.8256],[26.8668,-18.0881,522.0549],[26.871,-18.0826,564.1306],[26.8873,-18.0739,517.842],[26.8901,-18.07,505.6201],[26.8902,-18.0628,621.4637],[26.8872,-18.0569,532.4971],[26.8881,-18.0458,659.0483],[26.8841,-18.0403,579.2594],[26.8913,-18.0354,526.4701],[26.8866,-18.0311,523.2791],[26.8865,-18.0191,587.049],[26.882,-18.0123,507.2735],[26.8817,-18.0091,515.9441],[26.9065,-18.0007,488.9768],[26.9124,-17.9961,514.2567],[26.9213,-17.9949,533.7073],[26.9236,-17.9927,485.8282],[26.924,-17.9873,514.309],[26.9274,-17.9816,501.3788],[26.9234,-17.975,536.2179],[26.9298,-17.9729,567.9158],[26.9101,-17.9774,610.5792],[26.8905,-17.9862,664.0149],[26.884,-17.9872,483.5],[26.8667,-17.9846,541.6547],[26.8596,-17.9911,487.3454],[26.8478,-17.9928,483.5],[26.8341,-17.9895,483.5],[26.8262,-17.9901,491.4743]]]]}
,"properties": {"GID_3": "ZWE.8.3.2_2","GID_0": "ZWE","country": "Zimbabwe","GID_1": "ZWE.8_1","province": "MatabelelandNorth","NL_NAME_1": "NA","GID_2": "ZWE.8.3_2","county": "Hwange","NL_NAME_2": "NA","city": "Ward10","VARNAME_3": "NA","NL_NAME_3": "NA","TYPE_3": "Ward","ENGTYPE_3": "Ward","CC_3": "NA","HASC_3": "NA","name": "Ward10.city","area_km2": 579.7832,"hist_schema_id": "Elevation0-9000","hist_area_km2": {"475": 11.8762,"500": 29.8765,"525": 45.4512,"550": 65.7826,"575": 72.8317,"600": 80.3226,"625": 63.2333,"650": 55.128,"675": 42.6578,"700": 36.6533,"725": 23.5947,"750": 12.8932,"775": 14.3024,"800": 11.8044,"825": 9.5078,"850": 3.6459,"875": 0.2216}}}