{"type": "Feature","bbox": [28.8333,-17.9673,28.9999,-17.8526],"geometry": {"type": "MultiPolygon","coordinates": [[[[28.9371,-17.9527,1033.1405],[28.9403,-17.9559,1055.2922],[28.9371,-17.9637,1067.0658],[28.9395,-17.9673,1047.6987],[28.9428,-17.9659,1066.1426],[28.9445,-17.9613,1029.3757],[28.9495,-17.9671,1102.5864],[28.9508,-17.9669,1102.5864],[28.9478,-17.9579,1021.5634],[28.9496,-17.9567,1036.3007],[28.9541,-17.9591,1101.5543],[28.9515,-17.9561,1015.0957],[28.9551,-17.9533,1006.8339],[28.9581,-17.9546,1082.8148],[28.9585,-17.9505,1040.8975],[28.9606,-17.9484,1048.7345],[28.9637,-17.9492,1014.137],[28.9648,-17.9513,1021.8819],[28.9649,-17.9573,1065.1782],[28.9685,-17.9526,1104.6667],[28.9672,-17.9477,1004.003],[28.973,-17.9468,1100.0455],[28.9688,-17.9397,1027.0149],[28.9764,-17.9374,1074.9785],[28.9774,-17.9305,1011.28],[28.9811,-17.9305,1109.8557],[28.9801,-17.9247,1024.7086],[28.9838,-17.9151,1060.0397],[28.9948,-17.9064,1105.1105],[28.9993,-17.9056,987.5612],[28.9982,-17.8986,976.7544],[28.9999,-17.8964,1001.4733],[28.9981,-17.8978,968.6161],[28.9899,-17.895,944.3755],[28.9805,-17.8861,912.3915],[28.9626,-17.8851,907.4824],[28.9416,-17.8732,862.957],[28.9343,-17.8715,858.7986],[28.9227,-17.8638,845.1384],[28.9172,-17.8549,841.9832],[28.9139,-17.8526,847.8568],[28.9012,-17.853,834.9884],[28.8864,-17.8621,834.4213],[28.8635,-17.8658,828.8446],[28.8553,-17.8642,825.007],[28.8465,-17.8648,834.9757],[28.8408,-17.8678,830.314],[28.8333,-17.8759,817.173],[28.8335,-17.8786,817.289],[28.8357,-17.8786,817.8705],[28.836,-17.8809,818.7145],[28.8376,-17.8806,820.6274],[28.8372,-17.8829,819.1865],[28.8396,-17.8829,822.6793],[28.8401,-17.8854,820.0836],[28.8414,-17.8837,825.1832],[28.8431,-17.8858,826.8863],[28.8452,-17.8856,829.2341],[28.8449,-17.8887,828.1717],[28.8499,-17.887,831.921],[28.8505,-17.8916,828.382],[28.8553,-17.8899,844.6274],[28.8548,-17.8924,838.7205],[28.8596,-17.8986,835.3839],[28.8621,-17.8985,847.1676],[28.8646,-17.901,840.0615],[28.8654,-17.899,846.289],[28.8664,-17.9,838.5204],[28.8687,-17.898,852.3802],[28.8679,-17.9018,843.1047],[28.8717,-17.8996,858.204],[28.8695,-17.9024,848.9196],[28.8751,-17.9032,856.8835],[28.8751,-17.9049,846.4857],[28.8774,-17.9057,865.689],[28.874,-17.908,846.3759],[28.8742,-17.9093,846.3759],[28.8786,-17.909,861.4454],[28.8783,-17.9124,853.1574],[28.8825,-17.9126,863.6757],[28.8788,-17.9152,850.9606],[28.8845,-17.9146,862.7917],[28.8856,-17.917,859.4272],[28.884,-17.9208,855.5305],[28.886,-17.9199,860.833],[28.8884,-17.9216,860.4514],[28.885,-17.9245,859.3353],[28.8859,-17.9273,859.7068],[28.8888,-17.9257,862.7563],[28.8894,-17.9281,862.3213],[28.8959,-17.9282,870.9973],[28.9061,-17.9322,884.014],[28.9266,-17.9363,923.6884],[28.9271,-17.9392,919.9756],[28.9343,-17.9463,956.1205],[28.9371,-17.9527,1033.1405]]]]}
,"properties": {"GID_3": "ZWE.10.2.2_2","GID_0": "ZWE","country": "Zimbabwe","GID_1": "ZWE.10_1","province": "Midlands","NL_NAME_1": "NA","GID_2": "ZWE.10.2_2","county": "GokweNorth","NL_NAME_2": "NA","city": "Ward10","VARNAME_3": "NA","NL_NAME_3": "NA","TYPE_3": "Ward","ENGTYPE_3": "Ward","CC_3": "NA","HASC_3": "NA","name": "Ward10.city","area_km2": 103.70328,"hist_schema_id": "Elevation0-9000","hist_area_km2": {"825": 7.72871,"850": 21.18725,"875": 20.47887,"900": 19.28737,"925": 17.1483,"950": 7.44389,"975": 4.98261,"1000": 2.6828,"1025": 1.1901,"1050": 0.54463,"1075": 0.54463,"1100": 0.36307,"1125": 0.12105}}}