{"type":"Feature","properties":{"GID_3":"ZWE.7.6.16_2","GID_0":"ZWE","country":"Zimbabwe","GID_1":"ZWE.7_1","province":"Masvingo","NL_NAME_1":"NA","GID_2":"ZWE.7.6_2","county":"Masvingo","NL_NAME_2":"NA","city":"Ward23","VARNAME_3":"NA","NL_NAME_3":"NA","TYPE_3":"Ward","ENGTYPE_3":"Ward","CC_3":"NA","HASC_3":"NA","name":"Ward23.city"},
"geometry":{"type": "MultiPolygon","coordinates": [[[[31.2086,-20.5952,612.8706],[31.1989,-20.5757,631.99],[31.194,-20.5731,626.8805],[31.1947,-20.566,724.4595],[31.1908,-20.5649,642.5698],[31.1882,-20.5546,647.2028],[31.1781,-20.5369,649.9536],[31.1731,-20.5311,652.7507],[31.1729,-20.5258,654.6804],[31.164,-20.5164,658.7238],[31.1582,-20.5148,660.7844],[31.1578,-20.5125,668.1406],[31.155,-20.5122,671.0397],[31.1474,-20.5154,667.1356],[31.1431,-20.5137,676.7429],[31.1329,-20.5178,672.1935],[31.1285,-20.5169,680.8973],[31.1282,-20.5194,678.6145],[31.1158,-20.5298,689.6418],[31.1141,-20.5328,681.519],[31.1084,-20.5338,701.1337],[31.1015,-20.5377,697.6863],[31.0956,-20.5343,717.4026],[31.0868,-20.5358,712.5682],[31.0805,-20.5286,719.4398],[31.0774,-20.5216,730.792],[31.0665,-20.5228,729.6269],[31.061,-20.519,732.4355],[31.0559,-20.5243,737.2432],[31.0504,-20.5238,740.7495],[31.0492,-20.5288,735.4607],[31.0447,-20.5267,744.9548],[31.0385,-20.5274,743.6299],[31.034,-20.5319,742.9332],[31.0345,-20.5333,747.8926],[31.0434,-20.5334,762.896],[31.0856,-20.5468,711.5854],[31.0959,-20.5509,725.287],[31.0987,-20.5563,707.0],[31.1038,-20.5538,711.3484],[31.1091,-20.5534,700.2588],[31.1106,-20.5617,665.7053],[31.1176,-20.5654,660.4623],[31.1193,-20.57,654.9623],[31.1335,-20.578,663.4412],[31.145,-20.5817,651.8513],[31.1474,-20.586,658.6394],[31.1543,-20.5914,631.4804],[31.1697,-20.5917,628.1532],[31.1755,-20.5895,644.6488],[31.1811,-20.5945,629.4387],[31.1848,-20.592,638.4967],[31.1918,-20.5968,628.7538],[31.1978,-20.5983,624.8268],[31.2029,-20.5949,622.1862],[31.2067,-20.5954,616.474],[31.2086,-20.5952,612.8706]]]]}}