{"type":"Feature","properties":{"GID_3":"ZWE.4.9.21_2","GID_0":"ZWE","country":"Zimbabwe","GID_1":"ZWE.4_1","province":"MashonalandCentral","NL_NAME_1":"NA","GID_2":"ZWE.4.9_2","county":"Rushinga","NL_NAME_2":"NA","city":"Ward5","VARNAME_3":"NA","NL_NAME_3":"NA","TYPE_3":"Ward","ENGTYPE_3":"Ward","CC_3":"NA","HASC_3":"NA","name":"Ward5.city"},
"geometry":{"type": "MultiPolygon","coordinates": [[[[32.3472,-16.6372,676.561],[32.3526,-16.6329,703.3524],[32.3327,-16.6262,733.0266],[32.3301,-16.6202,732.7134],[32.3312,-16.6128,759.2891],[32.3239,-16.6099,768.2915],[32.3282,-16.6007,787.3249],[32.3277,-16.5869,810.6361],[32.3229,-16.5834,822.6589],[32.3229,-16.5803,793.9708],[32.3189,-16.5753,775.5761],[32.3175,-16.5774,781.2054],[32.3149,-16.5771,785.4484],[32.3065,-16.57,765.0396],[32.3103,-16.5666,757.4783],[32.3136,-16.5583,742.0723],[32.3168,-16.5568,739.087],[32.3173,-16.5531,736.8442],[32.3204,-16.5509,729.3141],[32.3178,-16.5448,719.915],[32.3138,-16.5415,710.6657],[32.3205,-16.5362,701.7151],[32.3199,-16.526,701.6068],[32.2823,-16.5585,784.1907],[32.2663,-16.5645,827.78],[32.2452,-16.5651,900.5688],[32.2513,-16.572,853.8143],[32.2516,-16.5856,825.3071],[32.2714,-16.5911,819.2385],[32.2795,-16.598,819.6997],[32.2785,-16.6009,802.5294],[32.2754,-16.6029,780.974],[32.2794,-16.6065,765.9479],[32.2771,-16.61,757.06],[32.2734,-16.6112,764.7524],[32.2697,-16.6148,738.1803],[32.2689,-16.6261,730.5015],[32.2712,-16.6303,733.9664],[32.3154,-16.6153,813.393],[32.3297,-16.6306,739.0685],[32.332,-16.6306,727.4702],[32.332,-16.6345,710.6549],[32.3424,-16.6345,695.9948],[32.3472,-16.6372,676.561]]]]}}