{"type":"Feature","properties":{"GID_3":"ZWE.8.3.13_2","GID_0":"ZWE","country":"Zimbabwe","GID_1":"ZWE.8_1","province":"MatabelelandNorth","NL_NAME_1":"NA","GID_2":"ZWE.8.3_2","county":"Hwange","NL_NAME_2":"NA","city":"Ward20","VARNAME_3":"NA","NL_NAME_3":"NA","TYPE_3":"Ward","ENGTYPE_3":"Ward","CC_3":"NA","HASC_3":"NA","name":"Ward20.city"},
"geometry":{"type": "MultiPolygon","coordinates": [[[[26.509,-18.4505,810.9728],[26.5219,-18.4526,784.7942],[26.528199999999998,-18.4495,771.55],[26.533,-18.456,858.4095],[26.5313,-18.4678,829.6478],[26.5333,-18.4703,847.7079],[26.5359,-18.4707,825.9592],[26.5618,-18.4606,784.0383],[26.5689,-18.4609,805.1781],[26.5694,-18.4554,826.4492],[26.5727,-18.4562,807.9783],[26.5808,-18.4523,797.191],[26.6361,-18.4555,793.1788],[26.6923,-18.4272,802.3408],[26.714,-18.407,815.8682],[26.7213,-18.4043,865.4182],[26.7213,-18.3996,853.0973],[26.7262,-18.3946,813.7833],[26.727,-18.3884,795.4331],[26.7388,-18.3803,773.766],[26.7433,-18.3811,770.2015],[26.7445,-18.3795,759.7831],[26.7429,-18.3772,767.3795],[26.7486,-18.3679,753.7912],[26.7482,-18.3621,742.8459],[26.758,-18.3524,734.4831],[26.7592,-18.3489,735.7341],[26.7612,-18.347,733.632],[26.7701,-18.3462,738.5769],[26.773,-18.3267,902.6162],[26.775,-18.3217,870.9098],[26.7799,-18.3186,860.739],[26.7828,-18.312,852.3447],[26.7795,-18.3105,837.7913],[26.7775,-18.3019,814.6553],[26.771,-18.3015,771.2813],[26.7678,-18.3004,758.5901],[26.767,-18.298,745.6459],[26.761,-18.2962,752.3197],[26.7566,-18.2966,728.4746],[26.7535,-18.2925,700.3815],[26.7477,-18.2968,710.6581],[26.731,-18.2964,697.9205],[26.7122,-18.3045,716.6445],[26.7072,-18.3335,783.6563],[26.6941,-18.3392,734.0612],[26.6681,-18.3473,822.6387],[26.6592,-18.3401,772.3016],[26.6475,-18.3262,678.092],[26.6338,-18.3251,723.0996],[26.6189,-18.3212,758.5934],[26.6015,-18.3411,736.5916],[26.5465,-18.2793,762.5792],[26.546,-18.3405,747.7191],[26.5457,-18.3431,754.2695],[26.5427,-18.3446,756.8323],[26.5466,-18.3509,745.3373],[26.5465,-18.3565,746.5991],[26.5512,-18.3621,749.2742],[26.5474,-18.3746,786.8188],[26.5484,-18.3795,770.0823],[26.5454,-18.3836,785.7241],[26.5419,-18.404,798.6404],[26.536,-18.4104,813.43],[26.5367,-18.4141,803.1473],[26.5335,-18.4187,819.8436],[26.528,-18.4199,820.2264],[26.5247,-18.4228,829.7659],[26.5224,-18.433,814.0623],[26.5156,-18.4404,808.4972],[26.5155,-18.4458,809.3508],[26.509,-18.4505,810.9728]]]]}}