{"type":"Feature","properties":{"GID_3":"ZWE.6.10.7_2","GID_0":"ZWE","country":"Zimbabwe","GID_1":"ZWE.6_1","province":"MashonalandWest","NL_NAME_1":"NA","GID_2":"ZWE.6.10_2","county":"Mhondoro-Ngezi","NL_NAME_2":"NA","city":"Ward15","VARNAME_3":"NA","NL_NAME_3":"NA","TYPE_3":"Ward","ENGTYPE_3":"Ward","CC_3":"NA","HASC_3":"NA","name":"Ward15.city"},
"geometry":{"type": "MultiPolygon","coordinates": [[[[29.7279,-18.5063,1081.1809],[29.7237,-18.5084,1085.1628],[29.7078,-18.508,1078.6393],[29.693,-18.511,1086.4863],[29.6837,-18.5099,1084.2671],[29.6692,-18.5114,1096.0259],[29.6562,-18.5074,1097.0194],[29.6149,-18.5105,1073.377],[29.6069,-18.5072,1068.0931],[29.5975,-18.4947,1055.8953],[29.5795,-18.4842,1052.0028],[29.5754,-18.4738,1030.9384],[29.5723,-18.4714,1034.1556],[29.5604,-18.4699,1018.6242],[29.555,-18.4631,986.7533],[29.5533,-18.4581,971.9276],[29.5455,-18.4552,958.4845],[29.5515,-18.4769,974.0458],[29.5473,-18.4827,973.3463],[29.5537,-18.4885,1010.065],[29.5514,-18.5001,981.2466],[29.5541,-18.5141,985.1428],[29.5521,-18.5214,986.5651],[29.545,-18.5287,1002.7701],[29.5449,-18.5357,990.8281],[29.5471,-18.5543,993.7216],[29.554,-18.5702,997.0673],[29.5544,-18.5798,1007.4912],[29.5575,-18.5822,1008.2922],[29.5645,-18.5825,1009.7093],[29.5682,-18.5848,1005.3797],[29.5713,-18.5847,1008.4717],[29.5756,-18.5792,1016.3824],[29.5814,-18.5777,1018.4406],[29.589,-18.5775,1019.7787],[29.5969,-18.5798,1026.3732],[29.612,-18.5919,1037.7721],[29.6182,-18.5993,1037.7017],[29.6257,-18.6005,1042.4407],[29.6341,-18.6115,1043.2288],[29.6398,-18.6147,1049.0208],[29.6437,-18.6135,1052.2922],[29.6503,-18.6167,1059.6606],[29.6655,-18.604,1062.5278],[29.6694,-18.605,1062.9379],[29.6765,-18.6103,1063.9602],[29.6906,-18.6139,1066.8253],[29.6961,-18.6102,1065.7856],[29.6995,-18.6105,1065.3422],[29.7077,-18.6156,1065.119],[29.7201,-18.6109,1068.2866],[29.7299,-18.611,1076.4214],[29.7315,-18.5489,1107.0348],[29.7277,-18.5382,1100.2991],[29.7187,-18.5339,1109.6132],[29.7279,-18.5063,1081.1809]]]]}}