{"type":"Feature","properties":{"GID_3":"ZWE.4.10.4_2","GID_0":"ZWE","country":"Zimbabwe","GID_1":"ZWE.4_1","province":"MashonalandCentral","NL_NAME_1":"NA","GID_2":"ZWE.4.10_2","county":"Shamva","NL_NAME_2":"NA","city":"Ward12","VARNAME_3":"NA","NL_NAME_3":"NA","TYPE_3":"Ward","ENGTYPE_3":"Ward","CC_3":"NA","HASC_3":"NA","name":"Ward12.city"},
"geometry":{"type": "MultiPolygon","coordinates": [[[[31.5827,-17.1858,1070.1071],[31.6022,-17.1904,1164.8228],[31.6003,-17.1944,1181.0872],[31.6165,-17.1985,1226.8186],[31.6205,-17.1888,1198.1105],[31.6363,-17.189,1168.2979],[31.6386,-17.194,1151.3395],[31.6455,-17.1946,1124.8862],[31.6585,-17.1168,908.3452],[31.6077,-17.1152,964.6845],[31.6088,-17.1188,969.8798],[31.6023,-17.1296,953.2209],[31.6058,-17.1297,954.9149],[31.6069,-17.1314,952.0865],[31.6124,-17.1311,948.9164],[31.6104,-17.1422,954.3708],[31.6053,-17.1516,967.3189],[31.598,-17.1586,983.7573],[31.5985,-17.1623,986.8123],[31.5934,-17.1669,1016.1633],[31.5886,-17.1758,1042.1465],[31.585,-17.177,1060.7964],[31.5822,-17.1812,1051.9111],[31.5827,-17.1858,1070.1071]]]]}}