{"type": "Feature","bbox": [29.7681,-19.4707,29.8394,-19.4408],"geometry": {"type": "MultiPolygon","coordinates": [[[[29.8062,-19.4408,1399.5405],[29.807,-19.4436,1402.6238],[29.8013,-19.446,1410.6033],[29.8009,-19.4492,1411.4265],[29.7924,-19.4501,1410.6316],[29.791,-19.446,1406.375],[29.7863,-19.445,1406.484],[29.7827,-19.4469,1410.2975],[29.7841,-19.449,1409.5757],[29.7783,-19.4523,1414.4874],[29.7681,-19.455,1416.7852],[29.7726,-19.4635,1430.8159],[29.7753,-19.4625,1425.5532],[29.7773,-19.4666,1426.3794],[29.7845,-19.4663,1422.7679],[29.7877,-19.4689,1425.9453],[29.7934,-19.4654,1423.9143],[29.8023,-19.4707,1422.5542],[29.8124,-19.4648,1424.4363],[29.8218,-19.4653,1425.0181],[29.824,-19.4581,1413.8324],[29.8316,-19.4642,1420.9131],[29.8371,-19.466,1417.9559],[29.8385,-19.4684,1417.3484],[29.8394,-19.4646,1414.3822],[29.8324,-19.4531,1405.2133],[29.8185,-19.4489,1404.5636],[29.8193,-19.4461,1402.2946],[29.8062,-19.4408,1399.5405]]]]}
,"properties": {"GID_3": "ZWE.10.6.10_2","GID_0": "ZWE","country": "Zimbabwe","GID_1": "ZWE.10_1","province": "Midlands","NL_NAME_1": "NA","GID_2": "ZWE.10.6_2","county": "GweruUrban","NL_NAME_2": "NA","city": "Ward18","VARNAME_3": "NA","NL_NAME_3": "NA","TYPE_3": "Ward","ENGTYPE_3": "Ward","CC_3": "NA","HASC_3": "NA","name": "Ward18.city","area_km2": 12.934426,"hist_schema_id": "Elevation0-9000","hist_area_km2": {"1400": 4.078396,"1425": 8.836038,"1450": 0.019992}}}