{"type": "Feature","bbox": [28.5126,-20.1421,28.6712,-19.9615],"geometry": {"type": "MultiPolygon","coordinates": [[[[28.5904,-20.1421,1336.2869],[28.5916,-20.138,1332.2096],[28.5953,-20.1385,1326.5941],[28.5962,-20.1351,1321.214],[28.5996,-20.1323,1317.4077],[28.5991,-20.1264,1316.5796],[28.6015,-20.1265,1314.0939],[28.6127,-20.1033,1312.3855],[28.6169,-20.1001,1308.6968],[28.6196,-20.09,1291.4116],[28.6217,-20.0895,1295.9318],[28.6271,-20.0948,1293.9141],[28.6256,-20.1008,1295.6028],[28.6304,-20.1009,1298.877],[28.6334,-20.104,1299.8894],[28.6395,-20.0921,1313.9055],[28.6468,-20.093,1319.8134],[28.6465,-20.0904,1319.9048],[28.6559,-20.0681,1315.606],[28.6436,-20.0687,1306.0421],[28.6498,-20.0581,1330.2488],[28.6506,-20.0491,1330.9434],[28.6618,-20.028,1311.979],[28.668,-20.024,1307.4633],[28.6712,-20.0163,1302.0187],[28.6436,-20.0042,1308.0778],[28.6072,-19.9615,1285.3733],[28.5738,-20.0281,1275.135],[28.5542,-20.0443,1271.619],[28.5537,-20.0565,1259.0367],[28.5469,-20.0493,1268.8635],[28.5485,-20.0461,1248.2338],[28.5477,-20.0444,1244.3706],[28.5416,-20.0411,1241.1643],[28.5389,-20.0358,1236.3457],[28.5365,-20.0358,1242.9062],[28.5336,-20.0315,1247.9366],[28.5308,-20.0305,1235.5],[28.5126,-20.043,1273.9916],[28.513,-20.0592,1284.0022],[28.5336,-20.0859,1309.1816],[28.538,-20.0829,1305.0939],[28.5387,-20.0957,1318.2236],[28.5351,-20.1027,1333.6956],[28.5313,-20.1053,1332.7681],[28.5478,-20.1159,1327.5022],[28.5709,-20.1216,1330.1812],[28.5824,-20.1225,1324.032],[28.5819,-20.1398,1334.1558],[28.5904,-20.1421,1336.2869]]]]}
,"properties": {"GID_3": "ZWE.1.1.12_2","GID_0": "ZWE","country": "Zimbabwe","GID_1": "ZWE.1_1","province": "Bulawayo","NL_NAME_1": "NA","GID_2": "ZWE.1.1_2","county": "Bulawayo","NL_NAME_2": "NA","city": "Ward2","VARNAME_3": "NA","NL_NAME_3": "NA","TYPE_3": "Ward","ENGTYPE_3": "Ward","CC_3": "NA","HASC_3": "NA","name": "Ward2.city","area_km2": 156.8418,"hist_schema_id": "Elevation0-9000","hist_area_km2": {"1225": 0.0797,"1250": 2.7686,"1275": 40.89,"1300": 67.0571,"1325": 45.9468,"1350": 0.0995}}}