{"type": "Feature","bbox": [31.5906,-20.2696,31.7212,-20.1846],"geometry": {"type": "MultiPolygon","coordinates": [[[[31.7161,-20.2412,670.9133],[31.7132,-20.2341,684.1852],[31.7084,-20.2293,682.4905],[31.7083,-20.2248,679.5386],[31.6985,-20.2116,692.2673],[31.697,-20.2074,697.1792],[31.6926,-20.2082,693.3357],[31.6899,-20.2064,696.4495],[31.6907,-20.2042,707.1407],[31.676,-20.2073,708.7667],[31.675,-20.2046,710.8833],[31.6723,-20.2042,710.1325],[31.6688,-20.197,728.0226],[31.6458,-20.2065,738.1677],[31.6306,-20.1958,772.017],[31.61,-20.1919,804.715],[31.6092,-20.1883,809.2321],[31.6064,-20.1856,815.8849],[31.6006,-20.1846,792.8751],[31.5938,-20.186,777.6581],[31.5906,-20.2012,771.9935],[31.5924,-20.206,762.6319],[31.5909,-20.2094,762.08],[31.5918,-20.2191,759.2739],[31.6031,-20.2256,754.0],[31.6055,-20.2296,754.0],[31.6062,-20.2372,754.0],[31.6193,-20.2429,754.0],[31.6119,-20.2696,732.249],[31.6668,-20.2502,765.0015],[31.6723,-20.2629,734.6118],[31.7205,-20.2579,662.8064],[31.7212,-20.2503,680.5154],[31.7161,-20.2412,670.9133]]]]}
,"properties": {"GID_3": "ZWE.7.1.27_2","GID_0": "ZWE","country": "Zimbabwe","GID_1": "ZWE.7_1","province": "Masvingo","NL_NAME_1": "NA","GID_2": "ZWE.7.1_2","county": "Bikita","NL_NAME_2": "NA","city": "Ward4","VARNAME_3": "NA","NL_NAME_3": "NA","TYPE_3": "Ward","ENGTYPE_3": "Ward","CC_3": "NA","HASC_3": "NA","name": "Ward4.city","area_km2": 75.40001,"hist_schema_id": "Elevation0-9000","hist_area_km2": {"675": 3.06353,"700": 11.45866,"725": 16.55189,"750": 19.87428,"775": 17.18949,"800": 5.57116,"825": 1.0346,"850": 0.2387,"875": 0.15913,"900": 0.15912,"925": 0.07956,"950": 0.01989}}}