{"type": "Feature","bbox": [31.2432,-16.451,31.478,-16.301],"geometry": {"type": "MultiPolygon","coordinates": [[[[31.478,-16.451,612.1663],[31.478,-16.445,552.3159],[31.4745,-16.4406,533.4138],[31.471,-16.4387,526.0344],[31.4675,-16.4401,530.1079],[31.464,-16.4367,522.5688],[31.4605,-16.4367,529.1542],[31.4611,-16.4347,524.4961],[31.4581,-16.4342,521.0063],[31.4571,-16.4318,520.2621],[31.4536,-16.4318,530.2379],[31.4531,-16.4294,512.6885],[31.4471,-16.4279,497.7973],[31.4442,-16.425,488.0964],[31.4412,-16.4269,487.2266],[31.4387,-16.4254,483.7039],[31.4387,-16.4274,480.9046],[31.4332,-16.4292,477.5818],[31.4292,-16.4225,469.5725],[31.4262,-16.422,478.2762],[31.4253,-16.4186,465.8906],[31.4213,-16.4186,476.024],[31.4218,-16.4162,463.0696],[31.4243,-16.4152,462.6481],[31.4208,-16.4157,463.0696],[31.4203,-16.4104,461.0233],[31.4158,-16.4118,466.9954],[31.4139,-16.4045,459.2927],[31.4109,-16.4055,453.5931],[31.4084,-16.3992,450.5009],[31.4055,-16.3982,451.1953],[31.4035,-16.3924,451.378],[31.4025,-16.3948,449.8325],[31.3985,-16.3919,448.52],[31.3961,-16.3871,441.9971],[31.3976,-16.3856,441.3252],[31.3966,-16.3842,442.9128],[31.3916,-16.387,450.1219],[31.3912,-16.3783,436.5074],[31.3861,-16.3812,434.923],[31.3842,-16.3768,435.3119],[31.3787,-16.3744,432.5083],[31.3722,-16.3739,427.3463],[31.3717,-16.3715,430.358],[31.3687,-16.3748,427.0674],[31.3637,-16.3743,424.1225],[31.3608,-16.3694,422.4836],[31.3573,-16.3704,422.6252],[31.3564,-16.3627,419.5178],[31.3489,-16.3592,415.3102],[31.3484,-16.3573,413.237],[31.3415,-16.3548,413.0532],[31.3359,-16.3577,411.276],[31.325,-16.3581,409.6135],[31.316,-16.3517,405.1287],[31.3141,-16.3459,401.2025],[31.3086,-16.3421,398.7613],[31.2982,-16.3405,398.3387],[31.2982,-16.3347,395.855],[31.2943,-16.3323,394.1599],[31.2913,-16.3265,392.6751],[31.2918,-16.3231,393.2789],[31.2894,-16.3212,393.0058],[31.2905,-16.3067,388.7412],[31.2945,-16.3053,390.2241],[31.292,-16.301,389.428],[31.2905,-16.3024,392.1216],[31.2841,-16.3014,386.3399],[31.282,-16.3038,385.4261],[31.2795,-16.3038,384.9543],[31.2779,-16.3172,392.9055],[31.2789,-16.3235,399.3908],[31.2748,-16.3278,396.5247],[31.2729,-16.3263,399.4907],[31.2649,-16.3268,410.3226],[31.258,-16.32,403.5569],[31.25,-16.3199,398.8539],[31.2442,-16.3171,399.8675],[31.2458,-16.3193,397.0685],[31.2432,-16.3224,397.4439],[31.2453,-16.3235,400.0777],[31.2453,-16.3252,400.9151],[31.2477,-16.3242,401.26],[31.2478,-16.3312,400.631],[31.25,-16.3335,400.7574],[31.2522,-16.3315,401.8742],[31.251,-16.3348,400.4547],[31.2536,-16.3375,404.3186],[31.2513,-16.3406,404.1294],[31.2531,-16.3448,407.0292],[31.2573,-16.3468,411.9738],[31.2566,-16.3491,410.5374],[31.2593,-16.3503,413.7609],[31.2563,-16.3524,409.57],[31.2583,-16.3577,414.5557],[31.255,-16.3603,414.2435],[31.2573,-16.3619,414.9818],[31.2551,-16.3667,414.5171],[31.2566,-16.3709,418.6396],[31.258,-16.3712,418.6396],[31.26,-16.3846,426.0093],[31.262,-16.3861,427.0499],[31.2606,-16.3871,426.5094],[31.2678,-16.3886,434.1161],[31.2681,-16.3915,431.0758],[31.272,-16.3966,437.8291],[31.2715,-16.3985,438.984],[31.2732,-16.3991,440.559],[31.2723,-16.4009,439.6722],[31.2733,-16.4041,444.6216],[31.2712,-16.4092,444.5464],[31.2723,-16.4103,447.5934],[31.2719,-16.4154,449.5673],[31.2696,-16.4181,462.7649],[31.2699,-16.4209,465.2409],[31.2852,-16.4209,477.4597],[31.3167,-16.43,538.3219],[31.362,-16.4403,533.8608],[31.4203,-16.4479,587.0079],[31.478,-16.451,612.1663]]]]}
,"properties": {"GID_3": "ZWE.4.3.9_2","GID_0": "ZWE","country": "Zimbabwe","GID_1": "ZWE.4_1","province": "MashonalandCentral","NL_NAME_1": "NA","GID_2": "ZWE.4.3_2","county": "Centenary/Muzarabani","NL_NAME_2": "NA","city": "Ward17","VARNAME_3": "NA","NL_NAME_3": "NA","TYPE_3": "Ward","ENGTYPE_3": "Ward","CC_3": "NA","HASC_3": "NA","name": "Ward17.city","area_km2": 158.3691,"hist_schema_id": "Elevation0-9000","hist_area_km2": {"375": 0.2442,"400": 24.415,"425": 52.9699,"450": 44.4196,"475": 19.0557,"500": 6.3041,"525": 5.2262,"550": 2.6436,"575": 1.5658,"600": 1.0981,"625": 0.3457,"650": 0.0813}}}