{"type":"Feature","properties":{"GID_3":"ZWE.4.7.31_2","GID_0":"ZWE","country":"Zimbabwe","GID_1":"ZWE.4_1","province":"MashonalandCentral","NL_NAME_1":"NA","GID_2":"ZWE.4.7_2","county":"MountDarwin","NL_NAME_2":"NA","city":"Ward37","VARNAME_3":"NA","NL_NAME_3":"NA","TYPE_3":"Ward","ENGTYPE_3":"Ward","CC_3":"NA","HASC_3":"NA","name":"Ward37.city"},
"geometry":{"type": "MultiPolygon","coordinates": [[[[32.0275,-16.4396,1026.7427],[32.0011,-16.4386,885.858],[31.9707,-16.4399,685.1455],[31.9368,-16.4457,754.2206],[31.9211,-16.4463,700.5492],[31.9163,-16.4497,716.5718],[31.9078,-16.4527,767.7946],[31.8808,-16.4522,781.7741],[31.888,-16.5183,752.886],[31.8983,-16.5188,786.4412],[31.907,-16.5243,754.5103],[31.9172,-16.5233,751.3898],[31.9244,-16.5286,744.8206],[31.9279,-16.5275,741.9049],[31.9288,-16.5247,759.2616],[31.9358,-16.5277,747.2969],[31.9443,-16.5213,733.9237],[31.9487,-16.5083,753.4536],[31.9699,-16.502,692.5175],[31.9742,-16.4991,710.5985],[31.9777,-16.4939,690.9695],[31.9765,-16.4887,672.8643],[31.9785,-16.4849,667.6136],[31.9882,-16.4767,665.0723],[31.9858,-16.473,655.0725],[31.9879,-16.4689,694.8237],[31.9931,-16.4672,723.1046],[31.9959,-16.4694,750.9559],[32.0142,-16.47,737.7484],[32.0256,-16.4681,626.6982],[32.0434,-16.4607,674.6708],[32.048,-16.4612,678.7918],[32.0545,-16.4532,557.9654],[32.0584,-16.4411,565.5007],[32.0375,-16.4424,1108.9065],[32.0275,-16.4396,1026.7427]]]]}}