{"type": "Feature","bbox": [29.4055,-18.275,29.7807,-18.0401],"geometry": {"type": "MultiPolygon","coordinates": [[[[29.7164,-18.0466,1049.0006],[29.7165,-18.0617,1074.9664],[29.7045,-18.0623,1035.6451],[29.6563,-18.0624,1033.0593],[29.6271,-18.0443,1011.8909],[29.565,-18.0471,951.0739],[29.5671,-18.0512,958.2262],[29.5635,-18.0545,952.8149],[29.5657,-18.0563,952.882],[29.5687,-18.0552,958.5909],[29.5698,-18.0564,960.6768],[29.5662,-18.0604,958.4695],[29.5685,-18.0669,959.9085],[29.5684,-18.0744,966.954],[29.5662,-18.0758,969.2558],[29.5696,-18.077,969.2067],[29.5657,-18.0795,971.1863],[29.5663,-18.088,970.2466],[29.5693,-18.089,982.1293],[29.5665,-18.0926,973.9457],[29.5674,-18.0955,972.5496],[29.5662,-18.0977,976.5149],[29.5738,-18.0996,987.2722],[29.5758,-18.1016,984.832],[29.5017,-18.0965,1002.3312],[29.5023,-18.1079,994.9915],[29.4998,-18.1089,991.7274],[29.4977,-18.1072,995.4233],[29.457,-18.0955,976.0132],[29.4055,-18.1456,963.3014],[29.4321,-18.1923,994.9518],[29.5036,-18.2069,1007.0488],[29.5087,-18.26,965.2537],[29.5086,-18.2742,986.6406],[29.5405,-18.2734,979.9887],[29.5419,-18.2749,983.5519],[29.5506,-18.275,1007.2038],[29.5507,-18.2694,992.7261],[29.5552,-18.2654,1006.9567],[29.5639,-18.2655,1007.049],[29.5639,-18.2669,1001.1841],[29.5916,-18.2674,1019.9846],[29.5946,-18.2633,1019.6049],[29.5947,-18.2563,1005.5334],[29.5962,-18.2563,1015.7415],[29.5961,-18.2591,1011.5529],[29.599,-18.262,1013.1631],[29.6194,-18.2623,1035.0312],[29.6238,-18.2568,1022.1112],[29.6239,-18.254,1021.5084],[29.6297,-18.2541,1022.8999],[29.6296,-18.2597,1029.3374],[29.6427,-18.2599,1036.1797],[29.6428,-18.2558,1032.725],[29.6458,-18.2516,1043.4421],[29.6459,-18.2489,1048.1113],[29.6575,-18.2491,1043.1255],[29.6583,-18.2438,1046.6483],[29.6631,-18.2419,1049.6198],[29.6725,-18.2418,1051.4669],[29.6729,-18.2156,1065.1741],[29.5984,-18.2134,1031.5809],[29.581,-18.2001,1027.9091],[29.5946,-18.188,1035.4163],[29.5942,-18.1593,1009.8264],[29.6152,-18.1345,997.9363],[29.6134,-18.1289,998.6251],[29.6083,-18.1254,995.4297],[29.6234,-18.1211,1006.5378],[29.6559,-18.1212,1017.2379],[29.6558,-18.1392,1025.0569],[29.7156,-18.1452,1062.5442],[29.7161,-18.0921,1058.1855],[29.7496,-18.1008,1073.9569],[29.7495,-18.0733,1075.5466],[29.7357,-18.0742,1079.7473],[29.7375,-18.0575,1063.9508],[29.7807,-18.0591,1084.078],[29.7791,-18.0401,1083.4099],[29.7164,-18.0466,1049.0006]]]]}
,"properties": {"GID_3": "ZWE.6.12.13_2","GID_0": "ZWE","country": "Zimbabwe","GID_1": "ZWE.6_1","province": "MashonalandWest","NL_NAME_1": "NA","GID_2": "ZWE.6.12_2","county": "Sanyati","NL_NAME_2": "NA","city": "Ward4","VARNAME_3": "NA","NL_NAME_3": "NA","TYPE_3": "Ward","ENGTYPE_3": "Ward","CC_3": "NA","HASC_3": "NA","name": "Ward4.city","area_km2": 462.824,"hist_schema_id": "Elevation0-9000","hist_area_km2": {"925": 0.2015,"950": 22.2627,"975": 89.7404,"1000": 150.3093,"1025": 115.9577,"1050": 60.7098,"1075": 23.6225,"1100": 0.0202}}}