{"type": "Feature","bbox": [31.7439,-17.3247,31.8754,-17.1677],"geometry": {"type": "MultiPolygon","coordinates": [[[[31.7514,-17.2881,886.2336],[31.7554,-17.2879,898.9849],[31.7568,-17.2945,891.2307],[31.7589,-17.2965,937.9506],[31.7833,-17.2938,1083.9574],[31.789,-17.3006,1092.948],[31.7961,-17.301,1102.073],[31.8033,-17.3049,1111.4554],[31.8082,-17.3093,1106.6943],[31.8149,-17.3209,1076.2316],[31.8231,-17.3247,1052.4592],[31.8244,-17.3218,1052.5088],[31.8293,-17.3211,1046.4668],[31.8331,-17.3178,1030.1222],[31.8338,-17.3144,1044.0662],[31.8377,-17.3137,1038.4705],[31.8484,-17.3056,1018.9938],[31.8489,-17.3011,1028.6049],[31.8396,-17.2967,1088.1897],[31.8355,-17.2914,1114.2699],[31.8316,-17.2784,1147.2775],[31.8269,-17.2696,1078.7573],[31.8212,-17.2485,1100.5642],[31.8287,-17.2366,997.2202],[31.8321,-17.2338,995.8815],[31.8326,-17.2262,978.3573],[31.8368,-17.2212,959.0358],[31.8728,-17.2026,932.3768],[31.8754,-17.1982,938.6531],[31.8401,-17.1677,990.2962],[31.7456,-17.2413,912.7922],[31.7439,-17.2479,886.2364],[31.7494,-17.2585,864.9398],[31.7482,-17.2691,879.9147],[31.7543,-17.279,941.8704],[31.7514,-17.2881,886.2336]]]]}
,"properties": {"GID_3": "ZWE.5.11.17_2","GID_0": "ZWE","country": "Zimbabwe","GID_1": "ZWE.5_1","province": "MashonalandEast","NL_NAME_1": "NA","GID_2": "ZWE.5.11_2","county": "UzumbaMarambaPfungwe","NL_NAME_2": "NA","city": "Ward9","VARNAME_3": "NA","NL_NAME_3": "NA","TYPE_3": "Ward","ENGTYPE_3": "Ward","CC_3": "NA","HASC_3": "NA","name": "Ward9.city","area_km2": 111.8144,"hist_schema_id": "Elevation0-9000","hist_area_km2": {"850": 0.04049,"875": 0.64789,"900": 0.70861,"925": 0.89105,"950": 6.01504,"975": 12.79982,"1000": 11.58427,"1025": 9.5374,"1050": 15.54988,"1075": 22.21029,"1100": 15.89273,"1125": 3.72566,"1150": 2.42998,"1175": 1.90353,"1200": 1.49853,"1225": 1.43782,"1250": 1.62011,"1275": 1.15435,"1300": 0.89107,"1325": 0.8911,"1350": 0.28353,"1375": 0.10126}}}