{"type": "Feature","bbox": [29.251,-18.8067,29.4626,-18.6926],"geometry": {"type": "MultiPolygon","coordinates": [[[[29.3534,-18.7143,1140.4495],[29.3473,-18.7147,1143.095],[29.3434,-18.719,1141.8021],[29.34,-18.7175,1150.9613],[29.3329,-18.7235,1147.9113],[29.3279,-18.7251,1155.923],[29.326,-18.7274,1151.1476],[29.3214,-18.7277,1161.9169],[29.3155,-18.7337,1160.9935],[29.31,-18.7356,1169.3683],[29.3096,-18.7421,1168.4734],[29.3047,-18.748,1171.9905],[29.3055,-18.751,1175.5156],[29.2998,-18.7564,1177.4149],[29.2953,-18.7646,1184.8877],[29.2878,-18.7669,1192.9843],[29.2839,-18.7731,1196.4894],[29.2735,-18.7812,1205.931],[29.251,-18.7862,1245.9679],[29.2589,-18.7941,1234.4824],[29.2732,-18.8017,1232.0081],[29.2873,-18.804,1238.4785],[29.3,-18.8033,1239.2126],[29.309,-18.8067,1245.1389],[29.3239,-18.8049,1213.9165],[29.3358,-18.7956,1200.2423],[29.3446,-18.7925,1196.0958],[29.3538,-18.7915,1188.9458],[29.3576,-18.7899,1186.6534],[29.3627,-18.7844,1175.2205],[29.3721,-18.784,1170.1396],[29.3761,-18.778,1165.2328],[29.3856,-18.776,1159.7637],[29.3944,-18.7763,1149.126],[29.4157,-18.783,1158.9231],[29.4202,-18.7872,1164.1697],[29.4224,-18.795,1176.4077],[29.4321,-18.8035,1188.0173],[29.4542,-18.7937,1167.0603],[29.4558,-18.7868,1164.5508],[29.4626,-18.7755,1147.1565],[29.4277,-18.7386,1132.9364],[29.4257,-18.7327,1133.1294],[29.4105,-18.7088,1113.663],[29.4009,-18.7041,1115.9913],[29.3888,-18.7013,1114.2407],[29.386,-18.6971,1116.8549],[29.3862,-18.6926,1110.0569],[29.378,-18.6966,1116.6038],[29.3752,-18.7055,1126.4241],[29.3686,-18.7073,1127.9739],[29.3663,-18.7099,1131.1132],[29.36,-18.7105,1132.9998],[29.3573,-18.7142,1135.4333],[29.3534,-18.7143,1140.4495]]]]}
,"properties": {"GID_3": "ZWE.10.7.3_2","GID_0": "ZWE","country": "Zimbabwe","GID_1": "ZWE.10_1","province": "Midlands","NL_NAME_1": "NA","GID_2": "ZWE.10.7_2","county": "Kwekwe","NL_NAME_2": "NA","city": "Ward11","VARNAME_3": "NA","NL_NAME_3": "NA","TYPE_3": "Ward","ENGTYPE_3": "Ward","CC_3": "NA","HASC_3": "NA","name": "Ward11.city","area_km2": 138.0223,"hist_schema_id": "Elevation0-9000","hist_area_km2": {"1100": 1.3856,"1125": 26.7057,"1150": 52.8612,"1175": 29.9719,"1200": 17.4435,"1225": 9.0924,"1250": 0.562}}}