{"type":"Feature","properties":{"GID_3":"ZWE.10.1.3_2","GID_0":"ZWE","country":"Zimbabwe","GID_1":"ZWE.10_1","province":"Midlands","NL_NAME_1":"NA","GID_2":"ZWE.10.1_2","county":"Chirumhanzu","NL_NAME_2":"NA","city":"Ward11","VARNAME_3":"NA","NL_NAME_3":"NA","TYPE_3":"Ward","ENGTYPE_3":"Ward","CC_3":"NA","HASC_3":"NA","name":"Ward11.city"},
"geometry":{"type": "MultiPolygon","coordinates": [[[[30.5375,-19.4872,1421.3428],[30.5517,-19.4538,1449.0225],[30.5785,-19.4496,1446.0105],[30.5926,-19.4531,1451.7684],[30.6127,-19.4544,1444.8296],[30.6188,-19.445,1453.2687],[30.5979,-19.435,1466.2979],[30.5951,-19.394,1482.9673],[30.5806,-19.4005,1472.2401],[30.5714,-19.3785,1485.2334],[30.5639,-19.379,1488.3907],[30.5605,-19.3778,1469.2166],[30.5427,-19.3508,1445.2913],[30.5073,-19.3152,1396.9587],[30.4185,-19.3681,1440.0188],[30.3501,-19.4114,1407.5409],[30.3572,-19.4408,1426.735],[30.3731,-19.477,1397.3994],[30.4081,-19.4512,1420.9218],[30.4441,-19.4153,1412.2654],[30.4803,-19.4507,1423.933],[30.5375,-19.4872,1421.3428]]]]}}