{"type": "Feature","bbox": [32.6184,-20.1839,32.629,-20.1726],"geometry": {"type": "MultiPolygon","coordinates": [[[[32.6211,-20.1726,1163.5851],[32.6184,-20.176,1123.2224],[32.6273,-20.1839,1085.4596],[32.629,-20.1764,1161.6354],[32.6237,-20.1756,1179.2667],[32.6211,-20.1726,1163.5851]]]]}
,"properties": {"GID_3": "ZWE.3.4.1_2","GID_0": "ZWE","country": "Zimbabwe","GID_1": "ZWE.3_1","province": "Manicaland","NL_NAME_1": "NA","GID_2": "ZWE.3.4_2","county": "ChipingeUrban","NL_NAME_2": "NA","city": "Ward1","VARNAME_3": "NA","NL_NAME_3": "NA","TYPE_3": "Ward","ENGTYPE_3": "Ward","CC_3": "NA","HASC_3": "NA","name": "Ward1.city","area_km2": 0.6169291,"hist_schema_id": "Elevation0-9000","hist_area_km2": {"1100": 0.1592046,"1125": 0.2786135,"1150": 0.1393085,"1175": 0.0398025}}}