{"type":"Feature","properties":{"GID_3":"ZWE.1.1.7_2","GID_0":"ZWE","country":"Zimbabwe","GID_1":"ZWE.1_1","province":"Bulawayo","NL_NAME_1":"NA","GID_2":"ZWE.1.1_2","county":"Bulawayo","NL_NAME_2":"NA","city":"Ward15","VARNAME_3":"NA","NL_NAME_3":"NA","TYPE_3":"Ward","ENGTYPE_3":"Ward","CC_3":"NA","HASC_3":"NA","name":"Ward15.city"},
"geometry":{"type": "MultiPolygon","coordinates": [[[[28.521,-20.0985,1327.9004],[28.5183,-20.0973,1324.5852],[28.5106,-20.0988,1318.441],[28.5024,-20.0952,1317.0868],[28.4965,-20.0952,1313.3381],[28.499,-20.1034,1324.8519],[28.5055,-20.1132,1338.1598],[28.5096,-20.1161,1345.8422],[28.5133,-20.1122,1342.5851],[28.5182,-20.1164,1347.2534],[28.5194,-20.1154,1344.6033],[28.521,-20.0985,1327.9004]]]]}}