{"type": "Feature","bbox": [32.1355,-21.0063,32.3085,-20.8947],"geometry": {"type": "MultiPolygon","coordinates": [[[[32.1534,-20.8947,374.5],[32.1496,-20.9041,373.875],[32.1398,-20.9143,374.5233],[32.1355,-20.9266,371.5],[32.1401,-20.938,370.6038],[32.1473,-20.9401,375.6194],[32.157,-20.9488,374.2521],[32.1587,-20.9608,368.0],[32.152,-20.9784,365.5],[32.1529,-20.9876,368.6423],[32.1549,-20.9893,364.5],[32.1577,-20.9978,366.214],[32.1649,-21.0053,372.1425],[32.1679,-21.0063,365.81],[32.1702,-21.0027,372.7173],[32.1686,-20.9933,380.2492],[32.1736,-20.9882,384.476],[32.178,-20.9863,389.4785],[32.1975,-20.9883,389.3272],[32.2404,-20.9882,383.5908],[32.2501,-20.9864,380.325],[32.258,-20.9817,380.0063],[32.2821,-20.9826,373.5909],[32.3043,-20.9881,362.738],[32.3085,-20.9869,362.2336],[32.3041,-20.9786,365.004],[32.304,-20.9745,366.6022],[32.2997,-20.9718,367.0043],[32.2994,-20.9574,372.2893],[32.2963,-20.9533,373.1413],[32.2948,-20.9465,376.4687],[32.2926,-20.9444,378.4547],[32.2789,-20.9398,379.6114],[32.2645,-20.9299,385.1046],[32.2457,-20.908,394.9451],[32.2411,-20.9071,396.9184],[32.2329,-20.9023,400.7826],[32.2282,-20.902,401.5052],[32.2266,-20.8973,404.4171],[32.2245,-20.8966,405.1057],[32.1888,-20.898,410.8804],[32.1534,-20.8947,374.5]]]]}
,"properties": {"GID_3": "ZWE.3.3.20_2","GID_0": "ZWE","country": "Zimbabwe","GID_1": "ZWE.3_1","province": "Manicaland","NL_NAME_1": "NA","GID_2": "ZWE.3.3_2","county": "Chipinge","NL_NAME_2": "NA","city": "Ward27","VARNAME_3": "NA","NL_NAME_3": "NA","TYPE_3": "Ward","ENGTYPE_3": "Ward","CC_3": "NA","HASC_3": "NA","name": "Ward27.city","area_km2": 134.8452,"hist_schema_id": "Elevation0-9000","hist_area_km2": {"350": 0.1386,"375": 50.5084,"400": 82.8514,"425": 1.3468}}}