{"type": "Feature","bbox": [30.9996,-18.3453,31.0883,-18.2573],"geometry": {"type": "MultiPolygon","coordinates": [[[[31.0872,-18.274,1375.124],[31.0881,-18.2592,1374.67],[31.0778,-18.2573,1367.392],[31.0676,-18.2614,1359.7618],[30.9996,-18.3209,1321.376],[31.0114,-18.3301,1315.5975],[31.0145,-18.3303,1312.6661],[31.0194,-18.3254,1319.6217],[31.0257,-18.324,1325.1368],[31.0346,-18.3345,1323.8639],[31.0509,-18.3368,1330.3469],[31.0588,-18.3346,1336.5996],[31.065,-18.336,1343.4557],[31.0843,-18.3453,1351.6837],[31.0881,-18.3359,1374.1033],[31.0864,-18.3095,1375.5205],[31.0883,-18.2781,1382.3843],[31.0872,-18.274,1375.124]]]]}
,"properties": {"GID_3": "ZWE.5.4.5_2","GID_0": "ZWE","country": "Zimbabwe","GID_1": "ZWE.5_1","province": "MashonalandEast","NL_NAME_1": "NA","GID_2": "ZWE.5.4_2","county": "Marondera","NL_NAME_2": "NA","city": "Ward13","VARNAME_3": "NA","NL_NAME_3": "NA","TYPE_3": "Ward","ENGTYPE_3": "Ward","CC_3": "NA","HASC_3": "NA","name": "Ward13.city","area_km2": 51.22918,"hist_schema_id": "Elevation0-9000","hist_area_km2": {"1300": 0.10063,"1325": 5.81674,"1350": 21.19551,"1375": 23.61303,"1400": 0.50327}}}