{"type": "Feature","bbox": [30.7978,-16.4031,30.9475,-16.2874],"geometry": {"type": "MultiPolygon","coordinates": [[[[30.8931,-16.4031,499.8256],[30.8931,-16.396,456.0198],[30.8951,-16.3918,451.7652],[30.8983,-16.3917,444.8078],[30.8987,-16.3885,447.6975],[30.9065,-16.3858,434.5236],[30.9059,-16.3835,438.9214],[30.9094,-16.383,432.7022],[30.9095,-16.381,434.3778],[30.912,-16.3814,432.194],[30.9106,-16.3757,429.39],[30.9117,-16.3732,426.7277],[30.9131,-16.3736,427.5216],[30.9129,-16.3715,426.3457],[30.9145,-16.3713,426.3457],[30.9133,-16.3692,426.6843],[30.9161,-16.3696,421.3687],[30.9198,-16.3659,416.7099],[30.9201,-16.3626,418.4873],[30.9174,-16.36,414.3386],[30.9167,-16.3548,414.6021],[30.9218,-16.3531,409.4937],[30.9205,-16.3454,405.9368],[30.9275,-16.341,403.0942],[30.9283,-16.3453,401.6276],[30.932,-16.3423,400.014],[30.9306,-16.3391,398.4984],[30.932,-16.3374,395.5774],[30.93,-16.3343,395.7867],[30.9336,-16.3352,392.8794],[30.9368,-16.3311,392.2318],[30.9366,-16.3264,390.7132],[30.9428,-16.3248,386.1639],[30.943,-16.3185,388.4467],[30.9453,-16.3177,387.5271],[30.9418,-16.313,381.8626],[30.9444,-16.309,381.0259],[30.9433,-16.3055,388.109],[30.9446,-16.3057,383.6445],[30.945,-16.3027,380.2928],[30.9433,-16.2999,388.2574],[30.946,-16.3006,384.7547],[30.9454,-16.2982,378.3775],[30.947,-16.2967,380.1733],[30.9456,-16.2938,378.2329],[30.9475,-16.2901,384.8549],[30.9453,-16.2874,383.757],[30.9427,-16.2884,385.2768],[30.9425,-16.2922,383.2781],[30.9372,-16.2912,385.2055],[30.9297,-16.295,389.0957],[30.9298,-16.2982,382.8189],[30.9273,-16.2934,387.7231],[30.9258,-16.2961,386.417],[30.9205,-16.2962,391.1286],[30.9235,-16.3027,388.8051],[30.9185,-16.3016,393.2889],[30.9227,-16.3052,388.7047],[30.9217,-16.3078,388.5933],[30.9197,-16.3049,388.8473],[30.917,-16.3063,393.0694],[30.9171,-16.3086,390.3384],[30.9138,-16.3068,394.1865],[30.915,-16.3091,393.7193],[30.9096,-16.3069,395.6469],[30.9111,-16.3114,392.4779],[30.907,-16.3103,393.5562],[30.9059,-16.3136,392.8693],[30.9026,-16.3139,397.8506],[30.9017,-16.3108,399.2726],[30.8974,-16.3117,402.4243],[30.8951,-16.3146,398.2606],[30.8947,-16.3178,396.1123],[30.8929,-16.3151,402.2662],[30.8875,-16.3153,403.1987],[30.8828,-16.3203,401.8896],[30.8841,-16.3165,406.4755],[30.8789,-16.3171,407.7894],[30.8777,-16.3193,404.3412],[30.8706,-16.3129,410.9427],[30.8673,-16.3148,408.2512],[30.8661,-16.3134,413.5502],[30.8626,-16.3156,413.3476],[30.8579,-16.3154,414.716],[30.8564,-16.3189,411.5934],[30.8548,-16.3191,409.7497],[30.8549,-16.3167,415.7777],[30.8528,-16.3153,416.0159],[30.8507,-16.3184,419.5036],[30.8525,-16.322,412.7747],[30.8497,-16.3203,417.7358],[30.8471,-16.322,419.9904],[30.8479,-16.3238,417.8329],[30.8459,-16.3255,418.9536],[30.8478,-16.3261,415.8715],[30.8476,-16.3283,413.4245],[30.8436,-16.3289,421.5735],[30.8425,-16.3313,415.1249],[30.8381,-16.3311,426.0627],[30.8394,-16.3335,418.4674],[30.8439,-16.3312,418.4809],[30.8418,-16.336,417.2323],[30.8353,-16.3355,426.0766],[30.8381,-16.3406,422.7995],[30.8362,-16.346,426.6149],[30.8314,-16.3458,431.6901],[30.8334,-16.3494,425.7348],[30.8307,-16.3497,429.274],[30.8303,-16.3548,429.5413],[30.8248,-16.3561,440.2297],[30.8248,-16.3588,431.9016],[30.8227,-16.3584,441.1036],[30.8236,-16.3627,433.6353],[30.8181,-16.3647,434.5125],[30.8156,-16.3718,443.3354],[30.8131,-16.3722,451.5214],[30.8115,-16.3769,451.5945],[30.809,-16.3746,456.3102],[30.8066,-16.375,460.6312],[30.8086,-16.3807,452.0834],[30.8064,-16.3793,447.2986],[30.8039,-16.3804,462.1815],[30.8061,-16.3829,450.9493],[30.8019,-16.3851,465.9214],[30.8025,-16.3882,456.9894],[30.7998,-16.3885,466.4791],[30.8008,-16.3913,459.604],[30.7978,-16.3928,466.4128],[30.8258,-16.3931,480.5657],[30.8325,-16.3957,480.1485],[30.8502,-16.3942,482.0637],[30.8931,-16.4031,499.8256]]]]}
,"properties": {"GID_3": "ZWE.4.3.27_2","GID_0": "ZWE","country": "Zimbabwe","GID_1": "ZWE.4_1","province": "MashonalandCentral","NL_NAME_1": "NA","GID_2": "ZWE.4.3_2","county": "Centenary/Muzarabani","NL_NAME_2": "NA","city": "Ward7","VARNAME_3": "NA","NL_NAME_3": "NA","TYPE_3": "Ward","ENGTYPE_3": "Ward","CC_3": "NA","HASC_3": "NA","name": "Ward7.city","area_km2": 98.93535,"hist_schema_id": "Elevation0-9000","hist_area_km2": {"375": 2.70655,"400": 24.49843,"425": 34.48455,"450": 26.62803,"475": 10.57711,"500": 0.04068}}}