{"type":"Feature","properties":{"GID_3":"ZWE.6.7.8_2","GID_0":"ZWE","country":"Zimbabwe","GID_1":"ZWE.6_1","province":"MashonalandWest","NL_NAME_1":"NA","GID_2":"ZWE.6.7_2","county":"KaribaUrban","NL_NAME_2":"NA","city":"Ward8","VARNAME_3":"NA","NL_NAME_3":"NA","TYPE_3":"Ward","ENGTYPE_3":"Ward","CC_3":"NA","HASC_3":"NA","name":"Ward8.city"},
"geometry":{"type": "MultiPolygon","coordinates": [[[[28.8463,-16.5211,496.5722],[28.8376,-16.5218,497.1033],[28.8357,-16.52,510.2368],[28.8368,-16.518,503.8469],[28.8346,-16.5157,518.0944],[28.8335,-16.5167,515.3984],[28.8302,-16.5112,537.3954],[28.8272,-16.5117,534.1617],[28.8178,-16.5159,554.827],[28.8134,-16.5159,589.689],[28.8116,-16.5248,572.9285],[28.8075,-16.528,577.491],[28.8118,-16.5264,539.915],[28.8141,-16.5287,510.9029],[28.8163,-16.5266,497.5961],[28.818,-16.5341,503.3341],[28.823,-16.5281,497.7416],[28.8274,-16.5325,483.5],[28.8304,-16.5311,485.1199],[28.8312,-16.5275,490.6945],[28.8317,-16.5289,488.1185],[28.8333,-16.5282,485.8146],[28.8332,-16.5298,483.5],[28.8352,-16.5287,486.966],[28.8364,-16.5299,483.5],[28.836,-16.5284,486.966],[28.8381,-16.5276,485.6113],[28.8368,-16.5253,491.6708],[28.8383,-16.5259,485.763],[28.8381,-16.5245,492.9744],[28.8395,-16.5255,485.763],[28.8385,-16.5272,483.5],[28.84,-16.528,483.5],[28.8403,-16.5267,483.5],[28.8413,-16.5283,483.5],[28.8429,-16.5243,489.7371],[28.8426,-16.53,483.5],[28.8437,-16.5303,483.5],[28.8437,-16.5288,483.5],[28.8456,-16.5301,483.5],[28.8472,-16.5268,484.4716],[28.8507,-16.5328,483.5],[28.8544,-16.5306,483.5],[28.8535,-16.5329,483.5],[28.856,-16.5341,483.5],[28.8539,-16.5354,483.5],[28.8552,-16.5366,483.5],[28.8543,-16.5378,483.5],[28.8591,-16.5371,483.5],[28.8585,-16.536,483.5],[28.8615,-16.5349,484.3615],[28.8619,-16.5326,489.4296],[28.8637,-16.5311,495.0128],[28.8655,-16.532,486.6445],[28.8677,-16.529,490.5136],[28.8669,-16.5264,497.6773],[28.8682,-16.5245,495.7818],[28.8463,-16.5211,496.5722]]]]}}