{"type":"Feature","properties":{"GID_3":"ZWE.5.11.2_2","GID_0":"ZWE","country":"Zimbabwe","GID_1":"ZWE.5_1","province":"MashonalandEast","NL_NAME_1":"NA","GID_2":"ZWE.5.11_2","county":"UzumbaMarambaPfungwe","NL_NAME_2":"NA","city":"Ward10","VARNAME_3":"NA","NL_NAME_3":"NA","TYPE_3":"Ward","ENGTYPE_3":"Ward","CC_3":"NA","HASC_3":"NA","name":"Ward10.city"},
"geometry":{"type": "MultiPolygon","coordinates": [[[[31.9149,-17.4073,1152.9647],[31.9263,-17.4027,1163.0896],[31.9532,-17.3844,1156.4587],[31.9486,-17.3764,1152.998],[31.944,-17.3749,1156.2161],[31.9389,-17.3694,1144.0741],[31.9333,-17.3683,1152.1952],[31.9274,-17.3649,1152.4264],[31.9255,-17.3604,1136.4141],[31.9199,-17.3551,1124.0829],[31.9079,-17.3551,1126.8701],[31.9079,-17.3536,1130.3459],[31.9183,-17.3485,1117.7859],[31.9248,-17.3484,1095.7231],[31.9344,-17.3452,1083.5421],[31.9476,-17.3382,1053.5308],[31.9515,-17.3321,1079.0167],[31.9621,-17.3317,1027.6338],[31.9842,-17.3177,1020.22],[31.9751,-17.3048,1035.1617],[31.97,-17.2927,1000.4941],[31.9678,-17.2812,978.6606],[31.9559,-17.2557,932.1814],[31.9605,-17.2476,905.2759],[31.9593,-17.2446,924.215],[31.9615,-17.24,895.9353],[31.9602,-17.2389,904.6544],[31.9573,-17.242,926.0279],[31.9516,-17.2438,928.4721],[31.9465,-17.2494,923.5632],[31.9284,-17.2556,951.638],[31.9254,-17.2597,947.5084],[31.92,-17.2595,1000.6309],[31.9145,-17.2627,990.4657],[31.8977,-17.2679,1046.4343],[31.8818,-17.2792,1015.8912],[31.8807,-17.2831,987.8964],[31.8818,-17.2874,1018.3892],[31.8797,-17.2966,1017.0319],[31.8809,-17.2985,1019.492],[31.8846,-17.2979,1037.0565],[31.8854,-17.3088,1038.7512],[31.8881,-17.3153,1098.7468],[31.8858,-17.3265,1092.9269],[31.8903,-17.3379,1094.1587],[31.8888,-17.3471,1095.3611],[31.8942,-17.3542,1120.8621],[31.8893,-17.3663,1120.8672],[31.8917,-17.3749,1140.7294],[31.8908,-17.3837,1166.8287],[31.8971,-17.3937,1198.6919],[31.8986,-17.4052,1219.5551],[31.9067,-17.4075,1173.9883],[31.9149,-17.4073,1152.9647]]]]}}