{"type":"Feature","properties":{"GID_3":"ZWE.2.3.5_2","GID_0":"ZWE","country":"Zimbabwe","GID_1":"ZWE.2_1","province":"Harare","NL_NAME_1":"NA","GID_2":"ZWE.2.3_2","county":"Harare","NL_NAME_2":"NA","city":"Ward14","VARNAME_3":"NA","NL_NAME_3":"NA","TYPE_3":"Ward","ENGTYPE_3":"Ward","CC_3":"NA","HASC_3":"NA","name":"Ward14.city"},
"geometry":{"type": "MultiPolygon","coordinates": [[[[30.9864,-17.8499,1439.7352],[30.9862,-17.845,1438.4783],[30.9777,-17.8421,1430.3823],[30.9708,-17.8471,1426.6504],[30.9651,-17.848,1425.0575],[30.9621,-17.8505,1423.2593],[30.9537,-17.8498,1422.1925],[30.948,-17.8471,1419.6302],[30.9465,-17.8487,1417.323],[30.9473,-17.8602,1440.8363],[30.9522,-17.8662,1454.1885],[30.9648,-17.8629,1433.0767],[30.9695,-17.8585,1435.8074],[30.9823,-17.8541,1445.0024],[30.9864,-17.8499,1439.7352]]]]}}