{"type":"Feature","properties":{"GID_3":"ZWE.7.4.5_2","GID_0":"ZWE","country":"Zimbabwe","GID_1":"ZWE.7_1","province":"Masvingo","NL_NAME_1":"NA","GID_2":"ZWE.7.4_2","county":"Chivi","NL_NAME_2":"NA","city":"Ward13","VARNAME_3":"NA","NL_NAME_3":"NA","TYPE_3":"Ward","ENGTYPE_3":"Ward","CC_3":"NA","HASC_3":"NA","name":"Ward13.city"},
"geometry":{"type": "MultiPolygon","coordinates": [[[[30.3443,-20.2675,847.9315],[30.3392,-20.2767,844.295],[30.3276,-20.2825,832.8126],[30.3252,-20.2805,832.2421],[30.3142,-20.288,828.544],[30.2799,-20.3044,819.8592],[30.2624,-20.3058,832.537],[30.2485,-20.3107,829.5612],[30.2436,-20.322,810.1562],[30.244,-20.3357,811.0016],[30.258,-20.3523,801.4715],[30.2739,-20.3538,804.324],[30.2819,-20.357,801.4059],[30.2868,-20.3566,793.3686],[30.3138,-20.3649,819.8743],[30.32,-20.372,790.9147],[30.3279,-20.3682,790.4357],[30.332,-20.3638,795.1509],[30.3326,-20.356,797.6854],[30.3355,-20.3489,801.8737],[30.3414,-20.3418,805.8784],[30.3512,-20.3441,810.7253],[30.3544,-20.3418,811.4553],[30.3538,-20.3357,816.4953],[30.3557,-20.3321,818.45],[30.3528,-20.3279,819.491],[30.3525,-20.3223,823.1586],[30.353,-20.3184,824.9315],[30.3551,-20.3165,825.4172],[30.3559,-20.3071,832.7717],[30.3589,-20.3051,834.2123],[30.3594,-20.2961,847.1044],[30.3721,-20.2839,857.1179],[30.3688,-20.2804,854.4193],[30.3631,-20.2791,851.1836],[30.3613,-20.2665,867.1685],[30.3511,-20.2686,857.928],[30.3443,-20.2675,847.9315]]]]}}