{"type":"Feature","properties":{"GID_3":"ZWE.10.2.14_2","GID_0":"ZWE","country":"Zimbabwe","GID_1":"ZWE.10_1","province":"Midlands","NL_NAME_1":"NA","GID_2":"ZWE.10.2_2","county":"GokweNorth","NL_NAME_2":"NA","city":"Ward21","VARNAME_3":"NA","NL_NAME_3":"NA","TYPE_3":"Ward","ENGTYPE_3":"Ward","CC_3":"NA","HASC_3":"NA","name":"Ward21.city"},
"geometry":{"type": "MultiPolygon","coordinates": [[[[29.0959,-17.4129,869.9999],[29.0991,-17.4187,878.4077],[29.0999,-17.429,885.7479],[29.1069,-17.4388,872.4048],[29.1187,-17.4476,857.4702],[29.129,-17.4528,841.822],[29.1351,-17.4601,835.7523],[29.1404,-17.4633,829.1376],[29.1421,-17.4674,827.6171],[29.1394,-17.4799,843.6075],[29.1306,-17.5042,868.6129],[29.1218,-17.5023,858.026],[29.1161,-17.5053,853.2747],[29.0973,-17.5084,841.3415],[29.0941,-17.5123,838.6165],[29.0784,-17.5149,831.0884],[29.0675,-17.5206,836.8401],[29.0724,-17.523,832.5079],[29.0886,-17.5382,858.02],[29.0941,-17.5396,850.4222],[29.1896,-17.5369,826.816],[29.1897,-17.5279,821.4207],[29.1938,-17.5224,822.1359],[29.2013,-17.5026,814.9803],[29.1953,-17.4937,808.9829],[29.1978,-17.4926,807.4275],[29.1967,-17.4887,805.3714],[29.1982,-17.4868,806.4453],[29.1957,-17.4856,812.5445],[29.2005,-17.479,802.5063],[29.2003,-17.474,801.3832],[29.1987,-17.4732,801.3832],[29.2001,-17.4679,802.2607],[29.2026,-17.4681,799.7318],[29.2012,-17.4639,800.1193],[29.2052,-17.4579,797.0049],[29.2022,-17.4558,796.6407],[29.1999,-17.4463,842.5767],[29.1792,-17.4313,820.7059],[29.1681,-17.42,833.7393],[29.1643,-17.4108,819.4849],[29.1558,-17.3998,845.0281],[29.1525,-17.3886,819.2902],[29.0959,-17.4129,869.9999]]]]}}