{"type": "Feature","bbox": [32.3473,-18.7674,32.4875,-18.6009],"geometry": {"type": "MultiPolygon","coordinates": [[[[32.3473,-18.7266,1358.1377],[32.3557,-18.7259,1290.8113],[32.3605,-18.7466,1143.4111],[32.3697,-18.7388,1122.5575],[32.3856,-18.7388,1122.2411],[32.3953,-18.733,1077.6887],[32.3959,-18.7376,1067.4531],[32.4002,-18.7389,1081.2101],[32.4049,-18.7462,1073.876],[32.4075,-18.7559,1056.6672],[32.412,-18.7564,1069.6088],[32.4106,-18.7603,1059.2415],[32.4143,-18.7606,1060.2472],[32.4181,-18.7674,1051.8552],[32.4477,-18.7406,1110.6328],[32.4634,-18.764,1126.5599],[32.4661,-18.7616,1132.0398],[32.4875,-18.7624,1091.0],[32.4817,-18.7585,1091.0],[32.4809,-18.7559,1091.0],[32.4843,-18.7521,1091.0],[32.4841,-18.745,1091.0],[32.4861,-18.7403,1091.0],[32.4854,-18.7324,1091.0],[32.4811,-18.7286,1091.0],[32.4832,-18.7267,1091.0],[32.4803,-18.7103,1091.0],[32.4853,-18.7046,1091.0],[32.4837,-18.7013,1091.0],[32.486,-18.6982,1091.0],[32.4849,-18.6928,1091.4932],[32.4816,-18.6929,1091.0],[32.4821,-18.6893,1091.0],[32.4783,-18.6847,1091.0],[32.4789,-18.6818,1091.0],[32.4765,-18.6768,1091.0],[32.4763,-18.6728,1101.1272],[32.4799,-18.6706,1091.0],[32.4676,-18.6504,1102.0499],[32.4694,-18.6469,1097.9817],[32.4675,-18.6418,1104.6584],[32.4596,-18.6326,1110.5376],[32.4593,-18.6293,1120.05],[32.4568,-18.6261,1145.4299],[32.4479,-18.6177,1118.4146],[32.4484,-18.6127,1154.1654],[32.4395,-18.6009,1143.1063],[32.4311,-18.6087,1183.5579],[32.4259,-18.6188,1242.3738],[32.424,-18.6374,1395.4236],[32.4196,-18.6469,1468.2094],[32.4164,-18.6461,1488.1527],[32.4135,-18.6331,1338.564],[32.4113,-18.6308,1314.7837],[32.4041,-18.6291,1311.1433],[32.3903,-18.6311,1471.0931],[32.3839,-18.6268,1365.3281],[32.3857,-18.6319,1383.787],[32.3938,-18.6407,1312.3419],[32.3939,-18.6452,1287.9086],[32.3907,-18.6502,1272.2607],[32.3853,-18.6513,1258.5919],[32.3803,-18.6585,1229.9313],[32.3803,-18.6671,1212.3953],[32.3829,-18.673,1190.4794],[32.3803,-18.6758,1190.1729],[32.3788,-18.6815,1167.7214],[32.367,-18.689,1146.4368],[32.3641,-18.6931,1125.7499],[32.3672,-18.6941,1119.542],[32.366,-18.6974,1114.3943],[32.369,-18.7006,1118.2988],[32.3473,-18.7266,1358.1377]]]]}
,"properties": {"GID_3": "ZWE.3.5.16_2","GID_0": "ZWE","country": "Zimbabwe","GID_1": "ZWE.3_1","province": "Manicaland","NL_NAME_1": "NA","GID_2": "ZWE.3.5_2","county": "Makoni","NL_NAME_2": "NA","city": "Ward23","VARNAME_3": "NA","NL_NAME_3": "NA","TYPE_3": "Ward","ENGTYPE_3": "Ward","CC_3": "NA","HASC_3": "NA","name": "Ward23.city","area_km2": 155.1262,"hist_schema_id": "Elevation0-9000","hist_area_km2": {"1050": 0.2008,"1075": 3.2927,"1100": 30.6829,"1125": 25.5245,"1150": 26.9914,"1175": 21.2289,"1200": 15.3257,"1225": 10.6261,"1250": 8.0952,"1275": 5.243,"1300": 3.9575,"1325": 1.2656,"1350": 0.8236,"1375": 0.5424,"1400": 0.3214,"1425": 0.2009,"1450": 0.1607,"1475": 0.1004,"1500": 0.1406,"1525": 0.1406,"1550": 0.1004,"1575": 0.0402,"1600": 0.1004,"1625": 0.0201}}}