{"type":"Feature","properties":{"GID_3":"ZWE.4.5.2_2","GID_0":"ZWE","country":"Zimbabwe","GID_1":"ZWE.4_1","province":"MashonalandCentral","NL_NAME_1":"NA","GID_2":"ZWE.4.5_2","county":"Mazowe","NL_NAME_2":"NA","city":"Ward10","VARNAME_3":"NA","NL_NAME_3":"NA","TYPE_3":"Ward","ENGTYPE_3":"Ward","CC_3":"NA","HASC_3":"NA","name":"Ward10.city"},
"geometry":{"type": "MultiPolygon","coordinates": [[[[31.1371,-17.1007,1227.85],[31.1332,-17.0947,1233.1344],[31.1293,-17.0966,1241.4258],[31.1231,-17.0936,1225.4604],[31.1137,-17.0942,1231.9871],[31.1035,-17.0827,1220.9147],[31.0963,-17.0861,1216.693],[31.0947,-17.0917,1210.005],[31.0884,-17.0924,1224.5852],[31.0849,-17.0966,1213.9028],[31.0852,-17.0987,1214.2323],[31.0823,-17.0989,1215.9143],[31.0811,-17.1031,1216.4009],[31.0759,-17.104,1229.0881],[31.07,-17.1088,1218.8477],[31.0645,-17.1095,1238.2059],[31.0606,-17.1148,1229.2444],[31.056,-17.1132,1240.2178],[31.0562,-17.1152,1229.9504],[31.0526,-17.1152,1233.6897],[31.0523,-17.1169,1233.4106],[31.0502,-17.115,1240.615],[31.0495,-17.1173,1236.8336],[31.0472,-17.1157,1241.3867],[31.0458,-17.1166,1233.5021],[31.0466,-17.1257,1250.1156],[31.044,-17.1316,1238.0598],[31.0479,-17.1313,1236.3495],[31.0497,-17.132,1235.7866],[31.0497,-17.1335,1241.8871],[31.049,-17.1386,1248.2659],[31.0439,-17.1409,1258.145],[31.0384,-17.1679,1308.8228],[31.0402,-17.1753,1303.6331],[31.0526,-17.1698,1464.5066],[31.0534,-17.1654,1365.5494],[31.0573,-17.1646,1303.9207],[31.0651,-17.1705,1265.7096],[31.0743,-17.1705,1245.4957],[31.079,-17.1618,1263.6011],[31.087,-17.1595,1231.1343],[31.0886,-17.1467,1239.1404],[31.0985,-17.1419,1206.6422],[31.1111,-17.1474,1184.9075],[31.1126,-17.1524,1171.8865],[31.1158,-17.1544,1173.4641],[31.1155,-17.1585,1158.0708],[31.1207,-17.1735,1151.2594],[31.1333,-17.1487,1359.5138],[31.1371,-17.1007,1227.85]]]]}}