{"type": "Feature","bbox": [28.3393,-19.5214,28.4948,-19.3822],"geometry": {"type": "MultiPolygon","coordinates": [[[[28.4105,-19.4019,1098.3633],[28.4083,-19.4029,1092.7504],[28.4066,-19.4071,1091.2904],[28.4046,-19.407,1090.478],[28.4008,-19.403,1091.7899],[28.396,-19.4013,1090.7844],[28.396,-19.3991,1087.9263],[28.3999,-19.3967,1089.6637],[28.3995,-19.3939,1096.072],[28.3947,-19.3918,1095.123],[28.3943,-19.3894,1099.8872],[28.3924,-19.3892,1096.8647],[28.39,-19.3921,1091.6715],[28.3885,-19.3883,1094.5408],[28.3819,-19.384,1095.6825],[28.3759,-19.3868,1089.9182],[28.371,-19.3871,1086.6394],[28.3695,-19.3839,1094.1719],[28.364,-19.386,1091.2367],[28.3514,-19.3822,1085.6796],[28.3393,-19.4326,1131.7019],[28.3725,-19.4332,1132.959],[28.3835,-19.4349,1123.7648],[28.3636,-19.4916,1167.8054],[28.4016,-19.5087,1189.424],[28.4228,-19.5214,1201.8066],[28.4716,-19.5006,1140.5328],[28.4948,-19.4668,1113.8453],[28.4868,-19.468,1113.2371],[28.4836,-19.4669,1113.6619],[28.4793,-19.4684,1111.2936],[28.4721,-19.4621,1116.307],[28.4665,-19.4621,1110.2921],[28.4641,-19.4637,1110.2369],[28.4613,-19.4618,1108.0702],[28.4637,-19.4591,1109.5199],[28.4621,-19.4576,1110.1912],[28.4577,-19.4577,1109.3367],[28.4533,-19.4604,1102.8801],[28.4517,-19.4596,1102.8801],[28.4557,-19.4547,1107.4266],[28.4552,-19.4494,1106.5444],[28.4532,-19.4471,1105.243],[28.4481,-19.4468,1101.6121],[28.4441,-19.4442,1100.7488],[28.4476,-19.4362,1104.2305],[28.4428,-19.434,1106.2917],[28.4353,-19.439,1096.6346],[28.4325,-19.4375,1098.6492],[28.432,-19.4349,1097.3694],[28.4344,-19.4307,1097.5741],[28.432,-19.4288,1097.2046],[28.4304,-19.4243,1096.9561],[28.4311,-19.4149,1096.9059],[28.4239,-19.4119,1094.9821],[28.4213,-19.4071,1097.2014],[28.4138,-19.4066,1093.4434],[28.4105,-19.4019,1098.3633]]]]}
,"properties": {"GID_3": "ZWE.8.2.19_2","GID_0": "ZWE","country": "Zimbabwe","GID_1": "ZWE.8_1","province": "MatabelelandNorth","NL_NAME_1": "NA","GID_2": "ZWE.8.2_2","county": "Bubi","NL_NAME_2": "NA","city": "Ward5","VARNAME_3": "NA","NL_NAME_3": "NA","TYPE_3": "Ward","ENGTYPE_3": "Ward","CC_3": "NA","HASC_3": "NA","name": "Ward5.city","area_km2": 123.64785,"hist_schema_id": "Elevation0-9000","hist_area_km2": {"1075": 3.3599,"1100": 42.01057,"1125": 30.44657,"1150": 13.9522,"1175": 15.69088,"1200": 18.18773}}}