{"type": "Feature","bbox": [29.8525,-20.8385,29.9653,-20.6617],"geometry": {"type": "MultiPolygon","coordinates": [[[[29.8941,-20.6752,968.4256],[29.8654,-20.6617,987.062],[29.8629,-20.6618,982.9639],[29.8605,-20.6676,974.8499],[29.8525,-20.6751,964.5496],[29.8528,-20.6778,963.9543],[29.8561,-20.6781,963.1957],[29.858,-20.6804,961.0586],[29.8576,-20.682,962.6702],[29.8617,-20.6881,954.9086],[29.8594,-20.6922,953.2772],[29.8572,-20.6912,956.9962],[29.8576,-20.6954,949.7519],[29.8537,-20.6977,947.937],[29.8567,-20.7042,942.9814],[29.8602,-20.7064,941.9884],[29.8589,-20.7139,938.0198],[29.8625,-20.7176,938.7948],[29.877,-20.717,931.9459],[29.8794,-20.7201,924.5535],[29.8786,-20.7227,924.8972],[29.8817,-20.7233,927.4058],[29.8819,-20.7265,921.4932],[29.8835,-20.7268,921.4932],[29.8844,-20.73,921.1348],[29.8887,-20.7283,916.9694],[29.8953,-20.7295,922.3254],[29.8891,-20.7492,909.0621],[29.8824,-20.7588,911.5159],[29.8717,-20.7802,902.936],[29.8644,-20.809,868.31],[29.91,-20.8284,840.5011],[29.9222,-20.8353,831.9832],[29.9302,-20.8355,843.8889],[29.9351,-20.8385,830.1175],[29.9363,-20.834,832.752],[29.9342,-20.8291,843.9939],[29.9374,-20.8261,844.5198],[29.9385,-20.8168,850.3134],[29.9409,-20.814,852.0565],[29.9395,-20.8079,861.1702],[29.9504,-20.7804,881.0953],[29.9617,-20.7347,950.2523],[29.9653,-20.7281,942.1705],[29.9571,-20.7091,966.9661],[29.9555,-20.6959,1004.7264],[29.9515,-20.6927,1020.344],[29.9433,-20.6915,1016.5414],[29.9346,-20.6942,982.9928],[29.9324,-20.6924,991.4366],[29.9264,-20.6927,973.335],[29.9117,-20.6886,961.4056],[29.9027,-20.6911,953.7772],[29.9018,-20.6938,947.1141],[29.8918,-20.6952,948.0685],[29.8891,-20.6988,942.2897],[29.8892,-20.7018,935.9065],[29.887,-20.7034,935.5081],[29.8881,-20.706,936.8799],[29.8842,-20.704,937.6248],[29.8833,-20.6981,942.0886],[29.8857,-20.6942,972.0178],[29.8831,-20.6916,951.1889],[29.8831,-20.6875,957.8963],[29.8863,-20.6845,955.5768],[29.8864,-20.6817,956.2831],[29.8941,-20.6752,968.4256]]]]}
,"properties": {"GID_3": "ZWE.10.9.4_2","GID_0": "ZWE","country": "Zimbabwe","GID_1": "ZWE.10_1","province": "Midlands","NL_NAME_1": "NA","GID_2": "ZWE.10.9_2","county": "Mberengwa","NL_NAME_2": "NA","city": "Ward12","VARNAME_3": "NA","NL_NAME_3": "NA","TYPE_3": "Ward","ENGTYPE_3": "Ward","CC_3": "NA","HASC_3": "NA","name": "Ward12.city","area_km2": 129.39002,"hist_schema_id": "Elevation0-9000","hist_area_km2": {"825": 0.13871,"850": 2.6951,"875": 6.87715,"900": 10.30714,"925": 13.38223,"950": 25.38116,"975": 30.53726,"1000": 20.02635,"1025": 12.19385,"1050": 5.72965,"1075": 1.68521,"1100": 0.25776,"1125": 0.1388,"1150": 0.03966}}}