{"type": "Feature","bbox": [29.022,-21.9968,29.3056,-21.6434],"geometry": {"type": "MultiPolygon","coordinates": [[[[29.0688,-21.8254,623.535],[29.0552,-21.8402,634.1966],[29.0459,-21.8553,654.2622],[29.0395,-21.8623,644.0126],[29.0337,-21.8759,646.802],[29.0326,-21.8843,647.3962],[29.0272,-21.8936,655.5439],[29.024,-21.9098,669.0089],[29.022,-21.9323,671.1373],[29.0234,-21.9511,659.1531],[29.0301,-21.9803,667.1684],[29.0377,-21.9968,659.4785],[29.1881,-21.8977,575.2512],[29.1873,-21.8943,585.7081],[29.183,-21.8901,582.1757],[29.1817,-21.8808,582.7575],[29.1786,-21.8738,585.277],[29.1836,-21.8716,584.3724],[29.1905,-21.8634,589.4232],[29.2009,-21.8583,607.6907],[29.1988,-21.85,594.0784],[29.2045,-21.8406,610.1927],[29.2077,-21.8393,608.8698],[29.2129,-21.8411,607.342],[29.2159,-21.8393,607.9149],[29.2151,-21.8344,613.5335],[29.208,-21.8289,613.3683],[29.2065,-21.8199,627.5519],[29.2091,-21.8177,619.1085],[29.2169,-21.8169,619.6157],[29.218,-21.8123,623.2693],[29.2217,-21.8095,626.0942],[29.2231,-21.8046,627.3054],[29.2259,-21.8028,629.5383],[29.2262,-21.7922,638.4841],[29.224,-21.7868,637.8185],[29.2282,-21.7832,641.884],[29.2289,-21.7774,646.728],[29.2329,-21.7767,647.8251],[29.2349,-21.7686,651.4865],[29.2322,-21.7679,656.1888],[29.2375,-21.7576,661.485],[29.2479,-21.7474,678.8269],[29.2536,-21.7351,678.7289],[29.3056,-21.6434,709.7337],[29.28,-21.649,726.1729],[29.2014,-21.6835,695.7137],[29.1326,-21.7376,667.4216],[29.0635,-21.7583,609.4877],[29.0531,-21.7661,613.1481],[29.0508,-21.772,605.2044],[29.0521,-21.7804,604.031],[29.0646,-21.8027,599.5493],[29.0717,-21.8068,611.2025],[29.0783,-21.8166,596.1458],[29.0759,-21.8188,598.5139],[29.0768,-21.8199,605.343],[29.0688,-21.8254,623.535]]]]}
,"properties": {"GID_3": "ZWE.9.4.17_2","GID_0": "ZWE","country": "Zimbabwe","GID_1": "ZWE.9_1","province": "MatabelelandSouth","NL_NAME_1": "NA","GID_2": "ZWE.9.4_2","county": "Gwanda","NL_NAME_2": "NA","city": "Ward24","VARNAME_3": "NA","NL_NAME_3": "NA","TYPE_3": "Ward","ENGTYPE_3": "Ward","CC_3": "NA","HASC_3": "NA","name": "Ward24.city","area_km2": 468.3215,"hist_schema_id": "Elevation0-9000","hist_area_km2": {"575": 8.5585,"600": 54.5273,"625": 106.8587,"650": 143.9304,"675": 90.1286,"700": 38.9598,"725": 24.038,"750": 1.3202}}}