{"type":"Feature","properties":{"GID_3":"ZWE.10.2.33_2","GID_0":"ZWE","country":"Zimbabwe","GID_1":"ZWE.10_1","province":"Midlands","NL_NAME_1":"NA","GID_2":"ZWE.10.2_2","county":"GokweNorth","NL_NAME_2":"NA","city":"Ward6","VARNAME_3":"NA","NL_NAME_3":"NA","TYPE_3":"Ward","ENGTYPE_3":"Ward","CC_3":"NA","HASC_3":"NA","name":"Ward6.city"},
"geometry":{"type": "MultiPolygon","coordinates": [[[[28.7708,-17.1637,649.6541],[28.7733,-17.189,681.1002],[28.7756,-17.1944,684.1455],[28.7782,-17.1944,683.5889],[28.7796,-17.2007,713.0694],[28.7818,-17.2037,713.5533],[28.7805,-17.2037,716.5759],[28.7805,-17.2054,715.3407],[28.7726,-17.2067,717.3598],[28.7652,-17.2169,719.8729],[28.761,-17.2385,729.8866],[28.7541,-17.2466,738.2216],[28.7499,-17.2719,758.579],[28.7465,-17.2821,727.3013],[28.743,-17.2851,795.1378],[28.7397,-17.3033,792.5611],[28.7337,-17.3211,745.5076],[28.7271,-17.3258,814.246],[28.7219,-17.3321,785.6492],[28.7185,-17.3398,815.0255],[28.7132,-17.3428,838.5349],[28.6993,-17.3577,837.196],[28.7012,-17.3786,799.3444],[28.7042,-17.3811,785.4494],[28.7073,-17.3803,785.4854],[28.7083,-17.3824,775.8876],[28.7143,-17.3849,765.6038],[28.7155,-17.3873,763.61],[28.7205,-17.3845,766.0436],[28.7239,-17.3887,752.3065],[28.726,-17.3876,751.8336],[28.7333,-17.3909,740.8172],[28.7467,-17.3891,730.4257],[28.7484,-17.3917,725.1739],[28.7512,-17.3922,723.0771],[28.7545,-17.3897,717.7435],[28.7595,-17.3907,713.2986],[28.7617,-17.3888,714.3115],[28.7628,-17.3906,725.2202],[28.7643,-17.3897,718.8717],[28.7664,-17.3911,714.1401],[28.7711,-17.3896,708.2426],[28.7713,-17.3867,698.1564],[28.7737,-17.3852,714.7229],[28.7712,-17.3823,695.4072],[28.7716,-17.3809,697.1099],[28.7775,-17.3801,691.7634],[28.7782,-17.3776,691.1271],[28.7763,-17.3749,706.4186],[28.7821,-17.3699,690.4998],[28.782,-17.3675,691.7014],[28.7793,-17.3675,691.1226],[28.783,-17.3563,694.9227],[28.7874,-17.3568,683.7775],[28.7884,-17.3547,684.0823],[28.7904,-17.3443,686.8973],[28.7888,-17.3378,686.517],[28.7898,-17.3327,682.9438],[28.7912,-17.3317,680.6517],[28.7943,-17.3327,680.0266],[28.7934,-17.3264,677.7974],[28.796,-17.3256,683.8065],[28.7894,-17.3169,675.7665],[28.7904,-17.3143,674.1458],[28.7927,-17.3151,674.0309],[28.7921,-17.3091,672.4926],[28.7942,-17.3043,671.3967],[28.7906,-17.2996,670.5856],[28.7902,-17.2958,671.7347],[28.7934,-17.2967,670.2783],[28.7952,-17.2993,669.3021],[28.7968,-17.2951,669.3512],[28.7958,-17.29,668.5345],[28.7919,-17.2871,668.8537],[28.7945,-17.2862,668.8997],[28.796,-17.2832,669.6038],[28.8005,-17.2824,666.1049],[28.8003,-17.2808,666.2037],[28.7973,-17.2809,668.2181],[28.7969,-17.2792,672.3482],[28.799,-17.2776,665.1409],[28.7992,-17.2738,666.2905],[28.8024,-17.2718,670.3705],[28.7985,-17.2688,663.2054],[28.7962,-17.2641,659.9664],[28.792,-17.2631,662.9545],[28.7967,-17.259,658.9775],[28.7955,-17.2569,657.3566],[28.7972,-17.2545,657.6813],[28.7928,-17.2504,656.1798],[28.7918,-17.2469,658.8006],[28.796,-17.2437,657.0302],[28.7999,-17.2461,653.6671],[28.8066,-17.2468,658.6306],[28.8061,-17.2444,656.1304],[28.8037,-17.2443,654.745],[28.8022,-17.241,652.4984],[28.8056,-17.2334,649.6193],[28.8072,-17.2322,649.0696],[28.8091,-17.2332,650.113],[28.8096,-17.2319,653.0137],[28.805,-17.2228,691.9083],[28.8103,-17.2216,647.6078],[28.8109,-17.2253,648.145],[28.8126,-17.224,647.8924],[28.8131,-17.2193,644.8866],[28.8082,-17.2153,646.8755],[28.811,-17.2131,646.2494],[28.8093,-17.2082,642.0491],[28.8127,-17.2081,641.8898],[28.814,-17.2051,643.9109],[28.8118,-17.203,643.2682],[28.8121,-17.1985,651.0368],[28.8136,-17.1974,645.9709],[28.8178,-17.1983,660.0292],[28.8166,-17.1937,639.4601],[28.8195,-17.1851,652.431],[28.822,-17.1872,643.1658],[28.8254,-17.1875,636.4717],[28.8289,-17.1779,634.1458],[28.84,-17.1733,632.8904],[28.8398,-17.168,630.1854],[28.8373,-17.166,630.2078],[28.8368,-17.1571,626.5273],[28.8418,-17.156,634.1953],[28.8422,-17.1544,635.0197],[28.8384,-17.151,624.0035],[28.8339,-17.1507,624.6544],[28.8321,-17.1474,624.0749],[28.8232,-17.1476,629.1614],[28.8079,-17.1501,632.8567],[28.8029,-17.1524,637.0405],[28.8014,-17.1579,633.5051],[28.7983,-17.1603,637.6901],[28.7937,-17.1559,640.74],[28.7907,-17.1569,642.5031],[28.7882,-17.1617,641.3702],[28.7862,-17.1625,644.8952],[28.7833,-17.1586,645.3077],[28.7788,-17.1576,649.0773],[28.777,-17.1637,645.2949],[28.7708,-17.1637,649.6541]]]]}}