{"type":"Feature","properties":{"GID_3":"ZWE.10.12.11_2","GID_0":"ZWE","country":"Zimbabwe","GID_1":"ZWE.10_1","province":"Midlands","NL_NAME_1":"NA","GID_2":"ZWE.10.12_2","county":"ShurugwiTown","NL_NAME_2":"NA","city":"Ward7","VARNAME_3":"NA","NL_NAME_3":"NA","TYPE_3":"Ward","ENGTYPE_3":"Ward","CC_3":"NA","HASC_3":"NA","name":"Ward7.city"},
"geometry":{"type": "MultiPolygon","coordinates": [[[[30.0481,-19.7016,1137.3898],[30.0344,-19.694,1311.3633],[30.03,-19.6836,1374.9531],[30.016,-19.6809,1399.1442],[30.0136,-19.6768,1406.4045],[30.0051,-19.6741,1459.1766],[30.0089,-19.7218,1297.2341],[30.0214,-19.7221,1213.9248],[30.0481,-19.7016,1137.3898]]]]}}