{"type":"Feature","properties":{"GID_3":"ZWE.2.1.4_2","GID_0":"ZWE","country":"Zimbabwe","GID_1":"ZWE.2_1","province":"Harare","NL_NAME_1":"NA","GID_2":"ZWE.2.1_2","county":"Chitungwiza","NL_NAME_2":"NA","city":"Ward12","VARNAME_3":"NA","NL_NAME_3":"NA","TYPE_3":"Ward","ENGTYPE_3":"Ward","CC_3":"NA","HASC_3":"NA","name":"Ward12.city"},
"geometry":{"type": "MultiPolygon","coordinates": [[[[31.0454,-18.0131,1420.9325],[31.0424,-18.0133,1418.9634],[31.0393,-18.0173,1403.4995],[31.034,-18.0203,1389.3256],[31.0357,-18.0254,1385.3123],[31.0398,-18.0266,1386.274],[31.0422,-18.0314,1387.5206],[31.0473,-18.0319,1387.1782],[31.0502,-18.0342,1387.267],[31.0604,-18.0318,1398.8506],[31.0632,-18.0286,1406.1753],[31.0559,-18.0228,1410.4929],[31.0591,-18.0137,1422.2839],[31.054,-18.013,1424.597],[31.0487,-18.0145,1422.7441],[31.0454,-18.0131,1420.9325]]]]}}