{"type":"Feature","properties":{"GID_3":"ZWE.5.5.4_2","GID_0":"ZWE","country":"Zimbabwe","GID_1":"ZWE.5_1","province":"MashonalandEast","NL_NAME_1":"NA","GID_2":"ZWE.5.5_2","county":"MaronderaUrban","NL_NAME_2":"NA","city":"Ward12","VARNAME_3":"NA","NL_NAME_3":"NA","TYPE_3":"Ward","ENGTYPE_3":"Ward","CC_3":"NA","HASC_3":"NA","name":"Ward12.city"},
"geometry":{"type": "MultiPolygon","coordinates": [[[[31.5267,-18.2297,1590.7345],[31.5423,-18.2332,1578.2906],[31.5517,-18.2249,1600.6421],[31.5507,-18.219,1604.7771],[31.5531,-18.2108,1610.2839],[31.542,-18.2104,1616.3319],[31.5415,-18.215,1618.6478],[31.5371,-18.2195,1614.8109],[31.537,-18.2217,1616.7056],[31.5334,-18.2229,1600.2532],[31.5267,-18.2297,1590.7345]]]]}}