{"type":"Feature","properties":{"GID_3":"ZWE.3.3.23_2","GID_0":"ZWE","country":"Zimbabwe","GID_1":"ZWE.3_1","province":"Manicaland","NL_NAME_1":"NA","GID_2":"ZWE.3.3_2","county":"Chipinge","NL_NAME_2":"NA","city":"Ward3","VARNAME_3":"NA","NL_NAME_3":"NA","TYPE_3":"Ward","ENGTYPE_3":"Ward","CC_3":"NA","HASC_3":"NA","name":"Ward3.city"},
"geometry":{"type": "MultiPolygon","coordinates": [[[[32.3406,-20.0,479.0],[32.3434,-20.0184,476.0],[32.3377,-20.0337,479.2943],[32.3373,-20.0422,474.0],[32.3391,-20.0559,473.5358],[32.3445,-20.0718,471.875],[32.3451,-20.0789,471.5],[32.3399,-20.0924,473.0783],[32.339,-20.1056,472.4034],[32.3408,-20.1142,471.6635],[32.3381,-20.1318,467.7157],[32.339,-20.1535,464.2087],[32.3425,-20.1492,465.7623],[32.3491,-20.147,470.2943],[32.3525,-20.1515,469.7265],[32.355,-20.1475,474.0986],[32.3577,-20.1538,472.03],[32.3647,-20.1527,475.9071],[32.3728,-20.1537,481.0459],[32.3809,-20.1484,524.9292],[32.3825,-20.1497,479.5118],[32.3863,-20.147,497.3961],[32.3908,-20.1474,482.9115],[32.3908,-20.1435,487.9966],[32.3969,-20.1424,487.6129],[32.3973,-20.1268,498.513],[32.403,-20.1236,501.0967],[32.4064,-20.1154,516.8981],[32.4054,-20.1114,522.6753],[32.4079,-20.107,528.3699],[32.4058,-20.1004,539.1727],[32.3971,-20.0856,560.3696],[32.3874,-20.0838,572.1071],[32.3839,-20.0775,611.7761],[32.3931,-20.0311,603.1233],[32.3975,-20.0212,625.8892],[32.3972,-20.0136,616.5131],[32.3936,-20.009,609.5334],[32.3926,-20.0033,606.5453],[32.3931,-19.9979,607.0938],[32.3948,-19.9972,612.4553],[32.3933,-19.9851,603.7611],[32.3939,-19.9747,573.0695],[32.3796,-19.9732,554.2965],[32.3643,-19.9664,528.0009],[32.3589,-19.9673,521.0695],[32.3517,-19.9728,502.5052],[32.3455,-19.9735,482.8917],[32.3406,-20.0,479.0]]]]}}