{"type":"Feature","properties":{"GID_3":"ZWE.7.1.17_2","GID_0":"ZWE","country":"Zimbabwe","GID_1":"ZWE.7_1","province":"Masvingo","NL_NAME_1":"NA","GID_2":"ZWE.7.1_2","county":"Bikita","NL_NAME_2":"NA","city":"Ward24","VARNAME_3":"NA","NL_NAME_3":"NA","TYPE_3":"Ward","ENGTYPE_3":"Ward","CC_3":"NA","HASC_3":"NA","name":"Ward24.city"},
"geometry":{"type": "MultiPolygon","coordinates": [[[[32.0182,-19.8636,725.2624],[31.9428,-19.9928,850.6648],[31.9376,-20.0081,813.7471],[31.9324,-20.0331,749.8819],[32.0006,-20.0346,726.2878],[32.0225,-20.0391,699.7304],[32.0335,-20.0381,681.3768],[32.0344,-20.0201,704.1335],[32.0324,-20.0182,704.929],[32.0303,-20.0097,708.1385],[32.0338,-20.0011,719.2902],[32.0352,-19.9888,734.9239],[32.0541,-19.9649,768.9777],[32.0601,-19.9616,757.9156],[32.0867,-19.9569,693.5357],[32.1072,-19.9681,693.4858],[32.1237,-19.98,660.4922],[32.1666,-19.9837,612.3942],[32.1969,-19.9831,583.3065],[32.2207,-19.9768,562.8607],[32.2226,-19.9743,561.0537],[32.2627,-19.9599,519.6132],[32.255,-19.9588,527.8033],[32.2336,-19.9414,533.8249],[32.2092,-19.9304,534.8849],[32.2022,-19.9094,562.213],[32.1963,-19.9037,564.7655],[32.1901,-19.9026,586.4283],[32.1662,-19.9037,576.6688],[32.1419,-19.9015,587.2191],[32.0964,-19.9047,599.1578],[32.0931,-19.9019,594.0585],[32.09,-19.893,609.2296],[32.0833,-19.8881,614.2134],[32.0758,-19.8701,626.1064],[32.0669,-19.868,647.4565],[32.0619,-19.8641,649.3829],[32.0523,-19.8621,657.6752],[32.0334,-19.8653,661.4979],[32.0182,-19.8636,725.2624]]]]}}