{"type": "Feature","bbox": [29.9065,-20.342,30.0004,-20.2378],"geometry": {"type": "MultiPolygon","coordinates": [[[[29.9954,-20.2962,942.1333],[29.996,-20.2927,950.5618],[29.9898,-20.2893,957.7566],[29.9921,-20.2867,950.8943],[29.9988,-20.2842,952.2105],[30.0004,-20.2759,956.098],[29.9955,-20.2737,954.3866],[29.9988,-20.2701,955.5504],[29.9967,-20.261,957.4692],[29.9913,-20.2598,959.0869],[29.9902,-20.2537,966.2405],[29.9844,-20.2493,981.5297],[29.9741,-20.2477,966.0559],[29.9735,-20.2453,969.5836],[29.9716,-20.2448,969.2755],[29.9682,-20.2464,969.2266],[29.9659,-20.2422,973.1652],[29.964,-20.2426,975.2791],[29.9639,-20.2402,972.9259],[29.9594,-20.2378,983.1516],[29.9555,-20.241,984.4524],[29.9541,-20.2405,984.4524],[29.9518,-20.2443,986.0351],[29.9386,-20.2486,1002.6443],[29.9349,-20.2516,1034.4333],[29.9119,-20.2851,1036.436],[29.9084,-20.2877,1030.3026],[29.9087,-20.2928,1023.4595],[29.9065,-20.2969,1014.8951],[29.948,-20.342,1048.241],[29.9946,-20.303,943.0352],[29.9954,-20.2962,942.1333]]]]}
,"properties": {"GID_3": "ZWE.10.13.4_2","GID_0": "ZWE","country": "Zimbabwe","GID_1": "ZWE.10_1","province": "Midlands","NL_NAME_1": "NA","GID_2": "ZWE.10.13_2","county": "Zvishavane","NL_NAME_2": "NA","city": "Ward12","VARNAME_3": "NA","NL_NAME_3": "NA","TYPE_3": "Ward","ENGTYPE_3": "Ward","CC_3": "NA","HASC_3": "NA","name": "Ward12.city","area_km2": 68.39115,"hist_schema_id": "Elevation0-9000","hist_area_km2": {"950": 6.08552,"975": 16.16955,"1000": 10.93792,"1025": 10.63845,"1050": 12.11023,"1075": 6.04568,"1100": 3.1025,"1125": 1.33247,"1150": 0.83526,"1175": 0.51707,"1200": 0.1591,"1225": 0.31819,"1250": 0.13921}}}