{"type":"Feature","properties":{"GID_2":"ZWE.10.12_2","GID_0":"ZWE","country":"Zimbabwe","GID_1":"ZWE.10_1","province":"Midlands","NL_NAME_1":"NA","county":"ShurugwiTown","VARNAME_2":"NA","NL_NAME_2":"NA","TYPE_2":"District","ENGTYPE_2":"District","CC_2":"NA","HASC_2":"NA","name":"Shurugwi_Town.county"},
"geometry":{"type": "MultiPolygon","coordinates": [[[[30.0558,-19.699,1121.1897],[30.0572,-19.6946,1123.6133],[30.0481,-19.7016,1137.3898],[30.0344,-19.694,1311.3633],[30.03,-19.6836,1374.9531],[30.016,-19.6809,1399.1442],[30.031,-19.672,1391.3721],[30.0316,-19.6487,1349.5647],[30.0395,-19.6486,1179.542],[30.0394,-19.6425,1212.7228],[30.0312,-19.6435,1378.7286],[30.0317,-19.6013,1418.5607],[29.9984,-19.607,1394.2793],[30.0,-19.6124,1369.1243],[29.9664,-19.6441,1441.1635],[29.9698,-19.6516,1433.689],[29.9621,-19.6565,1411.0669],[29.9476,-19.6809,1370.9294],[29.9277,-19.6826,1310.8112],[29.9277,-19.6915,1317.5852],[29.9521,-19.6928,1367.9706],[29.9522,-19.7215,1405.2977],[29.9645,-19.7222,1347.3652],[29.9667,-19.7335,1321.1191],[29.9763,-19.7383,1236.6588],[29.9753,-19.7822,1135.8884],[29.9941,-19.7841,1095.8396],[30.0012,-19.7737,1096.6039],[30.0081,-19.7705,1096.1783],[30.0101,-19.7729,1087.3036],[30.0018,-19.7855,1084.2732],[30.0145,-19.7851,1180.7761],[30.025,-19.7505,1100.8704],[30.0304,-19.7431,1099.8865],[30.0353,-19.7267,1109.5479],[30.0397,-19.7244,1112.406],[30.0457,-19.7163,1115.9011],[30.0468,-19.7111,1121.8853],[30.0525,-19.7085,1117.9769],[30.0558,-19.699,1121.1897]]]]}}