{"type":"Feature","properties":{"GID_3":"ZWE.10.13.18_2","GID_0":"ZWE","country":"Zimbabwe","GID_1":"ZWE.10_1","province":"Midlands","NL_NAME_1":"NA","GID_2":"ZWE.10.13_2","county":"Zvishavane","NL_NAME_2":"NA","city":"Ward8","VARNAME_3":"NA","NL_NAME_3":"NA","TYPE_3":"Ward","ENGTYPE_3":"Ward","CC_3":"NA","HASC_3":"NA","name":"Ward8.city"},
"geometry":{"type": "MultiPolygon","coordinates": [[[[30.0816,-20.1987,921.62],[30.0913,-20.1963,917.2684],[30.0942,-20.1931,907.741],[30.1059,-20.1973,903.6881],[30.1182,-20.1991,887.3279],[30.1226,-20.1983,885.5174],[30.1257,-20.2009,884.2831],[30.1262,-20.2142,873.716],[30.129,-20.2138,873.4454],[30.1346,-20.2182,863.6796],[30.1418,-20.2188,863.9453],[30.1458,-20.2243,854.5901],[30.1571,-20.21,864.5512],[30.1558,-20.2077,865.2119],[30.143,-20.2015,870.8524],[30.1336,-20.1933,866.5244],[30.1164,-20.1728,868.8149],[30.1166,-20.1657,877.2711],[30.1017,-20.1535,886.7003],[30.0978,-20.1468,889.965],[30.0879,-20.1361,901.2091],[30.048,-20.0996,899.6811],[30.042,-20.0901,913.6024],[30.0445,-20.0825,937.722],[30.043,-20.0744,1005.7585],[30.0369,-20.0733,945.3755],[30.0286,-20.0649,952.6832],[30.0236,-20.0667,952.7723],[30.0218,-20.0647,952.236],[30.0207,-20.0551,959.8652],[30.0182,-20.0521,965.7756],[30.0121,-20.0472,960.0458],[30.0058,-20.0473,968.2901],[30.0031,-20.0526,970.0765],[30.0047,-20.0646,1055.6412],[30.0045,-20.0823,1092.2832],[30.0068,-20.087,1053.8214],[30.0066,-20.0929,1096.5864],[30.0092,-20.1016,1081.0232],[30.0075,-20.1251,1087.0988],[30.0113,-20.1337,1077.1882],[30.009,-20.1373,1160.3948],[30.0073,-20.148,1311.996],[30.017,-20.1507,1080.9443],[30.0208,-20.1481,1057.2117],[30.023,-20.1429,1031.9143],[30.031,-20.142,1047.8566],[30.0386,-20.1238,965.7889],[30.0447,-20.1228,975.7006],[30.0432,-20.127,953.1907],[30.0447,-20.1281,946.3536],[30.0438,-20.1337,953.9688],[30.0532,-20.138,934.0243],[30.0553,-20.1447,945.6729],[30.0598,-20.1507,957.6882],[30.0737,-20.1623,933.5557],[30.0802,-20.1637,915.9816],[30.0878,-20.1627,901.1207],[30.083,-20.1753,924.3749],[30.0575,-20.1932,958.7941],[30.0608,-20.1949,948.1059],[30.0646,-20.1941,950.4747],[30.0659,-20.1958,944.0432],[30.0703,-20.1947,938.7395],[30.0816,-20.1987,921.62]]]]}}