{"type": "Feature","bbox": [28.0318,-17.148,28.3027,-16.8388],"geometry": {"type": "MultiPolygon","coordinates": [[[[28.1113,-16.8545,483.5],[28.11,-16.8569,483.5],[28.1124,-16.858,537.0815],[28.1112,-16.8628,483.5],[28.1086,-16.8636,483.5],[28.1043,-16.8683,501.008],[28.1012,-16.8689,483.5],[28.103,-16.8711,493.9203],[28.1019,-16.8752,489.1909],[28.0999,-16.8745,483.5],[28.0954,-16.8809,494.1307],[28.0917,-16.8811,483.5],[28.0972,-16.883,497.3517],[28.0967,-16.8842,497.3517],[28.0915,-16.8838,487.9996],[28.0949,-16.8875,502.7194],[28.0876,-16.886,483.5],[28.0877,-16.8826,483.5],[28.0817,-16.8883,487.3685],[28.0835,-16.8898,498.5406],[28.0916,-16.8892,493.2814],[28.1099,-16.8982,489.472],[28.1128,-16.8965,517.4293],[28.1174,-16.9002,510.779],[28.1227,-16.902,491.2221],[28.1288,-16.9006,527.1407],[28.1331,-16.904,491.6855],[28.1362,-16.9014,500.1673],[28.1363,-16.9046,486.2794],[28.1383,-16.9013,500.7137],[28.139,-16.9042,494.2722],[28.1423,-16.9044,496.2104],[28.1395,-16.9069,488.4433],[28.1372,-16.9063,484.8536],[28.1363,-16.9089,485.6271],[28.1401,-16.909,490.7245],[28.1414,-16.9125,492.1717],[28.1454,-16.9152,497.802],[28.1411,-16.9147,489.9106],[28.1359,-16.9108,484.0643],[28.1342,-16.9117,485.7043],[28.1337,-16.91,483.5],[28.1306,-16.9149,491.1255],[28.1279,-16.9153,483.5],[28.1222,-16.9201,485.8124],[28.1198,-16.9176,483.5],[28.1197,-16.9202,483.9135],[28.1169,-16.9238,486.7266],[28.1134,-16.9247,483.9462],[28.1134,-16.9263,485.6046],[28.1158,-16.9268,490.9693],[28.1132,-16.9283,484.141],[28.1166,-16.9273,493.3318],[28.1167,-16.9284,490.711],[28.1142,-16.9302,488.5401],[28.1109,-16.9302,483.5],[28.1102,-16.9325,484.0894],[28.1129,-16.9351,490.2584],[28.1152,-16.9318,493.1677],[28.1182,-16.9322,497.5231],[28.118,-16.9345,490.5246],[28.1148,-16.9352,486.2476],[28.1194,-16.9374,494.8553],[28.1121,-16.9367,483.5],[28.1121,-16.9401,489.4104],[28.1101,-16.9377,483.5],[28.1098,-16.944,484.7883],[28.1075,-16.9405,483.5],[28.106,-16.9434,486.4392],[28.1075,-16.9468,491.9888],[28.1011,-16.9439,483.5],[28.0996,-16.9448,483.5],[28.1007,-16.9467,487.5677],[28.0983,-16.9467,483.9664],[28.0991,-16.948,487.1167],[28.0979,-16.9482,487.1167],[28.0948,-16.9464,493.1564],[28.0971,-16.9438,484.0561],[28.0968,-16.9423,483.5],[28.0951,-16.9422,483.5],[28.0928,-16.9431,483.5],[28.0919,-16.9459,488.1731],[28.0904,-16.9445,483.5],[28.088,-16.9471,483.5],[28.0887,-16.9421,483.5],[28.0869,-16.9421,483.5],[28.0843,-16.9479,483.5],[28.0898,-16.9484,493.0835],[28.0905,-16.9497,494.1038],[28.0821,-16.9558,483.5],[28.0821,-16.9577,486.1392],[28.0867,-16.9548,484.1523],[28.0882,-16.9548,490.6823],[28.0878,-16.9572,490.9],[28.0904,-16.955,493.5013],[28.0926,-16.9565,497.82619999999997],[28.0965,-16.9544,494.926],[28.0983,-16.9551,495.6813],[28.095,-16.9588,484.6329],[28.0984,-16.9594,492.2582],[28.0984,-16.9606,495.9986],[28.0917,-16.9618,483.5],[28.0933,-16.9644,487.9069],[28.0906,-16.9642,484.8208],[28.0915,-16.9649,489.0335],[28.0864,-16.9693,483.5],[28.0879,-16.9705,491.2396],[28.0912,-16.969,491.6771],[28.0904,-16.9707,491.4994],[28.0929,-16.9718,490.9849],[28.0935,-16.9704,497.1839],[28.0947,-16.9716,491.8373],[28.0969,-16.9702,495.4711],[28.0943,-16.9761,490.3853],[28.0929,-16.976,485.1666],[28.0931,-16.974,485.8334],[28.0901,-16.9734,484.321],[28.0897,-16.9781,492.7866],[28.0884,-16.9787,487.1408],[28.0874,-16.9752,484.0359],[28.0836,-16.9762,483.5],[28.0836,-16.9734,483.5],[28.0801,-16.9748,484.6764],[28.0777,-16.9734,483.5],[28.08,-16.978,491.0273],[28.0826,-16.9784,491.7449],[28.0816,-16.9798,490.1892],[28.0762,-16.9784,483.5],[28.0778,-16.9838,491.4863],[28.0753,-16.9791,483.5],[28.0744,-16.9809,483.5],[28.0726,-16.9801,483.5],[28.0725,-16.9828,483.5],[28.0717,-16.9815,483.5],[28.0694,-16.9821,484.352],[28.07,-16.9793,484.0112],[28.067,-16.9783,488.2399],[28.0662,-16.9808,483.9933],[28.0631,-16.98,483.5],[28.0647,-16.9827,488.4971],[28.0598,-16.9818,483.5],[28.0613,-16.9851,486.8806],[28.0659,-16.986,492.613],[28.0649,-16.9876,494.7303],[28.0509,-16.991,483.5],[28.0489,-16.9935,483.5],[28.0608,-16.993,499.2357],[28.0626,-16.9947,488.6957],[28.0631,-16.993,502.6073],[28.0694,-16.995,494.0584],[28.0733,-16.9919,506.3768],[28.0742,-16.9937,494.04],[28.0871,-16.9904,510.9204],[28.0937,-16.9903,503.168],[28.1008,-16.9857,516.8751],[28.1022,-16.9875,496.3567],[28.104,-16.9837,507.6789],[28.104,-16.9868,499.2559],[28.1053,-16.9876,499.2559],[28.1082,-16.9854,492.9037],[28.1076,-16.9834,500.4902],[28.1107,-16.9837,486.3845],[28.1105,-16.9804,498.4301],[28.1136,-16.9803,492.4196],[28.1118,-16.9773,505.9208],[28.115,-16.9779,497.4326],[28.1183,-16.9738,497.8845],[28.1157,-16.9707,505.8782],[28.1209,-16.9725,499.2403],[28.1205,-16.9706,501.8041],[28.127,-16.9686,490.9426],[28.1269,-16.9659,503.1629],[28.1305,-16.9681,483.5],[28.1315,-16.9655,494.4276],[28.1387,-16.9621,495.2005],[28.1383,-16.9676,486.0167],[28.1405,-16.9688,496.0464],[28.1349,-16.9695,483.5],[28.1272,-16.9751,483.5],[28.1289,-16.9762,485.9051],[28.1273,-16.977,487.37],[28.1342,-16.9805,495.8898],[28.1306,-16.9807,493.8932],[28.1323,-16.9827,491.7921],[28.1317,-16.9855,491.5187],[28.1296,-16.985,486.8978],[28.1288,-16.9797,488.2608],[28.1272,-16.9813,484.6649],[28.1281,-16.9788,485.081],[28.126,-16.9805,483.5],[28.1243,-16.9795,483.5],[28.1213,-16.9832,484.3424],[28.1219,-16.9842,484.3424],[28.1253,-16.9825,485.0096],[28.1218,-16.9889,485.0003],[28.1235,-16.992,495.4774],[28.128,-16.9917,499.9694],[28.1296,-16.9884,492.1092],[28.1308,-16.9887,493.4693],[28.1288,-16.9928,485.7863],[28.1265,-16.9931,487.2943],[28.1291,-16.9949,486.325],[28.1284,-16.9985,483.5],[28.1217,-16.9984,487.4882],[28.1158,-16.9952,483.5],[28.1129,-16.9974,483.5],[28.1167,-17.0017,485.8979],[28.1145,-17.0061,483.5],[28.1097,-17.0042,484.4668],[28.1081,-17.0057,483.5],[28.1052,-17.004,488.4606],[28.0987,-17.0094,483.5],[28.0965,-17.0081,483.5],[28.0896,-17.0088,483.5],[28.0823,-17.0121,483.5],[28.0828,-17.0132,483.5],[28.0881,-17.0117,486.4453],[28.0951,-17.0176,494.3808],[28.1102,-17.0103,485.1537],[28.1128,-17.0124,487.2903],[28.1168,-17.0123,495.4204],[28.1165,-17.016,487.0987],[28.1189,-17.0141,494.1844],[28.121,-17.0153,497.7041],[28.1237,-17.0115,494.6259],[28.1256,-17.0154,496.9105],[28.1252,-17.0197,488.44],[28.1235,-17.021,483.5],[28.1223,-17.0182,483.5],[28.1203,-17.0227,486.2089],[28.121,-17.0196,490.8755],[28.119,-17.018,485.4671],[28.1135,-17.0225,488.4409],[28.1145,-17.0165,483.5],[28.1108,-17.0217,489.8787],[28.1107,-17.0193,486.2108],[28.1032,-17.0262,483.5],[28.1005,-17.0253,483.5],[28.0909,-17.0307,483.5],[28.0911,-17.0333,483.5],[28.0963,-17.0306,489.2719],[28.1065,-17.0309,502.3762],[28.1094,-17.0282,506.7857],[28.1116,-17.0294,513.2017],[28.1087,-17.0334,483.5],[28.1126,-17.0365,499.5009],[28.1068,-17.0387,485.3394],[28.1105,-17.0415,501.6996],[28.1094,-17.0432,489.143],[28.1073,-17.0425,488.2384],[28.1063,-17.0439,485.5599],[28.1045,-17.0421,483.5],[28.1034,-17.0439,483.5],[28.1002,-17.042,483.5],[28.0994,-17.0388,484.7598],[28.0975,-17.0389,484.7598],[28.099,-17.0453,491.9137],[28.0968,-17.0431,483.5],[28.0964,-17.0456,487.7944],[28.0939,-17.0426,485.1064],[28.0934,-17.0447,489.2606],[28.0898,-17.0428,483.5],[28.09,-17.0463,489.4222],[28.0878,-17.0433,483.5],[28.0861,-17.0453,486.3821],[28.086,-17.0432,486.1469],[28.0844,-17.0435,489.0138],[28.0784,-17.0461,484.3182],[28.0802,-17.0503,492.1136],[28.0762,-17.0484,483.5],[28.0711,-17.0504,484.8259],[28.0711,-17.0532,489.3928],[28.0685,-17.0528,483.5],[28.0643,-17.0557,483.5],[28.0553,-17.0581,483.5],[28.0527,-17.0614,487.3823],[28.0519,-17.0851,483.5],[28.0477,-17.090699999999998,488.6334],[28.0325,-17.0975,483.5],[28.0318,-17.1011,483.5],[28.0336,-17.1037,483.5],[28.0453,-17.1114,483.5],[28.0627,-17.0991,490.4143],[28.0673,-17.0988,483.5],[28.0709,-17.101,483.5],[28.0929,-17.124,506.7353],[28.0926,-17.1264,485.7462],[28.0879,-17.1308,489.51],[28.0874,-17.1341,485.2515],[28.0905,-17.1364,485.8663],[28.0919,-17.1452,485.2983],[28.0954,-17.148,488.2848],[28.0991,-17.1475,493.6196],[28.107,-17.1397,497.9154],[28.1153,-17.1366,510.0581],[28.1242,-17.1367,494.3754],[28.1398,-17.1424,494.5508],[28.1407,-17.1408,494.42],[28.1387,-17.1383,504.1262],[28.1427,-17.1386,500.214],[28.145,-17.1359,497.5597],[28.145,-17.1322,502.6125],[28.1499,-17.1304,508.916],[28.1529,-17.1317,500.7536],[28.1542,-17.1289,512.4755],[28.1578,-17.13,525.6761],[28.1582,-17.1333,503.8723],[28.1619,-17.1306,551.7532],[28.1637,-17.1339,507.548],[28.1643,-17.13,559.9402],[28.1704,-17.1317,532.122],[28.1685,-17.1352,509.1455],[28.1725,-17.1341,518.2662],[28.1752,-17.136,514.96],[28.1798,-17.1352,531.0914],[28.181,-17.1393,515.2532],[28.1835,-17.1395,517.002],[28.185,-17.135,520.262],[28.1876,-17.1356,519.4166],[28.1875,-17.1313,521.5513],[28.1896,-17.1315,520.0277],[28.1892,-17.1296,525.8696],[28.1922,-17.1283,532.1219],[28.1907,-17.1254,530.4128],[28.1938,-17.1263,529.3652],[28.1945,-17.1174,537.8635],[28.1969,-17.1167,531.0881],[28.1978,-17.1145,553.0438],[28.2039,-17.1125,536.6927],[28.2052,-17.11,538.6493],[28.2132,-17.1095,545.0898],[28.2219,-17.0992,551.7785],[28.2268,-17.0962,555.1859],[28.2277,-17.0913,557.8188],[28.2316,-17.0875,564.856],[28.2326,-17.0835,565.3637],[28.2358,-17.0794,572.2745],[28.2382,-17.0787,579.2636],[28.2378,-17.0739,580.0757],[28.2418,-17.0686,588.9134],[28.2424,-17.0648,592.4569],[28.2449,-17.0652,596.673],[28.2522,-17.0615,609.3815],[28.2602,-17.0618,642.688],[28.2784,-17.0516,687.2648],[28.291,-17.0334,574.5338],[28.2944,-17.0258,559.4936],[28.2939,-17.0201,555.735],[28.302,-17.0172,552.1736],[28.3027,-17.0123,553.2485],[28.2979,-17.0062,552.9353],[28.2949,-17.0055,538.6563],[28.2952,-17.0018,541.1473],[28.2926,-17.0012,534.9656],[28.2925,-16.9972,541.2174],[28.2902,-16.9949,533.8215],[28.2908,-16.987,532.5789],[28.2855,-16.9869,530.2124],[28.2869,-16.9805,527.0267],[28.2832,-16.9819,523.7104],[28.2823,-16.9779,522.4262],[28.2791,-16.9789,517.8801],[28.279,-16.9753,517.9882],[28.2752,-16.9674,524.9224],[28.2687,-16.9644,510.77],[28.2669,-16.9557,508.7546],[28.2699,-16.9531,503.2336],[28.2679,-16.9517,505.8247],[28.2681,-16.9487,502.3916],[28.2668,-16.9488,502.3916],[28.2625,-16.9426,500.149],[28.2652,-16.9384,497.8743],[28.263,-16.9352,496.4014],[28.2643,-16.9299,504.017],[28.2603,-16.9269,504.9794],[28.2571,-16.9259,507.2246],[28.2567,-16.9276,505.0971],[28.2531,-16.9258,496.2371],[28.2534,-16.9212,492.0071],[28.2512,-16.918,494.2067],[28.2467,-16.919,493.6458],[28.2422,-16.9173,494.3913],[28.2383,-16.915,487.1566],[28.2381,-16.9129,502.942],[28.2343,-16.9131,487.7461],[28.2344,-16.9115,484.002],[28.229,-16.9075,487.3997],[28.2315,-16.9115,485.6915],[28.2312,-16.9217,487.688],[28.2291,-16.9263,495.3514],[28.2277,-16.9266,495.3514],[28.2274,-16.9245,486.9157],[28.2255,-16.9263,491.647],[28.2235,-16.9258,501.605],[28.2288,-16.9209,483.5],[28.2288,-16.9191,485.3641],[28.227,-16.9195,502.8233],[28.2289,-16.9173,486.8741],[28.2285,-16.9118,484.7941],[28.2248,-16.9099,491.2765],[28.2267,-16.9073,483.5],[28.2215,-16.9071,487.2328],[28.2253,-16.8984,483.5],[28.2186,-16.9002,493.577],[28.2208,-16.8964,483.5],[28.2186,-16.8974,489.8988],[28.2182,-16.894,483.5],[28.2169,-16.8952,483.5],[28.2149,-16.8943,483.5],[28.2155,-16.8929,483.5],[28.2127,-16.891,486.4069],[28.214,-16.8876,483.5],[28.2113,-16.887,493.7538],[28.213,-16.8855,488.2381],[28.2136,-16.8795,491.5912],[28.2154,-16.8768,486.8282],[28.2211,-16.8757,483.5],[28.2211,-16.8741,483.5],[28.216,-16.8756,483.5],[28.2136,-16.8739,483.5],[28.2114,-16.8764,483.5],[28.2106,-16.8747,483.5],[28.2081,-16.8788,483.5],[28.2056,-16.877,483.5],[28.2062,-16.879,484.2211],[28.2031,-16.8847,485.1171],[28.2014,-16.8844,483.5],[28.2012,-16.8819,483.5],[28.1999,-16.8833,484.5726],[28.1932,-16.8791,483.5],[28.1865,-16.8784,483.5],[28.1843,-16.8767,483.5],[28.1642,-16.8761,483.5],[28.1503,-16.8795,483.5],[28.1494,-16.8765,483.5],[28.1472,-16.8786,483.5],[28.1461,-16.876,483.5],[28.1464,-16.8787,483.5],[28.1452,-16.8787,483.5],[28.143,-16.8754,483.5],[28.1365,-16.8763,485.9576],[28.1346,-16.8744,483.5],[28.1279,-16.8745,498.8648],[28.1321,-16.8697,484.6205],[28.1268,-16.8697,495.9415],[28.1328,-16.8674,491.0328],[28.1313,-16.8643,506.941],[28.1356,-16.8654,491.205],[28.1387,-16.8607,487.5852],[28.1417,-16.8598,485.1468],[28.139,-16.8569,494.988],[28.1442,-16.8567,494.9738],[28.1451,-16.8534,491.8496],[28.1465,-16.8533,491.8496],[28.1451,-16.8519,500.9744],[28.1478,-16.8515,494.1193],[28.1474,-16.85,499.4148],[28.1512,-16.8501,496.8166],[28.1514,-16.848,503.0251],[28.155,-16.8478,505.4396],[28.1537,-16.8428,483.5],[28.1494,-16.8388,483.5],[28.1449,-16.839,483.5],[28.1113,-16.8545,483.5]]]]}
,"properties": {"GID_3": "ZWE.6.6.7_2","GID_0": "ZWE","country": "Zimbabwe","GID_1": "ZWE.6_1","province": "MashonalandWest","NL_NAME_1": "NA","GID_2": "ZWE.6.6_2","county": "Kariba","NL_NAME_2": "NA","city": "Ward4","VARNAME_3": "NA","NL_NAME_3": "NA","TYPE_3": "Ward","ENGTYPE_3": "Ward","CC_3": "NA","HASC_3": "NA","name": "Ward4.city","area_km2": 506.2236,"hist_schema_id": "Elevation0-9000","hist_area_km2": {"475": 19.5861,"500": 142.633,"525": 149.5173,"550": 69.3384,"575": 47.0703,"600": 36.5652,"625": 17.2085,"650": 7.3784,"675": 5.0272,"700": 4.1759,"725": 3.1421,"750": 1.5406,"775": 1.0338,"800": 0.669,"825": 0.3446,"850": 0.2635,"875": 0.2433,"900": 0.2433,"925": 0.1824,"950": 0.0608}}}