{"type":"Feature","properties":{"GID_3":"ZWE.6.12.6_2","GID_0":"ZWE","country":"Zimbabwe","GID_1":"ZWE.6_1","province":"MashonalandWest","NL_NAME_1":"NA","GID_2":"ZWE.6.12_2","county":"Sanyati","NL_NAME_2":"NA","city":"Ward14","VARNAME_3":"NA","NL_NAME_3":"NA","TYPE_3":"Ward","ENGTYPE_3":"Ward","CC_3":"NA","HASC_3":"NA","name":"Ward14.city"},
"geometry":{"type": "MultiPolygon","coordinates": [[[[29.4081,-17.8953,858.3286],[29.4125,-17.8963,859.4354],[29.4101,-17.8988,854.6875],[29.4118,-17.8996,858.9791],[29.4156,-17.8989,856.2959],[29.4162,-17.8965,859.5328],[29.4182,-17.8979,859.913],[29.42,-17.8964,859.3751],[29.4221,-17.8976,863.1688],[29.4234,-17.9005,861.9771],[29.4214,-17.8993,863.3158],[29.4204,-17.9012,854.0848],[29.4171,-17.9003,855.12],[29.4172,-17.9028,854.2208],[29.4208,-17.9049,855.4388],[29.4217,-17.9022,857.1017],[29.4238,-17.9026,859.3644],[29.4273,-17.9066,867.3099],[29.4275,-17.912,858.8825],[29.4309,-17.915,861.1516],[29.4446,-17.9194,868.3904],[29.445,-17.9251,863.7928],[29.4497,-17.9245,870.8377],[29.4514,-17.9272,867.0657],[29.4512,-17.9244,870.8377],[29.457,-17.924,872.4403],[29.4581,-17.9277,872.9843],[29.4992,-17.9004,913.1117],[29.511,-17.8958,927.3663],[29.4914,-17.8607,898.9371],[29.5016,-17.8595,898.4667],[29.509,-17.8499,904.9852],[29.5109,-17.8256,927.0106],[29.5097,-17.8262,927.0106],[29.4981,-17.8127,925.5577],[29.4981,-17.7935,928.2875],[29.4481,-17.7925,889.7905],[29.4445,-17.7956,896.4551],[29.4482,-17.7819,877.1228],[29.4183,-17.7833,903.8222],[29.4083,-17.7926,871.5254],[29.4345,-17.8076,890.0454],[29.4315,-17.8112,885.7854],[29.4281,-17.809,884.1052],[29.4119,-17.8224,890.438],[29.385,-17.8412,864.7114],[29.3784,-17.8522,854.2764],[29.3972,-17.8607,859.5494],[29.4055,-17.8723,863.0176],[29.3979,-17.8784,850.9513],[29.3956,-17.8832,850.7927],[29.399,-17.8844,854.3033],[29.403,-17.8829,856.1528],[29.4034,-17.8857,854.2416],[29.3967,-17.8901,849.7272],[29.3982,-17.8911,852.5982],[29.4014,-17.8891,848.127],[29.4024,-17.8926,855.9106],[29.4059,-17.8924,856.9277],[29.4081,-17.8953,858.3286]]]]}}