{"type":"Feature","properties":{"GID_3":"ZWE.10.9.37_2","GID_0":"ZWE","country":"Zimbabwe","GID_1":"ZWE.10_1","province":"Midlands","NL_NAME_1":"NA","GID_2":"ZWE.10.9_2","county":"Mberengwa","NL_NAME_2":"NA","city":"Ward9","VARNAME_3":"NA","NL_NAME_3":"NA","TYPE_3":"Ward","ENGTYPE_3":"Ward","CC_3":"NA","HASC_3":"NA","name":"Ward9.city"},
"geometry":{"type": "MultiPolygon","coordinates": [[[[30.0131,-20.7149,875.2526],[30.0391,-20.7046,1134.5624],[30.0585,-20.695,1038.1334],[30.0718,-20.6941,920.2524],[30.1059,-20.7094,857.9944],[30.1123,-20.7149,835.1864],[30.1169,-20.7165,835.7686],[30.1372,-20.7344,830.0808],[30.1387,-20.7346,821.3005],[30.1433,-20.7302,822.7221],[30.1524,-20.7285,821.3925],[30.1534,-20.7276,824.9927],[30.1512,-20.7239,837.9587],[30.1474,-20.7215,837.9692],[30.1482,-20.7175,848.4714],[30.1509,-20.7159,841.1567],[30.1491,-20.7104,867.1494],[30.1506,-20.7074,878.0121],[30.1346,-20.6985,892.0873],[30.1403,-20.6902,924.8964],[30.1393,-20.6795,937.7195],[30.1418,-20.6726,940.3748],[30.1438,-20.671,932.2899],[30.1471,-20.6597,970.0856],[30.1468,-20.6531,1002.5419],[30.1293,-20.6362,1098.2783],[30.104,-20.6315,1125.8317],[30.1001,-20.6321,1109.1542],[30.0905,-20.6563,1276.4116],[30.0595,-20.6722,1186.9803],[30.0622,-20.6489,1161.6653],[30.0422,-20.6335,1105.0878],[30.0191,-20.6347,1051.3201],[29.9915,-20.6484,929.0458],[29.9927,-20.661,921.0541],[29.9913,-20.6619,911.3597],[29.9965,-20.6674,904.8361],[30.0037,-20.6814,900.5415],[30.0132,-20.7112,877.2162],[30.0131,-20.7149,875.2526]]]]}}