{"type":"Feature","properties":{"GID_3":"ZWE.7.3.1_2","GID_0":"ZWE","country":"Zimbabwe","GID_1":"ZWE.7_1","province":"Masvingo","NL_NAME_1":"NA","GID_2":"ZWE.7.3_2","county":"ChiredziUrban","NL_NAME_2":"NA","city":"Ward1","VARNAME_3":"NA","NL_NAME_3":"NA","TYPE_3":"Ward","ENGTYPE_3":"Ward","CC_3":"NA","HASC_3":"NA","name":"Ward1.city"},
"geometry":{"type": "MultiPolygon","coordinates": [[[[31.6839,-21.0428,400.1346],[31.6744,-21.0378,412.6662],[31.6701,-21.0382,415.4174],[31.6699,-21.0413,416.6681],[31.6673,-21.0416,425.1837],[31.667,-21.0438,429.4972],[31.6685,-21.0462,425.981],[31.6709,-21.0459,420.512],[31.6712,-21.0481,420.4483],[31.6648,-21.0525,432.6646],[31.6656,-21.0538,425.5917],[31.664,-21.0548,423.4752],[31.6693,-21.0591,419.2798],[31.6839,-21.0428,400.1346]]]]}}