{"type": "Feature","bbox": [31.8957,-18.9212,32.0021,-18.6269],"geometry": {"type": "MultiPolygon","coordinates": [[[[31.9046,-18.632,1219.3118],[31.9071,-18.6388,1199.0635],[31.9078,-18.6482,1176.7004],[31.9097,-18.6505,1178.3728],[31.9109,-18.6897,1124.8799],[31.9132,-18.6969,1116.2241],[31.9119,-18.7006,1099.1996],[31.909,-18.7017,1098.8662],[31.9113,-18.712,1097.3732],[31.9089,-18.7256,1072.7876],[31.9097,-18.7375,1062.4109],[31.9074,-18.7414,1063.5148],[31.909,-18.7468,1056.4078],[31.9055,-18.7481,1059.1318],[31.9081,-18.7512,1057.9885],[31.9084,-18.7541,1058.4198],[31.9069,-18.7578,1045.0316],[31.9021,-18.7554,1035.2408],[31.8977,-18.7691,980.0848],[31.8957,-18.7705,974.6595],[31.9026,-18.7872,960.1089],[31.9091,-18.7961,943.6865],[31.9066,-18.8125,934.9587],[31.9086,-18.816,935.2715],[31.9066,-18.822,926.2674],[31.9068,-18.8339,926.8558],[31.9093,-18.8437,922.68],[31.9133,-18.8493,923.5385],[31.9123,-18.8633,915.0659],[31.9139,-18.8706,918.0925],[31.9172,-18.8748,920.6966],[31.9175,-18.8918,912.3027],[31.921,-18.905,910.9766],[31.9232,-18.907,913.4913],[31.9291,-18.9078,905.4822],[31.9319,-18.9043,918.0898],[31.9342,-18.9041,913.1785],[31.9458,-18.9124,902.8815],[31.9516,-18.9212,878.229],[31.9531,-18.9212,883.9415],[31.9562,-18.919,885.4583],[31.9503,-18.9086,907.4038],[31.9434,-18.9014,907.1568],[31.9432,-18.8983,911.0887],[31.955,-18.8844,925.4852],[31.9583,-18.8833,914.1823],[31.9595,-18.874,958.0959],[31.9617,-18.8714,938.5581],[31.9757,-18.8601,929.168],[31.9747,-18.8562,936.1475],[31.9686,-18.851,938.6071],[31.971,-18.8433,945.4088],[31.9651,-18.8302,956.6858],[31.9656,-18.8151,956.9048],[31.9842,-18.802,1009.5963],[32.0,-18.7976,987.8237],[32.0021,-18.7871,1015.3842],[32.0002,-18.7766,1003.0289],[32.0016,-18.7677,1028.1375],[31.9957,-18.7578,1018.365],[31.9948,-18.7496,1026.48],[31.9927,-18.7489,1022.5689],[31.9926,-18.7467,1029.7272],[31.9874,-18.7453,1024.5914],[31.9897,-18.7407,1050.4062],[31.9879,-18.7389,1034.0123],[31.9872,-18.7333,1044.788],[31.9821,-18.733,1041.7262],[31.9839,-18.7293,1051.1515],[31.983,-18.7253,1091.981],[31.9789,-18.7225,1060.1505],[31.9697,-18.7006,1152.3575],[31.9631,-18.6966,1164.4355],[31.9636,-18.6934,1182.4404],[31.9603,-18.6892,1185.4895],[31.9559,-18.6883,1171.9984],[31.9544,-18.679,1199.9648],[31.9464,-18.6685,1205.2363],[31.9451,-18.6644,1210.0468],[31.937,-18.657,1214.7847],[31.9355,-18.6532,1236.3077],[31.9265,-18.6427,1260.4264],[31.9234,-18.6357,1318.011],[31.9139,-18.6277,1384.8005],[31.9082,-18.6269,1219.6925],[31.9046,-18.632,1219.3118]]]]}
,"properties": {"GID_3": "ZWE.3.5.18_2","GID_0": "ZWE","country": "Zimbabwe","GID_1": "ZWE.3_1","province": "Manicaland","NL_NAME_1": "NA","GID_2": "ZWE.3.5_2","county": "Makoni","NL_NAME_2": "NA","city": "Ward25","VARNAME_3": "NA","NL_NAME_3": "NA","TYPE_3": "Ward","ENGTYPE_3": "Ward","CC_3": "NA","HASC_3": "NA","name": "Ward25.city","area_km2": 192.6511,"hist_schema_id": "Elevation0-9000","hist_area_km2": {"875": 0.2607,"900": 1.7651,"925": 7.8644,"950": 14.5672,"975": 15.3714,"1000": 16.737,"1025": 14.7719,"1050": 12.9467,"1075": 13.7104,"1100": 16.361,"1125": 14.2741,"1150": 13.0907,"1175": 12.3088,"1200": 11.7477,"1225": 9.5596,"1250": 5.3223,"1275": 3.6155,"1300": 2.6715,"1325": 1.8681,"1350": 2.1695,"1375": 1.0044,"1400": 0.6227,"1425": 0.0402}}}