{"type":"Feature","properties":{"GID_3":"ZWE.7.5.26_2","GID_0":"ZWE","country":"Zimbabwe","GID_1":"ZWE.7_1","province":"Masvingo","NL_NAME_1":"NA","GID_2":"ZWE.7.5_2","county":"Gutu","NL_NAME_2":"NA","city":"Ward32","VARNAME_3":"NA","NL_NAME_3":"NA","TYPE_3":"Ward","ENGTYPE_3":"Ward","CC_3":"NA","HASC_3":"NA","name":"Ward32.city"},
"geometry":{"type": "MultiPolygon","coordinates": [[[[30.7182,-19.4644,1448.3351],[30.7201,-19.5211,1395.8385],[30.719,-19.5301,1403.1738],[30.715699999999998,-19.5386,1395.1538],[30.7097,-19.5478,1384.891],[30.7092,-19.5538,1365.6978],[30.7127,-19.5589,1352.5768],[30.6978,-19.5689,1322.6866],[30.6949,-19.5804,1311.7509],[30.6872,-19.5879,1276.4202],[30.6972,-19.6063,1279.9735],[30.7094,-19.6369,1258.1711],[30.7055,-19.6589,1252.37],[30.7055,-19.6866,1248.578],[30.6965,-19.6911,1208.5511],[30.6961,-19.7181,1178.3077],[30.6992,-19.7228,1172.0779],[30.6986,-19.73,1208.4688],[30.7047,-19.7441,1183.297],[30.7661,-19.7181,1254.5219],[30.7614,-19.7385,1243.6407],[30.7602,-19.758,1240.4393],[30.7552,-19.7584,1234.7815],[30.7497,-19.7655,1226.991],[30.7464,-19.7833,1220.3699],[30.7341,-19.7934,1210.9493],[30.7372,-19.7964,1210.726],[30.7344,-19.8053,1211.3793],[30.7405,-19.8143,1208.4089],[30.7565,-19.8251,1200.1365],[30.7818,-19.8195,1208.745],[30.7749,-19.7969,1232.752],[30.7709,-19.7654,1252.374],[30.7961,-19.7874,1200.2394],[30.7999,-19.744,1221.429],[30.8081,-19.7378,1237.3368],[30.809,-19.7305,1243.0688],[30.8163,-19.7251,1256.8834],[30.8214,-19.7171,1259.217],[30.8229,-19.7044,1282.2927],[30.852,-19.7153,1302.2806],[30.8877,-19.7078,1285.056],[30.9417,-19.6938,1323.8812],[30.959,-19.6863,1283.5267],[30.9568,-19.6823,1291.5475],[30.952,-19.6836,1286.4888],[30.9517,-19.6716,1289.7208],[30.9937,-19.6749,1338.8755],[30.9913,-19.6898,1325.6281],[31.0173,-19.6922,1301.5292],[31.0122,-19.6675,1332.7379],[30.9966,-19.6588,1352.1621],[30.9516,-19.6583,1302.2134],[30.9251,-19.6451,1336.4904],[30.9017,-19.6439,1339.5079],[30.8932,-19.6174,1368.2998],[30.8799,-19.6192,1359.9917],[30.8675,-19.5897,1392.0958],[30.8293,-19.5812,1422.522],[30.85,-19.5016,1489.8998],[30.8574,-19.4983,1497.843],[30.8675,-19.4966,1495.6656],[30.8841,-19.4678,1507.595],[30.9062,-19.4399,1525.1453],[30.8536,-19.4222,1533.3773],[30.819,-19.4159,1527.2965],[30.8395,-19.4225,1514.6862],[30.8259,-19.4746,1468.0293],[30.7948,-19.4728,1472.0833],[30.8029,-19.5061,1469.2764],[30.8014,-19.5066,1465.8546],[30.7702,-19.506,1444.5906],[30.7676,-19.4854,1418.9745],[30.7412,-19.481,1407.8451],[30.72,-19.4643,1449.618],[30.7182,-19.4644,1448.3351]]]]}}