{"type": "Feature","bbox": [31.6904,-17.9348,31.8109,-17.8034],"geometry": {"type": "MultiPolygon","coordinates": [[[[31.6904,-17.837,1334.791],[31.6983,-17.8463,1326.8726],[31.7031,-17.8459,1341.4642],[31.7113,-17.8537,1337.0026],[31.722,-17.8545,1336.6207],[31.7246,-17.8579,1333.3357],[31.732,-17.862,1336.7451],[31.7354,-17.8621,1336.8073],[31.7372,-17.8596,1343.3491],[31.7394,-17.8611,1342.0171],[31.7396,-17.8694,1335.4114],[31.7381,-17.8744,1336.9602],[31.7444,-17.8784,1352.6318],[31.7466,-17.8824,1342.999],[31.7523,-17.8856,1356.316],[31.7515,-17.888,1338.6729],[31.7493,-17.8883,1343.8429],[31.7467,-17.8916,1348.7396],[31.751,-17.896,1343.7325],[31.7511,-17.8997,1339.1152],[31.7532,-17.9026,1343.1671],[31.7523,-17.9057,1339.76],[31.7548,-17.9076,1346.613],[31.7547,-17.911,1344.6422],[31.7569,-17.9143,1352.2098],[31.7547,-17.9213,1359.3826],[31.7564,-17.9283,1357.1866],[31.7561,-17.9348,1363.0013],[31.7664,-17.9284,1387.5123],[31.7939,-17.9031,1388.2617],[31.8109,-17.8592,1448.1908],[31.8001,-17.8366,1414.061],[31.7891,-17.8308,1407.7363],[31.7859,-17.8148,1377.0273],[31.7789,-17.8144,1397.4653],[31.7729,-17.8073,1416.9199],[31.7658,-17.8034,1443.7244],[31.7549,-17.807,1465.7262],[31.7475,-17.8058,1469.7356],[31.7463,-17.8078,1460.5155],[31.7385,-17.8116,1430.1519],[31.7253,-17.8106,1401.7065],[31.7224,-17.8141,1396.7025],[31.7176,-17.8142,1394.6211],[31.7121,-17.8178,1386.8236],[31.7056,-17.8163,1374.1028],[31.6926,-17.8241,1356.8647],[31.6904,-17.837,1334.791]]]]}
,"properties": {"GID_3": "ZWE.5.7.18_2","GID_0": "ZWE","country": "Zimbabwe","GID_1": "ZWE.5_1","province": "MashonalandEast","NL_NAME_1": "NA","GID_2": "ZWE.5.7_2","county": "Murehwa","NL_NAME_2": "NA","city": "Ward25","VARNAME_3": "NA","NL_NAME_3": "NA","TYPE_3": "Ward","ENGTYPE_3": "Ward","CC_3": "NA","HASC_3": "NA","name": "Ward25.city","area_km2": 92.4487,"hist_schema_id": "Elevation0-9000","hist_area_km2": {"1325": 1.08976,"1350": 17.0516,"1375": 31.48009,"1400": 25.81219,"1425": 11.7467,"1450": 4.84445,"1475": 0.42391}}}