{"type": "Feature","bbox": [28.9144,-18.2392,28.9409,-18.2129],"geometry": {"type": "MultiPolygon","coordinates": [[[[28.9173,-18.2324,1275.1349],[28.9231,-18.2365,1272.587],[28.9317,-18.2392,1290.5664],[28.9369,-18.2388,1295.884],[28.9367,-18.2236,1290.5059],[28.9409,-18.2181,1292.0005],[28.9267,-18.2129,1285.6372],[28.9252,-18.2262,1288.2502],[28.9144,-18.2264,1287.6364],[28.9173,-18.2324,1275.1349]]]]}
,"properties": {"GID_3": "ZWE.10.4.2_2","GID_0": "ZWE","country": "Zimbabwe","GID_1": "ZWE.10_1","province": "Midlands","NL_NAME_1": "NA","GID_2": "ZWE.10.4_2","county": "GokweSouthUrban","NL_NAME_2": "NA","city": "Ward2","VARNAME_3": "NA","NL_NAME_3": "NA","TYPE_3": "Ward","ENGTYPE_3": "Ward","CC_3": "NA","HASC_3": "NA","name": "Ward2.city","area_km2": 4.309603,"hist_schema_id": "Elevation0-9000","hist_area_km2": {"1275": 1.470109,"1300": 2.839494}}}