{"type":"Feature","properties":{"GID_3":"ZWE.5.7.14_2","GID_0":"ZWE","country":"Zimbabwe","GID_1":"ZWE.5_1","province":"MashonalandEast","NL_NAME_1":"NA","GID_2":"ZWE.5.7_2","county":"Murehwa","NL_NAME_2":"NA","city":"Ward21","VARNAME_3":"NA","NL_NAME_3":"NA","TYPE_3":"Ward","ENGTYPE_3":"Ward","CC_3":"NA","HASC_3":"NA","name":"Ward21.city"},
"geometry":{"type": "MultiPolygon","coordinates": [[[[31.913,-17.8133,1369.4429],[31.926,-17.8377,1413.5586],[32.0001,-17.8374,1325.5652],[32.054,-17.8393,1253.4275],[32.065,-17.8267,1185.8832],[32.055,-17.8092,1230.1219],[32.0444,-17.8049,1242.2346],[32.0328,-17.7893,1291.9705],[32.0241,-17.7852,1320.1079],[32.0204,-17.7813,1316.7031],[32.0139,-17.7819,1298.0292],[32.0071,-17.7786,1281.9751],[31.9946,-17.7784,1307.2836],[31.9831,-17.7608,1291.0732],[31.976,-17.7527,1259.2758],[31.974,-17.7533,1253.5796],[31.9628,-17.7674,1269.9871],[31.9626,-17.7713,1276.1427],[31.9593,-17.7713,1279.4038],[31.9547,-17.7783,1282.2578],[31.9248,-17.8049,1341.1987],[31.9221,-17.8054,1346.4075],[31.9202,-17.8092,1353.8672],[31.913,-17.8133,1369.4429]]]]}}