{"type": "Feature","bbox": [28.2069,-19.4071,28.4271,-19.2841],"geometry": {"type": "MultiPolygon","coordinates": [[[[28.4271,-19.3693,1167.0695],[28.2943,-19.3292,1146.9915],[28.2667,-19.3105,1130.2163],[28.2332,-19.2841,1101.78],[28.2069,-19.3223,1074.042],[28.2193,-19.3386,1072.6443],[28.2197,-19.3475,1065.5378],[28.2227,-19.3503,1062.4507],[28.2287,-19.3488,1063.4478],[28.2328,-19.3442,1072.7178],[28.2399,-19.3441,1067.9109],[28.2385,-19.353,1068.4044],[28.2411,-19.3569,1068.8943],[28.2498,-19.3601,1070.7106],[28.2558,-19.3597,1074.5873],[28.2614,-19.3614,1071.6033],[28.264,-19.3593,1070.9043],[28.267,-19.3596,1072.9802],[28.2674,-19.3653,1072.8279],[28.272,-19.3688,1088.4353],[28.2776,-19.3684,1076.8556],[28.2792,-19.3773,1069.6439],[28.2825,-19.3744,1090.76],[28.2908,-19.3762,1086.549],[28.296,-19.3733,1083.265],[28.2978,-19.3741,1077.697],[28.2954,-19.3778,1075.7915],[28.297,-19.3795,1074.3215],[28.3025,-19.3731,1080.8512],[28.3045,-19.3729,1086.7842],[28.3075,-19.3756,1080.986],[28.3127,-19.374,1085.5361],[28.3131,-19.3777,1079.6361],[28.319,-19.38,1078.6418],[28.3259,-19.3853,1080.0084],[28.3318,-19.3863,1080.8302],[28.3358,-19.39,1081.7222],[28.3411,-19.388,1080.4926],[28.3444,-19.3835,1084.7891],[28.3496,-19.3821,1086.1984],[28.364,-19.386,1091.2367],[28.3695,-19.3839,1094.1719],[28.371,-19.3871,1086.6394],[28.3759,-19.3868,1089.9182],[28.3819,-19.384,1095.6825],[28.3885,-19.3883,1094.5408],[28.39,-19.3921,1091.6715],[28.3924,-19.3892,1096.8647],[28.3943,-19.3894,1099.8872],[28.3947,-19.3918,1095.123],[28.3995,-19.3939,1096.072],[28.3999,-19.3967,1089.6637],[28.396,-19.3991,1087.9263],[28.396,-19.4013,1090.7844],[28.4008,-19.403,1091.7899],[28.4046,-19.407,1090.478],[28.4066,-19.4071,1091.2904],[28.4083,-19.4029,1092.7504],[28.4118,-19.4011,1099.8252],[28.4108,-19.3993,1100.6315],[28.4155,-19.3946,1102.2107],[28.4179,-19.3947,1104.3953],[28.4233,-19.3879,1114.1575],[28.4252,-19.3835,1123.4509],[28.4244,-19.3807,1127.1614],[28.4265,-19.3785,1132.6198],[28.4271,-19.3693,1167.0695]]]]}
,"properties": {"GID_3": "ZWE.8.2.18_2","GID_0": "ZWE","country": "Zimbabwe","GID_1": "ZWE.8_1","province": "MatabelelandNorth","NL_NAME_1": "NA","GID_2": "ZWE.8.2_2","county": "Bubi","NL_NAME_2": "NA","city": "Ward4","VARNAME_3": "NA","NL_NAME_3": "NA","TYPE_3": "Ward","ENGTYPE_3": "Ward","CC_3": "NA","HASC_3": "NA","name": "Ward4.city","area_km2": 108.88444,"hist_schema_id": "Elevation0-9000","hist_area_km2": {"1050": 0.06002,"1075": 13.4024,"1100": 29.98481,"1125": 32.06844,"1150": 32.60861,"1175": 0.76018}}}