{"type": "Feature","bbox": [31.534,-20.1612,31.6671,-20.025],"geometry": {"type": "MultiPolygon","coordinates": [[[[31.5348,-20.0959,946.6952],[31.5385,-20.1005,1020.1471],[31.5402,-20.1082,856.1624],[31.5352,-20.1128,868.3546],[31.534,-20.1167,846.4524],[31.5384,-20.1232,890.6864],[31.538,-20.1254,860.7802],[31.5447,-20.1283,863.5149],[31.5594,-20.1383,836.4579],[31.5714,-20.1504,811.1829],[31.5772,-20.1494,811.1643],[31.5809,-20.1541,793.1138],[31.5898,-20.1569,790.7404],[31.5941,-20.1612,779.132],[31.6012,-20.1516,799.5302],[31.6057,-20.1411,816.1339],[31.6137,-20.1379,831.2278],[31.6244,-20.1189,1012.6754],[31.6253,-20.1143,1192.3646],[31.6324,-20.1047,1102.0748],[31.6456,-20.1026,1092.972],[31.6546,-20.0942,865.6278],[31.6594,-20.0945,842.0602],[31.6633,-20.0967,816.8666],[31.6671,-20.0954,804.8101],[31.6646,-20.0877,865.5281],[31.6642,-20.0702,932.5265],[31.6567,-20.0431,966.1127],[31.6576,-20.0375,1026.1586],[31.6541,-20.0324,997.4774],[31.6527,-20.025,1029.2144],[31.647,-20.0296,1051.3182],[31.6411,-20.03,1095.4595],[31.6352,-20.0332,1150.8987],[31.6327,-20.0411,1145.5654],[31.6267,-20.048,1076.4257],[31.63,-20.0535,1104.6233],[31.6294,-20.0646,1040.2229],[31.6235,-20.069,991.6105],[31.6265,-20.0766,976.5508],[31.6252,-20.0795,963.8281],[31.6055,-20.0726,908.234],[31.6018,-20.0759,892.3461],[31.601,-20.0813,888.0151],[31.6033,-20.0886,879.6158],[31.6005,-20.0913,863.1239],[31.5958,-20.0876,917.7787],[31.5833,-20.089,1016.9294],[31.5795,-20.087,992.9032],[31.5484,-20.0881,987.2209],[31.5379,-20.0869,975.6904],[31.5351,-20.09,954.2281],[31.5348,-20.0959,946.6952]]]]}
,"properties": {"GID_3": "ZWE.7.1.32_2","GID_0": "ZWE","country": "Zimbabwe","GID_1": "ZWE.7_1","province": "Masvingo","NL_NAME_1": "NA","GID_2": "ZWE.7.1_2","county": "Bikita","NL_NAME_2": "NA","city": "Ward9","VARNAME_3": "NA","NL_NAME_3": "NA","TYPE_3": "Ward","ENGTYPE_3": "Ward","CC_3": "NA","HASC_3": "NA","name": "Ward9.city","area_km2": 86.39334,"hist_schema_id": "Elevation0-9000","hist_area_km2": {"775": 0.05971,"800": 2.84639,"825": 6.54913,"850": 7.0075,"875": 7.74452,"900": 8.70053,"925": 8.40222,"950": 8.32297,"975": 7.40735,"1000": 5.95384,"1025": 6.05373,"1050": 5.11793,"1075": 3.84354,"1100": 2.50922,"1125": 2.46943,"1150": 1.73259,"1175": 0.79656,"1200": 0.37833,"1225": 0.17921,"1250": 0.09957,"1275": 0.09957,"1300": 0.09957,"1325": 0.01991}}}