{"type": "Feature","bbox": [31.1163,-17.6436,31.5087,-16.8235],"geometry": {"type": "MultiPolygon","coordinates": [[[[31.3086,-17.6434,1479.9636],[31.3352,-17.6083,1383.9525],[31.3745,-17.6288,1390.7994],[31.42,-17.5946,1243.3757],[31.4586,-17.5625,1199.4824],[31.4695,-17.5828,1158.8359],[31.47,-17.579,1164.9],[31.4756,-17.5716,1157.5078],[31.4727,-17.5658,1150.9596],[31.4739,-17.5589,1168.0469],[31.4829,-17.5501,1146.7825],[31.4838,-17.5462,1183.6902],[31.5062,-17.5174,1142.859],[31.5073,-17.5144,1150.1465],[31.5053,-17.5089,1145.4702],[31.508,-17.5051,1146.3518],[31.5087,-17.5001,1135.4124],[31.4585,-17.5091,1356.6827],[31.4611,-17.4947,1306.6403],[31.469,-17.4759,1182.1292],[31.4732,-17.4539,1376.9213],[31.4612,-17.4463,1150.1781],[31.466,-17.4324,1070.7524],[31.4725,-17.4243,1048.0333],[31.4687,-17.4132,1034.132],[31.4803,-17.4078,1019.2052],[31.4782,-17.3998,1025.3982],[31.4584,-17.4048,1032.4316],[31.4518,-17.3811,1014.5095],[31.4735,-17.3751,1012.507],[31.4701,-17.3584,988.1481],[31.4697,-17.3602,984.7433],[31.463,-17.3602,986.2142],[31.4589,-17.3582,987.801],[31.4421,-17.3566,992.0844],[31.436,-17.3516,989.1105],[31.4314,-17.3521,991.6903],[31.4314,-17.3545,993.6097],[31.4253,-17.356,1003.8904],[31.4252,-17.3574,997.637],[31.4294,-17.3584,1007.3184],[31.4285,-17.3643,1006.0796],[31.4307,-17.3674,1003.0137],[31.4245,-17.3734,1008.1045],[31.4249,-17.3834,1008.2339],[31.4224,-17.3831,1011.0396],[31.4222,-17.3852,1017.1577],[31.416,-17.3823,1029.0566],[31.4147,-17.3847,1024.5],[31.4126,-17.3848,1024.5],[31.4125,-17.3814,1029.0089],[31.4087,-17.3813,1024.5],[31.4321,-17.327,1063.551],[31.4606,-17.3239,1020.5849],[31.4706,-17.2723,951.8588],[31.4747,-17.2741,949.0266],[31.4834,-17.2742,947.6385],[31.4941,-17.2674,942.8181],[31.4936,-17.2713,939.8772],[31.4951,-17.2718,942.9577],[31.4954,-17.2047,1375.3506],[31.4735,-17.2037,1230.9352],[31.4745,-17.1767,1187.7419],[31.4218,-17.1774,1138.8027],[31.4393,-17.1369,1257.6748],[31.4095,-17.1244,1181.8922],[31.4344,-17.0931,1040.64],[31.4301,-17.0878,1060.4242],[31.4273,-17.0887,1049.724],[31.4267,-17.0853,1056.9417],[31.4247,-17.0853,1046.9366],[31.4241,-17.0812,1061.4589],[31.4206,-17.0809,1057.5692],[31.4192,-17.0781,1063.5259],[31.4168,-17.0785,1061.6395],[31.4145,-17.0756,1074.9246],[31.4066,-17.0722,1071.8755],[31.4076,-17.0705,1077.0779],[31.4059,-17.0696,1069.5686],[31.4055,-17.065,1085.6219],[31.3992,-17.0665,1079.1875],[31.3951,-17.0648,1083.3813],[31.3934,-17.0608,1093.7866],[31.3916,-17.0609,1092.8347],[31.3903,-17.0633,1086.3295],[31.3857,-17.0601,1099.8768],[31.3833,-17.061,1115.484],[31.3819,-17.0648,1096.771],[31.3798,-17.0631,1100.6689],[31.3755,-17.0639,1104.7059],[31.3748,-17.0614,1115.6464],[31.373,-17.0635,1108.5496],[31.3699,-17.0609,1119.5026],[31.3652,-17.0625,1122.7048],[31.3541,-17.0561,1153.0935],[31.3444,-17.0434,1173.3146],[31.3458,-17.0362,1198.2025],[31.3517,-17.0359,1199.282],[31.3795,-17.0068,1325.6489],[31.3704,-16.9812,1154.093],[31.4031,-16.8404,1064.5454],[31.386,-16.8384,1077.5327],[31.3593,-16.8828,1115.0155],[31.3513,-16.8575,1073.9512],[31.3716,-16.8364,1065.7303],[31.2774,-16.8235,1014.8142],[31.2781,-16.8311,1021.1366],[31.2729,-16.837,1027.3776],[31.2657,-16.8394,1024.6271],[31.2626,-16.8374,1031.024],[31.2606,-16.8324,1042.7993],[31.2569,-16.8492,1063.2112],[31.2517,-16.8517,1079.6229],[31.2496,-16.8551,1077.7437],[31.2506,-16.8591,1066.7864],[31.2532,-16.8596,1064.6731],[31.2531,-16.8646,1067.8645],[31.2489,-16.8695,1072.4352],[31.2391,-16.8735,1073.9768],[31.2371,-16.8782,1071.7854],[31.2391,-16.8846,1074.3688],[31.2363,-16.8908,1077.7579],[31.2306,-16.8948,1085.0109],[31.2286,-16.899,1083.8206],[31.2224,-16.902,1101.7158],[31.1991,-16.9258,1098.309],[31.199,-16.9297,1097.0],[31.202,-16.9327,1097.0],[31.2005,-16.9352,1115.1075],[31.2034,-16.9471,1103.187],[31.2022,-16.9654,1136.3762],[31.2043,-16.9679,1133.5505],[31.2042,-16.9773,1157.718],[31.2021,-16.9832,1155.1584],[31.2067,-16.9863,1156.1108],[31.2128,-16.984,1174.147],[31.2173,-16.9913,1167.5184],[31.2173,-16.9982,1173.8832],[31.2196,-17.0031,1172.3395],[31.217,-17.0039,1163.4672],[31.215699999999998,-17.0103,1168.0872],[31.2169,-17.0149,1163.6392],[31.2141,-17.0166,1167.1478],[31.2134,-17.0206,1167.6873],[31.2089,-17.0233,1175.196],[31.2059,-17.0289,1178.2959],[31.1994,-17.0295,1211.3145],[31.1893,-17.0411,1182.6951],[31.1826,-17.0443,1181.0],[31.182,-17.0479,1182.825],[31.1804,-17.0488,1181.3195],[31.1795,-17.058,1181.0],[31.1768,-17.0611,1183.2151],[31.1771,-17.0669,1182.7905],[31.1701,-17.0716,1197.3544],[31.1701,-17.0761,1188.8174],[31.1371,-17.1007,1227.85],[31.1333,-17.1487,1359.5138],[31.1207,-17.1735,1151.2594],[31.1196,-17.1796,1136.6897],[31.1235,-17.1816,1138.9858],[31.1242,-17.1857,1129.9564],[31.1272,-17.1865,1146.6716],[31.1312,-17.2309,1115.7258],[31.1407,-17.2282,1116.8948],[31.1318,-17.3199,1092.5576],[31.1234,-17.319,1097.822],[31.1193,-17.3158,1101.8608],[31.1163,-17.3201,1094.4742],[31.1367,-17.3646,1143.0498],[31.1479,-17.3794,1234.8867],[31.1494,-17.4043,1179.8052],[31.1476,-17.4067,1141.697],[31.1469,-17.4128,1154.3157],[31.1485,-17.4163,1150.2649],[31.1449,-17.4232,1171.0341],[31.1451,-17.4272,1156.7896],[31.1423,-17.4296,1170.073],[31.1384,-17.438,1181.802],[31.138,-17.4448,1180.1541],[31.1552,-17.4517,1249.2809],[31.1739,-17.4559,1238.9128],[31.2278,-17.4737,1451.8665],[31.2386,-17.4706,1271.0188],[31.2434,-17.4733,1265.0221],[31.2453,-17.4722,1375.296],[31.2534,-17.4765,1241.5109],[31.2619,-17.4759,1254.7887],[31.2692,-17.48,1203.1135],[31.2755,-17.4783,1266.9856],[31.2923,-17.4858,1214.946],[31.3073,-17.487,1137.4725],[31.3047,-17.503,1148.5551],[31.3011,-17.5075,1155.869],[31.3024,-17.5102,1149.2511],[31.2992,-17.5172,1172.3861],[31.3003,-17.5203,1157.8677],[31.2983,-17.5227,1158.3892],[31.2978,-17.5288,1178.575],[31.295,-17.5354,1166.7542],[31.2921,-17.5391,1199.5052],[31.2903,-17.5497,1167.4789],[31.2878,-17.5548,1181.3577],[31.2847,-17.5694,1246.0845],[31.2859,-17.5727,1213.3542],[31.2835,-17.5732,1219.6034],[31.2842,-17.5777,1225.8384],[31.2771,-17.5892,1241.6296],[31.2768,-17.5921,1240.8179],[31.2799,-17.6006,1268.5826],[31.2805,-17.6095,1273.7192],[31.2852,-17.6177,1309.8262],[31.2852,-17.6217,1305.3943],[31.2821,-17.6269,1329.1538],[31.2843,-17.6299,1338.1121],[31.2803,-17.6355,1327.5752],[31.2799,-17.6436,1311.144],[31.2904,-17.6414,1416.8356],[31.3086,-17.6434,1479.9636]],
[[31.3643,-17.3167,1075.7086],[31.3694,-17.3384,1038.8237],[31.3581,-17.3415,1060.3188],[31.348,-17.3217,1064.1851],[31.3184,-17.331,1166.9358],[31.3187,-17.2853,1163.6646],[31.3462,-17.2772,1069.1049],[31.3474,-17.3112,1092.2349],[31.3643,-17.3167,1075.7086]]]]}
,"properties": {"GID_2": "ZWE.4.1_2","GID_0": "ZWE","country": "Zimbabwe","GID_1": "ZWE.4_1","province": "MashonalandCentral","NL_NAME_1": "NA","county": "Bindura","VARNAME_2": "NA","NL_NAME_2": "NA","TYPE_2": "District","ENGTYPE_2": "District","CC_2": "NA","HASC_2": "NA","name": "Bindura.county","area_km2": 2249.062,"hist_schema_id": "Elevation0-9000","hist_area_km2": {"950": 8.159,"975": 35.027,"1000": 62.175,"1025": 110.338,"1050": 152.809,"1075": 193.397,"1100": 239.699,"1125": 209.642,"1150": 207.167,"1175": 190.906,"1200": 164.969,"1225": 151.194,"1250": 133.563,"1275": 95.667,"1300": 74.977,"1325": 64.499,"1350": 56.153,"1375": 48.38,"1400": 26.956,"1425": 11.124,"1450": 6.129,"1475": 3.682,"1500": 1.254,"1525": 0.607,"1550": 0.324,"1575": 0.263}}}