{"type": "Feature","bbox": [31.2893,-21.574,31.6104,-21.2917],"geometry": {"type": "MultiPolygon","coordinates": [[[[31.2893,-21.4728,467.7014],[31.2937,-21.4774,465.9496],[31.336,-21.4981,461.9388],[31.3949,-21.5183,451.4392],[31.4248,-21.5276,456.9262],[31.4698,-21.532,464.2072],[31.4809,-21.5348,470.3918],[31.4842,-21.537,471.3723],[31.4859,-21.5407,472.1296],[31.4879,-21.5568,486.0545],[31.4957,-21.5637,497.9069],[31.4951,-21.574,498.642],[31.5269,-21.5687,502.5123],[31.575,-21.5557,495.8742],[31.6104,-21.5489,472.8302],[31.6069,-21.5461,467.4972],[31.6015,-21.535,459.921],[31.590699999999998,-21.526,450.0633],[31.5549,-21.5163,456.8711],[31.5513,-21.509,450.8058],[31.5665,-21.4875,445.3149],[31.5698,-21.479,445.0009],[31.5681,-21.4666,448.5831],[31.5568,-21.4576,441.9532],[31.5338,-21.4472,434.8018],[31.506,-21.3932,414.5778],[31.5047,-21.3858,413.6459],[31.5085,-21.3734,407.2927],[31.5033,-21.3676,402.512],[31.5008,-21.362,398.4466],[31.5039,-21.3435,390.5929],[31.5001,-21.334,391.6125],[31.5033,-21.3256,391.5959],[31.5035,-21.317,386.7892],[31.5063,-21.3061,376.9232],[31.5012,-21.2917,370.0021],[31.2893,-21.4728,467.7014]]]]}
,"properties": {"GID_3": "ZWE.7.2.2_2","GID_0": "ZWE","country": "Zimbabwe","GID_1": "ZWE.7_1","province": "Masvingo","NL_NAME_1": "NA","GID_2": "ZWE.7.2_2","county": "Chiredzi","NL_NAME_2": "NA","city": "Ward10","VARNAME_3": "NA","NL_NAME_3": "NA","TYPE_3": "Ward","ENGTYPE_3": "Ward","CC_3": "NA","HASC_3": "NA","name": "Ward10.city","area_km2": 437.1038,"hist_schema_id": "Elevation0-9000","hist_area_km2": {"375": 10.3499,"400": 61.5054,"425": 129.9648,"450": 173.2777,"475": 46.9602,"500": 15.0458}}}