{"type":"Feature","properties":{"GID_3":"ZWE.10.2.26_2","GID_0":"ZWE","country":"Zimbabwe","GID_1":"ZWE.10_1","province":"Midlands","NL_NAME_1":"NA","GID_2":"ZWE.10.2_2","county":"GokweNorth","NL_NAME_2":"NA","city":"Ward32","VARNAME_3":"NA","NL_NAME_3":"NA","TYPE_3":"Ward","ENGTYPE_3":"Ward","CC_3":"NA","HASC_3":"NA","name":"Ward32.city"},
"geometry":{"type": "MultiPolygon","coordinates": [[[[28.7689,-17.1614,651.205],[28.7668,-17.1574,667.7885],[28.764,-17.1565,656.6397],[28.7592,-17.1594,656.1937],[28.7546,-17.1587,663.8423],[28.7492,-17.1615,665.7826],[28.749,-17.1673,659.333],[28.7436,-17.177,663.278],[28.742,-17.1784,681.0911],[28.735,-17.1784,671.5201],[28.7327,-17.184,673.6934],[28.7258,-17.1904,677.4127],[28.7147,-17.1957,688.0211],[28.7109,-17.202,686.7813],[28.7132,-17.2052,716.194],[28.7132,-17.2136,688.7607],[28.7099,-17.2171,690.2682],[28.7114,-17.2209,715.9641],[28.7079,-17.2227,725.7155],[28.7082,-17.2274,709.48],[28.7003,-17.227,749.8057],[28.6996,-17.2295,734.671],[28.6966,-17.231,731.9376],[28.695,-17.2339,723.8915],[28.6963,-17.238,722.8687],[28.6933,-17.2409,720.4675],[28.6865,-17.2431,724.4219],[28.6851,-17.2506,726.3962],[28.6815,-17.2546,730.417],[28.6791,-17.2652,735.6911],[28.6718,-17.2658,742.8737],[28.6723,-17.2718,741.5601],[28.668,-17.2764,743.9629],[28.6674,-17.2793,745.941],[28.6664,-17.2782,745.941],[28.6624,-17.2817,750.0852],[28.6553,-17.2899,755.2281],[28.6681,-17.3065,775.8808],[28.668,-17.3086,775.6138],[28.6756,-17.3203,789.4057],[28.6777,-17.3296,799.1605],[28.6863,-17.3376,815.1093],[28.6868,-17.3419,814.2569],[28.6905,-17.3494,821.1825],[28.6911,-17.3622,824.8202],[28.6937,-17.371,801.3826],[28.7012,-17.3786,799.3444],[28.6993,-17.3577,837.196],[28.7132,-17.3428,838.5349],[28.7185,-17.3398,815.0255],[28.7219,-17.3321,785.6492],[28.7271,-17.3258,814.246],[28.7337,-17.3211,745.5076],[28.7397,-17.3033,792.5611],[28.743,-17.2851,795.1378],[28.7465,-17.2821,727.3013],[28.7499,-17.2719,758.579],[28.7541,-17.2466,738.2216],[28.761,-17.2385,729.8866],[28.7652,-17.2169,719.8729],[28.7726,-17.2067,717.3598],[28.7805,-17.2054,715.3407],[28.7805,-17.2037,716.5759],[28.7818,-17.2037,713.5533],[28.7796,-17.2007,713.0694],[28.7782,-17.1944,683.5889],[28.7756,-17.1944,684.1455],[28.7733,-17.189,681.1002],[28.7723,-17.1712,651.9422],[28.7708,-17.1637,649.6541],[28.7689,-17.1614,651.205]]]]}}