{"type":"Feature","properties":{"GID_3":"ZWE.9.7.9_2","GID_0":"ZWE","country":"Zimbabwe","GID_1":"ZWE.9_1","province":"MatabelelandSouth","NL_NAME_1":"NA","GID_2":"ZWE.9.7_2","county":"Mangwe","NL_NAME_2":"NA","city":"Ward17","VARNAME_3":"NA","NL_NAME_3":"NA","TYPE_3":"Ward","ENGTYPE_3":"Ward","CC_3":"NA","HASC_3":"NA","name":"Ward17.city"},
"geometry":{"type": "MultiPolygon","coordinates": [[[[28.1545,-21.4093,933.2821],[28.1487,-21.4155,926.704],[28.1405,-21.4134,922.7274],[28.1286,-21.4148,914.9059],[28.1113,-21.4107,905.8696],[28.1009,-21.4116,894.1941],[28.0846,-21.415,884.9748],[28.0822,-21.4184,884.2003],[28.0677,-21.4238,881.8898],[28.0673,-21.429,879.9486],[28.0713,-21.4397,878.9281],[28.068,-21.4435,875.895],[28.0734,-21.4454,876.8664],[28.075,-21.4497,874.3784],[28.0673,-21.4502,875.8841],[28.0653,-21.4626,869.9003],[28.06,-21.4686,871.2241],[28.0626,-21.4753,867.1255],[28.0703,-21.4725,874.2661],[28.0784,-21.4762,865.0404],[28.0769,-21.4809,862.7042],[28.0717,-21.4852,860.6354],[28.0714,-21.4889,862.7173],[28.074,-21.4936,860.9104],[28.0784,-21.4955,862.3425],[28.083,-21.503,857.3162],[28.0807,-21.5108,853.9509],[28.082,-21.5187,854.4309],[28.0908,-21.5253,854.8904],[28.0878,-21.5297,850.5558],[28.0885,-21.5308,850.5558],[28.1031,-21.5372,845.545],[28.107,-21.5292,848.6362],[28.1094,-21.5279,850.7886],[28.1141,-21.5286,852.7333],[28.1103,-21.5364,839.2217],[28.1118,-21.5405,837.384],[28.1182,-21.5464,840.5345],[28.1183,-21.5515,835.6686],[28.1278,-21.5501,834.1187],[28.1294,-21.5544,832.1804],[28.1427,-21.5609,827.6365],[28.1502,-21.5771,823.8696],[28.1533,-21.5822,820.4013],[28.1563,-21.5831,818.7471],[28.1617,-21.5924,816.8489],[28.1708,-21.5927,818.7092],[28.1954,-21.6012,807.9749],[28.2042,-21.6017,804.9765],[28.2247,-21.5974,806.1638],[28.2861,-21.5908,795.0192],[28.2917,-21.5874,790.5289],[28.2971,-21.5902,795.5598],[28.2975,-21.5828,803.9684],[28.2948,-21.5799,799.3578],[28.2933,-21.5734,810.0047],[28.2917,-21.5573,833.0211],[28.2871,-21.5488,824.751],[28.2477,-21.5139,866.946],[28.2281,-21.5011,863.5468],[28.1931,-21.4836,877.5547],[28.1883,-21.4785,886.194],[28.1853,-21.4691,890.9244],[28.1778,-21.4583,891.3457],[28.1545,-21.4093,933.2821]]]]}}