{"type":"Feature","properties":{"GID_3":"ZWE.8.8.6_2","GID_0":"ZWE","country":"Zimbabwe","GID_1":"ZWE.8_1","province":"MatabelelandNorth","NL_NAME_1":"NA","GID_2":"ZWE.8.8_2","county":"Umguza","NL_NAME_2":"NA","city":"Ward14","VARNAME_3":"NA","NL_NAME_3":"NA","TYPE_3":"Ward","ENGTYPE_3":"Ward","CC_3":"NA","HASC_3":"NA","name":"Ward14.city"},
"geometry":{"type": "MultiPolygon","coordinates": [[[[28.1204,-20.063,1187.4822],[28.1332,-19.9938,1209.9059],[28.2108,-20.0773,1242.0442],[28.2801,-20.0622,1315.7078],[28.2639,-20.007,1254.1621],[28.31,-19.9996,1257.5245],[28.3179,-20.0668,1267.6523],[28.3383,-20.1045,1322.0698],[28.3926,-20.0756,1249.0059],[28.3718,-20.0337,1218.8535],[28.3692,-20.0217,1212.8872],[28.3634,-20.0084,1209.8177],[28.3746,-19.9895,1202.2518],[28.3729,-19.9838,1211.0266],[28.3677,-19.9808,1206.5902],[28.3654,-19.9748,1210.0023],[28.3547,-19.972,1197.5643],[28.357,-19.9668,1197.4097],[28.3527,-19.9634,1196.219],[28.3506,-19.9568,1197.0583],[28.3529,-19.95,1195.3273],[28.3485,-19.9478,1193.9246],[28.3403,-19.9504,1194.3865],[28.3383,-19.9496,1194.1309],[28.3409,-19.9403,1195.6589],[28.3384,-19.9391,1191.8511],[28.3368,-19.9356,1194.3093],[28.3347,-19.936,1189.7476],[28.3351,-19.9292,1195.7627],[28.3294,-19.9251,1190.0463],[28.3238,-19.927,1188.4818],[28.326,-19.9313,1188.1307],[28.3231,-19.9327,1190.4908],[28.3194,-19.927,1189.2869],[28.3196,-19.9236,1187.3926],[28.3141,-19.9249,1186.3909],[28.3135,-19.9309,1187.2839],[28.3088,-19.9234,1184.436],[28.3073,-19.9239,1184.0815],[28.3065,-19.929,1185.3344],[28.3049,-19.9301,1183.6118],[28.301,-19.9292,1184.0634],[28.301,-19.9222,1182.87],[28.2951,-19.9207,1181.083],[28.2917,-19.9252,1178.8423],[28.2888,-19.9252,1178.9219],[28.2843,-19.921,1176.8033],[28.2869,-19.9187,1180.7578],[28.2864,-19.9173,1179.8135],[28.2811,-19.9183,1178.558],[28.2781,-19.9171,1177.1503],[28.276,-19.9135,1178.1814],[28.2711,-19.9116,1177.5107],[28.2666,-19.9036,1174.4197],[28.2627,-19.9041,1173.4534],[28.2545,-19.9016,1174.4913],[28.2543,-19.8967,1172.9897],[28.2482,-19.8967,1171.8667],[28.2487,-19.8995,1172.4703],[28.246,-19.9009,1173.3911],[28.2439,-19.899,1171.9934],[28.2437,-19.8954,1172.1151],[28.2412,-19.8956,1171.0574],[28.241,-19.8989,1169.7593],[28.2388,-19.8973,1169.3049],[28.2384,-19.8948,1169.8495],[28.2269,-19.888,1169.165],[28.2251,-19.89,1170.8529],[28.2225,-19.8874,1166.7976],[28.2188,-19.8891,1164.7339],[28.2161,-19.8829,1169.499],[28.2141,-19.8833,1163.7137],[28.2125,-19.8872,1164.1216],[28.2076,-19.8895,1163.0371],[28.205,-19.8854,1162.0217],[28.2034,-19.8784,1159.1663],[28.1992,-19.8763,1160.2046],[28.1972,-19.8716,1157.5947],[28.1882,-19.8698,1155.061],[28.1819,-19.8655,1153.5531],[28.1732,-19.8692,1152.3436],[28.1652,-19.8668,1150.4691],[28.1548,-19.8721,1148.4934],[28.1401,-19.874,1146.484],[28.1362,-19.872,1145.9106],[28.1344,-19.8687,1145.0026],[28.1243,-19.8677,1141.1489],[28.1235,-19.8645,1149.6389],[28.1186,-19.8687,1138.4551],[28.1019,-19.8697,1133.8574],[28.0923,-19.8746,1132.1007],[28.0846,-19.8733,1131.2405],[28.0806,-19.8686,1129.0912],[28.0781,-19.8679,1129.1135],[28.0672,-19.8727,1126.5811],[28.062,-19.8696,1127.454],[28.0556,-19.8698,1124.4634],[28.0494,-19.8658,1124.5764],[28.0451,-19.8653,1122.6862],[28.0389,-19.8585,1122.8745],[28.0364,-19.8587,1125.7961],[28.0336,-19.8625,1122.2083],[28.0308,-19.863,1117.1798],[28.0279,-19.8608,1117.2031],[28.0274,-19.8571,1119.4297],[28.017,-19.8542,1117.5593],[28.0141,-19.8582,1112.7775],[28.0086,-19.8585,1109.838],[28.0038,-19.8548,1108.4746],[27.9926,-19.8545,1109.5909],[27.9804,-19.8488,1103.2708],[27.9728,-19.8512,1101.5692],[27.9712,-19.8496,1102.3342],[27.9709,-19.8435,1100.1525],[27.9666,-19.841,1098.0212],[27.966,-19.8359,1102.4445],[27.9503,-19.8423,1095.0677],[27.9446,-19.8378,1115.368],[27.9408,-19.8396,1093.1248],[27.9359,-19.8342,1107.9415],[27.9339,-19.8355,1108.9147],[27.9331,-19.8428,1090.5895],[27.9313,-19.8454,1090.6323],[27.9274,-19.8388,1092.9043],[27.9246,-19.8423,1088.6779],[27.9185,-19.8385,1085.2701],[27.9131,-19.8388,1087.6282],[27.9142,-19.8419,1085.5295],[27.9087,-19.846,1087.2668],[27.9085,-19.8501,1086.2883],[27.9213,-19.8633,1090.8876],[27.9234,-19.87,1089.2993],[27.9237,-19.8842,1090.6743],[27.9318,-19.8923,1094.7308],[27.9459,-19.893,1097.6697],[27.9522,-19.8978,1099.615],[27.9548,-19.9112,1098.1311],[27.9591,-19.9173,1102.9725],[27.9583,-19.9264,1105.6918],[27.9687,-19.9374,1112.9222],[27.9679,-19.9478,1112.2667],[27.9714,-19.9498,1109.1616],[27.9752,-19.9479,1120.2327],[27.982,-19.9546,1108.0187],[27.9884,-19.9527,1118.6605],[27.9937,-19.9539,1118.3167],[27.9951,-19.9562,1122.303],[27.9919,-19.9611,1115.7131],[27.9924,-19.9647,1111.4232],[28.0043,-19.9749,1122.1368],[28.0083,-19.9713,1122.2474],[28.0235,-19.976,1133.8458],[28.0251,-19.9807,1125.0959],[28.0331,-19.9802,1133.9106],[28.0347,-19.9814,1134.6897],[28.0412,-19.99,1128.7534],[28.0512,-19.9978,1143.9043],[28.0864,-20.0419,1166.3667],[28.1039,-20.0501,1177.8088],[28.1204,-20.063,1187.4822]]]]}}