{"type": "Feature","bbox": [30.8774,-17.8997,30.9538,-17.8673],"geometry": {"type": "MultiPolygon","coordinates": [[[[30.9533,-17.8747,1433.9642],[30.9425,-17.877,1436.2393],[30.9365,-17.876,1432.0642],[30.933,-17.8735,1424.8423],[30.9013,-17.8719,1402.368],[30.8957,-17.8684,1390.7263],[30.8899,-17.8673,1397.5745],[30.8844,-17.8684,1399.3456],[30.8811,-17.8741,1412.4705],[30.8774,-17.8755,1409.6858],[30.9165,-17.8997,1397.6212],[30.9214,-17.8905,1402.9695],[30.9256,-17.8873,1407.1831],[30.9464,-17.8838,1421.3315],[30.9538,-17.8784,1431.7439],[30.9533,-17.8747,1433.9642]]]]}
,"properties": {"GID_3": "ZWE.2.3.37_2","GID_0": "ZWE","country": "Zimbabwe","GID_1": "ZWE.2_1","province": "Harare","NL_NAME_1": "NA","GID_2": "ZWE.2.3_2","county": "Harare","NL_NAME_2": "NA","city": "Ward43","VARNAME_3": "NA","NL_NAME_3": "NA","TYPE_3": "Ward","ENGTYPE_3": "Ward","CC_3": "NA","HASC_3": "NA","name": "Ward43.city","area_km2": 12.792907,"hist_schema_id": "Elevation0-9000","hist_area_km2": {"1375": 0.242138,"1400": 7.405345,"1425": 5.105066,"1450": 0.040357}}}