{"type":"Feature","properties":{"GID_3":"ZWE.10.2.18_2","GID_0":"ZWE","country":"Zimbabwe","GID_1":"ZWE.10_1","province":"Midlands","NL_NAME_1":"NA","GID_2":"ZWE.10.2_2","county":"GokweNorth","NL_NAME_2":"NA","city":"Ward25","VARNAME_3":"NA","NL_NAME_3":"NA","TYPE_3":"Ward","ENGTYPE_3":"Ward","CC_3":"NA","HASC_3":"NA","name":"Ward25.city"},
"geometry":{"type": "MultiPolygon","coordinates": [[[[29.3201,-17.7731,821.5902],[29.3273,-17.7656,818.1742],[29.3287,-17.7604,815.4484],[29.3269,-17.7548,831.3851],[29.3199,-17.7522,823.0957],[29.3135,-17.7545,826.4791],[29.3072,-17.754,823.5208],[29.3006,-17.7482,816.9831],[29.2992,-17.7438,820.4269],[29.2997,-17.7395,830.2418],[29.3067,-17.7316,811.5083],[29.3041,-17.7192,817.0259],[29.3054,-17.7164,811.8096],[29.301,-17.7155,833.7225],[29.2969,-17.7059,858.5536],[29.2967,-17.7017,851.8969],[29.3012,-17.6892,878.4661],[29.2975,-17.6739,874.6703],[29.2991,-17.6574,832.5462],[29.2454,-17.694,863.9396],[29.2175,-17.7094,861.7394],[29.2016,-17.7131,867.5653],[29.1978,-17.7161,871.4349],[29.1822,-17.7194,886.8092],[29.1598,-17.7206,909.9697],[29.1351,-17.7352,912.0505],[29.1055,-17.7482,918.9541],[29.0926,-17.7698,932.0603],[29.082,-17.7747,924.3026],[29.0912,-17.8119,885.5022],[29.1053,-17.8199,880.9573],[29.1294,-17.8072,885.8135],[29.1544,-17.8264,881.5431],[29.1716,-17.8057,870.0426],[29.1861,-17.8131,867.5367],[29.2073,-17.8398,890.6716],[29.2184,-17.8273,897.7854],[29.287,-17.8234,817.1533],[29.2916,-17.7958,832.0676],[29.2905,-17.7867,828.7567],[29.2978,-17.7786,830.3194],[29.301,-17.777,833.4594],[29.3164,-17.7756,825.6063],[29.3201,-17.7731,821.5902]]]]}}