{"type":"Feature","properties":{"GID_3":"ZWE.3.7.3_2","GID_0":"ZWE","country":"Zimbabwe","GID_1":"ZWE.3_1","province":"Manicaland","NL_NAME_1":"NA","GID_2":"ZWE.3.7_2","county":"MutareUrban","NL_NAME_2":"NA","city":"Ward11","VARNAME_3":"NA","NL_NAME_3":"NA","TYPE_3":"Ward","ENGTYPE_3":"Ward","CC_3":"NA","HASC_3":"NA","name":"Ward11.city"},
"geometry":{"type": "MultiPolygon","coordinates": [[[[32.7018,-18.9479,1261.7163],[32.6999,-18.9422,1435.8118],[32.6959,-18.9439,1335.5508],[32.6945,-18.9487,1234.1428],[32.6912,-18.9526,1255.5614],[32.6855,-18.9551,1175.4133],[32.6846,-18.9601,1147.7028],[32.6835,-18.9612,1143.6516],[32.6805,-18.9588,1159.6467],[32.6734,-18.9698,1121.8579],[32.6753,-18.971,1117.0051],[32.6694,-18.9812,1096.0298],[32.6721,-18.9869,1097.6025],[32.6658,-18.9979,1137.2236],[32.6683,-19.0038,1121.1918],[32.6775,-19.0118,1227.6511],[32.689,-19.0151,1254.2521],[32.6909,-19.0168,1223.719],[32.6884,-19.0187,1207.1833],[32.6974,-19.0231,983.8932],[32.6994,-19.0232,986.2062],[32.6981,-19.0013,988.5112],[32.7016,-18.9931,1008.7235],[32.7054,-18.99,1026.6294],[32.7014,-18.9871,1013.642],[32.7,-18.9835,1104.5768],[32.7081,-18.9823,1109.8671],[32.7018,-18.9479,1261.7163]]]]}}