{"type": "Feature","bbox": [31.4802,-17.9271,31.5575,-17.7568],"geometry": {"type": "MultiPolygon","coordinates": [[[[31.5061,-17.7927,1209.9435],[31.5058,-17.8028,1215.2135],[31.5076,-17.8076,1233.0463],[31.5051,-17.8128,1223.8208],[31.5051,-17.8183,1225.2904],[31.504,-17.8212,1232.72],[31.4985,-17.824,1247.5441],[31.5,-17.8313,1233.927],[31.4941,-17.8383,1247.0491],[31.497,-17.8455,1242.1533],[31.4953,-17.8543,1248.9841],[31.4906,-17.8568,1261.8937],[31.4891,-17.8614,1250.9918],[31.489,-17.8712,1261.3466],[31.4874,-17.8737,1266.2913],[31.4882,-17.8785,1258.6304],[31.4845,-17.8798,1276.8116],[31.4836,-17.8864,1269.8206],[31.4802,-17.8931,1279.2832],[31.5566,-17.9271,1262.7607],[31.5559,-17.9084,1262.8086],[31.5575,-17.9051,1294.8993],[31.5539,-17.8997,1252.4177],[31.5494,-17.8862,1252.9019],[31.5492,-17.8748,1254.6956],[31.5458,-17.8699,1246.7004],[31.5453,-17.8596,1244.2133],[31.5464,-17.8566,1256.4629],[31.5441,-17.8481,1252.953],[31.5474,-17.8434,1225.4454],[31.5445,-17.8353,1235.5908],[31.5404,-17.8324,1211.5381],[31.5382,-17.8252,1210.2135],[31.5408,-17.8189,1214.8806],[31.5393,-17.8162,1219.811],[31.5403,-17.8114,1209.1118],[31.537,-17.8047,1204.4359],[31.5376,-17.7965,1206.0774],[31.53,-17.7918,1197.557],[31.533,-17.7837,1201.6936],[31.5328,-17.7781,1198.6184],[31.5299,-17.7776,1206.1383],[31.5214,-17.7688,1199.5754],[31.5187,-17.7689,1188.1458],[31.5163,-17.7626,1194.8492],[31.52,-17.7585,1181.6486],[31.5171,-17.7568,1192.343],[31.5146,-17.7577,1204.689],[31.5122,-17.7621,1192.0951],[31.5093,-17.7618,1199.024],[31.5105,-17.7678,1193.6866],[31.5087,-17.774,1195.149],[31.5125,-17.7792,1204.6821],[31.5105,-17.7841,1203.1259],[31.5065,-17.7879,1223.337],[31.5061,-17.7927,1209.9435]]]]}
,"properties": {"GID_3": "ZWE.5.2.10_2","GID_0": "ZWE","country": "Zimbabwe","GID_1": "ZWE.5_1","province": "MashonalandEast","NL_NAME_1": "NA","GID_2": "ZWE.5.2_2","county": "Goromonzi","NL_NAME_2": "NA","city": "Ward18","VARNAME_3": "NA","NL_NAME_3": "NA","TYPE_3": "Ward","ENGTYPE_3": "Ward","CC_3": "NA","HASC_3": "NA","name": "Ward18.city","area_km2": 78.20157,"hist_schema_id": "Elevation0-9000","hist_area_km2": {"1175": 0.16153,"1200": 4.28008,"1225": 7.63065,"1250": 12.67507,"1275": 18.12247,"1300": 17.57639,"1325": 11.40011,"1350": 5.54829,"1375": 0.62542,"1400": 0.16139,"1425": 0.02017}}}