{"type":"Feature","properties":{"GID_3":"ZWE.9.8.25_2","GID_0":"ZWE","country":"Zimbabwe","GID_1":"ZWE.9_1","province":"MatabelelandSouth","NL_NAME_1":"NA","GID_2":"ZWE.9.8_2","county":"Matobo","NL_NAME_2":"NA","city":"Ward8","VARNAME_3":"NA","NL_NAME_3":"NA","TYPE_3":"Ward","ENGTYPE_3":"Ward","CC_3":"NA","HASC_3":"NA","name":"Ward8.city"},
"geometry":{"type": "MultiPolygon","coordinates": [[[[28.4029,-21.1544,932.684],[28.4014,-21.157,937.5023],[28.3925,-21.1592,959.5783],[28.3838,-21.1666,955.8696],[28.3722,-21.1719,961.004],[28.365,-21.178,965.4294],[28.3643,-21.1858,956.3805],[28.3608,-21.185,959.7247],[28.3323,-21.1995,957.4546],[28.3186,-21.18,972.6561],[28.3081,-21.1732,982.4592],[28.3057,-21.1685,985.6478],[28.3031,-21.174,982.6705],[28.3002,-21.1752,982.425],[28.2973,-21.1751,983.5909],[28.2927,-21.1711,978.323],[28.2825,-21.1701,973.0688],[28.265,-21.1633,960.0446],[28.258,-21.1676,955.8696],[28.2569,-21.1717,954.6519],[28.2514,-21.1754,952.1517],[28.2461,-21.1705,956.2034],[28.2444,-21.1768,951.2858],[28.2488,-21.204,946.6111],[28.2575,-21.2145,951.3084],[28.2621,-21.224,953.8798],[28.2618,-21.2284,951.2234],[28.2691,-21.2408,955.7376],[28.2741,-21.2446,953.9523],[28.2739,-21.2461,953.9523],[28.2705,-21.2472,951.2885],[28.2677,-21.2542,950.9713],[28.2604,-21.264,942.3932],[28.2594,-21.2689,942.5203],[28.2522,-21.2787,929.9779],[28.3215,-21.2503,953.2242],[28.3251,-21.2501,955.3739],[28.3399,-21.2422,938.8967],[28.3416,-21.2428,937.2379],[28.3442,-21.2404,941.9987],[28.3798,-21.2264,937.6469],[28.3858,-21.2226,931.9775],[28.3933,-21.2216,929.741],[28.3962,-21.225,925.6826],[28.4016,-21.2255,924.5768],[28.4102,-21.2301,919.9391],[28.4106,-21.2353,916.7839],[28.4157,-21.2382,914.7864],[28.4179,-21.2421,912.1815],[28.4206,-21.2421,915.7958],[28.4194,-21.2476,910.4799],[28.4215,-21.2521,908.0151],[28.4247,-21.2536,905.354],[28.4241,-21.2555,903.7816],[28.4341,-21.2534,902.4431],[28.4419,-21.2562,898.9144],[28.4483,-21.2545,901.1534],[28.4479,-21.2578,892.934],[28.4511,-21.2595,891.8272],[28.4589,-21.2578,895.8608],[28.4655,-21.2623,885.4921],[28.4697,-21.2596,885.8683],[28.4699,-21.2643,884.5405],[28.478,-21.2648,882.4255],[28.4761,-21.2543,885.8188],[28.4776,-21.2446,885.3151],[28.4743,-21.2373,889.204],[28.4781,-21.2331,890.7381],[28.4786,-21.23,891.7557],[28.4692,-21.2173,896.9519],[28.4659,-21.2152,898.0128],[28.4652,-21.2068,899.6027],[28.4618,-21.1984,903.738],[28.4626,-21.1923,903.7139],[28.4649,-21.1888,903.4145],[28.4639,-21.1857,907.455],[28.4466,-21.1755,906.6668],[28.4378,-21.1585,920.4587],[28.4205,-21.1515,922.8497],[28.412,-21.1537,928.3653],[28.4095,-21.1514,926.477],[28.4029,-21.1544,932.684]]]]}}