{"type":"Feature","properties":{"GID_3":"ZWE.4.7.20_2","GID_0":"ZWE","country":"Zimbabwe","GID_1":"ZWE.4_1","province":"MashonalandCentral","NL_NAME_1":"NA","GID_2":"ZWE.4.7_2","county":"MountDarwin","NL_NAME_2":"NA","city":"Ward27","VARNAME_3":"NA","NL_NAME_3":"NA","TYPE_3":"Ward","ENGTYPE_3":"Ward","CC_3":"NA","HASC_3":"NA","name":"Ward27.city"},
"geometry":{"type": "MultiPolygon","coordinates": [[[[31.6458,-16.786,964.0687],[31.646,-16.8189,881.8728],[31.6402,-16.82,882.239],[31.6375,-16.8244,904.7413],[31.629,-16.8295,906.9601],[31.6286,-16.8273,915.3597],[31.6244,-16.8277,918.9362],[31.6179,-16.8221,935.0178],[31.6045,-16.8216,1026.7743],[31.6038,-16.8239,1070.7097],[31.6134,-16.8561,1305.0198],[31.5931,-16.9087,1149.2561],[31.62,-16.9229,943.3167],[31.6424,-16.9129,912.7549],[31.6437,-16.911,921.6319],[31.6462,-16.9122,918.2825],[31.6527,-16.91,901.2195],[31.6551,-16.9109,901.6312],[31.6558,-16.9086,903.5254],[31.6609,-16.91,889.9084],[31.6612,-16.9076,907.0369],[31.6632,-16.9106,888.6111],[31.6676,-16.911,892.2051],[31.6693,-16.9104,882.5216],[31.6699,-16.9069,882.9851],[31.6729,-16.909,882.0314],[31.6821,-16.9058,892.911],[31.6829,-16.9075,885.2458],[31.6817,-16.9101,878.0437],[31.6861,-16.9111,870.2219],[31.6924,-16.9049,919.946],[31.6892,-16.8988,919.752],[31.7031,-16.899,865.1155],[31.7022,-16.8933,844.4044],[31.7071,-16.887,889.0523],[31.7119,-16.8866,860.2794],[31.7161,-16.8888,853.6941],[31.7191,-16.8856,844.474],[31.7288,-16.8835,823.9227],[31.7305,-16.8801,844.4835],[31.7371,-16.8835,824.864],[31.7383,-16.8808,825.7955],[31.7412,-16.8812,817.7544],[31.7421,-16.878,821.7601],[31.7542,-16.8772,812.3063],[31.7545,-16.8751,819.4459],[31.7516,-16.8704,820.9886],[31.7559,-16.865,805.782],[31.7506,-16.8619,796.1428],[31.7503,-16.8604,801.7256],[31.7549,-16.8546,788.5846],[31.7515,-16.8516,800.6638],[31.7426,-16.8486,810.8811],[31.7372,-16.8489,823.1187],[31.736,-16.8515,809.3831],[31.7326,-16.8503,816.5576],[31.7428,-16.8222,816.6659],[31.7551,-16.823,791.3354],[31.757,-16.8215,798.655],[31.7605,-16.8241,802.7872],[31.7682,-16.8234,797.9436],[31.7694,-16.8249,791.4873],[31.774,-16.825,787.0127],[31.7752,-16.8231,795.4437],[31.7825,-16.8298,777.7354],[31.7859,-16.8273,778.4061],[31.7894,-16.8295,783.9893],[31.7909,-16.834,773.9345],[31.7936,-16.8359,771.256],[31.7954,-16.8322,768.3125],[31.7941,-16.8162,813.3007],[31.8022,-16.8173,815.7235],[31.8043,-16.7924,852.1248],[31.7838,-16.7725,883.9438],[31.7814,-16.7663,892.2001],[31.7995,-16.7646,907.1941],[31.8048,-16.758,896.6215],[31.7983,-16.7494,896.954],[31.7897,-16.7515,1037.6847],[31.7881,-16.7422,926.4843],[31.7818,-16.7482,933.3095],[31.7683,-16.7566,937.613],[31.7587,-16.754,934.4915],[31.753,-16.7493,941.1635],[31.741,-16.755,952.2278],[31.7224,-16.769,952.0618],[31.6963,-16.7643,956.5987],[31.6921,-16.757,950.6715],[31.6877,-16.7538,935.3406],[31.6863,-16.7563,934.2449],[31.6837,-16.756,949.1314],[31.6809,-16.7581,941.5076],[31.6803,-16.7607,937.3711],[31.6771,-16.76,948.9136],[31.6659,-16.7657,950.8681],[31.6627,-16.7691,956.6102],[31.6535,-16.7707,955.4995],[31.6487,-16.7777,962.319],[31.6491,-16.7809,958.5128],[31.6439,-16.7838,969.1489],[31.6458,-16.786,964.0687]]]]}}