{"type":"Feature","properties":{"GID_2":"ZWE.5.1_2","GID_0":"ZWE","country":"Zimbabwe","GID_1":"ZWE.5_1","province":"MashonalandEast","NL_NAME_1":"NA","county":"Chikomba","VARNAME_2":"NA","NL_NAME_2":"NA","TYPE_2":"District","ENGTYPE_2":"District","CC_2":"NA","HASC_2":"NA","name":"Chikomba.county"},
"geometry":{"type": "MultiPolygon","coordinates": [[[[31.3027,-19.1929,1341.7076],[31.2975,-19.1574,1332.7885],[31.3296,-19.1501,1289.0613],[31.3189,-19.1277,1286.3909],[31.3152,-19.0891,1251.3099],[31.3393,-19.086,1237.7891],[31.3446,-19.0813,1225.238],[31.3635,-19.0897,1212.7894],[31.3681,-19.0897,1212.6835],[31.3734,-19.0871,1226.9193],[31.3756,-19.0896,1221.9324],[31.3767,-19.0967,1209.1738],[31.3805,-19.0984,1202.5786],[31.3884,-19.1073,1203.4617],[31.3912,-19.1076,1200.7914],[31.3912,-19.1043,1212.9578],[31.3935,-19.1043,1216.8618],[31.3986,-19.1111,1204.6572],[31.4026,-19.112,1203.502],[31.408,-19.1161,1202.683],[31.4119,-19.1154,1197.0361],[31.4174,-19.1098,1195.384],[31.4259,-19.108,1185.9406],[31.4305,-19.1039,1183.2549],[31.4329,-19.0985,1176.5813],[31.4358,-19.0972,1151.3438],[31.4363,-19.0946,1149.9375],[31.4416,-19.0935,1160.9872],[31.4427,-19.1015,1143.0103],[31.454,-19.1119,1180.3005],[31.4601,-19.1229,1143.0333],[31.4656,-19.1291,1142.3892],[31.4682,-19.1434,1136.5052],[31.4795,-19.1555,1133.3599],[31.483,-19.1565,1122.5659],[31.4878,-19.1476,1163.243],[31.4934,-19.1506,1142.6021],[31.5024,-19.1504,1117.5817],[31.505,-19.1582,1105.4954],[31.5118,-19.1604,1093.1316],[31.5165,-19.1675,1065.6572],[31.5215,-19.1687,1074.5431],[31.5272,-19.1649,1077.4813],[31.5718,-19.1003,1113.3331],[31.5916,-19.0746,1066.6298],[31.5988,-19.049,1139.2754],[31.5897,-19.0113,1079.2529],[31.5958,-19.0174,1072.4518],[31.6033,-19.0173,1068.7373],[31.6072,-19.0195,1075.3091],[31.6161,-19.0201,1067.0122],[31.6205,-19.0231,1063.9773],[31.6227,-19.0295,1051.7782],[31.6258,-19.0307,1055.7407],[31.6269,-19.0341,1041.5247],[31.6242,-19.0382,1032.863],[31.6288,-19.0389,1029.6573],[31.6324,-19.0367,1024.1426],[31.6343,-19.0398,1018.6805],[31.6369,-19.0407,1022.1991],[31.6496,-19.0375,1030.7216],[31.6543,-19.0405,1002.1239],[31.66,-19.0409,1001.5823],[31.6619,-19.0428,994.8066],[31.6663,-19.0413,975.4542],[31.6681,-19.043,956.1165],[31.6751,-19.0416,951.2867],[31.6908,-19.0434,929.254],[31.6966,-19.0379,930.2831],[31.712,-19.0383,904.1252],[31.7122,-19.034,912.9182],[31.7202,-19.031,892.9528],[31.72,-19.0248,890.1473],[31.7053,-19.0072,892.8987],[31.7062,-19.0008,898.6935],[31.7027,-18.9997,895.085],[31.7012,-18.9928,900.5254],[31.7018,-18.9806,903.7178],[31.6983,-18.9759,908.9047],[31.6903,-18.9552,920.2894],[31.6813,-18.9411,913.3983],[31.6796,-18.929,944.9327],[31.6704,-18.9181,923.8835],[31.6689,-18.9066,935.0149],[31.6566,-18.8795,964.4629],[31.65,-18.8565,1093.9358],[31.6424,-18.8402,1041.7759],[31.6362,-18.8322,1026.2258],[31.6235,-18.7955,1042.6115],[31.6183,-18.7859,1075.1439],[31.609,-18.7811,1042.6815],[31.6034,-18.7822,1086.998],[31.598,-18.7786,1054.7351],[31.5927,-18.7774,1094.4707],[31.5842,-18.7828,1143.1165],[31.5786,-18.7952,1129.4619],[31.5743,-18.795,1141.6779],[31.5624,-18.7896,1184.6501],[31.5583,-18.7893,1195.8322],[31.5494,-18.7923,1208.8809],[31.5431,-18.7968,1193.7253],[31.5328,-18.7991,1206.6539],[31.5248,-18.7961,1196.8306],[31.5216,-18.7908,1194.4871],[31.5185,-18.778,1194.6731],[31.5206,-18.7708,1199.4512],[31.5145,-18.7706,1211.5483],[31.5039,-18.7742,1214.6326],[31.5,-18.7725,1218.0847],[31.4957,-18.7746,1217.2638],[31.4788,-18.7687,1230.7273],[31.4753,-18.7637,1223.9358],[31.4708,-18.7494,1229.8674],[31.467,-18.7451,1227.4922],[31.4681,-18.7374,1233.4946],[31.459,-18.738,1240.4149],[31.4491,-18.7329,1249.0624],[31.4317,-18.7314,1239.8878],[31.4278,-18.7285,1248.4321],[31.4178,-18.7273,1253.6848],[31.4164,-18.7263,1247.8087],[31.417,-18.7187,1254.269],[31.4131,-18.7068,1254.8984],[31.4079,-18.7025,1269.6763],[31.3988,-18.7011,1267.0316],[31.3798,-18.6931,1265.6133],[31.3784,-18.6858,1269.9299],[31.3744,-18.6783,1267.9563],[31.3745,-18.6723,1269.4042],[31.3705,-18.6667,1269.7675],[31.369,-18.6606,1270.1254],[31.3542,-18.6561,1280.7451],[31.3515,-18.6483,1281.1641],[31.349,-18.6475,1280.6902],[31.346,-18.6487,1287.9885],[31.3383,-18.6464,1279.2434],[31.3317,-18.6395,1289.9092],[31.3244,-18.6471,1296.5137],[31.3225,-18.6444,1296.8845],[31.3146,-18.6455,1306.8008],[31.307,-18.6444,1309.5763],[31.3013,-18.6408,1313.6586],[31.2968,-18.6411,1319.053],[31.2898,-18.6369,1311.6167],[31.2886,-18.6332,1320.0303],[31.2851,-18.6333,1315.6313],[31.2831,-18.6287,1324.4902],[31.2768,-18.6221,1327.051],[31.2719,-18.6202,1330.6022],[31.2661,-18.6097,1334.9922],[31.2595,-18.6103,1336.5044],[31.2546,-18.6079,1345.6106],[31.2466,-18.6133,1339.3456],[31.2465,-18.6065,1357.8499],[31.2426,-18.6036,1367.9952],[31.2399,-18.6032,1359.6543],[31.2321,-18.6078,1360.8326],[31.2288,-18.6078,1369.2136],[31.2125,-18.5998,1373.6729],[31.2066,-18.5929,1389.8018],[31.2033,-18.5575,1434.8712],[31.2212,-18.5301,1424.229],[31.2019,-18.5119,1435.5007],[31.1656,-18.4923,1435.8057],[31.1301,-18.4846,1433.6899],[31.1328,-18.4507,1409.7677],[31.0922,-18.4487,1402.4652],[31.0574,-18.4607,1385.7803],[31.0546,-18.4605,1384.6121],[31.0579,-18.4503,1379.3265],[31.0382,-18.4305,1389.0696],[31.0075,-18.4374,1385.1028],[31.0152,-18.4543,1397.7745],[31.0253,-18.5375,1407.1748],[30.9798,-18.5424,1390.6699],[30.952,-18.5245,1388.9576],[30.916,-18.5566,1370.0767],[30.8794,-18.5596,1372.5393],[30.8756,-18.5655,1368.2074],[30.8886,-18.5849,1357.9539],[30.8806,-18.5904,1363.5464],[30.8714,-18.578,1341.1532],[30.8697,-18.5781,1342.5729],[30.8689,-18.585,1340.2885],[30.8645,-18.585,1345.9585],[30.8593,-18.5883,1343.186],[30.8565,-18.5861,1340.0607],[30.8574,-18.592,1342.356],[30.8557,-18.5943,1337.5507],[30.8459,-18.5955,1345.3929],[30.844,-18.6026,1336.6165],[30.8373,-18.6047,1340.864],[30.8387,-18.6075,1335.9655],[30.838,-18.6096,1334.5006],[30.8303,-18.6149,1333.9561],[30.8252,-18.6115,1336.7437],[30.8109,-18.6084,1335.8556],[30.8073,-18.6138,1329.8086],[30.8022,-18.6153,1330.6927],[30.8003,-18.6189,1328.405],[30.798,-18.6184,1331.937],[30.7966,-18.6207,1333.8374],[30.7947,-18.6193,1336.7329],[30.7848,-18.6203,1336.475],[30.7735,-18.6274,1333.0173],[30.7708,-18.631,1328.1698],[30.7665,-18.6301,1338.5885],[30.7618,-18.6349,1324.399],[30.7581,-18.6358,1336.3804],[30.7544,-18.6435,1321.1892],[30.7477,-18.6421,1332.4131],[30.746,-18.6601,1367.937],[30.7723,-18.6559,1355.239],[30.7743,-18.6769,1351.2162],[30.7915,-18.673,1361.8711],[30.7928,-18.6822,1368.2173],[30.7435,-18.6861,1501.1682],[30.7067,-18.6433,1409.9006],[30.6824,-18.671,1464.7109],[30.6491,-18.7329,1365.1576],[30.6395,-18.6954,1312.912],[30.6304,-18.7242,1326.3087],[30.6028,-18.6968,1290.5554],[30.5984,-18.6997,1290.2405],[30.6114,-18.7469,1323.5352],[30.6025,-18.7601,1340.7732],[30.5998,-18.809,1381.1604],[30.5582,-18.8196,1320.7656],[30.5575,-18.8768,1328.5795],[30.5814,-18.9056,1378.6403],[30.5549,-18.9256,1271.0773],[30.5548,-18.9293,1271.3409],[30.5657,-18.9369,1275.1555],[30.575,-18.9405,1276.8424],[30.5953,-18.9231,1467.9182],[30.6304,-18.9005,1488.375],[30.6356,-18.9078,1358.4957],[30.6542,-18.8845,1424.7156],[30.6787,-18.9322,1358.1017],[30.6924,-18.9521,1314.2095],[30.6956,-18.9543,1304.9397],[30.6931,-18.9578,1298.8925],[30.6883,-18.9581,1301.8824],[30.6866,-18.9568,1304.5658],[30.6771,-18.9639,1305.4609],[30.7124,-18.9766,1355.2811],[30.6935,-18.9961,1341.1544],[30.6747,-19.0208,1345.8169],[30.7185,-19.0879,1382.4006],[30.7499,-19.1321,1355.9092],[30.7451,-19.1295,1358.9974],[30.7403,-19.1301,1353.5892],[30.7362,-19.1339,1347.5762],[30.7234,-19.1321,1345.8276],[30.735,-19.179,1378.4611],[30.7315,-19.1804,1371.7278],[30.7376,-19.1802,1375.7335],[30.7444,-19.1937,1374.7661],[30.7519,-19.1998,1372.5845],[30.7522,-19.2036,1380.3271],[30.7567,-19.2063,1384.9348],[30.7633,-19.2075,1388.8687],[30.7638,-19.2128,1380.5784],[30.7659,-19.2156,1385.3104],[30.7719,-19.2148,1400.5122],[30.7745,-19.2199,1397.264],[30.7805,-19.224,1401.7059],[30.7847,-19.2242,1408.3455],[30.7856,-19.2292,1404.1039],[30.7896,-19.2322,1417.5491],[30.7912,-19.2314,1417.3806],[30.7925,-19.2348,1407.2639],[30.8039,-19.243,1420.8455],[30.8089,-19.2499,1418.9767],[30.831,-19.2442,1449.5085],[30.846,-19.2528,1456.4656],[30.8705,-19.2605,1483.1395],[30.8939,-19.2445,1489.9219],[30.9085,-19.2439,1494.624],[30.907,-19.2223,1470.5103],[30.8952,-19.202,1476.0198],[30.8898,-19.1973,1470.318],[30.8924,-19.192,1461.9679],[30.9214,-19.1923,1462.5641],[30.92,-19.1802,1461.0527],[30.9376,-19.1486,1454.5249],[30.9695,-19.1557,1453.1245],[30.9991,-19.1556,1437.0137],[30.9895,-19.1953,1393.0067],[30.9891,-19.225,1421.5295],[31.0001,-19.2487,1418.6279],[30.996,-19.2538,1406.5051],[30.996,-19.2579,1409.5562],[31.0149,-19.2562,1394.85],[31.0821,-19.244,1338.2987],[31.145,-19.2389,1280.959],[31.3048,-19.2205,1333.1698],[31.3027,-19.1929,1341.7076]]]]}}