{"type":"Feature","properties":{"GID_3":"ZWE.9.7.12_2","GID_0":"ZWE","country":"Zimbabwe","GID_1":"ZWE.9_1","province":"MatabelelandSouth","NL_NAME_1":"NA","GID_2":"ZWE.9.7_2","county":"Mangwe","NL_NAME_2":"NA","city":"Ward4","VARNAME_3":"NA","NL_NAME_3":"NA","TYPE_3":"Ward","ENGTYPE_3":"Ward","CC_3":"NA","HASC_3":"NA","name":"Ward4.city"},
"geometry":{"type": "MultiPolygon","coordinates": [[[[27.6903,-20.9329,1046.5525],[27.696,-20.9394,1048.8499],[27.6983,-20.9457,1046.9335],[27.7036,-20.9491,1042.2811],[27.7097,-20.956,1036.5702],[27.7092,-20.9621,1035.1505],[27.7124,-20.9676,1038.1094],[27.7022,-20.9857,1028.7325],[27.7026,-20.9906,1030.8369],[27.7074,-20.9991,1022.4143],[27.7035,-21.0006,1027.3508],[27.6965,-21.0066,1023.1957],[27.7006,-21.0114,1019.3839],[27.6992,-21.0168,1013.9801],[27.7028,-21.0212,1015.9861],[27.7015,-21.028,1009.5725],[27.7045,-21.037,1008.0867],[27.7003,-21.0483,1009.0852],[27.6887,-21.0576,1005.2349],[27.6893,-21.0618,998.4716],[27.754,-21.0519,1014.4464],[27.8233,-21.0434,1005.2542],[27.8205,-21.0416,1001.4336],[27.8187,-21.0365,1003.6332],[27.8168,-21.03,1004.4691],[27.8181,-21.0276,1016.8052],[27.8123,-21.0259,1012.2202],[27.8099,-21.0218,1010.2296],[27.8103,-21.0193,1016.0106],[27.8072,-21.0166,1015.5317],[27.8055,-21.0115,1021.62],[27.8054,-21.0011,1025.9802],[27.8035,-20.9894,1028.3458],[27.8018,-20.9873,1023.2188],[27.8029,-20.9816,1025.7958],[27.8016,-20.9756,1031.6558],[27.8037,-20.9725,1038.5101],[27.7937,-20.9627,1040.0337],[27.7943,-20.954,1045.4756],[27.7894,-20.9392,1052.1018],[27.7862,-20.9246,1050.6785],[27.7883,-20.9212,1053.7396],[27.7862,-20.9171,1054.5662],[27.7778,-20.9163,1065.2776],[27.7487,-20.9286,1085.8085],[27.6946,-20.9257,1048.7402],[27.6903,-20.9329,1046.5525]]]]}}