{"type": "Feature","bbox": [30.8931,-16.4162,30.9962,-16.2769],"geometry": {"type": "MultiPolygon","coordinates": [[[[30.9953,-16.4162,427.7219],[30.9962,-16.4123,421.6699],[30.9921,-16.4065,414.0909],[30.9907,-16.3973,413.1112],[30.9881,-16.393,406.3846],[30.983,-16.3905,400.418],[30.9797,-16.3784,407.3745],[30.9757,-16.3775,410.216],[30.9797,-16.368,407.8504],[30.9818,-16.3693,407.5085],[30.9827,-16.3729,396.9095],[30.9867,-16.3737,394.5881],[30.9912,-16.372,396.8018],[30.9914,-16.3665,404.8939],[30.9876,-16.3618,386.4659],[30.9879,-16.3576,390.5281],[30.9817,-16.3547,387.658],[30.9829,-16.3532,406.4813],[30.9781,-16.3523,398.351],[30.9762,-16.353,404.7195],[30.9776,-16.3552,386.853],[30.977,-16.3584,385.3552],[30.9734,-16.3592,386.4007],[30.968,-16.3537,404.2424],[30.9733,-16.3492,389.1733],[30.9747,-16.3459,399.8228],[30.983,-16.3458,397.7526],[30.9808,-16.3337,401.8174],[30.9777,-16.3264,402.4003],[30.9703,-16.326,380.1415],[30.9693,-16.3154,385.3861],[30.9659,-16.3117,385.102],[30.9579,-16.3133,379.158],[30.9552,-16.3162,375.7787],[30.9532,-16.3142,392.9871],[30.9532,-16.3124,392.7948],[30.9565,-16.31,379.9701],[30.9589,-16.3031,385.1443],[30.9566,-16.3007,376.6042],[30.9565,-16.2971,385.2419],[30.9612,-16.2919,377.6797],[30.964,-16.2855,382.1496],[30.9646,-16.2796,383.3583],[30.9615,-16.2769,375.5961],[30.9596,-16.2782,376.4591],[30.9598,-16.2835,371.3845],[30.955,-16.2845,369.3452],[30.9523,-16.2894,380.9151],[30.9456,-16.2938,378.2329],[30.947,-16.2969,380.1733],[30.9454,-16.2982,378.3775],[30.946,-16.3006,384.7547],[30.9433,-16.2999,388.2574],[30.945,-16.3027,380.2928],[30.9446,-16.3057,383.6445],[30.9433,-16.3055,388.109],[30.9444,-16.309,381.0259],[30.9418,-16.3125,388.3639],[30.9453,-16.3175,387.5271],[30.943,-16.3185,388.4467],[30.9428,-16.3248,386.1639],[30.9366,-16.3264,390.7132],[30.9368,-16.3311,392.2318],[30.9336,-16.3352,392.8794],[30.93,-16.3343,395.7867],[30.932,-16.3374,395.5774],[30.9306,-16.3391,398.4984],[30.932,-16.3423,400.014],[30.9283,-16.3453,401.6276],[30.9275,-16.341,403.0942],[30.9205,-16.3454,405.9368],[30.9218,-16.3531,409.4937],[30.9167,-16.3548,414.6021],[30.9174,-16.36,414.3386],[30.9201,-16.3626,418.4873],[30.9198,-16.3659,416.7099],[30.9161,-16.3696,421.3687],[30.9133,-16.3692,426.6843],[30.9145,-16.3713,426.3457],[30.9129,-16.3715,426.3457],[30.9131,-16.3736,427.5216],[30.9117,-16.3732,426.7277],[30.9106,-16.3757,429.39],[30.912,-16.3814,432.194],[30.9095,-16.381,434.3778],[30.9094,-16.383,432.7022],[30.9059,-16.3835,438.9214],[30.9065,-16.3858,434.5236],[30.8987,-16.3885,447.6975],[30.8983,-16.3917,444.8078],[30.8951,-16.3918,451.7652],[30.8931,-16.396,456.0198],[30.8931,-16.4031,499.8256],[30.9369,-16.406,467.5138],[30.951,-16.4093,479.0983],[30.9536,-16.4126,543.1554],[30.9699,-16.4138,446.7297],[30.9766,-16.4122,432.9117],[30.9817,-16.4147,453.6076],[30.9904,-16.4143,434.5079],[30.9953,-16.4162,427.7219]]]]}
,"properties": {"GID_3": "ZWE.4.3.26_2","GID_0": "ZWE","country": "Zimbabwe","GID_1": "ZWE.4_1","province": "MashonalandCentral","NL_NAME_1": "NA","GID_2": "ZWE.4.3_2","county": "Centenary/Muzarabani","NL_NAME_2": "NA","city": "Ward6","VARNAME_3": "NA","NL_NAME_3": "NA","TYPE_3": "Ward","ENGTYPE_3": "Ward","CC_3": "NA","HASC_3": "NA","name": "Ward6.city","area_km2": 76.53067,"hist_schema_id": "Elevation0-9000","hist_area_km2": {"375": 6.85746,"400": 29.66298,"425": 26.34196,"450": 11.22758,"475": 2.23731,"500": 0.14237,"525": 0.06101}}}