{"type":"Feature","properties":{"GID_3":"ZWE.4.4.2_2","GID_0":"ZWE","country":"Zimbabwe","GID_1":"ZWE.4_1","province":"MashonalandCentral","NL_NAME_1":"NA","GID_2":"ZWE.4.4_2","county":"Guruve","NL_NAME_2":"NA","city":"Ward10","VARNAME_3":"NA","NL_NAME_3":"NA","TYPE_3":"Ward","ENGTYPE_3":"Ward","CC_3":"NA","HASC_3":"NA","name":"Ward10.city"},
"geometry":{"type": "MultiPolygon","coordinates": [[[[30.5651,-16.8463,995.1405],[30.5831,-16.844,1027.9385],[30.5891,-16.8471,1026.73],[30.5968,-16.8438,1044.2108],[30.5997,-16.8349,1064.2328],[30.6071,-16.8261,1082.9904],[30.6123,-16.8261,1107.9624],[30.6384,-16.8326,1200.1099],[30.6439,-16.8435,1214.6055],[30.6442,-16.8497,1230.7603],[30.6425,-16.8582,1169.2394],[30.6384,-16.8613,1168.021],[30.6384,-16.864,1179.6617],[30.6488,-16.8637,1217.3003],[30.6561,-16.86,1237.7788],[30.6714,-16.8556,1234.5068],[30.6731,-16.8399,1213.4286],[30.6714,-16.8334,1206.3934],[30.6652,-16.8294,1191.963],[30.6636,-16.8241,1199.7272],[30.6609,-16.8213,1188.5588],[30.6622,-16.8153,1196.9375],[30.653,-16.813,1177.772],[30.6525,-16.8093,1178.968],[30.6556,-16.8051,1186.478],[30.6542,-16.804,1172.0514],[30.6555,-16.8016,1186.2792],[30.6517,-16.7979,1171.9231],[30.6506,-16.7931,1180.5422],[30.647,-16.7939,1179.6122],[30.645,-16.7886,1165.7657],[30.6489,-16.7841,1179.9799],[30.6455,-16.7826,1164.2583],[30.6448,-16.7786,1170.0583],[30.6394,-16.7769,1165.8442],[30.6375,-16.7735,1153.1479],[30.6383,-16.7713,1162.6477],[30.6414,-16.77,1147.2314],[30.6424,-16.7663,1151.9102],[30.6442,-16.7662,1146.9493],[30.6433,-16.7571,1147.9614],[30.646,-16.753,1137.0714],[30.642,-16.7482,1131.3044],[30.6439,-16.7467,1129.5438],[30.6439,-16.7417,1129.4847],[30.6185,-16.7644,1187.4534],[30.5651,-16.8463,995.1405]]]]}}