{"type": "Feature","bbox": [28.5709,-18.0304,28.7054,-17.7974],"geometry": {"type": "MultiPolygon","coordinates": [[[[28.5759,-17.8816,801.4702],[28.5929,-17.9061,809.5912],[28.5868,-17.9426,851.4617],[28.588,-18.0032,937.1528],[28.5823,-18.0087,981.6246],[28.5805,-18.015,975.5491],[28.5709,-18.0271,970.0268],[28.5747,-18.0265,964.7917],[28.5859,-18.0304,940.5349],[28.5884,-18.029,939.0934],[28.5939,-18.0301,919.1169],[28.6009,-18.0274,896.4056],[28.6031,-18.0244,883.3039],[28.6038,-18.0197,902.5131],[28.6107,-18.0211,883.6126],[28.614,-18.0194,876.1539],[28.6166,-18.0125,868.5402],[28.6159,-18.0092,868.9671],[28.6174,-18.0082,868.5425],[28.6147,-18.0018,861.7923],[28.6191,-18.0002,859.6149],[28.6187,-17.9965,855.464],[28.6229,-17.9933,853.7401],[28.624,-17.989,856.1661],[28.6272,-17.9877,852.6296],[28.6255,-17.9841,850.0275],[28.628,-17.9756,844.3209],[28.6276,-17.9724,846.962],[28.6369,-17.9672,838.159],[28.6361,-17.9651,840.1331],[28.6401,-17.9634,834.1033],[28.6425,-17.9596,833.9649],[28.6472,-17.9595,828.1909],[28.6477,-17.9559,829.5711],[28.651,-17.953,828.0527],[28.6593,-17.9536,822.4915],[28.657,-17.9474,822.5093],[28.6591,-17.9433,819.0735],[28.6626,-17.9406,817.1523],[28.6688,-17.9407,812.9359],[28.6757,-17.9258,804.9464],[28.6787,-17.9242,805.0732],[28.6846,-17.9243,802.0187],[28.6853,-17.9215,801.1924],[28.6888,-17.9203,797.5646],[28.6907,-17.9154,793.6819],[28.689,-17.9134,792.6308],[28.6897,-17.912,794.2437],[28.7,-17.9121,788.0225],[28.7048,-17.9027,781.3141],[28.7054,-17.8956,779.6737],[28.6994,-17.8884,778.3458],[28.6881,-17.8798,774.6202],[28.6833,-17.8782,774.0681],[28.6731,-17.8657,767.0459],[28.6657,-17.8472,762.806],[28.6438,-17.8229,751.8397],[28.6457,-17.8191,751.9328],[28.6379,-17.8104,746.8422],[28.6309,-17.7974,743.9741],[28.627,-17.8015,744.5546],[28.6215,-17.8042,750.7783],[28.6109,-17.8187,759.2623],[28.6072,-17.8244,763.4948],[28.6058,-17.8325,766.4215],[28.5888,-17.8438,777.2138],[28.5783,-17.8781,799.1967],[28.5759,-17.8816,801.4702]]]]}
,"properties": {"GID_3": "ZWE.10.3.2_2","GID_0": "ZWE","country": "Zimbabwe","GID_1": "ZWE.10_1","province": "Midlands","NL_NAME_1": "NA","GID_2": "ZWE.10.3_2","county": "GokweSouth","NL_NAME_2": "NA","city": "Ward10","VARNAME_3": "NA","NL_NAME_3": "NA","TYPE_3": "Ward","ENGTYPE_3": "Ward","CC_3": "NA","HASC_3": "NA","name": "Ward10.city","area_km2": 176.2086,"hist_schema_id": "Elevation0-9000","hist_area_km2": {"750": 17.5802,"775": 47.7044,"800": 46.8683,"825": 24.7914,"850": 12.8678,"875": 8.6314,"900": 8.5704,"925": 5.2225,"950": 3.2664,"975": 0.6654,"1000": 0.0202,"1025": 0.0202}}}