{"type":"Feature","properties":{"GID_3":"ZWE.3.3.7_2","GID_0":"ZWE","country":"Zimbabwe","GID_1":"ZWE.3_1","province":"Manicaland","NL_NAME_1":"NA","GID_2":"ZWE.3.3_2","county":"Chipinge","NL_NAME_2":"NA","city":"Ward15","VARNAME_3":"NA","NL_NAME_3":"NA","TYPE_3":"Ward","ENGTYPE_3":"Ward","CC_3":"NA","HASC_3":"NA","name":"Ward15.city"},
"geometry":{"type": "MultiPolygon","coordinates": [[[[32.5078,-20.5985,402.6257],[32.5103,-20.5994,402.6196],[32.5149,-20.5955,433.4093],[32.521,-20.5929,523.8934],[32.5669,-20.5529,908.485],[32.6676,-20.5545,810.5117],[32.6682,-20.4994,918.3439],[32.6267,-20.5101,944.2845],[32.6054,-20.5181,924.5363],[32.5691,-20.5099,786.0156],[32.5325,-20.5126,555.5275],[32.5255,-20.5204,547.8218],[32.5283,-20.5228,592.52],[32.5295,-20.5268,532.6885],[32.5262,-20.5294,560.6421],[32.5267,-20.5324,534.712],[32.5229,-20.5436,518.2985],[32.5141,-20.5454,536.4588],[32.5167,-20.5485,563.2504],[32.5159,-20.5555,509.1067],[32.5217,-20.5621,498.0842],[32.522,-20.5652,432.2531],[32.515,-20.5652,450.6589],[32.5139,-20.5681,431.8895],[32.5205,-20.5791,418.0439],[32.51,-20.583,411.5292],[32.5177,-20.587,418.2344],[32.5161,-20.5887,408.5001],[32.5072,-20.5899,414.6365],[32.5078,-20.5985,402.6257]]]]}}