{"type": "Feature","bbox": [29.3014,-16.6978,29.6074,-16.3926],"geometry": {"type": "MultiPolygon","coordinates": [[[[29.5695,-16.4322,1201.5525],[29.6053,-16.4112,1208.5757],[29.6074,-16.3931,1206.2954],[29.5527,-16.3926,1107.5247],[29.5009,-16.4153,1142.1057],[29.4751,-16.4178,1052.2047],[29.4508,-16.4387,1158.3066],[29.4449,-16.4683,1126.3254],[29.4294,-16.4658,1117.4979],[29.4095,-16.4724,1149.3865],[29.3975,-16.4883,1191.5958],[29.3775,-16.4861,1180.7927],[29.3603,-16.4938,1180.0015],[29.3521,-16.5104,1121.4537],[29.3595,-16.5399,1146.2098],[29.3276,-16.5505,1071.8571],[29.3014,-16.58,1188.4438],[29.3713,-16.6729,971.2053],[29.3733,-16.6744,968.8336],[29.3832,-16.6747,958.0851],[29.3913,-16.6731,960.3851],[29.3919,-16.6712,960.7499],[29.3954,-16.6728,957.4418],[29.4019,-16.6675,966.8472],[29.4013,-16.6648,972.2598],[29.3973,-16.6645,981.5215],[29.3972,-16.6626,983.8024],[29.4026,-16.661,969.3146],[29.4035,-16.6588,974.9824],[29.4067,-16.661,985.9707],[29.4169,-16.6594,1012.4832],[29.4187,-16.6653,991.1646],[29.4225,-16.665,991.3178],[29.4243,-16.6633,1014.777],[29.4303,-16.6634,1003.8248],[29.4472,-16.6512,1021.6765],[29.4484,-16.6466,1024.2714],[29.4724,-16.6423,1037.9432],[29.4889,-16.6835,1108.6167],[29.518,-16.6827,1140.8499],[29.5426,-16.6978,1232.3546],[29.5326,-16.6621,1171.9406],[29.6052,-16.6426,1291.3994],[29.5843,-16.5957,1254.675],[29.5771,-16.5911,1249.0334],[29.5711,-16.5895,1247.6886],[29.5588,-16.5667,1229.2731],[29.5346,-16.5784,1244.4243],[29.5147,-16.5545,1240.4008],[29.5014,-16.5217,1176.3105],[29.4936,-16.5072,1158.95],[29.4943,-16.5018,1154.644],[29.4911,-16.4987,1149.5155],[29.4979,-16.4922,1161.821],[29.5082,-16.4871,1134.8091],[29.5123,-16.4833,1117.2155],[29.5129,-16.481,1129.083],[29.517,-16.4786,1111.0103],[29.5132,-16.4722,1106.3281],[29.5134,-16.4674,1116.4609],[29.4997,-16.468,1095.9521],[29.5359,-16.4534,1164.0339],[29.5695,-16.4322,1201.5525]]]]}
,"properties": {"GID_3": "ZWE.6.4.21_2","GID_0": "ZWE","country": "Zimbabwe","GID_1": "ZWE.6_1","province": "MashonalandWest","NL_NAME_1": "NA","GID_2": "ZWE.6.4_2","county": "Hurungwe","NL_NAME_2": "NA","city": "Ward4","VARNAME_3": "NA","NL_NAME_3": "NA","TYPE_3": "Ward","ENGTYPE_3": "Ward","CC_3": "NA","HASC_3": "NA","name": "Ward4.city","area_km2": 548.9613,"hist_schema_id": "Elevation0-9000","hist_area_km2": {"950": 0.3047,"975": 2.2343,"1000": 5.5047,"1025": 10.5427,"1050": 22.1638,"1075": 34.2982,"1100": 53.4875,"1125": 76.4622,"1150": 97.5995,"1175": 96.1931,"1200": 81.3382,"1225": 47.9834,"1250": 17.3545,"1275": 3.1899,"1300": 0.3047}}}