{"type": "Feature","bbox": [29.897,-17.6686,30.086,-17.521],"geometry": {"type": "MultiPolygon","coordinates": [[[[30.0811,-17.521,1241.8588],[30.0152,-17.533,1145.9171],[30.0089,-17.555,1189.3523],[29.9865,-17.5448,1131.9365],[29.9611,-17.5865,1148.9473],[29.9173,-17.6124,1047.522],[29.9119,-17.6218,1015.1307],[29.908,-17.6224,1027.2535],[29.9038,-17.628,1034.6682],[29.9061,-17.6318,1012.2735],[29.9027,-17.6333,1008.7327],[29.9046,-17.6354,1031.2174],[29.9042,-17.6369,1017.1163],[29.9004,-17.6386,1016.0593],[29.897,-17.6467,999.922],[29.9053,-17.6477,1002.8475],[29.9054,-17.6454,1017.8301],[29.9091,-17.6445,1042.4257],[29.908,-17.6499,1020.7146],[29.9092,-17.6513,1007.6467],[29.9263,-17.6503,1043.1774],[29.9296,-17.6611,1024.36],[29.9314,-17.6618,1025.7717],[29.937,-17.6573,1044.6575],[29.9395,-17.651,1054.3513],[29.9429,-17.6472,1095.8979],[29.9563,-17.6461,1169.9907],[29.9607,-17.6478,1159.3815],[29.9648,-17.6539,1099.1235],[29.9697,-17.6546,1118.5488],[29.9701,-17.6574,1089.6035],[29.9678,-17.6614,1105.5365],[29.9726,-17.6643,1118.1185],[29.9744,-17.6686,1067.9492],[29.9776,-17.6664,1068.3406],[29.9835,-17.6537,1158.1016],[29.9862,-17.6533,1105.2386],[29.9886,-17.6557,1096.2764],[30.0104,-17.6397,1256.8589],[30.0104,-17.6351,1231.7932],[30.0837,-17.6227,1199.2021],[30.081,-17.6112,1225.9263],[30.0818,-17.605,1212.5486],[30.072,-17.5834,1167.6174],[30.0826,-17.5633,1231.6073],[30.086,-17.5621,1216.2192],[30.079,-17.5514,1213.1306],[30.0779,-17.5413,1209.3958],[30.0808,-17.5386,1208.5577],[30.0842,-17.5382,1214.2092],[30.0841,-17.5334,1223.1145],[30.0803,-17.5344,1215.552],[30.0811,-17.521,1241.8588]]]]}
,"properties": {"GID_3": "ZWE.6.9.4_2","GID_0": "ZWE","country": "Zimbabwe","GID_1": "ZWE.6_1","province": "MashonalandWest","NL_NAME_1": "NA","GID_2": "ZWE.6.9_2","county": "Makonde","NL_NAME_2": "NA","city": "Ward12","VARNAME_3": "NA","NL_NAME_3": "NA","TYPE_3": "Ward","ENGTYPE_3": "Ward","CC_3": "NA","HASC_3": "NA","name": "Ward12.city","area_km2": 169.7047,"hist_schema_id": "Elevation0-9000","hist_area_km2": {"1000": 0.7476,"1025": 4.223,"1050": 10.1034,"1075": 14.9534,"1100": 20.6744,"1125": 20.8769,"1150": 24.5148,"1175": 28.3153,"1200": 24.1537,"1225": 14.5132,"1250": 4.6483,"1275": 1.8593,"1300": 0.1213}}}