{"type": "Feature","bbox": [30.4449,-20.5878,30.5911,-20.438],"geometry": {"type": "MultiPolygon","coordinates": [[[[30.4542,-20.5452,731.7389],[30.46,-20.5544,733.5039],[30.4614,-20.5603,731.3824],[30.4603,-20.5629,726.4571],[30.4525,-20.5629,730.9874],[30.4481,-20.5657,721.849],[30.4453,-20.5711,726.5701],[30.4449,-20.5757,723.5862],[30.4491,-20.5824,719.9373],[30.4582,-20.5812,920.9563],[30.4666,-20.5826,962.8445],[30.4799,-20.5878,1269.8435],[30.4968,-20.5851,1287.2876],[30.4984,-20.583,1218.146],[30.5146,-20.5768,1044.7327],[30.5254,-20.5687,928.6365],[30.5562,-20.5564,859.8584],[30.5911,-20.5373,777.2034],[30.5882,-20.534,838.5997],[30.5869,-20.5272,804.6724],[30.5807,-20.5199,809.5008],[30.5804,-20.5106,814.03],[30.5827,-20.5038,835.3729],[30.5825,-20.4906,856.2322],[30.5866,-20.4852,855.9592],[30.5872,-20.4758,886.8506],[30.5843,-20.4601,949.2317],[30.5786,-20.4502,931.0535],[30.5737,-20.4451,940.2437],[30.5544,-20.4409,880.6942],[30.5512,-20.438,876.728],[30.5462,-20.4513,852.7734],[30.5454,-20.4613,845.3599],[30.5372,-20.4628,842.7549],[30.5263,-20.4762,820.506],[30.5226,-20.4776,822.1801],[30.5196,-20.4811,808.4076],[30.5189,-20.4841,805.6582],[30.5203,-20.4857,804.8652],[30.5192,-20.4873,803.5663],[30.5229,-20.4903,797.4508],[30.5161,-20.4926,800.175],[30.5128,-20.4995,791.7973],[30.5031,-20.5105,781.8452],[30.4996,-20.5113,773.1391],[30.4941,-20.5091,774.0281],[30.491,-20.5137,762.1388],[30.4893,-20.5126,763.4368],[30.4875,-20.5161,765.2542],[30.4817,-20.5191,754.62],[30.4814,-20.5205,751.2373],[30.4787,-20.5206,758.2407],[30.4767,-20.5236,747.2977],[30.48,-20.5254,750.2431],[30.4741,-20.5295,750.84],[30.4604,-20.5344,741.3743],[30.4542,-20.5452,731.7389]]]]}
,"properties": {"GID_3": "ZWE.7.4.9_2","GID_0": "ZWE","country": "Zimbabwe","GID_1": "ZWE.7_1","province": "Masvingo","NL_NAME_1": "NA","GID_2": "ZWE.7.4_2","county": "Chivi","NL_NAME_2": "NA","city": "Ward17","VARNAME_3": "NA","NL_NAME_3": "NA","TYPE_3": "Ward","ENGTYPE_3": "Ward","CC_3": "NA","HASC_3": "NA","name": "Ward17.city","area_km2": 126.92303,"hist_schema_id": "Elevation0-9000","hist_area_km2": {"725": 2.95791,"750": 11.35635,"775": 20.58939,"800": 30.04125,"825": 21.08748,"850": 8.20109,"875": 7.98379,"900": 7.24913,"925": 7.11068,"950": 3.833,"975": 2.264,"1000": 1.1518,"1025": 1.05239,"1050": 0.71478,"1075": 0.4368,"1100": 0.15879,"1125": 0.1985,"1150": 0.09924,"1175": 0.15879,"1200": 0.05955,"1225": 0.07939,"1250": 0.07939,"1275": 0.0397,"1300": 0.01985}}}