{"type":"Feature","properties":{"GID_3":"ZWE.9.1.10_2","GID_0":"ZWE","country":"Zimbabwe","GID_1":"ZWE.9_1","province":"MatabelelandSouth","NL_NAME_1":"NA","GID_2":"ZWE.9.1_2","county":"Beitbridge","NL_NAME_2":"NA","city":"Ward3","VARNAME_3":"NA","NL_NAME_3":"NA","TYPE_3":"Ward","ENGTYPE_3":"Ward","CC_3":"NA","HASC_3":"NA","name":"Ward3.city"},
"geometry":{"type": "MultiPolygon","coordinates": [[[[30.7561,-22.0858,455.2812],[30.6778,-22.0758,566.7049],[30.6225,-21.9962,526.9473],[30.5547,-21.874,519.4047],[30.4213,-22.0017,608.7325],[30.323,-21.9907,617.0008],[30.3209,-22.0063,701.4729],[30.3226,-22.0084,713.3154],[30.3214,-22.0108,711.1078],[30.3221,-22.0145,694.5417],[30.3186,-22.0244,749.12],[30.3183,-22.0482,678.8898],[30.3214,-22.0518,749.8273],[30.3223,-22.0564,748.7611],[30.3218,-22.063,716.0989],[30.3243,-22.0749,784.1647],[30.3238,-22.0856,766.4478],[30.3249,-22.0881,838.5849],[30.319,-22.1203,660.293],[30.3148,-22.1269,697.011],[30.3124,-22.1393,670.6296],[30.2975,-22.1675,548.4854],[30.3113,-22.1691,545.3846],[30.3226,-22.1649,549.1082],[30.3291,-22.1642,549.2405],[30.3392,-22.1572,547.3589],[30.3452,-22.1563,546.5663],[30.36,-22.1572,548.7163],[30.3823,-22.1618,518.7418],[30.3963,-22.1666,507.805],[30.4015,-22.1662,509.8219],[30.4047,-22.1613,508.4414],[30.3962,-22.1453,523.1812],[30.3964,-22.1343,534.4001],[30.4081,-22.1253,551.9303],[30.4095,-22.1217,561.9229],[30.4163,-22.1152,628.7485],[30.4296,-22.1124,627.5389],[30.4365,-22.1138,578.246],[30.4427,-22.1181,557.1091],[30.4547,-22.1225,539.1735],[30.4793,-22.1297,543.9277],[30.5005,-22.1425,628.3252],[30.5944,-22.1471,492.4503],[30.6091,-22.1382,497.4435],[30.6172,-22.1366,489.6065],[30.6415,-22.1426,497.3571],[30.6517,-22.1472,490.3575],[30.6598,-22.1533,474.6199],[30.6688,-22.153199999999998,479.9263],[30.6894,-22.16,469.4503],[30.6992,-22.1607,481.8336],[30.7078,-22.1554,468.2737],[30.718,-22.1443,479.8315],[30.7359,-22.1326,469.8993],[30.7509,-22.1198,478.0951],[30.7561,-22.0858,455.2812]]]]}}