{"type":"Feature","properties":{"GID_3":"ZWE.8.7.14_2","GID_0":"ZWE","country":"Zimbabwe","GID_1":"ZWE.8_1","province":"MatabelelandNorth","NL_NAME_1":"NA","GID_2":"ZWE.8.7_2","county":"Tsholotsho","NL_NAME_2":"NA","city":"Ward21","VARNAME_3":"NA","NL_NAME_3":"NA","TYPE_3":"Ward","ENGTYPE_3":"Ward","CC_3":"NA","HASC_3":"NA","name":"Ward21.city"},
"geometry":{"type": "MultiPolygon","coordinates": [[[[27.1749,-19.5434,1000.8873],[27.184,-19.5518,1002.6515],[27.1949,-19.5583,1004.704],[27.2197,-19.5698,1009.2314],[27.3373,-19.6009,1029.1356],[27.3481,-19.6023,1029.9915],[27.3643,-19.612,1034.687],[27.4211,-19.6596,1045.2394],[27.4445,-19.6708,1048.0312],[27.4965,-19.6864,1052.2754],[27.4993,-19.6883,1048.0024],[27.5053,-19.6863,1048.7889],[27.5121,-19.687,1053.2622],[27.5264,-19.7004,1058.8015],[27.5698,-19.7176,1057.9708],[27.5744,-19.7125,1052.4622],[27.5778,-19.7111,1054.4192],[27.5884,-19.7142,1052.4731],[27.6029,-19.7111,1046.8997],[27.6014,-19.7048,1045.54],[27.5614,-19.6868,1036.5176],[27.5579,-19.6709,1034.4221],[27.5586,-19.6667,1032.9718],[27.556,-19.6601,1030.8997],[27.5338,-19.6473,1028.3983],[27.5235,-19.6369,1025.7888],[27.5111,-19.6334,1025.0615],[27.5054,-19.6241,1025.3877],[27.5006,-19.622,1022.6772],[27.4939,-19.6161,1021.2144],[27.4789,-19.5921,1018.1414],[27.475,-19.5889,1018.1107],[27.4627,-19.5832,1012.877],[27.4522,-19.6144,1036.4539],[27.4494,-19.6155,1036.7029],[27.4461,-19.6147,1034.9058],[27.4368,-19.6077,1029.9724],[27.4329,-19.6028,1029.3076],[27.4249,-19.5866,1023.9896],[27.3934,-19.5905,1020.5944],[27.3905,-19.5894,1019.6136],[27.3697,-19.5623,1016.7576],[27.3945,-19.5243,1027.2626],[27.3939,-19.5154,1018.28],[27.3827,-19.5096,1020.2955],[27.3745,-19.5015,1023.1636],[27.3611,-19.4995,1022.1414],[27.3542,-19.4964,1017.2141],[27.3124,-19.472,1009.3885],[27.2949,-19.4635,1005.4199],[27.2914,-19.4648,1004.1906],[27.2854,-19.4807,1001.1595],[27.2799,-19.4799,1000.9008],[27.2742,-19.4736,1004.3719],[27.2607,-19.4731,1005.2944],[27.2564,-19.4811,1008.115],[27.2564,-19.484,1007.2542],[27.2536,-19.4864,1007.3369],[27.2519,-19.494,1008.0469],[27.2361,-19.5091,1006.9138],[27.2225,-19.5259,1007.3229],[27.2074,-19.5347,1004.3757],[27.1852,-19.5421,1001.8987],[27.1749,-19.5434,1000.8873]]]]}}