{"type": "Feature","bbox": [32.4079,-19.7557,32.5553,-19.6112],"geometry": {"type": "MultiPolygon","coordinates": [[[[32.4757,-19.6112,573.0222],[32.4741,-19.6238,560.3151],[32.4646,-19.6358,557.4828],[32.4634,-19.6397,556.0576],[32.4654,-19.6446,559.025],[32.4608,-19.6479,570.8685],[32.4576,-19.6535,558.3809],[32.4549,-19.6628,555.6101],[32.4585,-19.6672,558.2114],[32.4571,-19.6733,541.1375],[32.4542,-19.6763,541.534],[32.4337,-19.6847,541.5012],[32.4314,-19.6999,533.8002],[32.4102,-19.7236,568.539],[32.4103,-19.736,530.2507],[32.4079,-19.7379,537.1399],[32.41,-19.7429,525.902],[32.4155,-19.7485,520.9913],[32.4135,-19.7546,520.2108],[32.4169,-19.7526,532.8016],[32.4178,-19.7556,525.6835],[32.4191,-19.7557,530.7541],[32.421,-19.7533,541.2294],[32.4187,-19.7492,535.9135],[32.4212,-19.7474,532.6616],[32.4244,-19.7477,535.7969],[32.4264,-19.7509,533.2242],[32.4329,-19.7517,536.9274],[32.4355,-19.7497,539.6901],[32.434,-19.7439,553.0771],[32.4375,-19.7415,554.299],[32.4451,-19.7381,553.5605],[32.465,-19.7348,570.6546],[32.4734,-19.7313,585.2424],[32.4772,-19.7322,589.6824],[32.4792,-19.7291,590.0087],[32.4842,-19.7307,595.8748],[32.4853,-19.7395,593.2307],[32.4875,-19.7428,612.923],[32.5001,-19.7415,627.4104],[32.5078,-19.7448,624.9781],[32.5176,-19.7373,645.5903],[32.5175,-19.7333,657.256],[32.5192,-19.732,691.3725],[32.517,-19.7291,853.5006],[32.5089,-19.7265,1070.8894],[32.5082,-19.7304,994.4954],[32.5044,-19.7314,1038.5208],[32.5035,-19.7296,1036.5526],[32.505,-19.7244,1007.2958],[32.5038,-19.7206,863.1803],[32.5174,-19.715,1045.8984],[32.5171,-19.7138,1061.4553],[32.5114,-19.7144,1046.0435],[32.5104,-19.713,1014.0805],[32.5103,-19.7115,986.801],[32.5169,-19.7057,1103.9042],[32.5148,-19.7028,1042.5166],[32.5154,-19.6989,1064.6812],[32.5132,-19.6968,1013.0286],[32.5302,-19.697,1098.5465],[32.532,-19.693,1136.3285],[32.5313,-19.6909,1158.0325],[32.5244,-19.6838,1113.5287],[32.5419,-19.6771,1158.76],[32.544,-19.6742,1206.197],[32.5435,-19.6731,1206.197],[32.5327,-19.6737,1190.1116],[32.5284,-19.6687,1197.9457],[32.5274,-19.6655,1123.6855],[32.5335,-19.6627,1192.579],[32.5354,-19.6597,1208.1263],[32.5222,-19.6619,1178.8373],[32.5209,-19.6594,1195.4734],[32.517,-19.6593,1169.3361],[32.5167,-19.655,1203.2941],[32.512,-19.6579,1194.6111],[32.5062,-19.658,1132.8783],[32.5144,-19.6469,1128.7992],[32.5196,-19.6452,1082.6531],[32.5248,-19.647,1151.4084],[32.5273,-19.641,1019.145],[32.5285,-19.6412,995.947],[32.5288,-19.6447,1155.9197],[32.5307,-19.6449,1158.7415],[32.537,-19.6427,1119.9598],[32.5415,-19.6375,1034.816],[32.5427,-19.6412,1128.2583],[32.5452,-19.6417,1171.167],[32.5524,-19.6409,1143.2061],[32.5553,-19.6367,1198.6218],[32.5497,-19.6278,1047.2112],[32.5373,-19.6273,782.0815],[32.5347,-19.6221,764.1376],[32.5288,-19.6177,729.2314],[32.5244,-19.6173,717.8625],[32.5197,-19.62,705.663],[32.5033,-19.6236,653.9901],[32.4961,-19.6234,635.651],[32.4891,-19.619,614.0228],[32.4884,-19.617,601.171],[32.4856,-19.617,593.4131],[32.4844,-19.6143,590.1122],[32.4757,-19.6112,573.0222]]]]}
,"properties": {"GID_3": "ZWE.3.2.19_2","GID_0": "ZWE","country": "Zimbabwe","GID_1": "ZWE.3_1","province": "Manicaland","NL_NAME_1": "NA","GID_2": "ZWE.3.2_2","county": "Chimanimani","NL_NAME_2": "NA","city": "Ward5","VARNAME_3": "NA","NL_NAME_3": "NA","TYPE_3": "Ward","ENGTYPE_3": "Ward","CC_3": "NA","HASC_3": "NA","name": "Ward5.city","area_km2": 117.74224,"hist_schema_id": "Elevation0-9000","hist_area_km2": {"525": 3.07353,"550": 12.87412,"575": 19.66251,"600": 12.81655,"625": 9.26307,"650": 6.96727,"675": 6.36861,"700": 5.68987,"725": 4.75163,"750": 4.15284,"775": 3.03462,"800": 2.73512,"825": 2.69513,"850": 2.25584,"875": 2.05636,"900": 2.13601,"925": 1.85656,"950": 2.17599,"975": 1.93641,"1000": 1.91645,"1025": 1.51718,"1050": 1.33762,"1075": 0.89842,"1100": 1.25788,"1125": 1.01827,"1150": 0.85853,"1175": 1.43752,"1200": 0.91845,"1225": 0.05991,"1250": 0.01997}}}