{"type":"Feature","properties":{"GID_3":"ZWE.9.4.19_2","GID_0":"ZWE","country":"Zimbabwe","GID_1":"ZWE.9_1","province":"MatabelelandSouth","NL_NAME_1":"NA","GID_2":"ZWE.9.4_2","county":"Gwanda","NL_NAME_2":"NA","city":"Ward4","VARNAME_3":"NA","NL_NAME_3":"NA","TYPE_3":"Ward","ENGTYPE_3":"Ward","CC_3":"NA","HASC_3":"NA","name":"Ward4.city"},
"geometry":{"type": "MultiPolygon","coordinates": [[[[29.1446,-20.71,958.903],[29.135,-20.7102,962.3514],[29.1278,-20.701,976.0858],[29.1147,-20.6933,987.8132],[29.113,-20.6877,1002.962],[29.1007,-20.678,1019.0188],[29.0975,-20.6723,1033.6038],[29.0805,-20.6587,1064.3091],[29.0712,-20.6423,1034.5852],[29.0634,-20.642,1031.8481],[29.0649,-20.6475,1038.2456],[29.0633,-20.6494,1034.8267],[29.0569,-20.6489,1044.129],[29.0488,-20.6449,1051.2045],[29.05,-20.6358,1050.8921],[29.0553,-20.6236,1038.5999],[29.0536,-20.6139,1058.8436],[29.0481,-20.6049,1115.6855],[28.9762,-20.6111,1112.6052],[28.9777,-20.6539,1118.1675],[29.0536,-20.6715,1103.0165],[29.0386,-20.6916,1074.7615],[29.0434,-20.7647,1005.9651],[29.0613,-20.7662,1003.7346],[29.076,-20.7647,989.6782],[29.0777,-20.7656,995.8027],[29.0776,-20.7708,984.3686],[29.089,-20.7699,978.3779],[29.0905,-20.7725,973.0048],[29.0936,-20.7727,980.2269],[29.107,-20.7703,972.9375],[29.1187,-20.7779,966.6281],[29.1348,-20.7806,960.6628],[29.1432,-20.7799,952.1197],[29.1419,-20.7706,971.3478],[29.1438,-20.7662,973.7278],[29.1411,-20.7573,983.0761],[29.1445,-20.7497,997.1582],[29.1426,-20.7491,1003.4069],[29.142,-20.7437,998.9115],[29.1446,-20.71,958.903]]]]}}