{"type":"Feature","properties":{"GID_3":"ZWE.2.3.35_2","GID_0":"ZWE","country":"Zimbabwe","GID_1":"ZWE.2_1","province":"Harare","NL_NAME_1":"NA","GID_2":"ZWE.2.3_2","county":"Harare","NL_NAME_2":"NA","city":"Ward41","VARNAME_3":"NA","NL_NAME_3":"NA","TYPE_3":"Ward","ENGTYPE_3":"Ward","CC_3":"NA","HASC_3":"NA","name":"Ward41.city"},
"geometry":{"type": "MultiPolygon","coordinates": [[[[31.0216,-17.7759,1498.5864],[31.0277,-17.7775,1521.5004],[31.0337,-17.7819,1513.6664],[31.0391,-17.7825,1515.8835],[31.0262,-17.7392,1476.4844],[30.9956,-17.7371,1463.6177],[30.9755,-17.7188,1457.075],[30.9508,-17.7094,1448.5619],[30.9486,-17.7571,1469.4561],[30.9086,-17.7643,1457.8438],[30.9185,-17.7794,1447.329],[30.9437,-17.7849,1445.1692],[30.951,-17.785,1447.6353],[30.9531,-17.7833,1448.5621],[30.9543,-17.7845,1450.7507],[30.9598,-17.7833,1453.0984],[30.9671,-17.7849,1456.8621],[30.9725,-17.7837,1460.8949],[30.9751,-17.7852,1461.5079],[30.9811,-17.7847,1466.1316],[30.9892,-17.7885,1477.9938],[30.9955,-17.7795,1478.2152],[30.9957,-17.7715,1485.6599],[30.9979,-17.7639,1497.2549],[31.0073,-17.7735,1494.2386],[31.0216,-17.7759,1498.5864]]]]}}