{"type": "Feature","bbox": [30.072,-17.6227,30.2288,-17.5164],"geometry": {"type": "MultiPolygon","coordinates": [[[[30.2227,-17.574,1180.845],[30.2281,-17.5639,1180.9135],[30.2251,-17.544,1180.8513],[30.2265,-17.5363,1174.0],[30.2232,-17.5271,1174.0],[30.2288,-17.5188,1175.1373],[30.1058,-17.5164,1250.7815],[30.0811,-17.521,1241.8588],[30.0803,-17.5344,1215.552],[30.0841,-17.5334,1223.1145],[30.0842,-17.5382,1214.2092],[30.0808,-17.5386,1208.5577],[30.0779,-17.5413,1209.3958],[30.079,-17.5514,1213.1306],[30.086,-17.5621,1216.2192],[30.0826,-17.5633,1231.6073],[30.072,-17.5834,1167.6174],[30.0818,-17.605,1212.5486],[30.081,-17.6112,1225.9263],[30.0837,-17.6227,1199.2021],[30.2131,-17.6002,1204.1614],[30.221,-17.5875,1187.4453],[30.2201,-17.5779,1185.6887],[30.2227,-17.574,1180.845]]]]}
,"properties": {"GID_3": "ZWE.6.9.2_2","GID_0": "ZWE","country": "Zimbabwe","GID_1": "ZWE.6_1","province": "MashonalandWest","NL_NAME_1": "NA","GID_2": "ZWE.6.9_2","county": "Makonde","NL_NAME_2": "NA","city": "Ward10","VARNAME_3": "NA","NL_NAME_3": "NA","TYPE_3": "Ward","ENGTYPE_3": "Ward","CC_3": "NA","HASC_3": "NA","name": "Ward10.city","area_km2": 158.1118,"hist_schema_id": "Elevation0-9000","hist_area_km2": {"1175": 7.5604,"1200": 34.645,"1225": 58.5179,"1250": 51.6275,"1275": 5.761}}}