{"type": "Feature","bbox": [31.6915,-20.5826,31.8647,-20.4858],"geometry": {"type": "MultiPolygon","coordinates": [[[[31.8647,-20.4888,690.5477],[31.8555,-20.4858,632.7511],[31.8379,-20.4942,595.7878],[31.8317,-20.4892,596.4303],[31.8214,-20.4894,586.9617],[31.8223,-20.4923,640.2435],[31.8184,-20.5004,584.3328],[31.8061,-20.504,590.1453],[31.7828,-20.4981,621.5792],[31.7769,-20.4935,640.6271],[31.7682,-20.4946,652.2609],[31.7618,-20.4991,694.1753],[31.7548,-20.4962,670.17],[31.7484,-20.4975,704.3164],[31.7323,-20.4972,760.827],[31.7135,-20.4906,726.5028],[31.6979,-20.4894,866.1607],[31.6915,-20.4904,745.0904],[31.6947,-20.494,734.6537],[31.6998,-20.4927,746.1794],[31.7028,-20.4937,720.3152],[31.7007,-20.498,716.4667],[31.7012,-20.5071,683.201],[31.7046,-20.5111,678.4287],[31.7086,-20.5284,599.5453],[31.7156,-20.5315,582.8457],[31.7197,-20.5499,580.6753],[31.7222,-20.5538,565.3223],[31.7259,-20.5555,567.1499],[31.7268,-20.5577,567.874],[31.7439,-20.5644,566.7626],[31.7441,-20.5656,569.4557],[31.7399,-20.5677,559.1619],[31.74,-20.5723,549.3096],[31.7511,-20.5703,567.0599],[31.7703,-20.5788,525.424],[31.775,-20.5826,530.9437],[31.7897,-20.5825,613.9822],[31.8283,-20.5656,656.8602],[31.8459,-20.5331,594.8741],[31.8647,-20.4888,690.5477]]]]}
,"properties": {"GID_3": "ZWE.7.1.1_2","GID_0": "ZWE","country": "Zimbabwe","GID_1": "ZWE.7_1","province": "Masvingo","NL_NAME_1": "NA","GID_2": "ZWE.7.1_2","county": "Bikita","NL_NAME_2": "NA","city": "Ward1","VARNAME_3": "NA","NL_NAME_3": "NA","TYPE_3": "Ward","ENGTYPE_3": "Ward","CC_3": "NA","HASC_3": "NA","name": "Ward1.city","area_km2": 118.71621,"hist_schema_id": "Elevation0-9000","hist_area_km2": {"525": 0.8337,"550": 7.4648,"575": 19.16016,"600": 18.60408,"625": 17.79049,"650": 15.26897,"675": 12.27098,"700": 8.95534,"725": 7.12855,"750": 4.26922,"775": 2.64099,"800": 1.21128,"825": 1.46947,"850": 0.81417,"875": 0.53616,"900": 0.25815,"925": 0.03971}}}