{"type": "Feature","bbox": [32.6479,-19.7112,32.8528,-19.3732],"geometry": {"type": "MultiPolygon","coordinates": [[[[32.8345,-19.6719,1935.1326],[32.8313,-19.6665,1971.1621],[32.8403,-19.6555,1848.6185],[32.8456,-19.6422,1919.0104],[32.8448,-19.6336,1963.38],[32.8502,-19.6304,1967.1022],[32.8528,-19.6238,1729.1965],[32.8457,-19.6049,1784.5076],[32.8478,-19.6024,1674.8064],[32.8523,-19.5525,1343.8615],[32.8512,-19.5413,1363.7892],[32.8413,-19.5279,1559.4252],[32.8402,-19.5189,1494.7654],[32.8435,-19.4987,1701.7837],[32.8449,-19.4765,1779.125],[32.8352,-19.4759,1888.2651],[32.8291,-19.478,1879.0006],[32.8033,-19.4773,1917.1458],[32.7935,-19.4754,1727.8243],[32.7824,-19.4668,1567.8915],[32.7763,-19.456,1523.5962],[32.7801,-19.4318,1776.1659],[32.7779,-19.4086,2094.9568],[32.7854,-19.3945,2167.2266],[32.7857,-19.3867,2178.354],[32.7773,-19.3732,1872.7805],[32.7524,-19.3825,1885.1687],[32.7526,-19.3875,2019.0498],[32.755,-19.3921,1913.0151],[32.7567,-19.4096,1685.9742],[32.7511,-19.4192,1923.3286],[32.7284,-19.4361,1897.3618],[32.6977,-19.4438,1210.1147],[32.6904,-19.4482,1195.4652],[32.6888,-19.4556,1169.8462],[32.6833,-19.4584,1124.1241],[32.6847,-19.4627,1088.1313],[32.6827,-19.4642,1048.2817],[32.6841,-19.4694,1026.255],[32.6821,-19.4716,1026.5222],[32.6822,-19.4739,1001.5641],[32.6721,-19.4798,972.2461],[32.6669,-19.4799,964.7891],[32.6633,-19.482,966.5823],[32.6589,-19.493,893.5278],[32.653,-19.4959,899.4106],[32.6479,-19.5474,957.8347],[32.6656,-19.5444,968.8885],[32.6708,-19.5476,971.987],[32.6727,-19.541,982.1454],[32.6759,-19.5383,979.5458],[32.679,-19.5417,991.3872],[32.6815,-19.5395,986.4555],[32.6844,-19.5418,999.1361],[32.6957,-19.5402,1005.0808],[32.7008,-19.542,1018.6154],[32.7018,-19.5393,1015.3146],[32.7094,-19.5406,1026.1128],[32.7107,-19.5432,1033.635],[32.7134,-19.5416,1032.2086],[32.716,-19.5433,1041.2737],[32.7239,-19.5414,1046.8007],[32.7273,-19.5428,1052.6821],[32.7367,-19.5416,1067.813],[32.747,-19.5428,1085.5267],[32.7502,-19.5405,1089.9064],[32.7572,-19.541,1105.5742],[32.764,-19.5437,1115.2094],[32.7682,-19.5473,1136.0078],[32.7738,-19.5465,1142.0593],[32.7755,-19.5434,1138.0839],[32.7823,-19.5465,1154.7001],[32.7879,-19.5442,1167.3447],[32.7948,-19.5464,1166.8073],[32.8004,-19.5445,1213.8826],[32.8073,-19.5462,1218.292],[32.8092,-19.5452,1230.627],[32.8118,-19.5703,1545.4717],[32.7708,-19.5873,1633.3964],[32.7787,-19.6289,1723.371],[32.8059,-19.6415,1613.2192],[32.8068,-19.647,1642.123],[32.8179,-19.6499,1815.1472],[32.8108,-19.6686,1606.6375],[32.7838,-19.655,1910.3215],[32.7725,-19.6892,1381.3165],[32.7867,-19.7112,1640.1323],[32.8379,-19.6802,1771.2115],[32.8351,-19.6772,1839.3977],[32.8345,-19.6719,1935.1326]]]]}
,"properties": {"GID_3": "ZWE.3.2.1_2","GID_0": "ZWE","country": "Zimbabwe","GID_1": "ZWE.3_1","province": "Manicaland","NL_NAME_1": "NA","GID_2": "ZWE.3.2_2","county": "Chimanimani","NL_NAME_2": "NA","city": "Ward1","VARNAME_3": "NA","NL_NAME_3": "NA","TYPE_3": "Ward","ENGTYPE_3": "Ward","CC_3": "NA","HASC_3": "NA","name": "Ward1.city","area_km2": 309.7428,"hist_schema_id": "Elevation0-9000","hist_area_km2": {"875": 0.0799,"900": 0.2199,"925": 0.2199,"950": 0.9992,"975": 2.9575,"1000": 6.4146,"1025": 7.1341,"1050": 6.0352,"1075": 6.0754,"1100": 6.0357,"1125": 5.5361,"1150": 5.5162,"1175": 5.3962,"1200": 5.9359,"1225": 6.6353,"1250": 7.3346,"1275": 7.2544,"1300": 7.8737,"1325": 7.494,"1350": 9.2717,"1375": 9.9709,"1400": 11.0292,"1425": 11.2085,"1450": 12.127,"1475": 12.7259,"1500": 13.1055,"1525": 11.3474,"1550": 11.2676,"1575": 10.3686,"1600": 10.2285,"1625": 9.7295,"1650": 9.2299,"1675": 7.852,"1700": 7.6721,"1725": 6.7335,"1750": 5.9343,"1775": 5.3552,"1800": 5.2356,"1825": 4.0168,"1850": 3.1378,"1875": 3.9774,"1900": 4.0776,"1925": 3.2582,"1950": 2.9983,"1975": 2.9585,"2000": 2.7789,"2025": 2.2392,"2050": 1.1396,"2075": 0.9199,"2100": 1.1399,"2125": 0.36,"2150": 0.42,"2175": 0.48,"2200": 0.3}}}