{"type": "Feature","bbox": [30.5929,-21.4321,30.8663,-21.074],"geometry": {"type": "MultiPolygon","coordinates": [[[[30.7297,-21.2397,554.5038],[30.7124,-21.2379,553.5374],[30.7126,-21.225,555.848],[30.7199,-21.2249,568.4937],[30.7202,-21.2183,575.1702],[30.7065,-21.1871,584.0895],[30.703,-21.1749,586.2764],[30.6958,-21.1659,595.7518],[30.6914,-21.1516,603.5403],[30.6914,-21.1502,601.8938],[30.7253,-21.1378,584.0968],[30.6753,-21.074,592.8571],[30.6128,-21.0914,607.3649],[30.6217,-21.1141,579.9957],[30.6134,-21.1325,564.8077],[30.6178,-21.1393,565.1191],[30.615,-21.1488,558.6008],[30.6176,-21.1538,555.1424],[30.6118,-21.1603,551.5408],[30.6101,-21.1591,554.1702],[30.61,-21.1627,551.3795],[30.6075,-21.1669,547.238],[30.6019,-21.173,546.2393],[30.6021,-21.1746,545.2002],[30.6055,-21.1757,548.3759],[30.6066,-21.1809,546.3558],[30.6049,-21.1856,541.812],[30.6017,-21.185,544.4816],[30.5997,-21.1873,538.7606],[30.5994,-21.1924,535.9396],[30.5958,-21.1954,535.4045],[30.5947,-21.202,530.073],[30.5967,-21.2028,533.8549],[30.5937,-21.21,529.9676],[30.5929,-21.2181,527.9758],[30.5932,-21.2202,526.3408],[30.6005,-21.2229,527.4381],[30.6031,-21.2302,521.8969],[30.6022,-21.2315,522.8625],[30.5987,-21.231,523.6046],[30.5966,-21.2331,513.3269],[30.6012,-21.2415,502.8031],[30.6009,-21.2486,499.2637],[30.6053,-21.2583,502.658],[30.6069,-21.272,504.4445],[30.6087,-21.2756,501.9222],[30.6161,-21.2789,509.7103],[30.6257,-21.2796,501.1226],[30.6348,-21.2848,498.901],[30.6395,-21.2939,496.0934],[30.6518,-21.3075,498.857],[30.6703,-21.3213,475.9976],[30.6767,-21.3399,483.5885],[30.6788,-21.3413,480.0014],[30.6898,-21.3415,480.7571],[30.6939,-21.3564,470.937],[30.694,-21.3657,470.7031],[30.702,-21.3724,484.6559],[30.7038,-21.3757,469.6437],[30.7015,-21.3838,465.5002],[30.706,-21.3964,464.2233],[30.7056,-21.4052,461.9327],[30.7095,-21.4212,461.675],[30.7272,-21.4321,461.6339],[30.7419,-21.4216,486.3812],[30.8303,-21.4243,480.1556],[30.8488,-21.3858,501.9464],[30.8663,-21.3629,500.9421],[30.8048,-21.3404,521.3344],[30.8036,-21.2985,538.7668],[30.745,-21.2499,546.1439],[30.7297,-21.2397,554.5038]]]]}
,"properties": {"GID_3": "ZWE.7.8.6_2","GID_0": "ZWE","country": "Zimbabwe","GID_1": "ZWE.7_1","province": "Masvingo","NL_NAME_1": "NA","GID_2": "ZWE.7.8_2","county": "Mwenezi","NL_NAME_2": "NA","city": "Ward14","VARNAME_3": "NA","NL_NAME_3": "NA","TYPE_3": "Ward","ENGTYPE_3": "Ward","CC_3": "NA","HASC_3": "NA","name": "Ward14.city","area_km2": 486.636,"hist_schema_id": "Elevation0-9000","hist_area_km2": {"450": 0.2763,"475": 17.7663,"500": 124.2355,"525": 123.4969,"550": 89.9575,"575": 70.7387,"600": 58.8592,"625": 1.3056}}}