{"type": "Feature","bbox": [32.5717,-17.2096,32.9115,-17.012],"geometry": {"type": "MultiPolygon","coordinates": [[[[32.9081,-17.026,551.184],[32.8908,-17.0188,551.6254],[32.8829,-17.0197,561.5588],[32.8782,-17.012,578.5793],[32.8752,-17.0143,572.2038],[32.8741,-17.0176,565.3992],[32.8606,-17.0255,583.7603],[32.855,-17.0268,586.0529],[32.8422,-17.0255,603.4495],[32.8339,-17.0275,597.4343],[32.8271,-17.0272,603.6626],[32.8211,-17.0288,611.2995],[32.8141,-17.0364,597.5491],[32.7999,-17.0329,612.8217],[32.7887,-17.027,616.5328],[32.7842,-17.0274,618.3431],[32.7744,-17.0339,612.1973],[32.7719,-17.0401,615.7116],[32.7536,-17.0439,631.799],[32.7402,-17.0443,640.2368],[32.7349,-17.0464,643.0558],[32.7293,-17.0513,642.8466],[32.728,-17.0557,635.9302],[32.7204,-17.0528,656.4152],[32.7181,-17.0618,643.3373],[32.7131,-17.0626,660.4925],[32.6986,-17.0769,657.6639],[32.6931,-17.0751,674.4606],[32.6824,-17.0765,670.2718],[32.6754,-17.0826,670.4579],[32.6753,-17.0879,672.0961],[32.6708,-17.0884,693.818],[32.671,-17.0932,680.2098],[32.6639,-17.0997,684.2455],[32.6579,-17.1003,701.6353],[32.6487,-17.0981,699.6924],[32.6372,-17.1032,712.436],[32.634,-17.0999,712.5692],[32.6289,-17.1066,714.8133],[32.6234,-17.1003,725.2054],[32.614,-17.1085,737.4055],[32.613,-17.1115,726.0212],[32.6095,-17.1127,753.0417],[32.5976,-17.1244,745.0254],[32.5932,-17.1251,732.6528],[32.5909,-17.1224,740.8251],[32.5828,-17.1339,746.2679],[32.5783,-17.1476,742.5649],[32.5736,-17.1502,757.7133],[32.5729,-17.1685,763.0381],[32.5717,-17.1702,766.8589],[32.5849,-17.1741,786.4501],[32.5905,-17.1811,800.4705],[32.5978,-17.1974,832.0292],[32.6076,-17.194,811.303],[32.6158,-17.1987,803.1155],[32.6211,-17.1985,802.4943],[32.6281,-17.2033,787.1976],[32.6306,-17.2071,784.1248],[32.6381,-17.2096,776.8972],[32.6511,-17.1958,769.9224],[32.657,-17.1938,762.3688],[32.6619,-17.1955,755.7294],[32.6736,-17.1943,753.4603],[32.683,-17.1811,740.074],[32.688,-17.1827,736.785],[32.6938,-17.1823,734.0894],[32.6953,-17.1866,724.9029],[32.7032,-17.1841,724.6333],[32.7083,-17.1758,714.6598],[32.7095,-17.1661,708.1577],[32.7135,-17.1608,723.572],[32.7161,-17.1632,702.9968],[32.7277,-17.1494,705.2195],[32.7349,-17.1521,695.1398],[32.7389,-17.1456,687.5457],[32.7445,-17.1455,674.887],[32.746,-17.1415,691.5406],[32.7605,-17.141,671.4426],[32.7719,-17.128,673.5243],[32.7805,-17.1284,658.7988],[32.7841,-17.1229,672.0659],[32.7943,-17.1241,651.3417],[32.801,-17.1164,653.6216],[32.8085,-17.1127,635.1451],[32.8178,-17.1029,648.6273],[32.8265,-17.103,635.8574],[32.8301,-17.1049,629.0746],[32.8342,-17.1023,634.5026],[32.8371,-17.103,620.6685],[32.8406,-17.0968,627.5964],[32.8443,-17.0949,619.2236],[32.8503,-17.0873,605.5445],[32.8501,-17.0806,618.0379],[32.8463,-17.074,614.76],[32.8532,-17.0702,602.213],[32.8603,-17.0592,586.334],[32.8625,-17.0582,592.3958],[32.8691,-17.0582,579.9225],[32.8836,-17.0635,569.5657],[32.8884,-17.0629,562.2679],[32.8896,-17.0607,562.3622],[32.8893,-17.0478,560.0596],[32.8942,-17.042,557.2405],[32.9115,-17.0313,545.6789],[32.9081,-17.026,551.184]]]]}
,"properties": {"GID_3": "ZWE.5.6.4_2","GID_0": "ZWE","country": "Zimbabwe","GID_1": "ZWE.5_1","province": "MashonalandEast","NL_NAME_1": "NA","GID_2": "ZWE.5.6_2","county": "Mudzi","NL_NAME_2": "NA","city": "Ward12","VARNAME_3": "NA","NL_NAME_3": "NA","TYPE_3": "Ward","ENGTYPE_3": "Ward","CC_3": "NA","HASC_3": "NA","name": "Ward12.city","area_km2": 314.8006,"hist_schema_id": "Elevation0-9000","hist_area_km2": {"550": 2.7773,"575": 10.7846,"600": 18.4669,"625": 22.5603,"650": 31.2735,"675": 39.621,"700": 40.6096,"725": 43.179,"750": 39.4061,"775": 32.5756,"800": 23.3572,"825": 8.3863,"850": 0.9117,"875": 0.4255,"900": 0.2431,"925": 0.1621,"950": 0.0608}}}