{"type":"Feature","properties":{"GID_2":"ZWE.4.10_2","GID_0":"ZWE","country":"Zimbabwe","GID_1":"ZWE.4_1","province":"MashonalandCentral","NL_NAME_1":"NA","county":"Shamva","VARNAME_2":"NA","NL_NAME_2":"NA","TYPE_2":"District","ENGTYPE_2":"District","CC_2":"NA","HASC_2":"NA","name":"Shamva.county"},
"geometry":{"type": "MultiPolygon","coordinates": [[[[31.4585,-17.5091,1356.6827],[31.5087,-17.5001,1135.4124],[31.5101,-17.4965,1139.7407],[31.5133,-17.4941,1132.2015],[31.5131,-17.4897,1155.4812],[31.5212,-17.4867,1130.8862],[31.5264,-17.4819,1125.4617],[31.5277,-17.4721,1135.7312],[31.5315,-17.4682,1134.9403],[31.5404,-17.4692,1127.9624],[31.5528,-17.4654,1119.8862],[31.5634,-17.4645,1109.9564],[31.564,-17.4608,1121.2847],[31.5696,-17.4586,1120.8582],[31.5731,-17.4603,1116.2683],[31.5825,-17.46,1112.9141],[31.5854,-17.4578,1112.0186],[31.5863,-17.4516,1110.5692],[31.5881,-17.4511,1120.0522],[31.5905,-17.4544,1107.9456],[31.5916,-17.4522,1114.9065],[31.5964,-17.453,1105.1456],[31.6025,-17.4473,1109.7926],[31.6049,-17.4473,1089.8011],[31.6058,-17.4433,1099.4155],[31.6113,-17.4403,1083.588],[31.6117,-17.4349,1109.9922],[31.6133,-17.4324,1092.1893],[31.6178,-17.434,1090.1195],[31.623,-17.433,1083.7836],[31.6137,-17.4168,1068.8043],[31.6228,-17.4113,1050.5524],[31.6267,-17.4056,1051.3127],[31.6338,-17.4005,1039.7798],[31.6361,-17.3915,1043.694],[31.6416,-17.3861,1043.7367],[31.6493,-17.386,1026.6676],[31.6565,-17.3744,1017.5933],[31.6624,-17.3734,989.0735],[31.6661,-17.3693,1018.3361],[31.6721,-17.369,991.4799],[31.6777,-17.3655,990.635],[31.6888,-17.3504,918.4265],[31.6909,-17.3437,926.2325],[31.6984,-17.3387,932.6268],[31.7035,-17.3303,920.2133],[31.708,-17.3288,934.3334],[31.7159,-17.3221,912.2551],[31.721,-17.3152,963.0116],[31.7374,-17.3025,899.2066],[31.743,-17.2952,908.1681],[31.7514,-17.2881,886.2336],[31.7543,-17.279,941.8704],[31.7482,-17.2691,879.9147],[31.7494,-17.2585,864.9398],[31.7438,-17.2476,886.2364],[31.7414,-17.2365,854.3627],[31.7226,-17.2156,839.6064],[31.728,-17.2021,852.8704],[31.7331,-17.1975,880.2841],[31.7402,-17.1954,867.9374],[31.7449,-17.1955,855.2623],[31.7498,-17.199,830.6608],[31.7578,-17.1983,814.7537],[31.7619,-17.1953,813.4802],[31.7621,-17.1895,889.6248],[31.7648,-17.1865,831.1],[31.772,-17.1844,856.9255],[31.7826,-17.1852,822.7437],[31.7882,-17.1789,852.7941],[31.7985,-17.1778,828.4633],[31.804,-17.1723,875.6887],[31.8113,-17.168,876.0665],[31.8481,-17.151,864.9474],[31.841,-17.1428,813.873],[31.8325,-17.1362,782.394],[31.8351,-17.1314,780.5284],[31.8334,-17.1231,783.6304],[31.839,-17.1183,779.8749],[31.8485,-17.1044,761.533],[31.8551,-17.0895,761.7263],[31.8532,-17.0846,742.9175],[31.8561,-17.0793,753.3594],[31.8686,-17.0698,750.6378],[31.8753,-17.07,752.132],[31.8959,-17.0536,795.4008],[31.9094,-17.0396,726.4615],[31.9107,-17.0324,736.3646],[31.9064,-17.0224,737.1326],[31.9039,-17.0209,743.5156],[31.8943,-17.0206,735.1092],[31.8916,-17.0167,744.4998],[31.8961,-17.0107,714.4946],[31.8951,-17.0006,785.8741],[31.9077,-17.0021,724.7939],[31.9129,-17.0007,712.4406],[31.9122,-16.9882,694.1731],[31.9149,-16.9779,766.1653],[31.9096,-16.9727,712.0898],[31.9245,-16.9651,808.3724],[31.9318,-16.9637,697.8654],[31.9425,-16.9566,647.3501],[31.941,-16.9534,694.6749],[31.9447,-16.9461,649.1989],[31.9442,-16.9387,663.813],[31.9513,-16.921,697.5891],[31.9543,-16.9171,737.7451],[31.9607,-16.9161,749.856],[31.9734,-16.9222,674.2147],[31.9808,-16.9212,655.6708],[31.9925,-16.9135,660.4148],[31.9992,-16.9113,640.0295],[32.0048,-16.9052,643.7424],[32.0038,-16.9012,646.8489],[32.0095,-16.8919,628.0916],[32.0098,-16.8883,639.2931],[32.0041,-16.88,629.4516],[32.003,-16.8626,620.075],[32.0007,-16.856,649.0762],[32.0033,-16.8479,703.6271],[32.0076,-16.843,630.6819],[32.0028,-16.8405,628.9068],[32.0006,-16.8369,659.6104],[31.9981,-16.8379,651.7226],[31.9945,-16.8357,689.9792],[31.9799,-16.834,667.5184],[31.9717,-16.8386,656.6226],[31.9645,-16.8356,677.7321],[31.9625,-16.8331,677.096],[31.957,-16.8333,679.4171],[31.9419,-16.8282,694.5366],[31.9282,-16.8295,687.0477],[31.9229,-16.8269,710.4013],[31.9191,-16.8286,688.7697],[31.9182,-16.8268,710.5255],[31.9133,-16.8259,737.9509],[31.9054,-16.8293,712.0582],[31.9011,-16.8239,736.5609],[31.8968,-16.8277,720.3498],[31.8942,-16.8281,717.8006],[31.891,-16.825,727.1205],[31.8875,-16.8258,748.9619],[31.8843,-16.8242,751.5021],[31.8831,-16.8285,721.2659],[31.8811,-16.8289,714.4204],[31.8797,-16.8273,715.1391],[31.8803,-16.8208,732.7229],[31.8738,-16.8186,734.569],[31.8711,-16.8191,743.2566],[31.8716,-16.825,729.4362],[31.8679,-16.8247,730.9369],[31.8651,-16.8216,754.6165],[31.8591,-16.8206,773.5666],[31.8588,-16.8255,728.0295],[31.839,-16.8306,750.8064],[31.8387,-16.8341,739.1403],[31.829,-16.8317,759.0461],[31.8249,-16.8265,773.022],[31.8229,-16.8267,768.6556],[31.8095,-16.8397,757.5161],[31.8089,-16.843,755.1708],[31.8043,-16.841,766.0959],[31.8014,-16.8459,756.9851],[31.7956,-16.8441,776.4883],[31.796,-16.8502,768.7819],[31.7918,-16.8482,793.2373],[31.7895,-16.8487,785.0247],[31.7808,-16.8611,785.2036],[31.7759,-16.857,781.6677],[31.7756,-16.855,784.2853],[31.7776,-16.8533,786.934],[31.7766,-16.8526,796.7564],[31.7705,-16.8529,793.3787],[31.768,-16.8562,799.1643],[31.7601,-16.8512,815.7761],[31.7575,-16.8513,813.4844],[31.7503,-16.8604,801.7256],[31.7506,-16.8619,796.1428],[31.7559,-16.865,805.782],[31.7516,-16.8704,820.9886],[31.7545,-16.8751,819.4459],[31.7542,-16.8772,812.3063],[31.7421,-16.878,821.7601],[31.7412,-16.8812,817.7544],[31.7383,-16.8808,825.7955],[31.7371,-16.8835,824.864],[31.7305,-16.8801,844.4835],[31.7288,-16.8835,823.9227],[31.7191,-16.8856,844.474],[31.7161,-16.8888,853.6941],[31.7119,-16.8866,860.2794],[31.7071,-16.887,889.0523],[31.7022,-16.8933,844.4044],[31.7031,-16.899,865.1155],[31.6892,-16.8988,919.752],[31.6924,-16.9049,919.946],[31.6861,-16.9111,870.2219],[31.6817,-16.9101,878.0437],[31.6829,-16.9075,885.2458],[31.6821,-16.9058,892.911],[31.6729,-16.909,882.0314],[31.6699,-16.9069,882.9851],[31.6693,-16.9104,882.5216],[31.6676,-16.911,892.2051],[31.6632,-16.9106,888.6111],[31.6612,-16.9076,907.0369],[31.6609,-16.91,889.9084],[31.6558,-16.9086,903.5254],[31.6551,-16.9109,901.6312],[31.6527,-16.91,901.2195],[31.6462,-16.9122,918.2825],[31.6437,-16.911,921.6319],[31.6424,-16.9129,912.7549],[31.62,-16.9229,943.3167],[31.5931,-16.9087,1149.2561],[31.613,-16.856,1305.0198],[31.5676,-16.89,1079.8585],[31.551,-16.914,1059.1885],[31.5349,-16.8982,1054.5],[31.5343,-16.8938,1053.7184],[31.5273,-16.8849,1052.3678],[31.5225,-16.8834,1062.8535],[31.5007,-16.8484,1011.4338],[31.5011,-16.8497,1002.4351],[31.4988,-16.8511,1008.9653],[31.4031,-16.8404,1064.5454],[31.3704,-16.9812,1154.093],[31.3795,-17.0068,1325.6489],[31.3517,-17.0359,1199.282],[31.3458,-17.0362,1198.2025],[31.3444,-17.0434,1173.3146],[31.3541,-17.0561,1153.0935],[31.3652,-17.0625,1122.7048],[31.3699,-17.0609,1119.5026],[31.373,-17.0635,1108.5496],[31.3748,-17.0614,1115.6464],[31.3755,-17.0639,1104.7059],[31.3798,-17.0631,1100.6689],[31.3819,-17.0648,1096.771],[31.3833,-17.061,1115.484],[31.3857,-17.0601,1099.8768],[31.3903,-17.0633,1086.3295],[31.3916,-17.0609,1092.8347],[31.3934,-17.0608,1093.7866],[31.3951,-17.0648,1083.3813],[31.3992,-17.0665,1079.1875],[31.4055,-17.065,1085.6219],[31.4059,-17.0696,1069.5686],[31.4076,-17.0705,1077.0779],[31.4066,-17.0722,1071.8755],[31.4145,-17.0756,1074.9246],[31.4168,-17.0785,1061.6395],[31.4192,-17.0781,1063.5259],[31.4206,-17.0809,1057.5692],[31.4241,-17.0812,1061.4589],[31.4247,-17.0853,1046.9366],[31.4267,-17.0853,1056.9417],[31.4273,-17.0887,1049.724],[31.4301,-17.0878,1060.4242],[31.4344,-17.0931,1040.64],[31.4095,-17.1244,1181.8922],[31.4393,-17.1369,1257.6748],[31.4218,-17.1774,1138.8027],[31.4745,-17.1767,1187.7419],[31.4735,-17.2037,1230.9352],[31.4954,-17.2047,1375.3506],[31.4951,-17.2718,942.9577],[31.4936,-17.2713,939.8772],[31.4941,-17.2674,942.8181],[31.4834,-17.2742,947.6385],[31.4747,-17.2741,949.0266],[31.4706,-17.2723,951.8588],[31.4606,-17.3239,1020.5849],[31.4321,-17.327,1063.551],[31.4087,-17.381,1029.9456],[31.4126,-17.3816,1029.0089],[31.4126,-17.3848,1024.5],[31.4147,-17.3847,1024.5],[31.416,-17.3823,1029.0566],[31.4222,-17.3852,1017.1577],[31.4224,-17.3831,1011.0396],[31.4249,-17.3834,1008.2339],[31.4245,-17.3734,1008.1045],[31.4307,-17.3674,1003.0137],[31.4285,-17.3643,1006.0796],[31.4294,-17.3584,1007.3184],[31.4252,-17.3574,997.637],[31.4253,-17.356,1003.8904],[31.4314,-17.3545,993.6097],[31.4314,-17.3521,991.6903],[31.436,-17.3516,989.1105],[31.4421,-17.3566,992.0844],[31.4589,-17.3582,987.801],[31.463,-17.3602,986.2142],[31.4697,-17.3602,984.7433],[31.4701,-17.3584,988.1481],[31.4735,-17.3751,1012.507],[31.4518,-17.3811,1014.5095],[31.4584,-17.4048,1032.4316],[31.4782,-17.3998,1025.3982],[31.4803,-17.4078,1019.2052],[31.4687,-17.4132,1034.132],[31.4725,-17.4243,1048.0333],[31.466,-17.4324,1070.7524],[31.4612,-17.4463,1150.1781],[31.4732,-17.4539,1376.9213],[31.469,-17.4759,1182.1292],[31.4611,-17.4947,1306.6403],[31.4585,-17.5091,1356.6827]]]]}}