{"type":"Feature","properties":{"GID_3":"ZWE.10.1.25_2","GID_0":"ZWE","country":"Zimbabwe","GID_1":"ZWE.10_1","province":"Midlands","NL_NAME_1":"NA","GID_2":"ZWE.10.1_2","county":"Chirumhanzu","NL_NAME_2":"NA","city":"Ward9","VARNAME_3":"NA","NL_NAME_3":"NA","TYPE_3":"Ward","ENGTYPE_3":"Ward","CC_3":"NA","HASC_3":"NA","name":"Ward9.city"},
"geometry":{"type": "MultiPolygon","coordinates": [[[[30.5492,-19.6334,1234.886],[30.551,-19.6312,1282.5132],[30.5498,-19.614,1271.9745],[30.5455,-19.6112,1280.6705],[30.5436,-19.6065,1330.291],[30.5387,-19.6026,1339.2888],[30.5324,-19.6,1347.3225],[30.5348,-19.5957,1357.1561],[30.5346,-19.5905,1359.7671],[30.53,-19.5882,1361.2802],[30.5272,-19.5838,1371.6177],[30.5176,-19.5831,1374.1621],[30.5124,-19.5861,1345.2283],[30.5055,-19.5851,1319.3472],[30.4903,-19.5929,1258.8203],[30.4831,-19.5939,1251.7522],[30.4705,-19.6027,1234.6564],[30.4606,-19.6067,1195.7294],[30.4546,-19.6047,1183.179],[30.4523,-19.6063,1159.4535],[30.4402,-19.6026,1150.6548],[30.4353,-19.6028,1132.3746],[30.4361,-19.608,1135.6489],[30.4403,-19.6151,1128.3171],[30.4378,-19.6405,1115.8539],[30.441,-19.6438,1114.0559],[30.441,-19.6544,1105.5076],[30.4436,-19.6612,1107.5251],[30.4417,-19.666,1104.406],[30.4437,-19.6716,1102.0934],[30.4386,-19.6784,1098.7133],[30.4432,-19.682,1094.1523],[30.4453,-19.6886,1087.5133],[30.4444,-19.6909,1090.6711],[30.447,-19.6967,1082.7112],[30.4567,-19.6997,1082.3467],[30.4556,-19.7043,1082.562],[30.4565,-19.7113,1076.5129],[30.4531,-19.7178,1083.4425],[30.4533,-19.7209,1075.1802],[30.4563,-19.7251,1081.0493],[30.463,-19.7277,1077.8698],[30.4643,-19.7317,1076.7524],[30.4665,-19.7329,1081.3958],[30.467,-19.7353,1068.3274],[30.4648,-19.7378,1069.3645],[30.4665,-19.7421,1071.0778],[30.4705,-19.7416,1074.129],[30.4787,-19.745,1067.2733],[30.4829,-19.743,1072.6895],[30.4862,-19.7383,1066.2292],[30.49,-19.7393,1071.6931],[30.4965,-19.7358,1087.2913],[30.5002,-19.7402,1081.1132],[30.5062,-19.7373,1084.6038],[30.5081,-19.7309,1096.075],[30.5068,-19.7294,1091.8838],[30.5107,-19.7223,1105.3113],[30.511,-19.7179,1104.9797],[30.5149,-19.7152,1109.2731],[30.5197,-19.7153,1113.3154],[30.5217,-19.7059,1121.0863],[30.5255,-19.7036,1123.4442],[30.5166,-19.6913,1125.9867],[30.5167,-19.6777,1139.0715],[30.5221,-19.6663,1159.5476],[30.521,-19.6635,1160.3296],[30.5244,-19.6575,1180.207],[30.5226,-19.656,1174.1451],[30.5323,-19.6466,1191.5266],[30.5358,-19.6455,1197.9067],[30.5367,-19.6404,1261.2087],[30.5419,-19.6399,1254.944],[30.5492,-19.6334,1234.886]]]]}}