{"type":"Feature","properties":{"GID_3":"ZWE.4.10.26_2","GID_0":"ZWE","country":"Zimbabwe","GID_1":"ZWE.4_1","province":"MashonalandCentral","NL_NAME_1":"NA","GID_2":"ZWE.4.10_2","county":"Shamva","NL_NAME_2":"NA","city":"Ward6","VARNAME_3":"NA","NL_NAME_3":"NA","TYPE_3":"Ward","ENGTYPE_3":"Ward","CC_3":"NA","HASC_3":"NA","name":"Ward6.city"},
"geometry":{"type": "MultiPolygon","coordinates": [[[[31.3795,-17.0068,1325.6489],[31.3971,-17.0074,1221.135],[31.4113,-17.0149,1177.2312],[31.4271,-17.0121,1156.7205],[31.4303,-17.0077,1146.2299],[31.4676,-16.9774,1132.1869],[31.4768,-16.9725,1119.7395],[31.4367,-16.9722,1135.9211],[31.4219,-16.975,1149.1151],[31.4167,-16.9745,1156.1702],[31.4106,-16.9699,1168.4644],[31.3755,-16.9591,1149.8572],[31.3704,-16.9812,1154.093],[31.3795,-17.0068,1325.6489]]]]}}