{"type":"Feature","properties":{"GID_3":"ZWE.8.5.19_2","GID_0":"ZWE","country":"Zimbabwe","GID_1":"ZWE.8_1","province":"MatabelelandNorth","NL_NAME_1":"NA","GID_2":"ZWE.8.5_2","county":"Lupane","NL_NAME_2":"NA","city":"Ward26","VARNAME_3":"NA","NL_NAME_3":"NA","TYPE_3":"Ward","ENGTYPE_3":"Ward","CC_3":"NA","HASC_3":"NA","name":"Ward26.city"},
"geometry":{"type": "MultiPolygon","coordinates": [[[[27.4683,-19.0981,1018.9938],[27.5875,-19.0941,1014.8549],[27.7087,-19.092,971.0024],[27.7066,-19.0871,971.0126],[27.6976,-19.0812,966.6459],[27.6975,-19.0796,966.6459],[27.7028,-19.0781,968.6358],[27.6956,-19.0535,968.5594],[27.7023,-19.0506,968.9716],[27.7015,-19.0469,968.6862],[27.6969,-19.0427,971.3986],[27.6946,-19.0304,968.8009],[27.7063,-19.0265,966.5312],[27.7067,-19.0228,967.2812],[27.7128,-19.0196,971.2948],[27.7171,-19.0209,965.1516],[27.728,-19.0184,968.035],[27.7339,-19.0204,960.4449],[27.7367,-19.0196,967.7898],[27.7367,-19.0157,961.2279],[27.7405,-19.0088,961.1996],[27.7455,-19.0057,962.3213],[27.7479,-19.0022,982.8258],[27.7509,-18.9935,967.6329],[27.7507,-18.9884,958.8341],[27.7568,-18.9799,964.4244],[27.7576,-18.9752,962.1885],[27.7552,-18.9613,969.3272],[27.7509,-18.9561,972.1747],[27.7435,-18.9509,956.8138],[27.7422,-18.9465,959.3643],[27.7442,-18.9311,955.8004],[27.7434,-18.9245,962.8652],[27.7273,-18.9247,958.1088],[27.7199,-18.9194,957.4435],[27.7135,-18.9122,958.1278],[27.7085,-18.899,959.4712],[27.7045,-18.8943,970.2366],[27.7006,-18.8924,963.2496],[27.6893,-18.8922,961.0832],[27.673,-18.8873,952.6049],[27.6557,-18.8769,952.4085],[27.6498,-18.8652,967.5034],[27.6461,-18.8613,961.0696],[27.6414,-18.8596,960.2875],[27.636,-18.8625,953.8583],[27.6333,-18.8623,955.2172],[27.6339,-18.855,952.1263],[27.6302,-18.8306,965.1324],[27.6285,-18.8293,972.5601],[27.6157,-18.8305,954.2532],[27.6045,-18.8294,952.7949],[27.6012,-18.8251,949.1801],[27.6055,-18.8175,949.438],[27.6011,-18.8133,949.0647],[27.5803,-18.8065,949.1572],[27.5746,-18.8002,949.7233],[27.569,-18.7972,952.4644],[27.5597,-18.8022,949.0339],[27.5522,-18.7967,950.7507],[27.5374,-18.7981,949.8875],[27.5272,-18.7906,946.6491],[27.5085,-18.7893,951.0228],[27.4996,-18.7809,948.0082],[27.4957,-18.7811,949.4243],[27.4889,-18.7848,949.0131],[27.481,-18.7799,945.4068],[27.4758,-18.7805,944.6525],[27.4662,-18.7752,942.9448],[27.4525,-18.7977,1023.317],[27.442,-18.811,1022.1955],[27.4307,-18.8036,1050.0197],[27.4105,-18.8107,1047.2922],[27.2831,-18.9558,1035.3464],[27.4683,-19.0981,1018.9938]]]]}}