{"type": "Feature","bbox": [27.7812,-20.5259,27.9285,-20.4229],"geometry": {"type": "MultiPolygon","coordinates": [[[[27.8314,-20.4229,1328.5807],[27.8275,-20.4284,1346.9592],[27.7985,-20.449,1349.2434],[27.7915,-20.452,1346.6301],[27.7812,-20.4643,1369.3164],[27.799,-20.4797,1391.4347],[27.8038,-20.4904,1389.8181],[27.8088,-20.489,1390.6869],[27.8143,-20.4945,1392.6788],[27.8224,-20.4976,1389.2935],[27.8677,-20.5259,1363.6537],[27.9052,-20.5156,1350.0793],[27.9285,-20.4882,1437.2598],[27.8648,-20.4934,1383.1627],[27.8701,-20.4773,1391.7374],[27.8668,-20.4593,1381.196],[27.8314,-20.4229,1328.5807]]]]}
,"properties": {"GID_3": "ZWE.9.9.6_2","GID_0": "ZWE","country": "Zimbabwe","GID_1": "ZWE.9_1","province": "MatabelelandSouth","NL_NAME_1": "NA","GID_2": "ZWE.9.9_2","county": "Plumtree","NL_NAME_2": "NA","city": "Ward6","VARNAME_3": "NA","NL_NAME_3": "NA","TYPE_3": "Ward","ENGTYPE_3": "Ward","CC_3": "NA","HASC_3": "NA","name": "Ward6.city","area_km2": 71.74228,"hist_schema_id": "Elevation0-9000","hist_area_km2": {"1325": 0.59599,"1350": 23.16006,"1375": 40.93556,"1400": 6.81234,"1425": 0.21847,"1450": 0.01986}}}