{"type": "Feature","bbox": [27.8947,-21.1647,28.0944,-21.0416],"geometry": {"type": "MultiPolygon","coordinates": [[[[27.9042,-21.0416,1018.4803],[27.9092,-21.0618,1000.9499],[27.9068,-21.068,999.3571],[27.9025,-21.0713,996.0857],[27.9052,-21.0747,998.9404],[27.9025,-21.0821,996.4886],[27.9044,-21.0864,993.6796],[27.8947,-21.0962,986.9775],[27.895,-21.1028,988.2005],[27.8986,-21.1064,985.5693],[27.9025,-21.1248,978.7367],[27.9061,-21.1307,985.7167],[27.9039,-21.135,972.0776],[27.9048,-21.1424,975.6384],[27.9034,-21.1458,971.4839],[27.9018,-21.146,972.8442],[27.8994,-21.1535,966.2568],[27.9005,-21.1553,966.8676],[27.9045,-21.1517,981.9856],[27.9042,-21.1486,971.4177],[27.9243,-21.1398,1014.7257],[27.9278,-21.1337,1016.561],[27.9327,-21.129,1009.0154],[27.9354,-21.1221,1005.3704],[27.9337,-21.1175,1008.3372],[27.9367,-21.117,1013.7241],[27.9413,-21.1124,1010.4653],[27.9459,-21.1016,1013.8976],[27.9521,-21.1016,1012.6794],[27.9602,-21.1233,1000.826],[27.9586,-21.1409,993.4238],[27.9626,-21.1575,993.2446],[27.9612,-21.1647,992.548],[27.9719,-21.16,988.5733],[28.0134,-21.1585,976.0545],[28.0944,-21.0685,978.4312],[28.0872,-21.0663,979.6984],[28.0857,-21.0631,972.9361],[28.0156,-21.067,1011.759],[27.9042,-21.0416,1018.4803]]]]}
,"properties": {"GID_3": "ZWE.9.7.14_2","GID_0": "ZWE","country": "Zimbabwe","GID_1": "ZWE.9_1","province": "MatabelelandSouth","NL_NAME_1": "NA","GID_2": "ZWE.9.7_2","county": "Mangwe","NL_NAME_2": "NA","city": "Ward6","VARNAME_3": "NA","NL_NAME_3": "NA","TYPE_3": "Ward","ENGTYPE_3": "Ward","CC_3": "NA","HASC_3": "NA","name": "Ward6.city","area_km2": 158.3249,"hist_schema_id": "Elevation0-9000","hist_area_km2": {"950": 0.0198,"975": 39.8512,"1000": 93.1298,"1025": 25.3243}}}