{"type": "Feature","bbox": [29.9062,-18.1275,30.1305,-17.9586],"geometry": {"type": "MultiPolygon","coordinates": [[[[30.1203,-18.0877,1158.1603],[30.1305,-18.0781,1147.2329],[30.1279,-18.0766,1148.9513],[30.1232,-18.0769,1141.469],[30.1204,-18.0743,1137.5],[30.1204,-18.0676,1141.6052],[30.1155,-18.0649,1136.8318],[30.1159,-18.0532,1147.9437],[30.1109,-18.0513,1139.6846],[30.1059,-18.0519,1137.0233],[30.0879,-18.058,1134.7672],[30.0646,-18.0549,1125.4177],[30.0614,-18.0499,1123.5338],[30.0615,-18.0448,1134.5256],[30.0551,-18.0371,1129.7092],[30.0516,-18.0378,1122.4705],[30.0452,-18.0334,1125.9994],[30.0386,-18.0321,1117.2983],[30.0334,-18.0234,1100.8518],[30.0227,-18.0181,1057.9585],[30.0173,-18.0074,1062.6467],[30.0125,-18.007,1055.5988],[30.0058,-18.0026,1026.9958],[29.9965,-17.985,1002.6608],[29.9953,-17.9762,1012.9427],[29.9916,-17.9711,994.1442],[29.9062,-17.9586,1023.5],[29.9111,-17.9842,1031.1604],[29.9124,-17.9862,1034.9457],[29.9191,-17.9888,1042.817],[29.9159,-17.9934,1034.2367],[29.9157,-17.9983,1033.4774],[29.9192,-18.0019,1037.1543],[29.921,-17.9994,1063.1067],[29.928,-18.0058,1048.0712],[29.9221,-18.0215,1065.3606],[29.9188,-18.0231,1067.0376],[29.922,-18.0359,1069.4883],[29.9192,-18.0499,1083.2717],[29.9219,-18.0549,1084.1346],[29.9241,-18.0549,1087.5618],[29.9253,-18.0595,1087.6985],[29.9239,-18.0643,1089.8643],[29.9285,-18.0663,1091.814],[29.9287,-18.0703,1099.6145],[29.9352,-18.0783,1103.0],[29.9348,-18.0843,1103.6445],[29.938,-18.0897,1108.1735],[29.9393,-18.097,1115.0371],[29.9429,-18.0993,1121.1449],[29.9458,-18.0981,1137.2582],[29.9581,-18.0995,1133.2174],[29.9717,-18.1022,1124.2439],[29.9791,-18.1061,1118.6682],[29.9886,-18.1063,1121.8435],[29.9991,-18.1094,1122.618],[30.067,-18.12,1166.4054],[30.0746,-18.1275,1158.272],[30.1203,-18.0877,1158.1603]]]]}
,"properties": {"GID_3": "ZWE.6.1.16_2","GID_0": "ZWE","country": "Zimbabwe","GID_1": "ZWE.6_1","province": "MashonalandWest","NL_NAME_1": "NA","GID_2": "ZWE.6.1_2","county": "Chegutu","NL_NAME_2": "NA","city": "Ward23","VARNAME_3": "NA","NL_NAME_3": "NA","TYPE_3": "Ward","ENGTYPE_3": "Ward","CC_3": "NA","HASC_3": "NA","name": "Ward23.city","area_km2": 228.459,"hist_schema_id": "Elevation0-9000","hist_area_km2": {"1000": 0.726,"1025": 3.9124,"1050": 13.5918,"1075": 32.9482,"1100": 43.0632,"1125": 45.1724,"1150": 67.9238,"1175": 21.1212}}}