{"type": "Feature","bbox": [31.1049,-17.1007,31.1857,-16.9926],"geometry": {"type": "MultiPolygon","coordinates": [[[[31.1857,-17.0434,1181.0],[31.1734,-17.0343,1205.1494],[31.1713,-17.0296,1213.076],[31.1631,-17.027,1222.1998],[31.1617,-17.0176,1210.2542],[31.1597,-17.0147,1209.1914],[31.1536,-17.0142,1208.5371],[31.1309,-17.006,1199.9727],[31.1305,-16.9998,1186.0591],[31.1269,-16.9926,1172.9288],[31.1236,-16.9989,1183.3291],[31.1195,-17.0016,1199.7983],[31.1177,-17.0072,1205.7449],[31.1121,-17.0116,1214.926],[31.1126,-17.017,1245.0938],[31.11,-17.0233,1247.6145],[31.114,-17.0313,1229.4944],[31.1108,-17.0326,1233.7058],[31.1115,-17.0448,1247.3807],[31.1093,-17.0484,1249.8318],[31.1091,-17.0551,1231.26],[31.1117,-17.0601,1214.3833],[31.1117,-17.0736,1219.6724],[31.111,-17.078,1202.1398],[31.1064,-17.0809,1212.2372],[31.1067,-17.0835,1203.2351],[31.1049,-17.0836,1207.7557],[31.1049,-17.0857,1202.5804],[31.1103,-17.0889,1223.8118],[31.1151,-17.0949,1227.1672],[31.1231,-17.0936,1225.4604],[31.1301,-17.0966,1241.4258],[31.1332,-17.0947,1233.1344],[31.1371,-17.1007,1227.85],[31.1701,-17.0761,1188.8174],[31.1701,-17.0716,1197.3544],[31.1771,-17.0669,1182.7905],[31.1768,-17.0611,1183.2151],[31.1795,-17.058,1181.0],[31.1802,-17.0495,1181.3195],[31.1821,-17.045,1181.0],[31.1857,-17.0434,1181.0]]]]}
,"properties": {"GID_3": "ZWE.4.5.32_2","GID_0": "ZWE","country": "Zimbabwe","GID_1": "ZWE.4_1","province": "MashonalandCentral","NL_NAME_1": "NA","GID_2": "ZWE.4.5_2","county": "Mazowe","NL_NAME_2": "NA","city": "Ward7","VARNAME_3": "NA","NL_NAME_3": "NA","TYPE_3": "Ward","ENGTYPE_3": "Ward","CC_3": "NA","HASC_3": "NA","name": "Ward7.city","area_km2": 60.46615,"hist_schema_id": "Elevation0-9000","hist_area_km2": {"1175": 2.45277,"1200": 22.47923,"1225": 29.85826,"1250": 5.49349,"1275": 0.14187,"1300": 0.04054}}}