{"type":"Feature","properties":{"GID_3":"ZWE.9.6.12_2","GID_0":"ZWE","country":"Zimbabwe","GID_1":"ZWE.9_1","province":"MatabelelandSouth","NL_NAME_1":"NA","GID_2":"ZWE.9.6_2","county":"Insiza","NL_NAME_2":"NA","city":"Ward2","VARNAME_3":"NA","NL_NAME_3":"NA","TYPE_3":"Ward","ENGTYPE_3":"Ward","CC_3":"NA","HASC_3":"NA","name":"Ward2.city"},
"geometry":{"type": "MultiPolygon","coordinates": [[[[29.2831,-20.6934,1048.6334],[29.3401,-20.6517,1011.2498],[29.3353,-20.6492,1012.9282],[29.3342,-20.6444,1019.4814],[29.331,-20.6405,1012.2339],[29.3247,-20.637,1020.134],[29.3192,-20.6369,1011.4296],[29.3184,-20.6353,1012.072],[29.3213,-20.6205,1016.6694],[29.3213,-20.6051,1023.6523],[29.3127,-20.5944,1022.2008],[29.3125,-20.5908,1030.4623],[29.3087,-20.588,1032.3787],[29.3061,-20.5812,1025.9318],[29.3065,-20.5794,1030.2639],[29.3108,-20.578,1028.9946],[29.3186,-20.5698,1032.4724],[29.3161,-20.5603,1060.0145],[29.3127,-20.5567,1039.1443],[29.2922,-20.5579,1049.052],[29.2933,-20.5743,1053.2295],[29.274,-20.5899,1064.6682],[29.2728,-20.5906,1064.6682],[29.2709,-20.5888,1075.9773],[29.2696,-20.5916,1076.0216],[29.2694,-20.5969,1069.1968],[29.2776,-20.6142,1064.1071],[29.2786,-20.6261,1091.7476],[29.2867,-20.6431,1053.6799],[29.2868,-20.6469,1044.7146],[29.2832,-20.6535,1049.7063],[29.2729,-20.6561,1070.6055],[29.2705,-20.6593,1072.718],[29.2765,-20.6801,1056.1525],[29.2808,-20.6865,1048.6083],[29.2804,-20.6914,1054.3419],[29.2831,-20.6934,1048.6334]]]]}}