{"type": "Feature","bbox": [28.8427,-21.334,29.0985,-21.0948],"geometry": {"type": "MultiPolygon","coordinates": [[[[28.9492,-21.334,759.3949],[28.9526,-21.3315,773.0073],[28.9589,-21.3312,770.2881],[28.9585,-21.3248,773.8677],[28.966,-21.3217,778.3592],[28.9671,-21.3174,781.2416],[28.9692,-21.3177,784.9655],[28.9747,-21.3233,782.6488],[28.9769,-21.3217,782.787],[28.9829,-21.3091,791.2283],[28.9821,-21.2879,801.1581],[28.9801,-21.2858,802.991],[28.9813,-21.2827,800.8888],[28.9878,-21.2706,816.8509],[28.9963,-21.2665,818.6198],[29.0041,-21.2577,831.9382],[29.0077,-21.2594,826.5712],[29.0097,-21.2526,842.1582],[29.0143,-21.2527,838.7118],[29.0172,-21.2558,832.1674],[29.0198,-21.256,838.8174],[29.0228,-21.254,838.3639],[29.0246,-21.2495,856.8358],[29.0316,-21.2524,847.705],[29.0361,-21.2503,857.5891],[29.039,-21.2553,851.8937],[29.0445,-21.2568,854.9813],[29.0454,-21.2528,860.3045],[29.0503,-21.2512,860.1612],[29.0579,-21.2562,866.1854],[29.0604,-21.2539,867.9529],[29.0615,-21.2435,882.9506],[29.0639,-21.2408,898.0315],[29.0772,-21.2378,885.524],[29.0843,-21.2387,877.8599],[29.0985,-21.1365,911.7938],[29.0144,-21.1055,999.474],[28.9707,-21.0987,993.3469],[28.9553,-21.0948,1068.3439],[28.955,-21.0972,1088.5507],[28.9183,-21.1103,980.6033],[28.861,-21.1272,1011.6624],[28.861,-21.1254,1009.7744],[28.8427,-21.113,849.3518],[28.8467,-21.1295,817.8525],[28.8518,-21.1346,820.3716],[28.8537,-21.1439,812.282],[28.8713,-21.1783,810.2151],[28.8819,-21.1948,804.2512],[28.8913,-21.2132,794.8066],[28.897,-21.2212,802.5854],[28.907,-21.2278,802.7758],[28.9143,-21.2404,789.3068],[28.9207,-21.2601,791.3677],[28.9336,-21.2849,774.1526],[28.9359,-21.3,766.8922],[28.9401,-21.3098,773.9551],[28.9417,-21.3225,759.2047],[28.9492,-21.334,759.3949]]]]}
,"properties": {"GID_3": "ZWE.9.4.5_2","GID_0": "ZWE","country": "Zimbabwe","GID_1": "ZWE.9_1","province": "MatabelelandSouth","NL_NAME_1": "NA","GID_2": "ZWE.9.4_2","county": "Gwanda","NL_NAME_2": "NA","city": "Ward13","VARNAME_3": "NA","NL_NAME_3": "NA","TYPE_3": "Ward","ENGTYPE_3": "Ward","CC_3": "NA","HASC_3": "NA","name": "Ward13.city","area_km2": 387.9228,"hist_schema_id": "Elevation0-9000","hist_area_km2": {"750": 0.158,"775": 5.827,"800": 20.9221,"825": 34.1695,"850": 38.9576,"875": 53.9037,"900": 71.8632,"925": 62.6595,"950": 38.9131,"975": 25.0926,"1000": 17.125,"1025": 11.9442,"1050": 4.2713,"1075": 1.226,"1100": 0.7316,"1125": 0.1582}}}