{"type": "Feature","bbox": [30.7342,-17.1213,30.9364,-16.9695],"geometry": {"type": "MultiPolygon","coordinates": [[[[30.7389,-17.0613,1606.2738],[30.7342,-17.0835,1535.9078],[30.7557,-17.0942,1556.9512],[30.7685,-17.1024,1515.9512],[30.7615,-17.109,1545.7173],[30.7827,-17.1213,1544.224],[30.7875,-17.0995,1532.3081],[30.7967,-17.0808,1538.2134],[30.8066,-17.0827,1560.6399],[30.8261,-17.0829,1565.6332],[30.8273,-17.0786,1591.6454],[30.8555,-17.0786,1504.5696],[30.8906,-17.0818,1513.5127],[30.8925,-17.0951,1454.5985],[30.9149,-17.1039,1388.29],[30.9333,-17.0871,1341.7966],[30.9364,-17.0421,1373.181],[30.9108,-17.0315,1455.1696],[30.9028,-17.0326,1463.059],[30.8635,-17.0246,1480.052],[30.8596,-17.0323,1475.9607],[30.8569,-17.0297,1481.8505],[30.8523,-17.0286,1491.2046],[30.8502,-17.033,1488.9722],[30.8439,-17.0309,1491.3134],[30.8406,-17.0248,1481.1022],[30.8406,-17.0142,1458.8674],[30.8452,-17.014,1457.8058],[30.8452,-17.019,1468.8673],[30.8553,-17.023,1479.343],[30.8688,-16.9979,1436.4999],[30.7829,-16.9695,1629.9388],[30.769,-16.9887,1520.2932],[30.7607,-17.0144,1603.1001],[30.7606,-17.0435,1572.3279],[30.7389,-17.0613,1606.2738]]]]}
,"properties": {"GID_3": "ZWE.4.5.19_2","GID_0": "ZWE","country": "Zimbabwe","GID_1": "ZWE.4_1","province": "MashonalandCentral","NL_NAME_1": "NA","GID_2": "ZWE.4.5_2","county": "Mazowe","NL_NAME_2": "NA","city": "Ward26","VARNAME_3": "NA","NL_NAME_3": "NA","TYPE_3": "Ward","ENGTYPE_3": "Ward","CC_3": "NA","HASC_3": "NA","name": "Ward26.city","area_km2": 186.2682,"hist_schema_id": "Elevation0-9000","hist_area_km2": {"1350": 0.2432,"1375": 1.5201,"1400": 5.1482,"1425": 8.1074,"1450": 27.9547,"1475": 44.4775,"1500": 48.0227,"1525": 32.106,"1550": 11.4923,"1575": 3.4257,"1600": 1.4798,"1625": 1.196,"1650": 0.8919,"1675": 0.2027}}}