{"type": "Feature","bbox": [32.2483,-17.5489,32.4824,-17.4261],"geometry": {"type": "MultiPolygon","coordinates": [[[[32.323,-17.4261,1197.6936],[32.313,-17.4454,1143.2444],[32.3076,-17.4605,1077.5562],[32.3113,-17.4697,1063.0275],[32.3228,-17.4877,1037.3964],[32.319,-17.4918,1037.1965],[32.3037,-17.4908,1075.4045],[32.2887,-17.4936,1211.3313],[32.2787,-17.4979,1104.1611],[32.2563,-17.5034,1266.9778],[32.2483,-17.5076,1270.2432],[32.2608,-17.5275,1014.967],[32.2857,-17.5318,1001.4767],[32.3043,-17.5397,992.4861],[32.3168,-17.5484,982.1038],[32.3214,-17.5489,983.9994],[32.3278,-17.5457,982.0789],[32.3336,-17.5459,978.0526],[32.3355,-17.5419,981.8754],[32.339,-17.5415,972.6038],[32.3431,-17.5439,971.2756],[32.3541,-17.5401,976.6892],[32.3697,-17.54,953.5829],[32.3723,-17.5381,956.6093],[32.3751,-17.5383,954.1509],[32.38,-17.5346,950.6495],[32.3844,-17.5347,953.9552],[32.3895,-17.5324,976.8856],[32.3954,-17.5321,995.6594],[32.3987,-17.5336,944.1223],[32.4018,-17.5316,956.8495],[32.4081,-17.532,935.5791],[32.4137,-17.5262,947.3368],[32.4206,-17.5269,925.2994],[32.4284,-17.5222,935.1041],[32.4315,-17.5243,917.3327],[32.437,-17.5202,919.9437],[32.4403,-17.5225,915.6255],[32.4464,-17.5221,914.8562],[32.4491,-17.5214,908.5869],[32.4529,-17.5173,902.0161],[32.4542,-17.5124,924.9808],[32.4576,-17.5132,909.5529],[32.4736,-17.5112,882.0292],[32.4798,-17.5091,873.5433],[32.4824,-17.5061,871.5842],[32.4626,-17.4923,1363.871],[32.323,-17.4261,1197.6936]]]]}
,"properties": {"GID_3": "ZWE.5.8.16_2","GID_0": "ZWE","country": "Zimbabwe","GID_1": "ZWE.5_1","province": "MashonalandEast","NL_NAME_1": "NA","GID_2": "ZWE.5.8_2","county": "Mutoko","NL_NAME_2": "NA","city": "Ward23","VARNAME_3": "NA","NL_NAME_3": "NA","TYPE_3": "Ward","ENGTYPE_3": "Ward","CC_3": "NA","HASC_3": "NA","name": "Ward23.city","area_km2": 161.4059,"hist_schema_id": "Elevation0-9000","hist_area_km2": {"875": 0.364,"900": 0.7886,"925": 2.4263,"950": 3.7203,"975": 6.9146,"1000": 13.809,"1025": 22.1803,"1050": 20.2003,"1075": 16.9658,"1100": 14.8429,"1125": 13.5898,"1150": 11.0219,"1175": 9.9501,"1200": 8.6962,"1225": 4.9347,"1250": 3.1347,"1275": 2.2447,"1300": 2.0829,"1325": 1.1729,"1350": 0.9707,"1375": 0.5258,"1400": 0.3033,"1425": 0.2427,"1450": 0.3236}}}