{"type":"Feature","properties":{"GID_3":"ZWE.10.13.9_2","GID_0":"ZWE","country":"Zimbabwe","GID_1":"ZWE.10_1","province":"Midlands","NL_NAME_1":"NA","GID_2":"ZWE.10.13_2","county":"Zvishavane","NL_NAME_2":"NA","city":"Ward17","VARNAME_3":"NA","NL_NAME_3":"NA","TYPE_3":"Ward","ENGTYPE_3":"Ward","CC_3":"NA","HASC_3":"NA","name":"Ward17.city"},
"geometry":{"type": "MultiPolygon","coordinates": [[[[30.3088,-20.5726,758.9828],[30.31,-20.5752,761.8829],[30.3136,-20.576,764.4045],[30.3317,-20.5755,752.8921],[30.3316,-20.5691,767.5404],[30.3235,-20.5623,801.4507],[30.3211,-20.5458,944.9398],[30.3238,-20.5428,874.1419],[30.3311,-20.5406,859.8281],[30.336,-20.5489,841.7999],[30.3484,-20.5479,803.8663],[30.3499,-20.547,777.1378],[30.3524,-20.5322,807.0445],[30.3521,-20.5297,814.019],[30.3452,-20.5206,862.4339],[30.3469,-20.5185,922.306],[30.3485,-20.508,973.6414],[30.3484,-20.4982,961.1519],[30.3466,-20.497,978.1107],[30.3464,-20.4901,957.5466],[30.3325,-20.4616,916.778],[30.3325,-20.4526,905.3943],[30.3288,-20.4473,873.6479],[30.3286,-20.4432,876.1096],[30.3067,-20.4445,857.7818],[30.2997,-20.4339,834.402],[30.2937,-20.4301,822.1221],[30.2783,-20.4449,836.9447],[30.2751,-20.443,834.7056],[30.2736,-20.4368,827.7078],[30.2681,-20.4426,829.386],[30.2656,-20.4376,825.9543],[30.2629,-20.436,825.6135],[30.2557,-20.4349,828.6998],[30.2506,-20.4312,823.8853],[30.2492,-20.4327,826.0895],[30.2469,-20.4321,828.874],[30.2425,-20.4367,828.9044],[30.2426,-20.445,830.4465],[30.2411,-20.4471,834.2419],[30.243,-20.4528,834.2483],[30.2403,-20.4614,840.8876],[30.2378,-20.4617,840.5775],[30.2406,-20.469,846.6778],[30.2403,-20.4722,846.6423],[30.2355,-20.478,851.9454],[30.2431,-20.4852,866.6014],[30.2486,-20.4988,896.9428],[30.2425,-20.5473,910.4251],[30.2504,-20.5499,830.7223],[30.2536,-20.5479,834.3549],[30.2555,-20.5484,836.6394],[30.2717,-20.5628,803.9459],[30.2752,-20.5634,797.9494],[30.2762,-20.56,798.0281],[30.2794,-20.5568,805.1313],[30.2977,-20.5625,784.71],[30.3073,-20.5685,768.6031],[30.3088,-20.5726,758.9828]]]]}}