{"type":"Feature","properties":{"GID_3":"ZWE.3.2.20_2","GID_0":"ZWE","country":"Zimbabwe","GID_1":"ZWE.3_1","province":"Manicaland","NL_NAME_1":"NA","GID_2":"ZWE.3.2_2","county":"Chimanimani","NL_NAME_2":"NA","city":"Ward6","VARNAME_3":"NA","NL_NAME_3":"NA","TYPE_3":"Ward","ENGTYPE_3":"Ward","CC_3":"NA","HASC_3":"NA","name":"Ward6.city"},
"geometry":{"type": "MultiPolygon","coordinates": [[[[32.5498,-19.6281,1113.8269],[32.5552,-19.6362,1211.9922],[32.5542,-19.6397,1168.2003],[32.5508,-19.6413,1186.738],[32.5433,-19.6415,1179.2843],[32.5418,-19.6374,1034.816],[32.537,-19.6427,1119.9598],[32.5307,-19.6449,1158.7415],[32.5288,-19.6447,1155.9197],[32.5285,-19.6412,995.947],[32.5273,-19.641,1019.145],[32.5248,-19.647,1151.4084],[32.5196,-19.6452,1082.6531],[32.5144,-19.6469,1128.7992],[32.5062,-19.658,1132.8783],[32.512,-19.6579,1194.6111],[32.5167,-19.655,1203.2941],[32.517,-19.6593,1169.3361],[32.5209,-19.6594,1195.4734],[32.5222,-19.6619,1178.8373],[32.5354,-19.6597,1208.1263],[32.5335,-19.6627,1192.579],[32.5274,-19.6655,1123.6855],[32.5284,-19.6687,1197.9457],[32.5327,-19.6737,1190.1116],[32.5435,-19.6731,1206.197],[32.5439,-19.6749,1195.0652],[32.5419,-19.6771,1158.76],[32.5244,-19.6838,1113.5287],[32.5313,-19.6909,1158.0325],[32.532,-19.693,1136.3285],[32.5302,-19.697,1098.5465],[32.5132,-19.6968,1013.0286],[32.5154,-19.6989,1064.6812],[32.5148,-19.7028,1042.5166],[32.5169,-19.7057,1103.9042],[32.5103,-19.7115,986.801],[32.5104,-19.713,1014.0805],[32.5114,-19.7144,1046.0435],[32.5171,-19.7138,1061.4553],[32.5174,-19.715,1045.8984],[32.5038,-19.7206,863.1803],[32.505,-19.7244,1007.2958],[32.5035,-19.7296,1036.5526],[32.5044,-19.7314,1038.5208],[32.5082,-19.7304,994.4954],[32.5081,-19.727,1070.8894],[32.5102,-19.7265,1058.573],[32.517,-19.7291,853.5006],[32.5193,-19.7321,691.3725],[32.5324,-19.7238,702.9995],[32.5357,-19.7241,713.1724],[32.5375,-19.7277,665.1964],[32.5347,-19.737,692.6172],[32.5406,-19.7328,723.161],[32.5447,-19.7323,719.8624],[32.5461,-19.74,704.2185],[32.5501,-19.7421,714.8022],[32.5576,-19.7499,728.8574],[32.5598,-19.7551,739.5207],[32.5692,-19.7564,772.6716],[32.5739,-19.7619,780.3537],[32.5767,-19.7599,778.5163],[32.5774,-19.7561,787.6463],[32.5808,-19.7538,785.4456],[32.5979,-19.7452,804.0662],[32.6011,-19.7471,802.9197],[32.6074,-19.7423,813.9712],[32.6081,-19.7443,815.3151],[32.6097,-19.7438,815.3151],[32.6078,-19.73,838.8296],[32.6111,-19.7283,839.8949],[32.596,-19.7123,973.234],[32.5811,-19.6879,1145.3654],[32.5776,-19.6653,1181.6226],[32.5849,-19.6294,1179.1094],[32.5947,-19.6116,1025.4279],[32.5915,-19.6118,963.0917],[32.5892,-19.6149,1034.4503],[32.5856,-19.6144,994.8314],[32.5854,-19.6192,1111.5729],[32.5828,-19.6255,1104.874],[32.576,-19.6204,1037.7736],[32.5735,-19.6202,1009.1304],[32.5737,-19.6244,1150.545],[32.5715,-19.6266,1147.486],[32.5684,-19.6249,1116.5669],[32.5619,-19.6257,1144.0045],[32.5608,-19.6219,1124.6583],[32.5573,-19.6253,1110.6074],[32.5549,-19.6248,1102.7034],[32.5498,-19.6281,1113.8269]]]]}}