{"type": "Feature","bbox": [29.3548,-20.8848,29.5168,-20.7551],"geometry": {"type": "MultiPolygon","coordinates": [[[[29.5136,-20.7575,1054.7859],[29.5122,-20.7551,1048.8527],[29.5108,-20.7563,1047.8606],[29.5004,-20.7565,1040.5603],[29.4992,-20.7613,1037.48],[29.492,-20.7666,1026.0167],[29.4844,-20.7688,1025.6998],[29.4816,-20.7722,1018.7891],[29.4729,-20.7724,1023.4497],[29.4598,-20.7767,1009.0497],[29.4545,-20.7827,1000.3026],[29.4509,-20.7843,998.3015],[29.4467,-20.7913,984.0831],[29.4349,-20.7902,981.8433],[29.4262,-20.794,974.2076],[29.427,-20.7963,969.2808],[29.4208,-20.798,963.0275],[29.4189,-20.8004,962.299],[29.4199,-20.8074,960.0168],[29.4182,-20.8095,964.8822],[29.4048,-20.809,959.1697],[29.4006,-20.8059,949.4446],[29.3989,-20.8025,951.1477],[29.3964,-20.8017,950.4429],[29.3911,-20.8049,945.8176],[29.3834,-20.8044,950.7308],[29.3772,-20.8126,947.0626],[29.3702,-20.8148,927.2905],[29.3704,-20.8183,925.4014],[29.3684,-20.821,922.5988],[29.3593,-20.8256,920.3583],[29.3552,-20.8287,914.8191],[29.3548,-20.8311,911.9846],[29.3651,-20.8553,914.9076],[29.3701,-20.8712,912.2705],[29.3717,-20.8778,915.4196],[29.3708,-20.8831,903.2973],[29.3754,-20.8832,907.9418],[29.3813,-20.881,915.8875],[29.3848,-20.8844,913.4576],[29.3931,-20.882,921.0228],[29.4069,-20.8848,927.7268],[29.4109,-20.8827,933.3621],[29.4214,-20.8816,931.7754],[29.4227,-20.8795,937.5822],[29.4323,-20.8829,944.5465],[29.4536,-20.8816,946.0602],[29.4567,-20.879,950.4752],[29.4562,-20.8752,950.7263],[29.4614,-20.8738,957.0229],[29.4639,-20.8755,954.3036],[29.4676,-20.8737,955.9959],[29.4685,-20.8659,964.5322],[29.4633,-20.8614,963.6607],[29.4655,-20.858,964.423],[29.4645,-20.8559,969.2485],[29.4735,-20.8531,969.2295],[29.4786,-20.8538,970.9458],[29.4824,-20.8493,979.7412],[29.4879,-20.8461,981.3577],[29.493,-20.8456,988.0],[29.4969,-20.8394,992.0603],[29.5032,-20.8401,988.504],[29.507,-20.8294,1005.6406],[29.5124,-20.8219,1018.246],[29.5136,-20.8145,1032.7983],[29.5168,-20.8101,1035.5508],[29.5145,-20.7846,1045.3843],[29.5126,-20.7807,1061.5662],[29.5152,-20.7711,1065.1418],[29.5156,-20.7629,1063.8876],[29.5136,-20.7575,1054.7859]]]]}
,"properties": {"GID_3": "ZWE.9.6.19_2","GID_0": "ZWE","country": "Zimbabwe","GID_1": "ZWE.9_1","province": "MatabelelandSouth","NL_NAME_1": "NA","GID_2": "ZWE.9.6_2","county": "Insiza","NL_NAME_2": "NA","city": "Ward5","VARNAME_3": "NA","NL_NAME_3": "NA","TYPE_3": "Ward","ENGTYPE_3": "Ward","CC_3": "NA","HASC_3": "NA","name": "Ward5.city","area_km2": 140.9359,"hist_schema_id": "Elevation0-9000","hist_area_km2": {"900": 0.5745,"925": 18.2479,"950": 35.923,"975": 29.8031,"1000": 24.0591,"1025": 21.2869,"1050": 10.2682,"1075": 0.7731}}}