{"type": "Feature","bbox": [30.8392,-19.0137,30.9017,-18.9688],"geometry": {"type": "MultiPolygon","coordinates": [[[[30.8453,-19.0132,1401.1602],[30.8564,-19.0075,1407.2277],[30.861,-19.0071,1414.6725],[30.8656,-19.0072,1412.1653],[30.8674,-19.0131,1420.2538],[30.869,-19.0137,1420.2538],[30.8877,-19.0105,1437.1758],[30.8923,-19.0132,1440.9832],[30.9011,-19.0134,1454.5984],[30.9017,-19.0094,1459.9996],[30.8951,-19.0084,1451.6064],[30.8925,-19.0029,1455.8512],[30.8919,-18.9822,1432.7483],[30.8753,-18.9688,1420.0997],[30.8392,-19.0084,1396.0874],[30.8453,-19.0132,1401.1602]]]]}
,"properties": {"GID_3": "ZWE.5.1.2_2","GID_0": "ZWE","country": "Zimbabwe","GID_1": "ZWE.5_1","province": "MashonalandEast","NL_NAME_1": "NA","GID_2": "ZWE.5.1_2","county": "Chikomba","NL_NAME_2": "NA","city": "Ward10","VARNAME_3": "NA","NL_NAME_3": "NA","TYPE_3": "Ward","ENGTYPE_3": "Ward","CC_3": "NA","HASC_3": "NA","name": "Ward10.city","area_km2": 16.79989,"hist_schema_id": "Elevation0-9000","hist_area_km2": {"1400": 6.63572,"1425": 7.55811,"1450": 2.60606}}}