{"type": "Feature","bbox": [30.9618,-20.7358,31.1637,-20.615],"geometry": {"type": "MultiPolygon","coordinates": [[[[30.9678,-20.664,677.3516],[30.9627,-20.6686,681.1661],[30.9636,-20.6737,674.2094],[30.9618,-20.6764,684.918],[31.0211,-20.6853,742.0686],[31.047,-20.7059,654.9473],[31.081,-20.7358,617.8865],[31.0894,-20.7311,597.1026],[31.0922,-20.7276,590.1459],[31.0953,-20.7275,591.456],[31.0976,-20.7246,590.5808],[31.1021,-20.7153,594.0377],[31.1012,-20.7041,614.1407],[31.1063,-20.7046,603.1421],[31.12,-20.6993,597.5486],[31.1235,-20.7017,555.1921],[31.1304,-20.7008,552.5284],[31.1347,-20.6947,550.0948],[31.1406,-20.6956,541.6949],[31.1474,-20.6921,549.0807],[31.1506,-20.6924,543.9247],[31.1637,-20.6817,532.938],[31.1487,-20.6761,531.2578],[31.1493,-20.6719,553.6555],[31.1445,-20.6678,541.6237],[31.1397,-20.6686,539.1981],[31.1295,-20.6639,555.2196],[31.1223,-20.6644,561.3891],[31.1194,-20.6615,585.1697],[31.1144,-20.664,555.5159],[31.1076,-20.6647,560.8449],[31.1015,-20.6572,603.1069],[31.0949,-20.6542,616.5389],[31.1041,-20.6386,738.8992],[31.0998,-20.6338,734.1442],[31.097,-20.6235,797.0373],[31.0913,-20.615,695.5797],[31.0846,-20.6163,702.7585],[31.0771,-20.6249,722.8477],[31.0687,-20.6262,742.3928],[31.0655,-20.6391,919.2143],[31.0536,-20.6433,877.0417],[31.0475,-20.6502,824.6915],[31.0463,-20.6539,772.1071],[31.0344,-20.6518,722.788],[31.0314,-20.6531,724.046],[31.0246,-20.6607,810.8732],[31.0187,-20.6629,783.1513],[31.0048,-20.6623,885.1929],[30.9971,-20.6584,734.9552],[30.9678,-20.664,677.3516]]]]}
,"properties": {"GID_3": "ZWE.7.6.19_2","GID_0": "ZWE","country": "Zimbabwe","GID_1": "ZWE.7_1","province": "Masvingo","NL_NAME_1": "NA","GID_2": "ZWE.7.6_2","county": "Masvingo","NL_NAME_2": "NA","city": "Ward26","VARNAME_3": "NA","NL_NAME_3": "NA","TYPE_3": "Ward","ENGTYPE_3": "Ward","CC_3": "NA","HASC_3": "NA","name": "Ward26.city","area_km2": 104.1613,"hist_schema_id": "Elevation0-9000","hist_area_km2": {"525": 1.28936,"550": 7.12115,"575": 7.53778,"600": 13.4677,"625": 13.22969,"650": 12.75372,"675": 8.23191,"700": 7.7761,"725": 6.14968,"750": 4.56285,"775": 4.02729,"800": 4.36457,"825": 3.65036,"850": 2.42036,"875": 2.02362,"900": 1.9046,"925": 1.48799,"950": 1.09121,"975": 0.71423,"1000": 0.31744,"1025": 0.03968}}}