{"type":"Feature","properties":{"GID_3":"ZWE.8.6.26_2","GID_0":"ZWE","country":"Zimbabwe","GID_1":"ZWE.8_1","province":"MatabelelandNorth","NL_NAME_1":"NA","GID_2":"ZWE.8.6_2","county":"Nkayi","NL_NAME_2":"NA","city":"Ward5","VARNAME_3":"NA","NL_NAME_3":"NA","TYPE_3":"Ward","ENGTYPE_3":"Ward","CC_3":"NA","HASC_3":"NA","name":"Ward5.city"},
"geometry":{"type": "MultiPolygon","coordinates": [[[[28.7064,-18.802,1034.3658],[28.7102,-18.8109,1038.634],[28.7232,-18.8291,1038.5861],[28.7492,-18.857,1044.4453],[28.7598,-18.8664,1048.0339],[28.7676,-18.8693,1050.9252],[28.7791,-18.8698,1053.6921],[28.7874,-18.8775,1060.9888],[28.7947,-18.8717,1077.8811],[28.8082,-18.8533,1100.075],[28.8131,-18.8405,1117.0071],[28.8183,-18.8192,1194.2762],[28.8207,-18.8175,1199.6975],[28.8403,-18.8257,1215.8885],[28.8589,-18.8281,1238.0438],[28.882,-18.8287,1250.1451],[28.8947,-18.8353,1256.3654],[28.8669,-18.7233,1066.0537],[28.8571,-18.7135,1062.1407],[28.86,-18.7084,1061.3],[28.8592,-18.7064,1061.7173],[28.8474,-18.7064,1064.8267],[28.8431,-18.7085,1060.2271],[28.8379,-18.707,1063.2092],[28.8333,-18.7104,1052.7245],[28.82,-18.7143,1059.3741],[28.8188,-18.7176,1049.605],[28.8093,-18.7214,1047.3496],[28.8058,-18.7172,1053.3225],[28.7972,-18.7261,1041.3845],[28.7783,-18.7259,1046.1604],[28.7738,-18.7296,1041.403],[28.7704,-18.7352,1041.1162],[28.7637,-18.7329,1043.1957],[28.7588,-18.7346,1038.1375],[28.758,-18.7382,1039.2249],[28.7496,-18.7422,1037.3533],[28.7449,-18.7498,1036.5426],[28.7292,-18.7504,1035.0487],[28.7237,-18.746,1033.2332],[28.7213,-18.7412,1032.1132],[28.7108,-18.7424,1031.3429],[28.7086,-18.751,1032.4274],[28.7072,-18.751,1032.4274],[28.7049,-18.7457,1031.7264],[28.7023,-18.7436,1031.7297],[28.6962,-18.7484,1031.1993],[28.6947,-18.7458,1029.063],[28.6983,-18.7401,1029.4634],[28.6959,-18.7382,1031.0322],[28.6884,-18.7418,1028.9746],[28.6802,-18.7405,1029.1606],[28.6767,-18.7448,1026.3994],[28.6734,-18.7457,1027.156],[28.6643,-18.7391,1029.7253],[28.6602,-18.7412,1024.9399],[28.657,-18.7402,1026.7637],[28.6595,-18.7335,1024.1519],[28.6536,-18.7279,1025.6909],[28.6374,-18.7287,1021.5883],[28.6354,-18.7354,1022.7183],[28.6312,-18.7376,1021.9464],[28.6333,-18.7426,1020.4046],[28.6216,-18.7472,1020.7249],[28.6229,-18.7526,1021.0361],[28.6191,-18.7574,1020.8517],[28.628,-18.7531,1021.7748],[28.6311,-18.7508,1021.3645],[28.6328,-18.7471,1023.1193],[28.6387,-18.7442,1024.6003],[28.6477,-18.7438,1023.2061],[28.6516,-18.7455,1024.9342],[28.6707,-18.765,1026.4521],[28.6894,-18.7742,1031.6261],[28.7001,-18.782,1030.6814],[28.7064,-18.802,1034.3658]]]]}}