{"type":"Feature","properties":{"GID_3":"ZWE.9.3.17_2","GID_0":"ZWE","country":"Zimbabwe","GID_1":"ZWE.9_1","province":"MatabelelandSouth","NL_NAME_1":"NA","GID_2":"ZWE.9.3_2","county":"Bulilima","NL_NAME_2":"NA","city":"Ward4","VARNAME_3":"NA","NL_NAME_3":"NA","TYPE_3":"Ward","ENGTYPE_3":"Ward","CC_3":"NA","HASC_3":"NA","name":"Ward4.city"},
"geometry":{"type": "MultiPolygon","coordinates": [[[[27.6199,-20.3192,1223.9937],[27.6221,-20.3205,1222.5443],[27.6252,-20.3181,1224.8188],[27.631,-20.3218,1226.2678],[27.6421,-20.325,1230.131],[27.6526,-20.3362,1234.3157],[27.6531,-20.3401,1236.4155],[27.6573,-20.3471,1241.9257],[27.6684,-20.3491,1246.5912],[27.6791,-20.3574,1247.7472],[27.686,-20.3592,1260.8967],[27.6879,-20.3634,1256.2043],[27.6965,-20.3616,1261.9889],[27.7093,-20.3629,1268.3186],[27.717,-20.3572,1274.3779],[27.7189,-20.3496,1281.3069],[27.7244,-20.3412,1288.2992],[27.7238,-20.3389,1290.4958],[27.7411,-20.3217,1311.1461],[27.7378,-20.3184,1312.7874],[27.7365,-20.3129,1313.1844],[27.7331,-20.3086,1309.4769],[27.7246,-20.3018,1301.0364],[27.7126,-20.2887,1297.7273],[27.7107,-20.2611,1269.609],[27.712,-20.2593,1259.9404],[27.7138,-20.2596,1256.5527],[27.7133,-20.2558,1260.4922],[27.7048,-20.2482,1246.1277],[27.7051,-20.2452,1243.9397],[27.7021,-20.2375,1246.7346],[27.6983,-20.2365,1256.1451],[27.6957,-20.2322,1240.2899],[27.6962,-20.2294,1235.324],[27.6929,-20.2205,1227.9624],[27.6911,-20.2091,1220.9569],[27.6942,-20.2063,1218.1646],[27.6917,-20.1989,1217.9003],[27.6881,-20.1952,1215.8826],[27.6892,-20.1876,1203.0111],[27.6881,-20.1824,1207.7643],[27.6814,-20.1726,1196.585],[27.6806,-20.1728,1196.585],[27.677,-20.1746,1201.2285],[27.675,-20.1751,1203.1879],[27.6688,-20.1782,1207.9568],[27.6639,-20.1785,1215.446],[27.6539,-20.1889,1224.0001],[27.6452,-20.193,1229.1531],[27.6237,-20.1953,1212.5684],[27.6089,-20.1987,1225.6338],[27.597,-20.1977,1212.6689],[27.5862,-20.1945,1202.6919],[27.5712,-20.1986,1195.7556],[27.5648,-20.2046,1201.2932],[27.5633,-20.2138,1196.7085],[27.5492,-20.2295,1176.1735],[27.5483,-20.2391,1176.4435],[27.5518,-20.24,1178.26],[27.553,-20.2428,1182.9363],[27.5575,-20.2418,1178.7667],[27.5612,-20.2442,1188.4396],[27.5649,-20.2431,1184.3331],[27.5676,-20.2468,1180.2168],[27.5711,-20.2463,1186.4484],[27.5728,-20.2501,1199.8979],[27.5787,-20.2544,1192.2926],[27.5866,-20.2671,1195.9468],[27.5896,-20.268,1198.6357],[27.5914,-20.2751,1201.2155],[27.6102,-20.2956,1217.8596],[27.6113,-20.309,1217.4377],[27.6097,-20.3126,1219.8335],[27.6111,-20.3146,1219.3701],[27.6173,-20.3159,1230.2129],[27.6199,-20.3192,1223.9937]]]]}}