{"type":"Feature","properties":{"GID_3":"ZWE.8.3.8_2","GID_0":"ZWE","country":"Zimbabwe","GID_1":"ZWE.8_1","province":"MatabelelandNorth","NL_NAME_1":"NA","GID_2":"ZWE.8.3_2","county":"Hwange","NL_NAME_2":"NA","city":"Ward16","VARNAME_3":"NA","NL_NAME_3":"NA","TYPE_3":"Ward","ENGTYPE_3":"Ward","CC_3":"NA","HASC_3":"NA","name":"Ward16.city"},
"geometry":{"type": "MultiPolygon","coordinates": [[[[26.8749,-18.3416,690.3811],[26.8755,-18.3481,629.4214],[26.8709,-18.3548,637.5037],[26.8681,-18.3555,667.0835],[26.8686,-18.3593,642.0515],[26.8585,-18.3612,834.0095],[26.8545,-18.3722,735.4127],[26.884,-18.378,886.611],[26.8871,-18.399,917.1228],[26.8963,-18.4107,953.6512],[26.9166,-18.4193,984.5898],[26.9391,-18.4218,977.0366],[26.9351,-18.4342,974.4962],[26.9297,-18.4444,986.2948],[26.9279,-18.4616,1000.6487],[26.9407,-18.462,985.025],[26.9476,-18.4642,977.3295],[26.9471,-18.4666,980.5475],[26.9432,-18.467,984.9958],[26.9415,-18.4716,987.7233],[26.9442,-18.4748,1008.6036],[26.9434,-18.486,1000.9041],[26.9399,-18.4872,999.0863],[26.935,-18.4849,1010.3054],[26.9314,-18.4883,1005.951],[26.9252,-18.4904,1017.5472],[26.9179,-18.4963,1024.4443],[26.9189,-18.5017,1026.1494],[26.9267,-18.5009,1031.4954],[26.9293,-18.4992,1028.7595],[26.935,-18.5048,1046.4174],[26.9385,-18.5056,1037.171],[26.9392,-18.5187,1046.2058],[26.9422,-18.5322,1067.26],[26.946,-18.5382,1087.2395],[26.9852,-18.5352,1043.7843],[26.9875,-18.5275,1033.903],[26.9862,-18.5235,1021.9507],[27.0009,-18.5117,1012.9199],[27.0015,-18.5089,1021.6384],[27.0147,-18.5012,989.3472],[27.0216,-18.4949,974.2374],[27.0244,-18.4754,952.1147],[27.0334,-18.4741,963.0093],[27.0344,-18.4683,952.4737],[27.0385,-18.4664,941.5546],[27.0015,-18.4441,933.5115],[26.9583,-18.4083,974.6443],[26.9553,-18.3987,952.8483],[26.9474,-18.3928,955.0928],[26.9446,-18.3851,907.7078],[26.9382,-18.3771,918.3915],[26.8749,-18.3416,690.3811]]]]}}