{"type":"Feature","properties":{"GID_3":"ZWE.6.13.11_2","GID_0":"ZWE","country":"Zimbabwe","GID_1":"ZWE.6_1","province":"MashonalandWest","NL_NAME_1":"NA","GID_2":"ZWE.6.13_2","county":"Zvimba","NL_NAME_2":"NA","city":"Ward19","VARNAME_3":"NA","NL_NAME_3":"NA","TYPE_3":"Ward","ENGTYPE_3":"Ward","CC_3":"NA","HASC_3":"NA","name":"Ward19.city"},
"geometry":{"type": "MultiPolygon","coordinates": [[[[30.221,-17.5875,1187.4453],[30.2267,-17.5937,1194.6506],[30.2344,-17.5963,1202.0422],[30.2397,-17.6063,1211.035],[30.2474,-17.6131,1214.0345],[30.2615,-17.6326,1223.5424],[30.2668,-17.6561,1227.3995],[30.2831,-17.674,1247.7999],[30.2876,-17.6752,1254.4828],[30.2834,-17.6833,1255.186],[30.3154,-17.6649,1320.3529],[30.3725,-17.641,1385.0762],[30.3777,-17.6515,1408.1772],[30.3772,-17.6697,1387.2375],[30.4036,-17.6594,1405.9305],[30.413,-17.6716,1430.5043],[30.4322,-17.6749,1421.0901],[30.4345,-17.6654,1417.0253],[30.4342,-17.6559,1398.439],[30.4502,-17.6334,1429.3479],[30.4473,-17.6215,1415.353],[30.4355,-17.6224,1402.468],[30.4154,-17.6159,1407.1139],[30.4195,-17.6103,1392.7985],[30.4126,-17.5892,1359.6274],[30.4333,-17.5804,1374.449],[30.4315,-17.5707,1366.551],[30.4054,-17.5701,1333.043],[30.387,-17.5209,1320.0038],[30.356,-17.5148,1298.8835],[30.3506,-17.5322,1268.6418],[30.3416,-17.5287,1272.0129],[30.3394,-17.5296,1257.8359],[30.3372,-17.5283,1269.3309],[30.3022,-17.5263,1223.5425],[30.2985,-17.5214,1219.5167],[30.2773,-17.5389,1246.2073],[30.2498,-17.5687,1233.868],[30.2226,-17.574,1180.845],[30.2201,-17.5779,1185.6887],[30.221,-17.5875,1187.4453]]]]}}