{"type":"Feature","properties":{"GID_3":"ZWE.4.3.8_2","GID_0":"ZWE","country":"Zimbabwe","GID_1":"ZWE.4_1","province":"MashonalandCentral","NL_NAME_1":"NA","GID_2":"ZWE.4.3_2","county":"Centenary/Muzarabani","NL_NAME_2":"NA","city":"Ward16","VARNAME_3":"NA","NL_NAME_3":"NA","TYPE_3":"Ward","ENGTYPE_3":"Ward","CC_3":"NA","HASC_3":"NA","name":"Ward16.city"},
"geometry":{"type": "MultiPolygon","coordinates": [[[[31.2866,-16.5971,1108.5382],[31.3248,-16.5622,1214.9121],[31.3135,-16.5476,1234.7234],[31.3497,-16.5161,1152.4406],[31.3493,-16.5131,1171.9088],[31.3452,-16.5099,1147.6504],[31.3398,-16.5107,1172.0671],[31.3358,-16.5095,1164.5233],[31.335,-16.5073,1178.7726],[31.3306,-16.5065,1156.5],[31.3253,-16.5009,1195.1898],[31.3177,-16.4979,1209.1569],[31.3155,-16.4989,1203.5264],[31.311,-16.4933,1202.5076],[31.3035,-16.4903,1219.8942],[31.2992,-16.4904,1205.5267],[31.2779,-16.5083,1273.5929],[31.3032,-16.523,1225.5269],[31.2816,-16.5406,1212.5327],[31.3044,-16.5558,1244.7988],[31.2722,-16.5835,1126.2341],[31.2801,-16.5846,1118.4921],[31.2786,-16.5889,1120.0194],[31.2807,-16.5927,1108.7306],[31.2773,-16.5958,1116.5872],[31.2773,-16.5991,1101.2136],[31.2785,-16.5997,1095.6995],[31.2834,-16.5954,1121.8248],[31.2866,-16.5971,1108.5382]]]]}}