{"type":"Feature","properties":{"GID_3":"ZWE.6.10.12_2","GID_0":"ZWE","country":"Zimbabwe","GID_1":"ZWE.6_1","province":"MashonalandWest","NL_NAME_1":"NA","GID_2":"ZWE.6.10_2","county":"Mhondoro-Ngezi","NL_NAME_2":"NA","city":"Ward5","VARNAME_3":"NA","NL_NAME_3":"NA","TYPE_3":"Ward","ENGTYPE_3":"Ward","CC_3":"NA","HASC_3":"NA","name":"Ward5.city"},
"geometry":{"type": "MultiPolygon","coordinates": [[[[30.4614,-18.6304,1267.3413],[30.447,-18.6576,1258.5979],[30.4524,-18.6575,1254.2979],[30.4577,-18.6594,1258.9677],[30.4638,-18.6645,1256.1489],[30.4748,-18.6682,1257.6226],[30.4828,-18.6683,1262.2998],[30.4851,-18.6707,1262.4216],[30.4916,-18.6712,1262.2953],[30.5011,-18.6682,1262.0212],[30.5122,-18.6699,1259.4309],[30.516,-18.6731,1260.9282],[30.5209,-18.6743,1262.6846],[30.5227,-18.6778,1260.9363],[30.526,-18.6759,1260.0361],[30.5273,-18.6722,1266.0624],[30.5339,-18.6731,1263.9175],[30.5354,-18.6692,1267.0367],[30.5518,-18.6702,1269.208],[30.5605,-18.6656,1271.9611],[30.5612,-18.6682,1268.8079],[30.5665,-18.6683,1269.3107],[30.5722,-18.6614,1272.7567],[30.579,-18.6609,1275.0289],[30.5822,-18.6635,1273.2333],[30.5843,-18.6626,1276.9791],[30.5897,-18.6654,1273.509],[30.5933,-18.6645,1274.2026],[30.5918,-18.67,1272.6173],[30.5955,-18.671,1273.9624],[30.5999,-18.6685,1275.8284],[30.6081,-18.6687,1277.0159],[30.6149,-18.664,1278.1429],[30.6164,-18.6586,1280.0087],[30.62,-18.6597,1280.4387],[30.62,-18.6615,1280.5009],[30.622,-18.6613,1279.3146],[30.6219,-18.657,1280.7715],[30.6258,-18.6601,1280.0261],[30.6284,-18.6568,1281.9016],[30.6314,-18.6566,1282.5134],[30.6375,-18.6616,1284.8571],[30.6427,-18.6612,1286.0626],[30.6442,-18.6626,1286.921],[30.6495,-18.6591,1293.7319],[30.6509,-18.6599,1288.395],[30.6498,-18.6452,1303.3156],[30.6455,-18.6328,1304.1389],[30.616,-18.6275,1301.8035],[30.6153,-18.6187,1309.8417],[30.6054,-18.6055,1307.4375],[30.5776,-18.6042,1294.0039],[30.572,-18.6068,1300.1118],[30.5635,-18.6149,1297.0052],[30.5532,-18.6146,1296.3912],[30.5427,-18.6182,1293.5851],[30.5403,-18.618,1293.0402],[30.5271,-18.6088,1290.1571],[30.5215,-18.6079,1289.4681],[30.5157,-18.6008,1290.2942],[30.4988,-18.6,1287.0068],[30.4756,-18.5956,1282.58],[30.4699,-18.6003,1280.8834],[30.4579,-18.6033,1282.0565],[30.4614,-18.6304,1267.3413]]]]}}