{"type":"Feature","properties":{"GID_3":"ZWE.5.11.7_2","GID_0":"ZWE","country":"Zimbabwe","GID_1":"ZWE.5_1","province":"MashonalandEast","NL_NAME_1":"NA","GID_2":"ZWE.5.11_2","county":"UzumbaMarambaPfungwe","NL_NAME_2":"NA","city":"Ward15","VARNAME_3":"NA","NL_NAME_3":"NA","TYPE_3":"Ward","ENGTYPE_3":"Ward","CC_3":"NA","HASC_3":"NA","name":"Ward15.city"},
"geometry":{"type": "MultiPolygon","coordinates": [[[[31.6869,-17.3535,944.03],[31.6803,-17.3629,954.245],[31.6734,-17.3678,1001.5505],[31.6659,-17.3833,1016.438],[31.6725,-17.3879,1022.8551],[31.6843,-17.4014,1037.6074],[31.7012,-17.4136,1046.4553],[31.7002,-17.4177,1050.3541],[31.7056,-17.4207,1062.1404],[31.7102,-17.4272,1072.0781],[31.7163,-17.4315,1073.9674],[31.727,-17.4508,1087.2196],[31.7302,-17.4536,1092.8529],[31.7296,-17.4573,1092.9835],[31.7331,-17.4626,1105.8905],[31.7372,-17.4594,1117.0342],[31.747,-17.4623,1116.9523],[31.7513,-17.4724,1113.538],[31.7596,-17.4741,1150.0862],[31.7688,-17.482,1140.4668],[31.7944,-17.497,1165.3771],[31.7992,-17.496,1177.5858],[31.8032,-17.49,1183.0421],[31.8149,-17.4927,1198.8114],[31.817,-17.4915,1200.625],[31.8292,-17.4925,1205.3915],[31.8246,-17.4778,1289.4548],[31.842,-17.4495,1176.3453],[31.8343,-17.4483,1163.1263],[31.8205,-17.4392,1171.7659],[31.811,-17.4372,1146.8373],[31.8094,-17.433,1147.5906],[31.8111,-17.4275,1140.4766],[31.8065,-17.4194,1142.2074],[31.789,-17.3992,1134.7532],[31.7749,-17.3879,1100.427],[31.7722,-17.4042,1159.293],[31.7696,-17.4083,1192.1118],[31.7521,-17.4061,1158.5052],[31.7409,-17.417,1144.3228],[31.7381,-17.4167,1132.542],[31.7302,-17.4074,1095.9365],[31.7199,-17.3867,1041.4097],[31.7076,-17.3681,970.1929],[31.6885,-17.351,918.4265],[31.6869,-17.3535,944.03]]]]}}