{"type":"Feature","properties":{"GID_3":"ZWE.8.6.9_2","GID_0":"ZWE","country":"Zimbabwe","GID_1":"ZWE.8_1","province":"MatabelelandNorth","NL_NAME_1":"NA","GID_2":"ZWE.8.6_2","county":"Nkayi","NL_NAME_2":"NA","city":"Ward17","VARNAME_3":"NA","NL_NAME_3":"NA","TYPE_3":"Ward","ENGTYPE_3":"Ward","CC_3":"NA","HASC_3":"NA","name":"Ward17.city"},
"geometry":{"type": "MultiPolygon","coordinates": [[[[28.6326,-18.8996,1147.593],[28.6395,-18.9159,1175.7117],[28.6488,-18.9243,1152.8624],[28.652,-18.9312,1138.5841],[28.6599,-18.9418,1168.3203],[28.6726,-18.9493,1204.7122],[28.6756,-18.9549,1221.7693],[28.6936,-18.966,1172.1729],[28.7091,-18.9798,1149.2465],[28.7202,-19.0052,1174.4869],[28.718,-19.02,1185.7164],[28.7132,-19.0259,1204.0828],[28.714,-19.0361,1237.811],[28.7286,-19.0423,1218.3608],[28.7473,-19.0448,1240.6108],[28.7499,-19.0465,1244.0438],[28.7599,-19.0462,1240.2296],[28.7586,-19.0368,1190.3538],[28.7594,-19.0287,1176.2412],[28.765,-19.018,1170.5894],[28.7643,-19.0111,1169.1207],[28.7544,-18.9983,1157.672],[28.7506,-18.9975,1144.2877],[28.7474,-18.9919,1141.1665],[28.7475,-18.9816,1140.3047],[28.741,-18.9656,1120.2211],[28.7406,-18.9488,1111.3895],[28.7459,-18.9393,1107.0352],[28.7613,-18.9309,1098.0034],[28.7621,-18.9287,1094.8455],[28.7592,-18.9281,1096.3446],[28.7598,-18.9265,1102.0776],[28.7634,-18.9264,1093.27],[28.7649,-18.9236,1094.2717],[28.773,-18.92,1089.0919],[28.7684,-18.9144,1089.1348],[28.7692,-18.9089,1080.4098],[28.7452,-18.8964,1090.8959],[28.7193,-18.8989,1104.0789],[28.6947,-18.9036,1127.7363],[28.684,-18.9039,1110.8232],[28.674,-18.9021,1097.163],[28.6629,-18.8894,1108.3958],[28.6323,-18.8968,1138.6389],[28.6326,-18.8996,1147.593]]]]}}