{"type": "Feature","bbox": [28.4602,-21.3173,28.5877,-21.0608],"geometry": {"type": "MultiPolygon","coordinates": [[[[28.4602,-21.1828,911.3256],[28.4649,-21.1883,903.4145],[28.4626,-21.1923,903.7139],[28.4618,-21.1984,903.738],[28.4652,-21.2068,899.6027],[28.4659,-21.2152,898.0128],[28.4692,-21.2173,896.9519],[28.4786,-21.23,891.7557],[28.4781,-21.2331,890.7381],[28.4743,-21.2379,889.204],[28.4776,-21.2446,885.3151],[28.4761,-21.2543,885.8188],[28.4781,-21.2654,882.4255],[28.4854,-21.276,878.2131],[28.4814,-21.2849,875.1269],[28.4815,-21.2888,873.2237],[28.4893,-21.2965,872.8853],[28.4896,-21.3116,866.2585],[28.4976,-21.3173,865.4631],[28.5039,-21.3061,871.7946],[28.5005,-21.2983,877.7073],[28.5014,-21.281,888.9566],[28.506,-21.2751,891.0457],[28.5186,-21.2696,893.2241],[28.5376,-21.2641,905.2782],[28.5603,-21.272,924.8569],[28.5763,-21.2653,984.7336],[28.5877,-21.25,933.3124],[28.5864,-21.2441,938.8869],[28.5807,-21.2401,940.7729],[28.5583,-21.2469,920.3345],[28.5274,-21.065,991.0554],[28.5029,-21.0608,1019.9086],[28.4602,-21.1828,911.3256]]]]}
,"properties": {"GID_3": "ZWE.9.8.20_2","GID_0": "ZWE","country": "Zimbabwe","GID_1": "ZWE.9_1","province": "MatabelelandSouth","NL_NAME_1": "NA","GID_2": "ZWE.9.8_2","county": "Matobo","NL_NAME_2": "NA","city": "Ward3","VARNAME_3": "NA","NL_NAME_3": "NA","TYPE_3": "Ward","ENGTYPE_3": "Ward","CC_3": "NA","HASC_3": "NA","name": "Ward3.city","area_km2": 175.3687,"hist_schema_id": "Elevation0-9000","hist_area_km2": {"875": 9.5028,"900": 39.9393,"925": 66.003,"950": 46.3329,"975": 11.6319,"1000": 1.7212,"1025": 0.2374}}}