{"type":"Feature","properties":{"GID_3":"ZWE.3.1.32_2","GID_0":"ZWE","country":"Zimbabwe","GID_1":"ZWE.3_1","province":"Manicaland","NL_NAME_1":"NA","GID_2":"ZWE.3.1_2","county":"Buhera","NL_NAME_2":"NA","city":"Ward9","VARNAME_3":"NA","NL_NAME_3":"NA","TYPE_3":"Ward","ENGTYPE_3":"Ward","CC_3":"NA","HASC_3":"NA","name":"Ward9.city"},
"geometry":{"type": "MultiPolygon","coordinates": [[[[31.8116,-19.0784,864.6978],[31.8131,-19.0712,873.7743],[31.8064,-19.0666,869.312],[31.8023,-19.0592,874.0651],[31.7971,-19.0597,864.0149],[31.7951,-19.0519,864.9265],[31.7909,-19.0491,865.5849],[31.7845,-19.0478,870.9921],[31.7743,-19.0347,885.5659],[31.7473,-19.0279,892.4271],[31.7388,-19.0277,883.6912],[31.734,-19.024,895.5059],[31.7267,-19.0215,900.2922],[31.7228,-19.0248,892.9648],[31.72,-19.0248,890.1473],[31.7202,-19.031,892.9528],[31.7122,-19.034,912.9182],[31.712,-19.0383,904.1252],[31.7013,-19.0371,922.4502],[31.695,-19.0389,926.5404],[31.6911,-19.0432,929.254],[31.6897,-19.043,933.5854],[31.6867,-19.0505,944.8848],[31.6698,-19.065,985.3497],[31.6742,-19.0756,1040.9241],[31.6843,-19.0763,1021.885],[31.6927,-19.0842,957.4095],[31.6956,-19.083,955.2593],[31.7006,-19.0871,948.2091],[31.7006,-19.0887,944.1302],[31.7038,-19.0905,939.1357],[31.7073,-19.0988,968.2914],[31.7066,-19.1073,952.2893],[31.7085,-19.1099,949.2789],[31.715,-19.1114,934.7601],[31.7173,-19.1103,929.9672],[31.723,-19.1116,928.7901],[31.7271,-19.1084,921.7726],[31.7351,-19.1081,915.3087],[31.7364,-19.1068,910.6768],[31.7416,-19.1085,906.0571],[31.7443,-19.1045,900.1642],[31.7468,-19.1044,899.3182],[31.7514,-19.0996,897.0627],[31.7589,-19.0984,891.1578],[31.7606,-19.0966,891.7107],[31.77,-19.0959,892.0233],[31.7756,-19.0904,889.0028],[31.7807,-19.0914,876.3818],[31.7899,-19.0856,871.5664],[31.7931,-19.0817,871.6775],[31.8066,-19.081,864.5866],[31.8116,-19.0784,864.6978]]]]}}