{"type": "Feature","bbox": [29.1992,-18.7861,29.3369,-18.6031],"geometry": {"type": "MultiPolygon","coordinates": [[[[29.2245,-18.6046,1118.1328],[29.22,-18.6185,1144.6118],[29.2203,-18.6291,1152.0813],[29.2169,-18.6349,1158.2161],[29.2209,-18.6528,1176.4376],[29.2176,-18.6552,1170.0868],[29.2164,-18.6609,1166.1102],[29.2122,-18.6672,1172.5212],[29.1992,-18.6725,1178.679],[29.2002,-18.6933,1204.4135],[29.2044,-18.7196,1252.1537],[29.2066,-18.7279,1242.665],[29.2106,-18.733,1254.0282],[29.2119,-18.7422,1293.7709],[29.2199,-18.7499,1291.6851],[29.23,-18.7524,1260.0193],[29.2359,-18.756,1260.0219],[29.2409,-18.756,1264.994],[29.2454,-18.7687,1247.0691],[29.2459,-18.7785,1246.7269],[29.2511,-18.7861,1245.9679],[29.2735,-18.7812,1205.931],[29.2839,-18.7731,1196.4894],[29.2878,-18.7669,1192.9843],[29.2946,-18.7653,1188.9343],[29.2998,-18.7564,1177.4149],[29.3055,-18.751,1175.5156],[29.3047,-18.748,1171.9905],[29.3096,-18.7421,1168.4734],[29.31,-18.7356,1169.3683],[29.3155,-18.7337,1160.9935],[29.3214,-18.7277,1161.9169],[29.326,-18.7274,1151.1476],[29.3279,-18.7251,1155.923],[29.3329,-18.7235,1147.9113],[29.3369,-18.7198,1146.7878],[29.3332,-18.7185,1152.9377],[29.3308,-18.7147,1156.8159],[29.3255,-18.7158,1159.584],[29.3163,-18.7111,1165.2377],[29.3162,-18.7071,1168.8447],[29.3067,-18.6977,1166.645],[29.2962,-18.698,1155.9397],[29.294,-18.6968,1152.6345],[29.2924,-18.6922,1152.2218],[29.289,-18.6893,1147.2721],[29.2906,-18.6869,1147.2899],[29.2881,-18.6813,1143.8027],[29.2917,-18.6753,1140.5073],[29.2883,-18.67,1141.3971],[29.2821,-18.6678,1133.8768],[29.2772,-18.6585,1120.3009],[29.2765,-18.6532,1115.9373],[29.2547,-18.64,1143.3745],[29.2514,-18.6392,1147.9451],[29.2502,-18.6407,1152.5463],[29.2481,-18.6396,1151.4934],[29.2435,-18.6408,1170.3649],[29.2416,-18.639,1168.5212],[29.2407,-18.6377,1171.1113],[29.2439,-18.624,1148.9],[29.2353,-18.61,1126.1353],[29.2367,-18.6047,1113.4398],[29.2278,-18.6031,1121.1644],[29.2245,-18.6046,1118.1328]]]]}
,"properties": {"GID_3": "ZWE.10.7.5_2","GID_0": "ZWE","country": "Zimbabwe","GID_1": "ZWE.10_1","province": "Midlands","NL_NAME_1": "NA","GID_2": "ZWE.10.7_2","county": "Kwekwe","NL_NAME_2": "NA","city": "Ward13","VARNAME_3": "NA","NL_NAME_3": "NA","TYPE_3": "Ward","ENGTYPE_3": "Ward","CC_3": "NA","HASC_3": "NA","name": "Ward13.city","area_km2": 143.5081,"hist_schema_id": "Elevation0-9000","hist_area_km2": {"1100": 0.0201,"1125": 8.2366,"1150": 33.9061,"1175": 34.5227,"1200": 28.1719,"1225": 21.7049,"1250": 11.7453,"1275": 5.0398,"1300": 0.1606}}}