{"type":"Feature","properties":{"GID_3":"ZWE.4.5.4_2","GID_0":"ZWE","country":"Zimbabwe","GID_1":"ZWE.4_1","province":"MashonalandCentral","NL_NAME_1":"NA","GID_2":"ZWE.4.5_2","county":"Mazowe","NL_NAME_2":"NA","city":"Ward12","VARNAME_3":"NA","NL_NAME_3":"NA","TYPE_3":"Ward","ENGTYPE_3":"Ward","CC_3":"NA","HASC_3":"NA","name":"Ward12.city"},
"geometry":{"type": "MultiPolygon","coordinates": [[[[31.0402,-17.1753,1303.6331],[31.0352,-17.1773,1303.8152],[31.032,-17.1764,1301.7736],[31.0062,-17.1798,1203.2258],[31.0072,-17.1842,1207.4746],[31.0091,-17.1838,1207.4746],[31.0105,-17.1865,1196.8319],[31.01,-17.1906,1194.7247],[31.0112,-17.1922,1195.1503],[31.01,-17.1924,1195.1503],[31.0096,-17.1968,1189.7754],[31.0138,-17.1997,1192.5969],[31.0115,-17.2053,1185.0604],[31.0132,-17.2088,1182.9945],[31.0153,-17.2089,1191.3179],[31.0128,-17.2151,1177.8677],[31.0163,-17.2261,1177.4307],[31.0133,-17.2267,1169.9806],[31.0154,-17.2322,1170.5374],[31.013,-17.2324,1172.0656],[31.0135,-17.2354,1156.2157],[31.0175,-17.2376,1173.0365],[31.0167,-17.2444,1154.9336],[31.019,-17.2475,1154.365],[31.0707,-17.2432,1147.8384],[31.077,-17.2216,1154.7335],[31.0834,-17.2151,1168.0023],[31.0861,-17.2145,1168.9043],[31.0813,-17.2088,1183.0371],[31.0815,-17.2037,1196.958],[31.0769,-17.1926,1352.6873],[31.0787,-17.1869,1292.4407],[31.078,-17.1803,1247.6365],[31.0812,-17.1762,1221.5044],[31.0797,-17.1713,1232.0946],[31.0756,-17.1695,1247.2926],[31.0651,-17.1705,1265.7096],[31.0573,-17.1646,1303.9207],[31.0534,-17.1654,1365.5494],[31.0526,-17.1698,1464.5066],[31.0402,-17.1753,1303.6331]]]]}}