{"type": "Feature","bbox": [30.0478,-16.0008,30.4224,-15.6107],"geometry": {"type": "MultiPolygon","coordinates": [[[[30.4193,-15.6186,322.5],[30.4115,-15.6107,332.2294],[30.4138,-15.6149,326.0967],[30.4121,-15.6184,323.0],[30.3913,-15.6339,351.9414],[30.3609,-15.6457,364.6307],[30.3407,-15.6455,386.6384],[30.3217,-15.6404,338.0053],[30.2796,-15.6394,439.2644],[30.27026383351588,-15.635824446878422,326.5],[30.2716,-15.638,340.1157],[30.2854,-15.6446,350.9783],[30.2847,-15.6675,894.2072],[30.2863,-15.7017,1005.5715],[30.3131,-15.7168,780.0637],[30.3345,-15.7503,605.4966],[30.3311,-15.7518,571.0049],[30.1513,-15.9189,763.4402],[30.0515,-15.9883,595.8815],[30.0521,-15.9937,593.5928],[30.0478,-15.9995,595.8427],[30.4219,-16.0008,400.9779],[30.4224,-15.6225,322.5],[30.4193,-15.6186,322.5]]],
[[[30.270011183225161,-15.635413080379427,326.5],[30.2702,-15.6358,326.5],[30.27026383351588,-15.635824446878422,326.5],[30.270011183225161,-15.635413080379427,326.5]]],
[[[30.270011183225161,-15.635413080379427,326.5],[30.2641,-15.6233,330.9361],[30.2606,-15.6216,334.6434],[30.2584,-15.6236,333.1588],[30.2564,-15.6258,332.0956],[30.2585,-15.6244,333.1588],[30.2638,-15.6253,328.3442],[30.270011183225161,-15.635413080379427,326.5]]]]}
,"properties": {"GID_3": "ZWE.4.6.1_2","GID_0": "ZWE","country": "Zimbabwe","GID_1": "ZWE.4_1","province": "MashonalandCentral","NL_NAME_1": "NA","GID_2": "ZWE.4.6_2","county": "Mbire","NL_NAME_2": "NA","city": "Ward1","VARNAME_3": "NA","NL_NAME_3": "NA","TYPE_3": "Ward","ENGTYPE_3": "Ward","CC_3": "NA","HASC_3": "NA","name": "Ward1.city","area_km2": 847.2943,"hist_schema_id": "Elevation0-9000","hist_area_km2": {"325": 20.9671,"350": 49.5599,"375": 52.1849,"400": 74.6327,"425": 120.8463,"450": 102.8409,"475": 100.6273,"500": 90.264,"525": 60.0037,"550": 44.8545,"575": 32.826,"600": 22.1213,"625": 16.2903,"650": 15.4741,"675": 12.1511,"700": 8.1761,"725": 6.6474,"750": 4.4661,"775": 2.9978,"800": 2.7124,"825": 1.9375,"850": 1.3053,"875": 0.8976,"900": 0.6936,"925": 0.755,"950": 0.5307,"975": 0.3266,"1000": 0.1225,"1025": 0.0816}}}