{"type":"Feature","properties":{"GID_3":"ZWE.5.7.19_2","GID_0":"ZWE","country":"Zimbabwe","GID_1":"ZWE.5_1","province":"MashonalandEast","NL_NAME_1":"NA","GID_2":"ZWE.5.7_2","county":"Murehwa","NL_NAME_2":"NA","city":"Ward26","VARNAME_3":"NA","NL_NAME_3":"NA","TYPE_3":"Ward","ENGTYPE_3":"Ward","CC_3":"NA","HASC_3":"NA","name":"Ward26.city"},
"geometry":{"type": "MultiPolygon","coordinates": [[[[31.6897,-17.9347,1363.5765],[31.6943,-17.9339,1363.9559],[31.7329,-17.9504,1424.1519],[31.7562,-17.9348,1354.481],[31.7547,-17.9213,1359.3826],[31.7569,-17.9143,1352.2098],[31.7547,-17.911,1344.6422],[31.7548,-17.9076,1346.613],[31.7523,-17.9057,1339.76],[31.7532,-17.9026,1343.1671],[31.7511,-17.8997,1339.1152],[31.751,-17.896,1343.7325],[31.7467,-17.8916,1348.7396],[31.7493,-17.8883,1343.8429],[31.7515,-17.888,1338.6729],[31.7523,-17.8856,1356.316],[31.7382,-17.8747,1334.5787],[31.7398,-17.8632,1332.3164],[31.738,-17.8597,1342.0171],[31.7354,-17.8621,1336.8073],[31.732,-17.862,1336.7451],[31.7246,-17.8579,1333.3357],[31.7223,-17.8546,1332.7206],[31.7118,-17.8539,1337.0026],[31.7031,-17.8459,1341.4642],[31.6983,-17.8463,1326.8726],[31.6886,-17.8354,1337.4675],[31.6845,-17.8344,1343.4587],[31.6815,-17.8355,1326.8341],[31.6758,-17.8268,1331.089],[31.6726,-17.8174,1329.0276],[31.6609,-17.8109,1319.2017],[31.6577,-17.8142,1323.6702],[31.6574,-17.8199,1327.2631],[31.6648,-17.8316,1326.3199],[31.67,-17.836,1344.0223],[31.667,-17.8427,1331.2253],[31.6674,-17.8474,1327.8647],[31.6642,-17.853,1337.2904],[31.6645,-17.8592,1329.1774],[31.6699,-17.8655,1342.4031],[31.6753,-17.8666,1340.7134],[31.6743,-17.8746,1337.6013],[31.6806,-17.8769,1353.6566],[31.681,-17.8788,1345.9226],[31.6784,-17.884,1340.2968],[31.6726,-17.8868,1353.9854],[31.668,-17.8869,1363.8046],[31.6653,-17.8892,1372.6252],[31.6615,-17.8974,1364.4424],[31.6585,-17.8989,1373.698],[31.6579,-17.902,1373.9766],[31.6554,-17.9039,1376.5201],[31.652,-17.9119,1383.2528],[31.6897,-17.9347,1363.5765]]]]}}