{"type": "Feature","bbox": [31.0976,-20.7535,31.7834,-20.0025],"geometry": {"type": "MultiPolygon","coordinates": [[[[31.2831,-20.6983,744.8936],[31.2884,-20.6896,843.7843],[31.328,-20.6634,717.4842],[31.3828,-20.6444,675.2584],[31.4068,-20.6479,603.5432],[31.4581,-20.6791,559.9583],[31.5149,-20.6534,557.0135],[31.6042,-20.6272,546.1198],[31.6021,-20.6255,529.0],[31.6116,-20.6214,529.0],[31.6142,-20.6245,619.9373],[31.6332,-20.6027,594.2492],[31.6879,-20.6026,781.1245],[31.7178,-20.6521,511.7947],[31.7246,-20.6432,513.9139],[31.7499,-20.6328,518.3989],[31.7801,-20.6232,498.0601],[31.7785,-20.6152,504.9761],[31.7807,-20.6145,502.1973],[31.782,-20.6169,499.0213],[31.7832,-20.6149,505.6504],[31.779,-20.6081,514.7349],[31.7817,-20.5937,513.4976],[31.7834,-20.5923,518.7046],[31.7808,-20.5893,518.5853],[31.7823,-20.5862,524.166],[31.7526,-20.5707,608.4215],[31.7401,-20.5724,549.3096],[31.7399,-20.5677,559.1619],[31.7441,-20.5656,569.4557],[31.7439,-20.5644,566.7626],[31.7268,-20.5577,567.874],[31.7259,-20.5555,567.1499],[31.7222,-20.5538,565.3223],[31.7197,-20.5499,580.6753],[31.7156,-20.5315,582.8457],[31.7088,-20.5288,599.4851],[31.7046,-20.5111,678.4287],[31.7012,-20.5071,683.201],[31.7007,-20.498,716.4667],[31.7028,-20.4937,720.3152],[31.6998,-20.4927,746.1794],[31.6955,-20.4942,734.6537],[31.6917,-20.4917,743.3684],[31.6943,-20.4803,786.8286],[31.6979,-20.4772,788.1273],[31.6949,-20.473,801.864],[31.6969,-20.4656,841.9617],[31.6832,-20.4351,804.7377],[31.6784,-20.4311,791.4717],[31.6916,-20.4172,697.4299],[31.6943,-20.4049,674.8008],[31.7017,-20.3995,657.7053],[31.7025,-20.3961,655.3512],[31.6994,-20.3906,648.4335],[31.7035,-20.3828,641.8],[31.7071,-20.3816,636.8502],[31.7154,-20.3723,628.1069],[31.7248,-20.3708,630.9222],[31.7285,-20.3727,629.0311],[31.7316,-20.3707,626.4435],[31.7269,-20.3669,629.2814],[31.722,-20.3655,628.8219],[31.7231,-20.3548,638.2368],[31.7158,-20.3536,639.0876],[31.7083,-20.3498,633.0933],[31.6973,-20.341,642.1628],[31.6885,-20.3377,653.4808],[31.6865,-20.3354,648.3658],[31.6796,-20.3339,650.4058],[31.6766,-20.3273,661.6959],[31.6733,-20.3309,654.2029],[31.6715,-20.3274,655.9057],[31.6721,-20.3233,657.7211],[31.6672,-20.3196,661.0223],[31.6636,-20.3193,669.5428],[31.6626,-20.3227,658.2219],[31.6604,-20.3233,660.2134],[31.6581,-20.3193,669.4243],[31.6531,-20.3152,663.6104],[31.6561,-20.3082,673.3289],[31.6534,-20.3072,665.6301],[31.6523,-20.3038,670.4937],[31.6479,-20.3034,675.1548],[31.6382,-20.2989,678.7103],[31.636,-20.2959,681.9062],[31.6358,-20.2887,695.1085],[31.6213,-20.2882,696.5986],[31.6147,-20.2862,710.3817],[31.6103,-20.2874,696.707],[31.6095,-20.2833,702.3799],[31.6119,-20.2694,780.1703],[31.6193,-20.2429,754.0],[31.6062,-20.2372,754.0],[31.6055,-20.2296,754.0],[31.6031,-20.2256,754.0],[31.5918,-20.2188,759.2739],[31.5909,-20.2094,762.08],[31.5924,-20.206,762.6319],[31.5906,-20.2012,771.9935],[31.5938,-20.1849,777.6581],[31.5911,-20.1744,783.2925],[31.5956,-20.1671,774.3234],[31.5931,-20.1596,779.3469],[31.5896,-20.1568,790.7404],[31.5809,-20.1541,793.1138],[31.5769,-20.1493,808.8011],[31.5714,-20.1504,811.1829],[31.5594,-20.1383,836.4579],[31.5447,-20.1283,863.5149],[31.538,-20.1254,860.7802],[31.5384,-20.1232,890.6864],[31.534,-20.1167,846.4524],[31.5352,-20.1128,868.3546],[31.5402,-20.1087,856.1624],[31.5388,-20.1014,988.0728],[31.5277,-20.0873,955.3284],[31.5216,-20.0901,969.9999],[31.5177,-20.0837,986.5972],[31.5121,-20.0819,990.0295],[31.5039,-20.084,1014.061],[31.5011,-20.0828,1062.0433],[31.4942,-20.0859,984.8391],[31.4855,-20.0782,1003.902],[31.4804,-20.076,1003.6511],[31.4758,-20.0787,1008.458],[31.4707,-20.0776,1009.9805],[31.4706,-20.0674,1042.4751],[31.4679,-20.0644,1026.4626],[31.4679,-20.0608,1028.6698],[31.4565,-20.0508,1194.7242],[31.4383,-20.0223,1433.1978],[31.422,-20.0364,1539.3735],[31.4032,-20.0025,1165.4116],[31.3946,-20.0192,1176.2423],[31.3666,-20.0284,1047.0388],[31.3683,-20.0348,1044.9117],[31.3227,-20.0548,1118.9147],[31.3128,-20.0483,1085.3318],[31.3099,-20.0657,1102.2834],[31.323,-20.1101,1092.6815],[31.3232,-20.1344,1040.6689],[31.2566,-20.117,1256.1267],[31.2569,-20.1774,1048.9058],[31.2302,-20.1927,1066.9282],[31.2054,-20.2105,1112.1549],[31.1736,-20.23,924.4839],[31.1707,-20.2304,925.3017],[31.1673,-20.2329,921.3546],[31.1668,-20.2356,915.2583],[31.1636,-20.2358,900.3591],[31.1586,-20.2419,943.3304],[31.1423,-20.2545,881.9382],[31.1384,-20.2617,873.4197],[31.1358,-20.2607,876.1935],[31.1334,-20.2627,868.7119],[31.1336,-20.2665,893.6602],[31.1273,-20.2692,862.8578],[31.1238,-20.2775,887.0895],[31.1211,-20.2779,866.8569],[31.1137,-20.2867,869.4946],[31.1123,-20.2937,888.4125],[31.1141,-20.2976,875.3151],[31.1131,-20.3037,878.2798],[31.1076,-20.3082,855.714],[31.1094,-20.3146,858.6145],[31.1046,-20.3173,844.3619],[31.1026,-20.3153,844.2189],[31.1014,-20.3159,844.9255],[31.101,-20.3233,840.837],[31.0976,-20.3274,852.7946],[31.1027,-20.3322,840.2495],[31.103,-20.335,846.7485],[31.1002,-20.3391,812.4724],[31.1044,-20.3441,782.6597],[31.1054,-20.3516,747.9843],[31.1116,-20.3597,744.9308],[31.1167,-20.3734,686.3914],[31.1202,-20.3768,681.7549],[31.1214,-20.3824,680.4652],[31.1191,-20.3846,683.941],[31.1196,-20.3874,677.8098],[31.1264,-20.388,669.3358],[31.1313,-20.3864,679.6198],[31.1329,-20.3891,673.3209],[31.1367,-20.3891,674.4831],[31.1392,-20.3843,664.2007],[31.149,-20.3808,679.4252],[31.1844,-20.3728,647.476],[31.1907,-20.3877,644.9005],[31.1913,-20.3987,638.6044],[31.1963,-20.401,643.3296],[31.1991,-20.407,631.8878],[31.1996,-20.4094,629.4228],[31.1968,-20.412,627.6765],[31.1969,-20.4164,633.4633],[31.2022,-20.4254,627.958],[31.2057,-20.44,623.3512],[31.2151,-20.4606,622.4816],[31.2138,-20.4658,619.0911],[31.2165,-20.4686,616.6303],[31.2219,-20.4873,606.0603],[31.2255,-20.4905,613.1735],[31.2396,-20.4937,615.4936],[31.244,-20.4966,608.1401],[31.248,-20.5172,602.1479],[31.2536,-20.5281,591.7694],[31.269,-20.5851,572.1688],[31.2688,-20.6014,573.7532],[31.2606,-20.609,583.7712],[31.2375,-20.6197,580.2596],[31.1875,-20.6388,591.8647],[31.1771,-20.6448,562.623],[31.1804,-20.6499,547.154],[31.1805,-20.6538,549.04],[31.1655,-20.666,553.9976],[31.1725,-20.6736,531.0],[31.1692,-20.683,531.0],[31.1919,-20.6935,531.0],[31.2011,-20.693,531.0],[31.226,-20.6865,543.1158],[31.2316,-20.6878,531.0],[31.2377,-20.7182,501.9993],[31.2383,-20.7406,486.7668],[31.2409,-20.7454,491.2599],[31.2415,-20.7525,486.582],[31.2434,-20.7535,480.5823],[31.2497,-20.7516,475.6601],[31.2495,-20.7499,486.074],[31.2831,-20.6983,744.8936]]]]}
,"properties": {"GID_2": "ZWE.7.9_2","GID_0": "ZWE","country": "Zimbabwe","GID_1": "ZWE.7_1","province": "Masvingo","NL_NAME_1": "NA","county": "Zaka","VARNAME_2": "NA","NL_NAME_2": "NA","TYPE_2": "District","ENGTYPE_2": "District","CC_2": "NA","HASC_2": "NA","name": "Zaka.county","area_km2": 3133.33,"hist_schema_id": "Elevation0-9000","hist_area_km2": {"475": 1.586,"500": 11.484,"525": 67.661,"550": 90.29,"575": 97.385,"600": 110.061,"625": 135.553,"650": 180.275,"675": 228.634,"700": 260.29,"725": 268.836,"750": 243.616,"775": 198.487,"800": 149.197,"825": 115.103,"850": 98.094,"875": 96.575,"900": 82.718,"925": 70.413,"950": 69.565,"975": 69.831,"1000": 67.852,"1025": 76.618,"1050": 73.242,"1075": 67.134,"1100": 60.17,"1125": 50.393,"1150": 33.735,"1175": 24.204,"1200": 13.955,"1225": 5.495,"1250": 3.365,"1275": 2.669,"1300": 1.872,"1325": 1.275,"1350": 1.115,"1375": 1.295,"1400": 1.335,"1425": 0.697,"1450": 0.418,"1475": 0.359,"1500": 0.259,"1525": 0.159,"1550": 0.06}}}