{"type": "Feature","bbox": [29.8268,-19.5063,29.8685,-19.4837],"geometry": {"type": "MultiPolygon","coordinates": [[[[29.8328,-19.4837,1433.9545],[29.8268,-19.4985,1433.0364],[29.834,-19.5061,1424.8871],[29.8412,-19.5063,1424.0605],[29.8468,-19.4976,1437.5791],[29.8492,-19.4994,1436.8564],[29.8518,-19.5061,1439.5544],[29.8653,-19.5057,1434.9246],[29.8685,-19.4977,1447.1672],[29.8597,-19.4951,1442.5793],[29.8629,-19.4904,1440.3748],[29.8612,-19.4891,1439.4331],[29.8575,-19.4943,1440.0312],[29.85,-19.4944,1439.7095],[29.847,-19.4905,1435.916],[29.8411,-19.4868,1429.4288],[29.8328,-19.4837,1433.9545]]]]}
,"properties": {"GID_3": "ZWE.10.6.14_2","GID_0": "ZWE","country": "Zimbabwe","GID_1": "ZWE.10_1","province": "Midlands","NL_NAME_1": "NA","GID_2": "ZWE.10.6_2","county": "GweruUrban","NL_NAME_2": "NA","city": "Ward5","VARNAME_3": "NA","NL_NAME_3": "NA","TYPE_3": "Ward","ENGTYPE_3": "Ward","CC_3": "NA","HASC_3": "NA","name": "Ward5.city","area_km2": 6.135835,"hist_schema_id": "Elevation0-9000","hist_area_km2": {"1425": 2.678215,"1450": 3.45762}}}