{"type":"Feature","properties":{"GID_3":"ZWE.9.1.6_2","GID_0":"ZWE","country":"Zimbabwe","GID_1":"ZWE.9_1","province":"MatabelelandSouth","NL_NAME_1":"NA","GID_2":"ZWE.9.1_2","county":"Beitbridge","NL_NAME_2":"NA","city":"Ward14","VARNAME_3":"NA","NL_NAME_3":"NA","TYPE_3":"Ward","ENGTYPE_3":"Ward","CC_3":"NA","HASC_3":"NA","name":"Ward14.city"},
"geometry":{"type": "MultiPolygon","coordinates": [[[[29.5667,-22.1477,484.7734],[29.5692,-22.1442,485.5801],[29.5755,-22.1403,484.5061],[29.582,-22.1388,490.6504],[29.5931,-22.144,488.0607],[29.6021,-22.1521,486.6479],[29.6091,-22.154,487.7007],[29.6176,-22.149,483.5953],[29.6227,-22.1382,478.9649],[29.6261,-22.1341,485.0782],[29.6526,-22.1236,483.4012],[29.6599,-22.1235,474.488],[29.6654,-22.1266,474.5411],[29.6685,-22.1327,479.1381],[29.6748,-22.1371,479.9989],[29.6957,-22.1353,469.6666],[29.7164,-22.1418,469.8582],[29.7383,-22.1385,474.9989],[29.7734,-22.1383,473.2061],[29.7833,-22.1437,470.732],[29.785,-22.1472,469.7116],[29.8117,-22.1646,466.3437],[29.8338,-22.1701,465.6422],[29.8485,-22.1708,463.9922],[29.8423,-22.1264,520.8798],[29.7557,-22.0595,514.6552],[29.7519,-22.0505,513.3464],[29.7249,-22.0285,529.7985],[29.6941,-22.0102,541.7055],[29.6869,-22.0134,536.9033],[29.6824,-22.012,539.6799],[29.6792,-22.0065,538.64],[29.6808,-22.0039,541.2784],[29.6754,-22.0028,540.9448],[29.6694,-21.9954,545.2167],[29.6662,-21.9987,544.3223],[29.6598,-21.994,546.7843],[29.6548,-21.9958,547.6862],[29.6457,-21.9936,549.8142],[29.6388,-21.9906,551.4928],[29.6353,-21.9854,554.8311],[29.629,-21.985,556.5586],[29.6138,-21.9782,561.6296],[29.5916,-21.9651,573.8425],[29.4999,-22.0002,592.1261],[29.4144,-22.1739,507.2243],[29.4253,-22.1701,511.7184],[29.465699999999998,-22.1632,505.7134],[29.485,-22.165,501.3309],[29.5158,-22.1764,495.0858],[29.5342,-22.1713,490.1694],[29.5352,-22.1671,490.8096],[29.5342,-22.1583,492.7011],[29.5355,-22.1552,488.4309],[29.5389,-22.1529,487.7444],[29.561,-22.1502,485.6667],[29.5667,-22.1477,484.7734]]]]}}