{"type":"Feature","properties":{"GID_3":"ZWE.3.1.5_2","GID_0":"ZWE","country":"Zimbabwe","GID_1":"ZWE.3_1","province":"Manicaland","NL_NAME_1":"NA","GID_2":"ZWE.3.1_2","county":"Buhera","NL_NAME_2":"NA","city":"Ward14","VARNAME_3":"NA","NL_NAME_3":"NA","TYPE_3":"Ward","ENGTYPE_3":"Ward","CC_3":"NA","HASC_3":"NA","name":"Ward14.city"},
"geometry":{"type": "MultiPolygon","coordinates": [[[[31.6874,-19.2758,923.0801],[31.6835,-19.2733,926.5403],[31.6801,-19.2771,939.0439],[31.6722,-19.2811,943.3944],[31.6614,-19.2659,954.7584],[31.6427,-19.2625,966.556],[31.6332,-19.2667,971.6588],[31.6207,-19.266,975.4155],[31.6015,-19.2762,989.3786],[31.6116,-19.302,1040.3916],[31.5937,-19.3311,1090.3779],[31.5887,-19.3351,1097.8593],[31.5818,-19.3363,1095.4677],[31.5818,-19.3435,1078.3071],[31.5773,-19.351,1064.2568],[31.5757,-19.359,1054.9283],[31.577,-19.3596,1052.7388],[31.5762,-19.3671,1043.9456],[31.5782,-19.3721,1037.719],[31.577,-19.3736,1045.3728],[31.581,-19.3785,1035.1765],[31.5793,-19.3824,1025.6549],[31.5825,-19.3883,1027.1757],[31.5849,-19.389,1019.3585],[31.5844,-19.3912,1023.2538],[31.5865,-19.3939,1014.4383],[31.5879,-19.3939,1014.1433],[31.588,-19.3921,1015.0444],[31.5899,-19.3928,1019.8304],[31.5902,-19.3983,1009.6253],[31.5932,-19.4052,1006.3427],[31.597,-19.4031,1008.9253],[31.6056,-19.3939,1023.5962],[31.6095,-19.3924,1033.2603],[31.6148,-19.3927,1037.3911],[31.6261,-19.3879,1062.0859],[31.6373,-19.3877,1084.6211],[31.6515,-19.381,1075.9044],[31.648,-19.3702,1047.0845],[31.6505,-19.3647,1031.5419],[31.6528,-19.3646,1024.5945],[31.6555,-19.3616,1013.3107],[31.6568,-19.3571,1007.9971],[31.6597,-19.3559,1002.3871],[31.6589,-19.3541,1008.3919],[31.67,-19.3526,993.6509],[31.6753,-19.3494,987.7159],[31.681,-19.3399,981.4514],[31.686,-19.3369,974.8923],[31.6875,-19.3343,974.1926],[31.686,-19.3264,969.7246],[31.6878,-19.3217,962.8796],[31.6901,-19.32,962.2003],[31.6876,-19.3083,954.9844],[31.698,-19.2992,940.8644],[31.6975,-19.2917,930.3581],[31.7018,-19.287,923.8756],[31.7098,-19.2837,914.431],[31.7156,-19.2763,912.2647],[31.7126,-19.278199999999998,915.3156],[31.705,-19.2734,914.9265],[31.7006,-19.2736,913.2402],[31.6908,-19.2815,916.7527],[31.6874,-19.2758,923.0801]]]]}}