{"type": "Feature","bbox": [31.2292,-21.7436,31.4959,-21.4728],"geometry": {"type": "MultiPolygon","coordinates": [[[[31.2893,-21.4728,467.7014],[31.2675,-21.4914,481.8368],[31.267,-21.498,482.3108],[31.2628,-21.5044,479.5408],[31.2501,-21.5369,459.4842],[31.2432,-21.5483,449.2614],[31.247,-21.5606,439.5498],[31.252,-21.5658,440.857],[31.2513,-21.5751,433.6396],[31.2527,-21.5781,433.8762],[31.2512,-21.5805,431.5776],[31.2528,-21.5871,429.6635],[31.2496,-21.593,424.5289],[31.2439,-21.5987,425.8083],[31.239,-21.6274,409.6801],[31.2476,-21.6365,403.0294],[31.2491,-21.6411,400.9034],[31.2546,-21.6411,411.5824],[31.2529,-21.6443,400.1869],[31.2552,-21.6472,397.3935],[31.252,-21.6524,396.8185],[31.2397,-21.6592,392.226],[31.2371,-21.6657,396.8064],[31.2308,-21.6696,395.6533],[31.2292,-21.6755,391.4412],[31.2298,-21.68,390.1736],[31.2465,-21.6879,388.5881],[31.2481,-21.6923,387.3532],[31.2619,-21.7094,376.8588],[31.2689,-21.7141,383.9922],[31.2848,-21.719,382.0508],[31.3014,-21.72,375.3514],[31.3065,-21.7223,377.3908],[31.3112,-21.7397,365.2801],[31.3207,-21.7436,371.1903],[31.32,-21.7408,371.6966],[31.3158,-21.7393,369.7406],[31.3223,-21.7377,372.1566],[31.3276,-21.7343,372.6029],[31.3278,-21.725,377.3942],[31.3186,-21.7175,382.3798],[31.3172,-21.7146,384.0907],[31.3105,-21.7129,385.0153],[31.3137,-21.7047,386.9225],[31.3119,-21.6986,390.1408],[31.3192,-21.691,393.0267],[31.3189,-21.6814,398.9734],[31.3272,-21.6797,400.185],[31.3358,-21.673,402.4308],[31.3367,-21.6581,405.9894],[31.3399,-21.6511,412.6584],[31.3547,-21.6416,412.9984],[31.3566,-21.6373,417.5292],[31.3612,-21.6351,417.7304],[31.3627,-21.6361,417.7304],[31.3641,-21.6344,417.8216],[31.3608,-21.627,420.4983],[31.3627,-21.6233,421.8932],[31.3613,-21.6208,421.4249],[31.3632,-21.6165,423.5781],[31.3811,-21.6086,429.6533],[31.3863,-21.6082,430.611],[31.3896,-21.5999,433.3566],[31.4055,-21.5911,441.0511],[31.4083,-21.5846,443.2156],[31.4173,-21.5829,448.0987],[31.4235,-21.5853,449.433],[31.4274,-21.5839,451.6992],[31.4356,-21.5768,457.3691],[31.4477,-21.5772,461.6219],[31.4794,-21.5644,480.1902],[31.483,-21.5642,483.0337],[31.4957,-21.5685,492.3459],[31.4959,-21.5651,494.7059],[31.4879,-21.5568,486.0545],[31.4859,-21.5407,472.1296],[31.4842,-21.537,471.3723],[31.4808,-21.5348,470.3918],[31.4698,-21.532,464.2072],[31.4248,-21.5276,456.9262],[31.3949,-21.5183,451.4392],[31.336,-21.4981,461.9388],[31.2937,-21.4774,465.9496],[31.2893,-21.4728,467.7014]]]]}
,"properties": {"GID_3": "ZWE.7.2.3_2","GID_0": "ZWE","country": "Zimbabwe","GID_1": "ZWE.7_1","province": "Masvingo","NL_NAME_1": "NA","GID_2": "ZWE.7.2_2","county": "Chiredzi","NL_NAME_2": "NA","city": "Ward11","VARNAME_3": "NA","NL_NAME_3": "NA","TYPE_3": "Ward","ENGTYPE_3": "Ward","CC_3": "NA","HASC_3": "NA","name": "Ward11.city","area_km2": 358.4961,"hist_schema_id": "Elevation0-9000","hist_area_km2": {"375": 9.1395,"400": 53.3161,"425": 77.461,"450": 119.4327,"475": 98.1017,"500": 1.0451}}}