{"type":"Feature","properties":{"GID_3":"ZWE.5.2.15_2","GID_0":"ZWE","country":"Zimbabwe","GID_1":"ZWE.5_1","province":"MashonalandEast","NL_NAME_1":"NA","GID_2":"ZWE.5.2_2","county":"Goromonzi","NL_NAME_2":"NA","city":"Ward22","VARNAME_3":"NA","NL_NAME_3":"NA","TYPE_3":"Ward","ENGTYPE_3":"Ward","CC_3":"NA","HASC_3":"NA","name":"Ward22.city"},
"geometry":{"type": "MultiPolygon","coordinates": [[[[31.3082,-17.9568,1563.3754],[31.301,-17.942,1578.7837],[31.2942,-17.9358,1563.9277],[31.2878,-17.9356,1579.8246],[31.2866,-17.9441,1565.3596],[31.2589,-17.9461,1563.0967],[31.2568,-17.9632,1550.5427],[31.2254,-17.9805,1493.9254],[31.2064,-18.026,1464.8168],[31.2088,-18.0269,1469.7769],[31.2091,-18.0312,1465.881],[31.2164,-18.0364,1463.1565],[31.2169,-18.0394,1461.3809],[31.2201,-18.039,1475.2638],[31.2241,-18.0519,1470.2885],[31.2288,-18.0564,1473.342],[31.2292,-18.0596,1469.9969],[31.2264,-18.063,1470.5498],[31.2273,-18.0688,1479.0752],[31.2249,-18.0716,1479.5793],[31.2268,-18.0759,1478.7769],[31.227,-18.0826,1484.7095],[31.2328,-18.0899,1492.3022],[31.2456,-18.0924,1500.8376],[31.2528,-18.0979,1502.3053],[31.2582,-18.0995,1504.2003],[31.2599,-18.1036,1494.2272],[31.2697,-18.1028,1506.5973],[31.2804,-18.1121,1510.9182],[31.2912,-18.1082,1520.254],[31.301,-18.1165,1522.3203],[31.3066,-18.1242,1524.219],[31.3198,-18.1274,1524.4038],[31.3268,-18.1313,1525.885],[31.3377,-18.1324,1528.7297],[31.3422,-18.131,1541.95],[31.3493,-18.137,1543.0009],[31.3527,-18.1442,1535.4706],[31.3575,-18.148,1546.0896],[31.3637,-18.151,1550.5454],[31.3717,-18.1497,1559.6301],[31.382,-18.1565,1561.7173],[31.3929,-18.1587,1578.8138],[31.3986,-18.1488,1587.0583],[31.3846,-18.1409,1584.1575],[31.3998,-18.1275,1592.0149],[31.393,-18.1213,1586.8804],[31.3838,-18.1063,1593.0629],[31.3701,-18.0981,1589.7251],[31.3519,-18.0837,1556.8647],[31.3406,-18.0658,1565.3879],[31.3294,-18.0352,1539.917],[31.3278,-18.01,1493.7277],[31.3219,-18.0004,1510.3806],[31.3191,-17.9834,1524.1328],[31.3082,-17.9568,1563.3754]]]]}}