{"type":"Feature","properties":{"GID_3":"ZWE.5.7.17_2","GID_0":"ZWE","country":"Zimbabwe","GID_1":"ZWE.5_1","province":"MashonalandEast","NL_NAME_1":"NA","GID_2":"ZWE.5.7_2","county":"Murehwa","NL_NAME_2":"NA","city":"Ward24","VARNAME_3":"NA","NL_NAME_3":"NA","TYPE_3":"Ward","ENGTYPE_3":"Ward","CC_3":"NA","HASC_3":"NA","name":"Ward24.city"},
"geometry":{"type": "MultiPolygon","coordinates": [[[[31.7484,-18.0166,1482.5784],[31.7861,-18.0357,1484.588],[31.8078,-18.0298,1485.6941],[31.8184,-18.0248,1482.7192],[31.8554,-18.023,1521.2484],[31.8837,-18.0248,1508.7205],[31.8922,-18.0003,1594.0026],[31.893,-17.9666,1501.8522],[31.8952,-17.9597,1515.3621],[31.9184,-17.9348,1480.5114],[31.9346,-17.9014,1484.3279],[31.9399,-17.8638,1458.3002],[31.9536,-17.8369,1393.33],[31.926,-17.8377,1413.5586],[31.9149,-17.8188,1373.7981],[31.9116,-17.8089,1358.6531],[31.9226,-17.7749,1338.2678],[31.8983,-17.7791,1350.9459],[31.88,-17.7542,1406.9246],[31.8495,-17.7543,1347.7125],[31.8242,-17.7484,1315.1953],[31.8204,-17.7493,1326.2966],[31.8075,-17.7465,1356.2635],[31.7867,-17.7402,1312.0339],[31.7803,-17.7362,1313.3096],[31.779,-17.7375,1299.4492],[31.7768,-17.7519,1335.4156],[31.7732,-17.7578,1373.2615],[31.7732,-17.7717,1389.9261],[31.7804,-17.7791,1372.4658],[31.7891,-17.8308,1407.7363],[31.8001,-17.8366,1414.061],[31.8109,-17.8592,1448.1908],[31.7939,-17.9031,1388.2617],[31.7664,-17.9284,1387.5123],[31.7329,-17.9504,1424.1519],[31.6943,-17.9339,1363.9559],[31.6897,-17.9347,1363.5765],[31.6885,-17.9485,1361.7617],[31.6922,-17.9589,1370.259],[31.6912,-17.9639,1370.8701],[31.6953,-17.9859,1382.4749],[31.6953,-17.9939,1382.0051],[31.6963,-17.9949,1388.8976],[31.7505,-17.9943,1434.843],[31.7473,-17.998,1442.6626],[31.7484,-18.0166,1482.5784]]]]}}