{"type": "Feature","bbox": [31.7372,-16.4459,31.8559,-16.3277],"geometry": {"type": "MultiPolygon","coordinates": [[[[31.8228,-16.4459,1127.4261],[31.829,-16.4297,816.7705],[31.8369,-16.4191,789.644],[31.8356,-16.4024,684.7812],[31.8423,-16.3929,591.0553],[31.8499,-16.3877,574.8447],[31.8529,-16.3787,567.8539],[31.8524,-16.3722,563.9229],[31.8559,-16.3634,558.3187],[31.788,-16.3636,575.8934],[31.7848,-16.3563,566.3245],[31.7753,-16.3537,555.6483],[31.7743,-16.3508,549.8428],[31.7756,-16.3487,555.3049],[31.7696,-16.3467,545.0607],[31.7664,-16.3396,542.2483],[31.7641,-16.3386,538.1676],[31.7659,-16.3344,539.0887],[31.7633,-16.3328,538.0637],[31.7629,-16.3305,537.4761],[31.757,-16.3277,534.8376],[31.7581,-16.3304,533.5242],[31.7562,-16.3305,533.5242],[31.7623,-16.3548,560.0419],[31.7627,-16.3701,578.2747],[31.7507,-16.3774,592.976],[31.7478,-16.3746,584.1739],[31.744,-16.3736,584.2712],[31.7426,-16.3787,597.6045],[31.7397,-16.3805,604.0319],[31.7392,-16.3879,628.0876],[31.7372,-16.3897,644.3949],[31.7405,-16.398,735.491],[31.7448,-16.4022,796.6698],[31.7486,-16.4036,832.4242],[31.7485,-16.4267,1383.0614],[31.8228,-16.4459,1127.4261]]]]}
,"properties": {"GID_3": "ZWE.4.7.28_2","GID_0": "ZWE","country": "Zimbabwe","GID_1": "ZWE.4_1","province": "MashonalandCentral","NL_NAME_1": "NA","GID_2": "ZWE.4.7_2","county": "MountDarwin","NL_NAME_2": "NA","city": "Ward34","VARNAME_3": "NA","NL_NAME_3": "NA","TYPE_3": "Ward","ENGTYPE_3": "Ward","CC_3": "NA","HASC_3": "NA","name": "Ward34.city","area_km2": 86.70947,"hist_schema_id": "Elevation0-9000","hist_area_km2": {"525": 0.54936,"550": 3.13309,"575": 13.77198,"600": 14.23923,"625": 4.84115,"650": 4.31222,"675": 2.80695,"700": 2.72554,"725": 3.35601,"750": 4.73896,"775": 6.20322,"800": 4.73875,"825": 2.98965,"850": 2.09482,"875": 1.5457,"900": 1.36265,"925": 0.99655,"950": 0.79316,"975": 0.73214,"1000": 0.69145,"1025": 0.69145,"1050": 0.69144,"1075": 0.81346,"1100": 0.81346,"1125": 0.81346,"1150": 1.19985,"1175": 1.83025,"1200": 0.83379,"1225": 0.50841,"1250": 0.32539,"1275": 0.34572,"1300": 0.24404,"1325": 0.28471,"1350": 0.32539,"1375": 0.28471,"1400": 0.06101,"1425": 0.02034}}}