{"type":"Feature","properties":{"GID_3":"ZWE.9.7.10_2","GID_0":"ZWE","country":"Zimbabwe","GID_1":"ZWE.9_1","province":"MatabelelandSouth","NL_NAME_1":"NA","GID_2":"ZWE.9.7_2","county":"Mangwe","NL_NAME_2":"NA","city":"Ward2","VARNAME_3":"NA","NL_NAME_3":"NA","TYPE_3":"Ward","ENGTYPE_3":"Ward","CC_3":"NA","HASC_3":"NA","name":"Ward2.city"},
"geometry":{"type": "MultiPolygon","coordinates": [[[[27.7291,-20.5374,1318.2997],[27.7313,-20.5408,1316.3973],[27.7297,-20.543,1308.656],[27.7293,-20.555,1300.9301],[27.7207,-20.575,1272.0334],[27.7222,-20.5779,1271.2004],[27.7205,-20.5798,1266.2567],[27.7225,-20.5833,1266.8389],[27.7159,-20.5942,1259.1406],[27.7089,-20.5976,1245.6344],[27.7052,-20.6034,1241.9097],[27.7051,-20.6158,1234.8608],[27.7065,-20.6229,1230.3645],[27.7091,-20.624,1224.1232],[27.7055,-20.6442,1212.0918],[27.707,-20.6551,1203.3842],[27.7064,-20.6657,1189.4052],[27.7123,-20.6724,1187.6711],[27.7144,-20.678,1181.7992],[27.7162,-20.6777,1183.5439],[27.7173,-20.6832,1176.2844],[27.7264,-20.6915,1170.7611],[27.7244,-20.6926,1171.9312],[27.7248,-20.6943,1169.1284],[27.7313,-20.699,1169.5104],[27.7315,-20.7017,1163.165],[27.7347,-20.7025,1164.8105],[27.7308,-20.7057,1164.2214],[27.7303,-20.7103,1158.5392],[27.7332,-20.7144,1156.6433],[27.7306,-20.7162,1157.9171],[27.7284,-20.7217,1151.7245],[27.7291,-20.7263,1149.1237],[27.7728,-20.7271,1179.0764],[27.7742,-20.6912,1211.2152],[27.782,-20.6543,1234.2],[27.7787,-20.6494,1238.3907],[27.7723,-20.6196,1262.3922],[27.7811,-20.5879,1292.1711],[27.78,-20.5857,1287.0571],[27.7813,-20.5753,1300.5626],[27.7592,-20.5657,1317.7965],[27.756,-20.5715,1301.9509],[27.7426,-20.5668,1300.6522],[27.7447,-20.5607,1309.8097],[27.7422,-20.5602,1305.5049],[27.75,-20.5482,1337.8633],[27.7555,-20.5359,1349.0686],[27.7296,-20.528199999999998,1334.7687],[27.7277,-20.5318,1325.818],[27.7291,-20.5374,1318.2997]]]]}}