{"type": "Feature","bbox": [31.214,-17.9568,31.3278,-17.8002],"geometry": {"type": "MultiPolygon","coordinates": [[[[31.2203,-17.8505,1540.5001],[31.2558,-17.8546,1549.9825],[31.255,-17.8624,1570.8282],[31.2616,-17.8628,1571.233],[31.2584,-17.8819,1546.2961],[31.2521,-17.8917,1551.4885],[31.278199999999998,-17.8996,1581.874],[31.281,-17.9018,1586.348],[31.288,-17.9145,1575.5682],[31.2917,-17.9315,1567.9517],[31.2941,-17.9358,1563.9277],[31.3012,-17.9424,1578.7837],[31.3082,-17.9568,1563.3754],[31.3278,-17.8989,1536.5431],[31.3116,-17.865,1598.8014],[31.3001,-17.8455,1556.818],[31.2923,-17.8058,1415.4939],[31.2577,-17.8231,1475.8243],[31.235,-17.8002,1502.6027],[31.214,-17.8192,1592.3163],[31.2201,-17.8398,1553.5183],[31.2217,-17.849,1545.1812],[31.2203,-17.8505,1540.5001]]]]}
,"properties": {"GID_3": "ZWE.5.2.18_2","GID_0": "ZWE","country": "Zimbabwe","GID_1": "ZWE.5_1","province": "MashonalandEast","NL_NAME_1": "NA","GID_2": "ZWE.5.2_2","county": "Goromonzi","NL_NAME_2": "NA","city": "Ward25","VARNAME_3": "NA","NL_NAME_3": "NA","TYPE_3": "Ward","ENGTYPE_3": "Ward","CC_3": "NA","HASC_3": "NA","name": "Ward25.city","area_km2": 86.43016,"hist_schema_id": "Elevation0-9000","hist_area_km2": {"1425": 1.43315,"1450": 3.67364,"1475": 4.74322,"1500": 6.13545,"1525": 9.94965,"1550": 21.41139,"1575": 28.28947,"1600": 10.33015,"1625": 0.46403}}}