{"type": "Feature","bbox": [28.5247,-17.5182,28.7123,-17.2004],"geometry": {"type": "MultiPolygon","coordinates": [[[[28.5447,-17.4109,711.091],[28.5484,-17.4217,735.8351],[28.5463,-17.4349,763.0621],[28.5496,-17.4447,775.8703],[28.5576,-17.4578,783.455],[28.5583,-17.4613,795.29],[28.5665,-17.4629,782.4405],[28.5679,-17.4651,778.8703],[28.5629,-17.4717,750.6467],[28.561,-17.477,739.5164],[28.5531,-17.4848,712.4014],[28.5492,-17.4872,692.8174],[28.54,-17.488,676.356],[28.5312,-17.491,660.7985],[28.5261,-17.4948,646.3665],[28.5247,-17.5001,645.6832],[28.5267,-17.503,646.9165],[28.5358,-17.5073,647.5468],[28.5429,-17.5126,650.3109],[28.5546,-17.5142,660.4429],[28.5547,-17.5182,652.1536],[28.5623,-17.5162,665.36],[28.5684,-17.5121,679.928],[28.5704,-17.5103,685.0978],[28.574,-17.5005,713.5284],[28.5794,-17.499,711.6784],[28.5952,-17.4816,795.3449],[28.6304,-17.4538,802.3795],[28.6462,-17.4348,829.7932],[28.6788,-17.4119,832.3138],[28.6752,-17.4035,848.2623],[28.7012,-17.3786,799.3444],[28.6937,-17.371,801.3826],[28.6911,-17.3622,824.8202],[28.6905,-17.3494,821.1825],[28.6868,-17.3419,814.2569],[28.6863,-17.3376,815.1093],[28.6777,-17.3296,799.1605],[28.6756,-17.3203,789.4057],[28.668,-17.3086,775.6138],[28.6681,-17.3065,775.8808],[28.6553,-17.2899,755.2281],[28.6624,-17.2817,750.0852],[28.6664,-17.2782,745.941],[28.6674,-17.2793,745.941],[28.668,-17.2764,743.9629],[28.6723,-17.2718,741.5601],[28.6718,-17.2658,742.8737],[28.6791,-17.2652,735.6911],[28.6815,-17.2546,730.417],[28.6851,-17.2506,726.3962],[28.6865,-17.2431,724.4219],[28.6933,-17.2409,720.4675],[28.6963,-17.238,722.8687],[28.695,-17.2339,723.8915],[28.6966,-17.231,731.9376],[28.6996,-17.2295,734.671],[28.7003,-17.227,749.8057],[28.7082,-17.2274,709.48],[28.7079,-17.2227,725.7155],[28.711,-17.2216,708.9455],[28.7099,-17.2171,690.2682],[28.7123,-17.2153,694.9525],[28.7097,-17.2136,720.2711],[28.7098,-17.216,703.4333],[28.7084,-17.2163,704.3817],[28.708,-17.2114,721.5908],[28.7033,-17.2123,699.4581],[28.7039,-17.2155,698.8782],[28.7025,-17.216,698.8782],[28.7005,-17.2131,697.8109],[28.6898,-17.2087,735.007],[28.6847,-17.2091,720.1455],[28.6788,-17.2036,714.6353],[28.6715,-17.2004,729.2875],[28.6684,-17.2103,777.3889],[28.6701,-17.2125,764.813],[28.6641,-17.2244,776.3668],[28.664,-17.2286,780.1375],[28.6614,-17.2311,779.8436],[28.6634,-17.234,766.2357],[28.6633,-17.2369,802.4969],[28.6575,-17.2401,801.7847],[28.6383,-17.2668,785.7589],[28.6383,-17.2733,808.7556],[28.6352,-17.2769,806.4563],[28.6319,-17.2877,815.688],[28.635,-17.2917,786.9219],[28.6352,-17.2967,782.3809],[28.6381,-17.3006,779.9336],[28.6292,-17.3097,776.3758],[28.6206,-17.313,767.8798],[28.6134,-17.3123,757.5438],[28.6067,-17.316,762.2455],[28.6009,-17.329,759.4559],[28.5928,-17.3365,799.3097],[28.5901,-17.3439,818.3091],[28.5747,-17.3595,822.7353],[28.5616,-17.3754,832.1027],[28.5545,-17.3889,832.5078],[28.5437,-17.3996,804.4402],[28.5389,-17.4017,734.1791],[28.5395,-17.4058,729.6281],[28.5447,-17.4109,711.091]]]]}
,"properties": {"GID_3": "ZWE.10.2.20_2","GID_0": "ZWE","country": "Zimbabwe","GID_1": "ZWE.10_1","province": "Midlands","NL_NAME_1": "NA","GID_2": "ZWE.10.2_2","county": "GokweNorth","NL_NAME_2": "NA","city": "Ward27","VARNAME_3": "NA","NL_NAME_3": "NA","TYPE_3": "Ward","ENGTYPE_3": "Ward","CC_3": "NA","HASC_3": "NA","name": "Ward27.city","area_km2": 258.2929,"hist_schema_id": "Elevation0-9000","hist_area_km2": {"650": 2.9926,"675": 5.0754,"700": 8.4181,"725": 22.6289,"750": 41.8899,"775": 64.4256,"800": 48.2972,"825": 31.4836,"850": 27.4773,"875": 5.6043}}}