{"type": "Feature","bbox": [30.719,-20.7479,30.8599,-20.615],"geometry": {"type": "MultiPolygon","coordinates": [[[[30.7365,-20.6825,685.7952],[30.7411,-20.6904,687.9301],[30.7717,-20.726,694.7223],[30.7797,-20.7389,741.4352],[30.7859,-20.7462,751.6337],[30.7913,-20.7479,719.8688],[30.8111,-20.7329,700.4202],[30.8265,-20.7331,685.1305],[30.8373,-20.7298,685.5767],[30.8339,-20.7162,672.3773],[30.8449,-20.7083,665.762],[30.8512,-20.7075,656.803],[30.8599,-20.6993,656.8669],[30.8434,-20.6926,666.7755],[30.8376,-20.6878,658.0751],[30.827,-20.6832,664.8748],[30.8134,-20.6732,656.1102],[30.8108,-20.659,668.1935],[30.812,-20.6362,676.2383],[30.8093,-20.6224,686.9757],[30.8073,-20.6203,693.1465],[30.7995,-20.6214,691.1033],[30.7884,-20.6162,696.1127],[30.7777,-20.618,699.6422],[30.7714,-20.6153,707.1138],[30.7664,-20.615,700.5987],[30.7609,-20.6189,704.1119],[30.7564,-20.6249,698.6255],[30.719,-20.6268,771.3715],[30.7284,-20.6367,773.2026],[30.7446,-20.6662,714.2828],[30.7408,-20.6776,700.6119],[30.7365,-20.6825,685.7952]]]]}
,"properties": {"GID_3": "ZWE.7.4.17_2","GID_0": "ZWE","country": "Zimbabwe","GID_1": "ZWE.7_1","province": "Masvingo","NL_NAME_1": "NA","GID_2": "ZWE.7.4_2","county": "Chivi","NL_NAME_2": "NA","city": "Ward24","VARNAME_3": "NA","NL_NAME_3": "NA","TYPE_3": "Ward","ENGTYPE_3": "Ward","CC_3": "NA","HASC_3": "NA","name": "Ward24.city","area_km2": 108.72277,"hist_schema_id": "Elevation0-9000","hist_area_km2": {"650": 1.94384,"675": 16.24495,"700": 35.46624,"725": 36.06403,"750": 12.02137,"775": 4.00689,"800": 2.10261,"825": 0.59512,"850": 0.2777}}}