{"type":"Feature","properties":{"GID_3":"ZWE.3.2.4_2","GID_0":"ZWE","country":"Zimbabwe","GID_1":"ZWE.3_1","province":"Manicaland","NL_NAME_1":"NA","GID_2":"ZWE.3.2_2","county":"Chimanimani","NL_NAME_2":"NA","city":"Ward12","VARNAME_3":"NA","NL_NAME_3":"NA","TYPE_3":"Ward","ENGTYPE_3":"Ward","CC_3":"NA","HASC_3":"NA","name":"Ward12.city"},
"geometry":{"type": "MultiPolygon","coordinates": [[[[33.014,-20.011,412.1029],[33.0247,-19.9642,1594.6318],[33.0356,-19.8878,1556.2932],[33.0478,-19.8341,1793.6445],[33.0473,-19.8091,2259.9485],[33.0546,-19.7918,2223.0],[33.0528,-19.7806,1999.9666],[33.0388,-19.7669,1725.0692],[33.0199,-19.7563,1785.5656],[33.0028,-19.7512,1873.7228],[32.998,-19.7539,1752.3213],[32.9955,-19.7581,1601.228],[32.9788,-19.7548,1277.5378],[32.9758,-19.7697,1087.626],[32.9303,-19.776,1385.353],[32.9235,-19.7831,1415.6028],[32.917,-19.7851,1469.4042],[32.9161,-19.7896,1346.614],[32.8828,-19.7938,1587.2472],[32.8843,-19.814,1665.1746],[32.8791,-19.8263,1806.5153],[32.8958,-19.84,1625.5891],[32.8782,-19.8562,1298.369],[32.8616,-19.8624,1231.7766],[32.8697,-19.9341,1500.8406],[32.8926,-19.9407,1388.3579],[32.9001,-19.9453,1247.7767],[32.9009,-19.944,1178.5946],[32.9025,-19.9464,1177.5452],[32.8898,-19.9545,1300.8225],[32.8829,-19.9563,1269.938],[32.8705,-19.9631,1107.5461],[32.8754,-19.9656,1059.7284],[32.8598,-19.9777,1021.9017],[32.8613,-19.9917,1435.5452],[32.8432,-19.9986,890.3376],[32.8395,-20.0139,797.0454],[32.8428,-20.0202,816.7255],[32.8734,-20.0137,1443.4921],[32.9029,-20.0204,1242.5857],[32.9396,-20.0054,1156.6115],[32.9726,-20.0111,907.3673],[33.0132,-20.0129,427.129],[33.014,-20.011,412.1029]]]]}}