{"type": "Feature","bbox": [31.8379,-17.7791,31.9621,-17.624],"geometry": {"type": "MultiPolygon","coordinates": [[[[31.8379,-17.7516,1290.8741],[31.8495,-17.7543,1347.7125],[31.88,-17.7542,1406.9246],[31.8983,-17.7791,1350.9459],[31.9149,-17.7763,1314.6105],[31.9232,-17.765,1309.0466],[31.9257,-17.7542,1305.0476],[31.9294,-17.7486,1297.9128],[31.9321,-17.7472,1307.582],[31.9393,-17.7489,1340.2217],[31.9455,-17.7459,1375.4701],[31.9612,-17.7317,1381.9745],[31.9621,-17.7298,1411.6766],[31.9583,-17.7274,1336.1952],[31.9506,-17.7249,1298.2073],[31.9483,-17.7259,1292.4495],[31.9401,-17.7092,1234.0629],[31.9402,-17.7056,1245.9331],[31.944,-17.7028,1236.549],[31.9463,-17.6976,1238.2749],[31.9486,-17.6997,1223.5796],[31.9507,-17.6947,1234.9607],[31.9529,-17.6948,1225.9004],[31.9547,-17.6916,1230.2754],[31.9583,-17.6919,1213.5123],[31.9593,-17.6904,1213.1383],[31.958,-17.6866,1211.2159],[31.9588,-17.6813,1210.4982],[31.9545,-17.674,1203.0593],[31.955,-17.6678,1213.2288],[31.9484,-17.661,1199.5989],[31.9466,-17.6504,1190.7908],[31.947,-17.6489,1187.6852],[31.9506,-17.6484,1187.425],[31.9468,-17.6424,1179.7761],[31.953,-17.6256,1175.1862],[31.9499,-17.624,1182.5732],[31.9472,-17.6247,1172.6464],[31.9446,-17.6278,1180.8707],[31.9402,-17.6284,1182.0449],[31.9239,-17.6404,1192.015],[31.9234,-17.6446,1185.6824],[31.918,-17.6539,1198.0116],[31.9097,-17.6611,1215.6273],[31.9052,-17.6698,1199.9773],[31.8999,-17.6734,1221.4375],[31.8941,-17.6829,1214.4608],[31.8858,-17.6917,1221.6472],[31.8776,-17.6973,1252.05],[31.8764,-17.7031,1249.2266],[31.8725,-17.7055,1249.8107],[31.8712,-17.7022,1267.3599],[31.8686,-17.7028,1268.4365],[31.8689,-17.7102,1253.5332],[31.8408,-17.7408,1281.1429],[31.8379,-17.7516,1290.8741]]]]}
,"properties": {"GID_3": "ZWE.5.7.9_2","GID_0": "ZWE","country": "Zimbabwe","GID_1": "ZWE.5_1","province": "MashonalandEast","NL_NAME_1": "NA","GID_2": "ZWE.5.7_2","county": "Murehwa","NL_NAME_2": "NA","city": "Ward17","VARNAME_3": "NA","NL_NAME_3": "NA","TYPE_3": "Ward","ENGTYPE_3": "Ward","CC_3": "NA","HASC_3": "NA","name": "Ward17.city","area_km2": 104.90403,"hist_schema_id": "Elevation0-9000","hist_area_km2": {"1175": 2.34385,"1200": 7.81885,"1225": 8.84833,"1250": 12.40263,"1275": 14.74444,"1300": 17.57044,"1325": 16.11522,"1350": 12.78257,"1375": 6.50228,"1400": 3.45312,"1425": 1.53473,"1450": 0.42407,"1475": 0.20194,"1500": 0.16155}}}