{"type": "Feature","bbox": [30.8089,-20.087,30.822,-20.0727],"geometry": {"type": "MultiPolygon","coordinates": [[[[30.8159,-20.074,1070.1489],[30.8128,-20.0727,1071.957],[30.8089,-20.0749,1070.27],[30.8137,-20.085,1092.9979],[30.8166,-20.087,1093.4946],[30.8205,-20.0869,1084.2463],[30.822,-20.0825,1077.7502],[30.8199,-20.0815,1088.2324],[30.8206,-20.0786,1077.4114],[30.8167,-20.0786,1080.0081],[30.8159,-20.074,1070.1489]]]]}
,"properties": {"GID_3": "ZWE.7.7.3_2","GID_0": "ZWE","country": "Zimbabwe","GID_1": "ZWE.7_1","province": "Masvingo","NL_NAME_1": "NA","GID_2": "ZWE.7.7_2","county": "MasvingoUrban","NL_NAME_2": "NA","city": "Ward2","VARNAME_3": "NA","NL_NAME_3": "NA","TYPE_3": "Ward","ENGTYPE_3": "Ward","CC_3": "NA","HASC_3": "NA","name": "Ward2.city","area_km2": 1.1151486,"hist_schema_id": "Elevation0-9000","hist_area_km2": {"1075": 0.8164557,"1100": 0.2986928}}}