{"type": "Feature","bbox": [32.4457,-17.2953,32.5597,-17.1828],"geometry": {"type": "MultiPolygon","coordinates": [[[[32.5597,-17.2783,911.2215],[32.5565,-17.2559,941.9203],[32.5206,-17.2384,991.4153],[32.4977,-17.2185,923.3677],[32.4763,-17.1968,982.016],[32.4582,-17.1828,892.8066],[32.4543,-17.1872,890.7596],[32.456,-17.1905,877.8651],[32.4457,-17.1908,956.3768],[32.4459,-17.2018,873.7555],[32.4521,-17.2041,894.6035],[32.4505,-17.2053,876.9202],[32.4525,-17.208,879.7563],[32.4557,-17.223,886.0619],[32.4614,-17.2312,890.3607],[32.47,-17.239,898.5629],[32.4742,-17.25,909.0835],[32.4818,-17.2558,920.4819],[32.481,-17.2631,928.3313],[32.4835,-17.2695,934.3375],[32.4833,-17.2764,949.5377],[32.4882,-17.2879,978.8559],[32.5055,-17.2953,1157.5498],[32.5126,-17.2952,1076.1866],[32.5226,-17.2876,1007.6871],[32.5319,-17.2828,1068.5067],[32.5392,-17.2841,961.3167],[32.5508,-17.2804,918.6437],[32.5566,-17.2765,953.4692],[32.5597,-17.2783,911.2215]]]]}
,"properties": {"GID_3": "ZWE.5.6.5_2","GID_0": "ZWE","country": "Zimbabwe","GID_1": "ZWE.5_1","province": "MashonalandEast","NL_NAME_1": "NA","GID_2": "ZWE.5.6_2","county": "Mudzi","NL_NAME_2": "NA","city": "Ward13","VARNAME_3": "NA","NL_NAME_3": "NA","TYPE_3": "Ward","ENGTYPE_3": "Ward","CC_3": "NA","HASC_3": "NA","name": "Ward13.city","area_km2": 64.51295,"hist_schema_id": "Elevation0-9000","hist_area_km2": {"850": 0.06077,"875": 1.62033,"900": 7.31072,"925": 12.63565,"950": 13.82923,"975": 7.77529,"1000": 5.42663,"1025": 4.02951,"1050": 3.15879,"1075": 2.85508,"1100": 2.32857,"1125": 1.41738,"1150": 0.87059,"1175": 0.42514,"1200": 0.28342,"1225": 0.16195,"1250": 0.22269,"1275": 0.06073,"1300": 0.04049}}}