{"type":"Feature","properties":{"GID_3":"ZWE.8.8.17_2","GID_0":"ZWE","country":"Zimbabwe","GID_1":"ZWE.8_1","province":"MatabelelandNorth","NL_NAME_1":"NA","GID_2":"ZWE.8.8_2","county":"Umguza","NL_NAME_2":"NA","city":"Ward7","VARNAME_3":"NA","NL_NAME_3":"NA","TYPE_3":"Ward","ENGTYPE_3":"Ward","CC_3":"NA","HASC_3":"NA","name":"Ward7.city"},
"geometry":{"type": "MultiPolygon","coordinates": [[[[28.6559,-20.0681,1315.606],[28.6679,-20.0676,1331.2612],[28.661,-20.0842,1329.905],[28.662,-20.085,1330.9875],[28.6604,-20.089,1331.5881],[28.6566,-20.0893,1328.8658],[28.6575,-20.1001,1329.5421],[28.6512,-20.1133,1308.6333],[28.6524,-20.114,1308.6333],[28.6554,-20.1115,1310.0892],[28.6753,-20.1132,1329.4634],[28.689,-20.1172,1334.561],[28.698,-20.1111,1346.059],[28.7035,-20.1097,1354.5421],[28.7153,-20.1104,1356.0117],[28.7219,-20.1075,1364.8608],[28.7341,-20.0938,1352.6715],[28.7445,-20.0936,1362.8755],[28.7567,-20.0842,1360.1599],[28.7638,-20.0832,1350.6315],[28.771,-20.0847,1352.3392],[28.7773,-20.082,1350.4246],[28.7814,-20.0753,1359.9655],[28.7849,-20.064,1359.3081],[28.7997,-20.0597,1367.6005],[28.8137,-20.0522,1370.8965],[28.816,-20.0447,1368.9711],[28.8275,-20.044,1377.5164],[28.803,-20.0332,1358.8198],[28.7895,-20.0337,1347.9572],[28.7791,-20.0366,1338.8351],[28.7704,-20.0417,1334.8145],[28.761,-20.0405,1329.4381],[28.7633,-20.0277,1338.4351],[28.7783,-20.0169,1353.3671],[28.7821,-20.0126,1367.348],[28.7826,-20.007,1371.684],[28.7795,-19.9994,1385.3043],[28.7768,-19.9995,1378.9977],[28.7545,-19.972,1348.6937],[28.7424,-19.9752,1335.1786],[28.7285,-19.9819,1329.5597],[28.7177,-19.994,1312.903],[28.7029,-19.9988,1291.8125],[28.6915,-19.9829,1298.452],[28.6906,-19.9835,1297.7706],[28.6847,-19.9972,1284.9083],[28.6855,-19.9996,1290.9496],[28.6641,-20.0486,1323.5522],[28.6498,-20.0581,1330.2488],[28.6436,-20.0687,1306.0421],[28.6559,-20.0681,1315.606]]]]}}