{"type": "Feature","bbox": [32.3897,-19.8296,32.5495,-19.7238],"geometry": {"type": "MultiPolygon","coordinates": [[[[32.3937,-19.8234,500.5],[32.406,-19.8187,530.198],[32.4109,-19.8194,536.0015],[32.4152,-19.8123,550.2964],[32.4203,-19.8126,552.3847],[32.4276,-19.8063,566.553],[32.4367,-19.8056,578.0828],[32.4409,-19.8023,604.2236],[32.4447,-19.8034,595.5087],[32.4585,-19.7997,635.8207],[32.4674,-19.7998,649.3243],[32.4834,-19.8043,678.4738],[32.4899,-19.8046,685.1473],[32.5039,-19.8111,737.1234],[32.5074,-19.814,768.1011],[32.5104,-19.82,756.7803],[32.5109,-19.8278,752.5253],[32.5156,-19.8296,774.9877],[32.523,-19.8281,788.8485],[32.5269,-19.822,871.1388],[32.5299,-19.8088,1280.7711],[32.5367,-19.7909,1204.4747],[32.5365,-19.7841,1022.1868],[32.5397,-19.7742,860.4875],[32.54,-19.7679,819.3401],[32.5495,-19.753,761.6361],[32.549,-19.7505,755.481],[32.5432,-19.7482,749.3943],[32.5462,-19.7437,788.5294],[32.5427,-19.7433,758.3269],[32.5395,-19.7454,740.1729],[32.5374,-19.744,759.0906],[32.5376,-19.7415,781.6058],[32.5459,-19.7375,706.8387],[32.5447,-19.7323,719.8624],[32.5403,-19.7329,723.161],[32.5348,-19.7371,692.6172],[32.5376,-19.7265,665.1964],[32.5361,-19.7243,709.9888],[32.5324,-19.7238,702.9995],[32.5179,-19.7327,691.3725],[32.5174,-19.7376,636.3911],[32.5068,-19.7449,623.2648],[32.5001,-19.7415,627.4104],[32.4875,-19.7428,612.923],[32.4853,-19.7395,593.2307],[32.4842,-19.7307,595.8748],[32.4792,-19.7291,590.0087],[32.4772,-19.7322,589.6824],[32.4734,-19.7313,585.2424],[32.465,-19.7348,570.6546],[32.4451,-19.7381,553.5605],[32.4375,-19.7415,554.299],[32.434,-19.7439,553.0771],[32.4355,-19.7497,539.6901],[32.4329,-19.7517,536.9274],[32.4264,-19.7509,533.2242],[32.4244,-19.7477,535.7969],[32.4212,-19.7474,532.6616],[32.4187,-19.7492,535.9135],[32.421,-19.7533,541.2294],[32.4191,-19.7557,530.7541],[32.4178,-19.7556,525.6835],[32.4169,-19.7526,532.8016],[32.4134,-19.7547,520.2108],[32.4083,-19.7711,531.2292],[32.4012,-19.7701,528.5811],[32.3897,-19.7727,507.8118],[32.3909,-19.7779,505.875],[32.3966,-19.7853,505.5969],[32.3946,-19.791,508.1019],[32.3962,-19.8011,503.25],[32.3937,-19.808,505.1168],[32.395,-19.8172,503.7166],[32.3937,-19.8234,500.5]]]]}
,"properties": {"GID_3": "ZWE.3.2.22_2","GID_0": "ZWE","country": "Zimbabwe","GID_1": "ZWE.3_1","province": "Manicaland","NL_NAME_1": "NA","GID_2": "ZWE.3.2_2","county": "Chimanimani","NL_NAME_2": "NA","city": "Ward8","VARNAME_3": "NA","NL_NAME_3": "NA","TYPE_3": "Ward","ENGTYPE_3": "Ward","CC_3": "NA","HASC_3": "NA","name": "Ward8.city","area_km2": 114.78317,"hist_schema_id": "Elevation0-9000","hist_area_km2": {"500": 2.65315,"525": 11.19244,"550": 11.25285,"575": 8.59953,"600": 5.5072,"625": 5.10819,"650": 4.62918,"675": 4.90833,"700": 5.06776,"725": 4.40924,"750": 5.18753,"775": 5.68638,"800": 8.57939,"825": 9.29792,"850": 7.36257,"875": 3.35189,"900": 1.67582,"925": 1.2768,"950": 0.99746,"975": 0.85782,"1000": 0.63838,"1025": 0.69825,"1050": 0.71819,"1075": 0.53864,"1100": 0.49872,"1125": 0.47878,"1150": 0.35908,"1175": 0.49872,"1200": 0.51866,"1225": 0.29923,"1250": 0.67827,"1275": 0.33913,"1300": 0.37903,"1325": 0.13965,"1350": 0.17955,"1375": 0.1197,"1400": 0.09975}}}