{"type": "Feature","bbox": [29.8301,-20.6722,30.1373,-20.3947],"geometry": {"type": "MultiPolygon","coordinates": [[[[29.8566,-20.5441,1092.8986],[29.8841,-20.5653,1115.2645],[29.9312,-20.5586,1135.501],[29.9408,-20.5026,1050.8521],[29.9752,-20.5388,1018.8251],[29.9718,-20.5602,1053.3281],[29.9823,-20.5805,1432.7939],[30.0128,-20.5724,1123.1444],[30.0389,-20.5885,1122.318],[30.0531,-20.5853,1054.9614],[30.0205,-20.6347,1049.72],[30.0422,-20.6335,1105.0878],[30.0622,-20.6489,1161.6653],[30.0595,-20.6722,1186.9803],[30.0905,-20.6563,1276.4116],[30.1261,-20.5662,1002.4288],[30.1373,-20.5095,949.3463],[29.9953,-20.3947,1191.1292],[29.9976,-20.4583,949.8016],[29.9754,-20.449,992.3522],[29.9636,-20.4359,953.0626],[29.9593,-20.435,942.8537],[29.948,-20.4383,957.3593],[29.942,-20.4364,951.7722],[29.935,-20.4312,971.2117],[29.9314,-20.4308,959.8525],[29.9285,-20.4328,960.9611],[29.9235,-20.4294,962.5006],[29.92,-20.4185,964.319],[29.9132,-20.4176,967.5403],[29.9029,-20.4189,968.1464],[29.8915,-20.4141,979.8425],[29.8907,-20.4198,988.6581],[29.8812,-20.4267,1005.7526],[29.8927,-20.4496,1008.2946],[29.8939,-20.4631,1002.4214],[29.8927,-20.474,1010.3553],[29.8956,-20.4767,1021.9402],[29.883,-20.4973,1038.5526],[29.884,-20.4974,1041.4956],[29.8301,-20.5259,1063.6766],[29.8576,-20.5436,1093.9],[29.8566,-20.5441,1092.8986]]]]}
,"properties": {"GID_3": "ZWE.10.9.12_2","GID_0": "ZWE","country": "Zimbabwe","GID_1": "ZWE.10_1","province": "Midlands","NL_NAME_1": "NA","GID_2": "ZWE.10.9_2","county": "Mberengwa","NL_NAME_2": "NA","city": "Ward2","VARNAME_3": "NA","NL_NAME_3": "NA","TYPE_3": "Ward","ENGTYPE_3": "Ward","CC_3": "NA","HASC_3": "NA","name": "Ward2.city","area_km2": 427.2606,"hist_schema_id": "Elevation0-9000","hist_area_km2": {"875": 0.6354,"900": 12.1914,"925": 30.5396,"950": 41.8431,"975": 47.7618,"1000": 57.3134,"1025": 54.2305,"1050": 55.2195,"1075": 47.4938,"1100": 35.2,"1125": 21.2826,"1150": 11.3759,"1175": 5.1031,"1200": 3.0384,"1225": 1.8871,"1250": 1.3706,"1275": 0.5562,"1300": 0.139,"1325": 0.0397,"1375": 0.0397}}}