{"type": "Feature","bbox": [31.4257,-19.7423,31.5507,-19.6153],"geometry": {"type": "MultiPolygon","coordinates": [[[[31.4484,-19.6153,1053.8599],[31.4371,-19.6198,1068.2913],[31.4328,-19.6244,1070.0267],[31.4257,-19.6408,1085.1619],[31.4332,-19.6455,1077.6018],[31.4309,-19.6506,1074.0052],[31.4318,-19.6528,1082.2024],[31.4506,-19.6687,1078.0544],[31.4552,-19.6756,1069.972],[31.4575,-19.6819,1066.6201],[31.4561,-19.6852,1058.2328],[31.4586,-19.6879,1057.072],[31.4668,-19.6906,1062.6571],[31.4743,-19.6869,1048.5204],[31.4836,-19.6954,1052.574],[31.4791,-19.6996,1043.557],[31.4808,-19.7055,1056.8992],[31.4759,-19.7109,1042.9189],[31.4776,-19.7172,1040.7161],[31.4811,-19.7223,1060.4534],[31.484,-19.7229,1051.2823],[31.4981,-19.7132,1125.988],[31.5076,-19.7313,1022.4006],[31.5147,-19.7307,1027.1581],[31.5142,-19.7403,1015.2604],[31.52,-19.7423,1011.8254],[31.5251,-19.7399,1003.0352],[31.5302,-19.7341,1012.609],[31.5368,-19.7342,1001.2912],[31.543,-19.7285,997.0063],[31.5507,-19.7268,1000.2212],[31.5479,-19.7181,996.4502],[31.5467,-19.7073,1006.0839],[31.5411,-19.6991,1001.724],[31.5431,-19.6924,1008.9354],[31.5465,-19.6885,1004.9518],[31.547,-19.6847,1010.6285],[31.5408,-19.6731,1012.9995],[31.5407,-19.6703,1013.8259],[31.5368,-19.6727,1017.0321],[31.5292,-19.6726,1018.7689],[31.5281,-19.6689,1022.5336],[31.5234,-19.6644,1020.1913],[31.5226,-19.6606,1028.2073],[31.5184,-19.6588,1024.7354],[31.5164,-19.6549,1034.2107],[31.5125,-19.6536,1024.2488],[31.5037,-19.6446,1025.8414],[31.5027,-19.6364,1041.4055],[31.4992,-19.6351,1037.5309],[31.497,-19.6283,1045.1653],[31.4922,-19.6275,1034.3849],[31.4869,-19.6232,1037.9243],[31.4829,-19.627,1038.0796],[31.4782,-19.6264,1037.4838],[31.4755,-19.6279,1040.5227],[31.4643,-19.6255,1048.601],[31.4559,-19.6267,1050.5244],[31.4544,-19.6257,1050.6613],[31.4544,-19.6201,1056.4155],[31.4484,-19.6153,1053.8599]]]]}
,"properties": {"GID_3": "ZWE.7.5.11_2","GID_0": "ZWE","country": "Zimbabwe","GID_1": "ZWE.7_1","province": "Masvingo","NL_NAME_1": "NA","GID_2": "ZWE.7.5_2","county": "Gutu","NL_NAME_2": "NA","city": "Ward19","VARNAME_3": "NA","NL_NAME_3": "NA","TYPE_3": "Ward","ENGTYPE_3": "Ward","CC_3": "NA","HASC_3": "NA","name": "Ward19.city","area_km2": 90.21852,"hist_schema_id": "Elevation0-9000","hist_area_km2": {"1000": 4.0319,"1025": 20.22236,"1050": 29.70825,"1075": 26.63443,"1100": 4.49191,"1125": 1.09788,"1150": 0.91817,"1175": 0.49899,"1200": 0.25947,"1225": 0.35926,"1250": 0.15968,"1275": 0.19959,"1300": 0.19959,"1325": 0.31935,"1350": 0.19959,"1375": 0.35926,"1400": 0.23951,"1425": 0.23951,"1450": 0.07984}}}