{"type": "Feature","bbox": [32.6204,-18.8633,32.741,-18.7605],"geometry": {"type": "MultiPolygon","coordinates": [[[[32.7045,-18.8438,1645.9485],[32.7027,-18.8406,1661.0305],[32.7124,-18.8285,1712.5854],[32.7239,-18.8209,1720.1385],[32.7265,-18.8203,1672.9247],[32.7281,-18.8223,1679.7004],[32.735,-18.8177,1730.2913],[32.7359,-18.8142,1822.4368],[32.7389,-18.8142,1867.2786],[32.741,-18.8113,1874.0621],[32.726,-18.7821,1614.1345],[32.6988,-18.7637,1487.2598],[32.6976,-18.7646,1486.4646],[32.6873,-18.7605,1450.2181],[32.687,-18.765,1447.1044],[32.6851,-18.7676,1427.3004],[32.6824,-18.7674,1465.0371],[32.683,-18.771,1424.1797],[32.6808,-18.7758,1419.069],[32.6733,-18.7839,1410.0271],[32.656,-18.7907,1339.7025],[32.6494,-18.7949,1260.2385],[32.6437,-18.8022,1210.4525],[32.6404,-18.8008,1234.0464],[32.6363,-18.8024,1206.4373],[32.6279,-18.7981,1184.0283],[32.6257,-18.7947,1198.4702],[32.6204,-18.7935,1185.2937],[32.621,-18.8087,1411.1906],[32.6355,-18.8324,1505.9495],[32.6312,-18.8559,1442.9337],[32.6584,-18.8633,1324.4581],[32.6661,-18.8619,1385.5216],[32.6705,-18.8534,1447.4725],[32.6788,-18.8605,1459.9512],[32.7074,-18.8606,1479.8364],[32.7047,-18.8568,1483.4634],[32.7045,-18.8438,1645.9485]]]]}
,"properties": {"GID_3": "ZWE.3.8.19_2","GID_0": "ZWE","country": "Zimbabwe","GID_1": "ZWE.3_1","province": "Manicaland","NL_NAME_1": "NA","GID_2": "ZWE.3.8_2","county": "Mutasa","NL_NAME_2": "NA","city": "Ward26","VARNAME_3": "NA","NL_NAME_3": "NA","TYPE_3": "Ward","ENGTYPE_3": "Ward","CC_3": "NA","HASC_3": "NA","name": "Ward26.city","area_km2": 84.69178,"hist_schema_id": "Elevation0-9000","hist_area_km2": {"1175": 0.281,"1200": 0.84298,"1225": 1.56545,"1250": 1.98668,"1275": 2.70907,"1300": 3.21069,"1325": 4.81616,"1350": 6.58209,"1375": 10.39503,"1400": 8.12752,"1425": 5.37835,"1450": 4.3751,"1475": 4.11443,"1500": 3.75324,"1525": 3.91386,"1550": 3.79345,"1575": 3.91389,"1600": 3.83366,"1625": 3.71328,"1650": 2.83004,"1675": 1.34467,"1700": 1.20418,"1725": 0.7225,"1750": 0.36125,"1775": 0.22077,"1800": 0.22077,"1825": 0.16056,"1850": 0.16056,"1875": 0.14049,"1900": 0.02007}}}