{"type": "Feature","bbox": [31.4951,-17.2769,31.7261,-17.2008],"geometry": {"type": "MultiPolygon","coordinates": [[[[31.4951,-17.2707,944.9669],[31.5121,-17.2703,929.6639],[31.5149,-17.2717,929.8241],[31.5158,-17.2743,925.5242],[31.5208,-17.2726,926.9356],[31.5245,-17.2752,918.7675],[31.5304,-17.2722,920.5039],[31.5391,-17.2718,920.1595],[31.5391,-17.2696,916.9125],[31.5428,-17.2675,916.0197],[31.5456,-17.2679,919.5278],[31.5496,-17.2723,914.1033],[31.5538,-17.2702,909.5797],[31.562,-17.2716,915.6438],[31.5652,-17.2681,909.7731],[31.5794,-17.2686,900.3176],[31.5868,-17.2629,896.0153],[31.5946,-17.2625,891.6356],[31.6037,-17.2674,884.9682],[31.6209,-17.2652,883.5576],[31.6284,-17.2676,871.1886],[31.6329,-17.276,870.1791],[31.6352,-17.2769,868.547],[31.6439,-17.2725,871.5293],[31.6487,-17.274,867.2958],[31.6499,-17.2669,865.4177],[31.6719,-17.2613,860.5059],[31.6742,-17.2596,859.42],[31.676,-17.2578,858.1365],[31.6738,-17.2512,865.7118],[31.6756,-17.249,852.9478],[31.6857,-17.246,854.2275],[31.6954,-17.239,854.2047],[31.7018,-17.2373,854.0732],[31.7018,-17.2303,845.4942],[31.7055,-17.2272,845.9509],[31.7028,-17.2233,844.3113],[31.701,-17.2232,842.7252],[31.7019,-17.221,842.0906],[31.7161,-17.2167,843.0181],[31.7188,-17.2181,842.1195],[31.723,-17.2159,839.6064],[31.7233,-17.2127,840.7319],[31.7261,-17.2087,833.4975],[31.696,-17.2008,956.0157],[31.686,-17.2012,1080.3773],[31.686,-17.2025,1034.7322],[31.6686,-17.205,1066.042],[31.6072,-17.2231,1030.1475],[31.5871,-17.2155,1131.6948],[31.535,-17.2111,1230.9631],[31.4954,-17.2054,1375.3506],[31.4951,-17.2707,944.9669]]]]}
,"properties": {"GID_3": "ZWE.4.10.9_2","GID_0": "ZWE","country": "Zimbabwe","GID_1": "ZWE.4_1","province": "MashonalandCentral","NL_NAME_1": "NA","GID_2": "ZWE.4.10_2","county": "Shamva","NL_NAME_2": "NA","city": "Ward17","VARNAME_3": "NA","NL_NAME_3": "NA","TYPE_3": "Ward","ENGTYPE_3": "Ward","CC_3": "NA","HASC_3": "NA","name": "Ward17.city","area_km2": 135.6536,"hist_schema_id": "Elevation0-9000","hist_area_km2": {"825": 0.1215,"850": 4.2121,"875": 12.8785,"900": 14.2758,"925": 21.0788,"950": 23.4079,"975": 20.007,"1000": 13.5477,"1025": 10.4091,"1050": 5.4071,"1075": 3.2605,"1100": 2.1467,"1125": 1.5392,"1150": 1.1949,"1175": 0.6683,"1200": 0.3443,"1225": 0.2025,"1250": 0.2228,"1275": 0.2228,"1300": 0.1823,"1325": 0.2025,"1350": 0.0203,"1375": 0.0608,"1425": 0.0405}}}