{"type": "Feature","bbox": [32.0817,-21.099,32.1965,-20.991],"geometry": {"type": "MultiPolygon","coordinates": [[[[32.1555,-20.991,366.0833],[32.1149,-20.996,398.3979],[32.1022,-21.0041,403.993],[32.0817,-21.025,410.309],[32.1085,-21.099,401.7718],[32.1263,-21.0819,390.7519],[32.1336,-21.0769,385.6337],[32.1737,-21.0589,371.7357],[32.175,-21.0539,369.7206],[32.1778,-21.0549,368.8896],[32.1794,-21.0502,368.2602],[32.1861,-21.0467,356.6234],[32.1866,-21.0426,362.7902],[32.1953,-21.0355,358.1992],[32.1965,-21.0255,363.5969],[32.1915,-21.0173,372.2389],[32.1749,-21.0079,371.2375],[32.1649,-21.0053,372.1425],[32.1577,-20.9978,366.214],[32.1555,-20.991,366.0833]]]]}
,"properties": {"GID_3": "ZWE.7.2.27_2","GID_0": "ZWE","country": "Zimbabwe","GID_1": "ZWE.7_1","province": "Masvingo","NL_NAME_1": "NA","GID_2": "ZWE.7.2_2","county": "Chiredzi","NL_NAME_2": "NA","city": "Ward4","VARNAME_3": "NA","NL_NAME_3": "NA","TYPE_3": "Ward","ENGTYPE_3": "Ward","CC_3": "NA","HASC_3": "NA","name": "Ward4.city","area_km2": 82.99543,"hist_schema_id": "Elevation0-9000","hist_area_km2": {"350": 1.50415,"375": 29.96191,"400": 51.37105,"425": 0.15831}}}