{"type": "Feature","bbox": [28.9527,-18.8821,29.0669,-18.7913],"geometry": {"type": "MultiPolygon","coordinates": [[[[29.0003,-18.7913,1119.6083],[28.9527,-18.8501,1225.6382],[29.0669,-18.8821,1214.3068],[29.0599,-18.8714,1189.9883],[29.0599,-18.8693,1184.942],[29.0572,-18.8676,1181.799],[29.0557,-18.8588,1177.7444],[29.0583,-18.8541,1173.7322],[29.0583,-18.8507,1167.1831],[29.0609,-18.849,1163.8286],[29.0397,-18.8435,1157.5857],[29.0509,-18.8188,1140.9858],[29.0428,-18.8137,1139.6115],[29.0408,-18.8013,1126.8269],[29.0301,-18.8051,1126.48],[29.0293,-18.804,1128.8712],[29.0318,-18.8014,1127.4586],[29.0309,-18.8001,1128.5276],[29.0228,-18.8026,1128.4373],[29.0155,-18.7986,1126.949],[29.012,-18.8015,1124.7126],[29.0034,-18.7924,1118.0675],[29.0003,-18.7913,1119.6083]]]]}
,"properties": {"GID_3": "ZWE.10.7.10_2","GID_0": "ZWE","country": "Zimbabwe","GID_1": "ZWE.10_1","province": "Midlands","NL_NAME_1": "NA","GID_2": "ZWE.10.7_2","county": "Kwekwe","NL_NAME_2": "NA","city": "Ward18","VARNAME_3": "NA","NL_NAME_3": "NA","TYPE_3": "Ward","ENGTYPE_3": "Ward","CC_3": "NA","HASC_3": "NA","name": "Ward18.city","area_km2": 61.42382,"hist_schema_id": "Elevation0-9000","hist_area_km2": {"1125": 12.26273,"1150": 21.13106,"1175": 17.5569,"1200": 9.44993,"1225": 1.0232}}}