{"type": "Feature","bbox": [29.8433,-18.9002,29.8646,-18.8582],"geometry": {"type": "MultiPolygon","coordinates": [[[[29.8646,-18.8964,1180.5781],[29.862,-18.8676,1173.7798],[29.8542,-18.8663,1165.511],[29.8502,-18.8629,1163.7446],[29.8493,-18.8582,1164.7595],[29.8433,-18.8585,1177.5645],[29.8508,-18.8992,1201.146],[29.8585,-18.8982,1193.332],[29.8624,-18.9002,1181.5499],[29.8646,-18.8964,1180.5781]]]]}
,"properties": {"GID_3": "ZWE.10.8.4_2","GID_0": "ZWE","country": "Zimbabwe","GID_1": "ZWE.10_1","province": "Midlands","NL_NAME_1": "NA","GID_2": "ZWE.10.8_2","county": "KwekweUrban","NL_NAME_2": "NA","city": "Ward12","VARNAME_3": "NA","NL_NAME_3": "NA","TYPE_3": "Ward","ENGTYPE_3": "Ward","CC_3": "NA","HASC_3": "NA","name": "Ward12.city","area_km2": 6.499921,"hist_schema_id": "Elevation0-9000","hist_area_km2": {"1175": 4.975343,"1200": 1.524578}}}