{"type":"Feature","properties":{"GID_3":"ZWE.6.4.4_2","GID_0":"ZWE","country":"Zimbabwe","GID_1":"ZWE.6_1","province":"MashonalandWest","NL_NAME_1":"NA","GID_2":"ZWE.6.4_2","county":"Hurungwe","NL_NAME_2":"NA","city":"Ward12","VARNAME_3":"NA","NL_NAME_3":"NA","TYPE_3":"Ward","ENGTYPE_3":"Ward","CC_3":"NA","HASC_3":"NA","name":"Ward12.city"},
"geometry":{"type": "MultiPolygon","coordinates": [[[[29.3533,-17.0535,1115.7247],[29.3568,-17.0547,1121.9791],[29.3609,-17.0613,1161.0173],[29.3671,-17.0604,1166.7385],[29.3719,-17.0576,1172.2804],[29.3732,-17.0625,1166.3563],[29.3769,-17.0638,1150.9929],[29.3821,-17.0686,1142.4766],[29.3915,-17.0663,1147.0697],[29.3907,-17.0774,1122.2175],[29.3874,-17.0813,1113.3645],[29.3903,-17.0893,1113.4391],[29.3878,-17.1039,1132.6938],[29.4064,-17.1197,1159.7632],[29.4021,-17.1227,1164.9471],[29.4051,-17.1241,1155.7843],[29.4042,-17.133,1147.1536],[29.4055,-17.1374,1146.0883],[29.404,-17.1423,1139.4414],[29.4073,-17.1445,1143.066],[29.4187,-17.1441,1113.5189],[29.4234,-17.1489,1099.2126],[29.4307,-17.1479,1098.0706],[29.4326,-17.1516,1081.8326],[29.4425,-17.161,1071.7063],[29.4428,-17.1605,1071.7063],[29.4425,-17.1564,1075.323],[29.447,-17.1516,1077.6946],[29.4459,-17.1475,1093.5621],[29.4472,-17.1398,1090.1865],[29.4584,-17.138,1089.6501],[29.4659,-17.1282,1097.8529],[29.4729,-17.1227,1099.4149],[29.4753,-17.116,1110.5856],[29.4851,-17.1122,1104.5193],[29.4898,-17.1075,1110.0894],[29.4886,-17.1038,1111.4514],[29.4895,-17.1016,1121.7577],[29.496,-17.0986,1125.4678],[29.5032,-17.0984,1124.1938],[29.5048,-17.0959,1139.8542],[29.5077,-17.0974,1122.7454],[29.513,-17.0941,1125.4615],[29.5173,-17.0952,1127.5713],[29.5188,-17.093,1139.708],[29.5245,-17.0953,1130.5807],[29.5252,-17.0871,1142.2766],[29.5297,-17.0888,1138.1062],[29.5381,-17.087,1143.725],[29.5234,-17.0543,1182.3588],[29.5176,-17.0207,1210.5303],[29.5137,-17.0227,1214.14],[29.5115,-17.022,1220.8667],[29.5087,-17.0114,1249.6208],[29.4981,-16.9995,1261.2667],[29.4987,-16.9945,1260.9631],[29.4824,-16.9929,1262.6425],[29.4741,-16.9963,1266.3286],[29.4702,-16.9998,1269.3047],[29.462,-17.0014,1274.8528],[29.4565,-17.0066,1280.2738],[29.4545,-17.0108,1278.8289],[29.4505,-17.0127,1271.9248],[29.4529,-17.0159,1273.7017],[29.4522,-17.0196,1245.6677],[29.4474,-17.0186,1260.1088],[29.4445,-17.0154,1255.3431],[29.4401,-17.0162,1251.0991],[29.4312,-17.0227,1240.3729],[29.4195,-17.0261,1231.4875],[29.4166,-17.0288,1236.1948],[29.4161,-17.0323,1231.9518],[29.4118,-17.0344,1224.9264],[29.4076,-17.0316,1220.5059],[29.4088,-17.0207,1221.6522],[29.3999,-17.0273,1205.335],[29.3902,-17.0266,1200.7682],[29.3838,-17.0241,1196.5684],[29.3732,-17.0344,1171.4388],[29.3687,-17.0368,1168.4226],[29.3615,-17.046,1138.6326],[29.358,-17.047,1143.2594],[29.3533,-17.0535,1115.7247]]]]}}