{"type": "Feature","bbox": [31.6418,-17.3535,31.7543,-17.216],"geometry": {"type": "MultiPolygon","coordinates": [[[[31.6487,-17.274,867.2958],[31.6523,-17.2787,879.1351],[31.6515,-17.2835,891.8369],[31.6537,-17.2868,899.0835],[31.6418,-17.2955,1058.7064],[31.6531,-17.3127,1088.707],[31.6869,-17.3535,944.03],[31.6926,-17.3418,934.5687],[31.6968,-17.3404,921.914],[31.7036,-17.3301,920.2133],[31.7082,-17.3287,934.3334],[31.721,-17.3152,963.0116],[31.7374,-17.3025,899.2066],[31.743,-17.2952,908.1681],[31.7514,-17.2881,886.2336],[31.7543,-17.2801,903.9844],[31.7482,-17.2691,879.9147],[31.7494,-17.2585,864.9398],[31.7438,-17.2476,886.2364],[31.7414,-17.2365,854.3627],[31.7227,-17.216,839.6064],[31.7188,-17.2181,842.1195],[31.7161,-17.2167,843.0181],[31.7019,-17.221,842.0906],[31.701,-17.2232,842.7252],[31.7028,-17.2233,844.3113],[31.7055,-17.2272,845.9509],[31.7018,-17.2303,845.4942],[31.7018,-17.2373,854.0732],[31.6954,-17.239,854.2047],[31.6857,-17.246,854.2275],[31.6756,-17.249,852.9478],[31.6738,-17.2512,865.7118],[31.676,-17.2578,858.1365],[31.6742,-17.2596,859.42],[31.6719,-17.2613,860.5059],[31.6499,-17.2669,865.4177],[31.6487,-17.274,867.2958]]]]}
,"properties": {"GID_3": "ZWE.4.10.11_2","GID_0": "ZWE","country": "Zimbabwe","GID_1": "ZWE.4_1","province": "MashonalandCentral","NL_NAME_1": "NA","GID_2": "ZWE.4.10_2","county": "Shamva","NL_NAME_2": "NA","city": "Ward19","VARNAME_3": "NA","NL_NAME_3": "NA","TYPE_3": "Ward","ENGTYPE_3": "Ward","CC_3": "NA","HASC_3": "NA","name": "Ward19.city","area_km2": 98.39069,"hist_schema_id": "Elevation0-9000","hist_area_km2": {"825": 0.16201,"850": 5.32584,"875": 7.57274,"900": 6.55994,"925": 6.62008,"950": 6.35677,"975": 5.52674,"1000": 5.58744,"1025": 5.83028,"1050": 8.25962,"1075": 9.75753,"1100": 9.15011,"1125": 8.2187,"1150": 4.59546,"1175": 3.01646,"1200": 2.34844,"1225": 1.53867,"1250": 1.05274,"1275": 0.66817,"1300": 0.16196,"1325": 0.08099}}}