{"type":"Feature","properties":{"GID_2":"ZWE.7.2_2","GID_0":"ZWE","country":"Zimbabwe","GID_1":"ZWE.7_1","province":"Masvingo","NL_NAME_1":"NA","county":"Chiredzi","VARNAME_2":"NA","NL_NAME_2":"NA","TYPE_2":"District","ENGTYPE_2":"District","CC_2":"NA","HASC_2":"NA","name":"Chiredzi.county"},
"geometry":{"type": "MultiPolygon","coordinates": [[[[31.3102,-22.4184,198.3364],[31.3815,-22.3718,295.5596],[31.4699,-22.2836,214.2703],[31.4815,-22.2695,232.6514],[31.4867,-22.2666,231.8869],[31.4977,-22.2555,247.7252],[31.504,-22.2515,247.647],[31.5287,-22.2211,256.6233],[31.5374,-22.2148,247.7038],[31.5903,-22.1595,311.8247],[31.6113,-22.1408,321.9019],[31.6805,-22.0687,456.0549],[31.6816,-22.0697,455.5742],[31.7455,-22.0039,487.2104],[31.7578,-21.9939,483.2856],[31.8673,-21.8807,383.101],[31.8657,-21.8805,385.0516],[31.9039,-21.8397,346.625],[32.1427,-21.5929,353.4502],[32.1596,-21.5734,381.7582],[32.3998,-21.3276,193.8589],[32.4151,-21.3157,159.5915],[32.4265,-21.3115,157.3519],[32.4481,-21.3081,161.6993],[32.4463,-21.3066,166.6313],[32.4359,-21.3048,164.859],[32.4278,-21.2982,176.3092],[32.4175,-21.2933,160.5528],[32.4069,-21.2829,164.7479],[32.4025,-21.2745,164.3206],[32.3924,-21.2625,167.203],[32.3765,-21.2547,167.2559],[32.3624,-21.2524,172.0822],[32.3544,-21.2483,183.4361],[32.3379,-21.2461,212.0637],[32.3294,-21.239,199.4883],[32.322,-21.2291,242.382],[32.3124,-21.2221,256.5455],[32.3047,-21.2102,239.4368],[32.3059,-21.2022,307.7687],[32.2944,-21.1927,271.2249],[32.2892,-21.1843,326.4106],[32.2858,-21.1596,301.5857],[32.2707,-21.1045,338.9881],[32.2655,-21.0994,334.6653],[32.2577,-21.0969,345.4612],[32.2466,-21.0984,336.3186],[32.2404,-21.0975,345.1285],[32.2338,-21.0795,342.8304],[32.2247,-21.077,344.3237],[32.2165,-21.0686,349.1416],[32.1999,-21.0669,352.3182],[32.1947,-21.0643,356.8781],[32.188,-21.0526,356.2216],[32.186,-21.0455,357.5366],[32.1866,-21.0426,362.7902],[32.1953,-21.0355,358.1992],[32.1961,-21.024,359.0],[32.1905,-21.0164,372.2389],[32.1749,-21.0079,371.2375],[32.1649,-21.0053,372.1425],[32.1577,-20.9978,366.214],[32.1549,-20.9893,364.5],[32.1529,-20.9876,368.6423],[32.152,-20.9784,365.5],[32.1587,-20.9608,368.0],[32.1571,-20.949,374.2521],[32.1473,-20.9401,375.6194],[32.1401,-20.938,370.6038],[32.1355,-20.9266,371.5],[32.1398,-20.9143,374.5233],[32.1496,-20.9041,373.875],[32.154,-20.893,375.5714],[32.1563,-20.8909,375.906],[32.1585,-20.8819,376.0715],[32.1569,-20.8776,380.5212],[32.1659,-20.8673,386.4382],[32.1833,-20.8405,380.0],[32.1882,-20.8285,389.8384],[32.1895,-20.8208,388.8097],[32.1966,-20.8043,391.8588],[32.2045,-20.8018,384.5254],[32.2108,-20.7971,384.0],[32.2151,-20.7914,386.6253],[32.2197,-20.7807,393.6396],[32.2191,-20.7778,395.0201],[32.2152,-20.7764,389.6581],[32.2091,-20.769,395.2693],[32.2089,-20.7527,388.625],[32.2127,-20.7508,389.0],[32.2138,-20.7403,389.625],[32.2173,-20.7297,390.5],[32.2277,-20.7118,393.9409],[32.2253,-20.6997,399.5838],[32.2277,-20.6921,394.7567],[32.2346,-20.6865,397.8203],[32.2475,-20.6814,396.0],[32.256,-20.6695,398.0],[32.2609,-20.6458,406.5114],[32.2569,-20.6167,404.0],[32.2712,-20.5999,406.9888],[32.2746,-20.5892,407.5],[32.2803,-20.5759,411.2913],[32.2853,-20.5688,412.4973],[32.2888,-20.5581,418.3577],[32.2878,-20.5319,416.0437],[32.2827,-20.5173,415.5],[32.2828,-20.5118,421.2556],[32.2864,-20.5042,429.9769],[32.2891,-20.4896,419.459],[32.2884,-20.4765,424.7746],[32.2844,-20.4552,423.1418],[32.2582,-20.4521,437.5408],[32.2379,-20.4445,441.6188],[32.1941,-20.4369,444.7998],[32.1819,-20.4284,457.7327],[32.1746,-20.42,449.8041],[32.1462,-20.4093,452.3743],[32.1032,-20.4063,475.4409],[32.0708,-20.4093,501.6707],[32.0627,-20.4116,484.0087],[32.0164,-20.4131,516.5023],[32.0051,-20.4093,518.1093],[32.0005,-20.4057,521.0526],[31.9925,-20.406,518.7859],[31.974,-20.4159,536.0197],[31.9694,-20.42,518.129],[31.9668,-20.4193,534.9147],[31.9654,-20.423,535.8812],[31.8647,-20.4888,690.5477],[31.8459,-20.5331,594.8741],[31.8283,-20.5656,656.8602],[31.7897,-20.5825,613.9822],[31.775,-20.5826,530.9437],[31.7823,-20.5862,524.166],[31.7808,-20.5893,518.5853],[31.7834,-20.5922,518.7046],[31.7817,-20.5937,513.4976],[31.779,-20.6077,508.0726],[31.7832,-20.6145,510.4547],[31.782,-20.6169,499.0213],[31.7807,-20.6145,502.1973],[31.7785,-20.6152,504.9761],[31.7801,-20.6232,498.0601],[31.7499,-20.6328,518.3989],[31.7246,-20.6432,513.9139],[31.7178,-20.6521,511.7947],[31.6879,-20.6026,781.1245],[31.6332,-20.6027,594.2492],[31.6142,-20.6245,619.9373],[31.6116,-20.6214,529.0],[31.6021,-20.6255,529.0],[31.6042,-20.6272,546.1198],[31.5149,-20.6534,557.0135],[31.4581,-20.6791,559.9583],[31.4068,-20.6479,603.5432],[31.3828,-20.6444,675.2584],[31.328,-20.6634,717.4842],[31.2884,-20.6896,843.7843],[31.2495,-20.7499,486.074],[31.2503,-20.7565,466.6562],[31.2432,-20.7705,480.1654],[31.2388,-20.7911,460.4647],[31.2404,-20.8034,452.0],[31.2441,-20.8106,470.7853],[31.2606,-20.8202,458.0386],[31.2679,-20.8269,455.4459],[31.2701,-20.8316,451.0],[31.244,-20.9014,466.0984],[31.1993,-20.9207,475.2397],[31.1866,-20.887,518.7201],[31.2036,-20.8734,484.7278],[31.1902,-20.8687,479.5872],[31.1741,-20.8782,509.3537],[31.1335,-20.8921,497.6174],[31.102,-20.9166,498.3182],[31.0842,-20.9342,478.7211],[31.0797,-20.9283,477.8817],[31.0815,-20.9246,477.4211],[31.0775,-20.9207,488.2601],[31.0722,-20.9222,487.9562],[31.0702,-20.9214,486.1175],[31.0649,-20.9267,488.3488],[31.0584,-20.9217,482.7753],[31.0542,-20.9229,483.4839],[31.0411,-20.9988,458.0952],[31.0394,-21.0188,435.715],[31.0453,-21.0253,435.0587],[31.0521,-21.0402,426.053],[31.0587,-21.0471,423.1434],[31.0624,-21.0545,422.5336],[31.1048,-21.0712,430.1603],[31.108,-21.0737,426.1314],[31.1097,-21.0773,415.1337],[31.1103,-21.092,413.1537],[31.1212,-21.1034,420.6315],[31.1264,-21.1149,407.9573],[31.1326,-21.1199,407.618],[31.1411,-21.1226,419.5854],[31.1464,-21.1262,409.3056],[31.1563,-21.141,397.4722],[31.1648,-21.1433,393.0616],[31.1812,-21.1403,402.434],[31.1902,-21.1408,405.6217],[31.2116,-21.1496,389.3876],[31.2387,-21.1524,393.8195],[31.2591,-21.1486,386.0889],[31.2679,-21.1357,385.0309],[31.2825,-21.1359,390.6755],[31.2997,-21.1393,390.3731],[31.309,-21.1515,376.6184],[31.3131,-21.1702,365.5465],[31.3251,-21.18,362.5159],[31.3544,-21.1779,356.2152],[31.3778,-21.1716,352.1992],[31.4814,-21.1564,334.7607],[31.4979,-21.1491,336.5718],[31.5147,-21.1537,333.7852],[31.5402,-21.1736,318.6691],[31.5522,-21.174,326.1998],[31.5657,-21.1676,323.9408],[31.5706,-21.1676,317.7203],[31.5749,-21.1717,316.5382],[31.5768,-21.1827,316.0783],[31.581,-21.188,315.0673],[31.5928,-21.195,333.0929],[31.599,-21.2041,311.0937],[31.6084,-21.2097,317.9539],[31.6055,-21.2129,313.1373],[31.6034,-21.2118,332.023],[31.6027,-21.2138,329.3353],[31.6005,-21.2109,334.6076],[31.5943,-21.2126,332.913],[31.5912,-21.2176,335.9614],[31.5924,-21.2213,338.0764],[31.588,-21.2337,341.9583],[31.5828,-21.2353,345.5928],[31.584,-21.2385,343.6578],[31.5742,-21.2426,348.3848],[31.5633,-21.2435,351.6898],[31.5587,-21.249,350.5082],[31.5554,-21.2494,353.2116],[31.5496,-21.2541,353.7765],[31.5396,-21.2559,359.1746],[31.5285,-21.2606,359.3283],[31.5255,-21.2655,361.0115],[31.5122,-21.2663,364.9033],[31.5081,-21.2729,365.3588],[31.5072,-21.2853,371.1662],[31.5034,-21.2903,370.5593],[31.4693,-21.3181,386.6791],[31.2675,-21.4914,481.8368],[31.267,-21.498,482.3108],[31.2628,-21.5044,479.5408],[31.2501,-21.5369,459.4842],[31.2432,-21.5483,449.2614],[31.247,-21.5606,439.5498],[31.252,-21.5658,440.857],[31.2513,-21.5751,433.6396],[31.2527,-21.5781,433.8762],[31.2512,-21.5805,431.5776],[31.2528,-21.5871,429.6635],[31.2496,-21.593,424.5289],[31.2439,-21.5987,425.8083],[31.239,-21.6274,409.6801],[31.2476,-21.6365,403.0294],[31.2491,-21.6411,400.9034],[31.2546,-21.6411,411.5824],[31.2529,-21.6443,400.1869],[31.2552,-21.6474,397.3935],[31.252,-21.6524,396.8185],[31.2397,-21.6592,392.226],[31.2371,-21.6657,396.8064],[31.2308,-21.6696,395.6533],[31.2292,-21.6755,391.4412],[31.2298,-21.68,390.1736],[31.2465,-21.6879,388.5881],[31.2481,-21.6923,387.3532],[31.2619,-21.7094,376.8588],[31.2689,-21.7141,383.9922],[31.2777,-21.7168,375.2929],[31.257,-21.7296,432.856],[31.2488,-21.7424,440.6051],[31.2463,-21.7494,471.158],[31.0661,-22.0616,528.3391],[30.9993,-22.09,441.7846],[30.9878,-22.09,363.0109],[30.9761,-22.0966,408.5005],[30.9593,-22.1019,342.1964],[30.9479,-22.1072,330.1451],[30.9439,-22.1127,315.2913],[30.9481,-22.125,308.0338],[30.9479,-22.1365,305.2533],[30.9547,-22.1551,324.3592],[30.9626,-22.1598,312.2812],[30.983,-22.1619,301.0963],[30.9859,-22.1633,298.6247],[30.9894,-22.1692,312.4603],[30.9877,-22.1742,304.5465],[31.0053,-22.1786,295.3999],[31.0098,-22.194,293.2289],[31.0065,-22.1972,273.8475],[31.0024,-22.2072,272.3484],[31.0133,-22.2084,275.2358],[31.0059,-22.2246,263.6065],[31.0109,-22.2275,267.4688],[31.0204,-22.2184,292.8961],[31.0345,-22.224,306.4642],[31.0363,-22.2302,333.7762],[31.0318,-22.2358,252.5475],[31.0263,-22.2367,257.5439],[31.0209,-22.2328,256.8107],[31.0162,-22.2331,249.5372],[31.0139,-22.2437,252.3546],[31.0151,-22.2446,250.5411],[31.0125,-22.249,248.3133],[31.0161,-22.2523,253.0898],[31.0242,-22.2509,297.2373],[31.0276,-22.2519,281.1294],[31.0308,-22.2634,244.0384],[31.0343,-22.2667,247.7986],[31.0533,-22.2666,273.6225],[31.0533,-22.2684,274.8314],[31.0496,-22.2716,244.0904],[31.0521,-22.2787,256.6476],[31.0498,-22.2828,250.9898],[31.0508,-22.2856,259.2924],[31.0554,-22.2869,240.638],[31.0611,-22.2852,309.6043],[31.0683,-22.2941,236.1353],[31.0725,-22.2938,235.4227],[31.0802,-22.2885,250.3877],[31.0841,-22.2897,264.0247],[31.0841,-22.2976,229.9119],[31.0861,-22.302,230.8915],[31.0986,-22.3143,229.4575],[31.1003,-22.3202,228.5681],[31.1133,-22.3353,221.2136],[31.1133,-22.3375,223.6936],[31.1205,-22.3382,220.2615],[31.1296,-22.3332,216.0],[31.1478,-22.3285,218.204],[31.1599,-22.3276,217.1429],[31.1736,-22.329,212.0],[31.1814,-22.3312,212.3457],[31.1856,-22.3341,210.9396],[31.1977,-22.3549,208.125],[31.2109,-22.364,212.1059],[31.2165,-22.366,210.4912],[31.2261,-22.3666,210.6456],[31.2336,-22.3662,209.4725],[31.2488,-22.3617,204.9598],[31.2646,-22.3638,200.7164],[31.2738,-22.3719,199.5],[31.2877,-22.4051,197.7682],[31.3046,-22.4146,201.635],[31.3084,-22.4196,200.0172],[31.3102,-22.4184,198.3364]],
[[31.7436,-21.0048,348.1629],[31.745,-21.0045,352.517],[31.7472,-21.0079,351.3271],[31.7478,-21.0113,342.5518],[31.7324,-21.0147,366.1421],[31.7109,-21.0231,377.5554],[31.696,-21.0246,392.019],[31.6899,-21.0318,394.8608],[31.6869,-21.0395,402.8127],[31.6693,-21.0591,419.2798],[31.6393,-21.0356,415.7546],[31.6247,-21.0295,415.564],[31.6845,-21.0171,390.5153],[31.7436,-21.0048,348.1629]]]]}}