{"type":"Feature","properties":{"GID_3":"ZWE.3.6.29_2","GID_0":"ZWE","country":"Zimbabwe","GID_1":"ZWE.3_1","province":"Manicaland","NL_NAME_1":"NA","GID_2":"ZWE.3.6_2","county":"Mutare","NL_NAME_2":"NA","city":"Ward35","VARNAME_3":"NA","NL_NAME_3":"NA","TYPE_3":"Ward","ENGTYPE_3":"Ward","CC_3":"NA","HASC_3":"NA","name":"Ward35.city"},
"geometry":{"type": "MultiPolygon","coordinates": [[[[32.5557,-19.0489,933.9611],[32.5532,-19.0533,930.9206],[32.554,-19.0573,926.9666],[32.5492,-19.0679,920.6228],[32.5364,-19.0742,910.7066],[32.5265,-19.0772,903.4873],[32.5144,-19.0837,892.9861],[32.5129,-19.0861,891.354],[32.51,-19.0847,892.369],[32.5032,-19.0889,891.6994],[32.4977,-19.0866,919.0768],[32.4533,-19.1133,869.7546],[32.458,-19.115,861.9665],[32.4583,-19.1173,859.5844],[32.4694,-19.1253,851.1989],[32.4732,-19.1299,847.5487],[32.4805,-19.1293,851.6636],[32.4885,-19.1411,843.951],[32.5069,-19.1272,1368.5964],[32.5101,-19.1232,1443.4113],[32.5481,-19.1106,1428.8418],[32.5536,-19.0971,1369.0919],[32.5593,-19.0951,1411.9349],[32.5599,-19.0874,1407.8517],[32.5696,-19.08,1290.4486],[32.5792,-19.077,1206.6047],[32.5879,-19.0774,1252.1479],[32.5939,-19.0808,1223.2576],[32.6041,-19.0906,1331.2836],[32.6106,-19.0881,1189.5635],[32.5866,-19.0346,1066.2697],[32.5639,-19.0473,1092.074],[32.5557,-19.0489,933.9611]]]]}}