{"type":"Feature","properties":{"GID_3":"ZWE.5.10.9_2","GID_0":"ZWE","country":"Zimbabwe","GID_1":"ZWE.5_1","province":"MashonalandEast","NL_NAME_1":"NA","GID_2":"ZWE.5.10_2","county":"Seke","NL_NAME_2":"NA","city":"Ward17","VARNAME_3":"NA","NL_NAME_3":"NA","TYPE_3":"Ward","ENGTYPE_3":"Ward","CC_3":"NA","HASC_3":"NA","name":"Ward17.city"},
"geometry":{"type": "MultiPolygon","coordinates": [[[[30.9996,-18.3209,1321.376],[30.9927,-18.3214,1312.9156],[30.9842,-18.3154,1314.215],[30.9791,-18.3163,1307.4514],[30.9778,-18.3149,1301.1965],[30.9374,-18.327,1335.1274],[30.9429,-18.3433,1339.8967],[30.957,-18.3587,1349.1602],[30.9856,-18.3609,1327.4973],[30.9861,-18.3533,1320.647],[31.0003,-18.3523,1347.342],[30.9995,-18.3771,1353.9868],[31.0069,-18.4095,1364.0178],[31.0234,-18.4193,1372.4749],[31.0385,-18.4074,1375.6333],[31.0531,-18.4101,1359.7881],[31.054,-18.3977,1353.0667],[31.052,-18.394,1357.8162],[31.0524,-18.3907,1358.4819],[31.0566,-18.3893,1348.7974],[31.0581,-18.3792,1356.5272],[31.0638,-18.3772,1347.0654],[31.0656,-18.3749,1343.8508],[31.0644,-18.3648,1340.2545],[31.0617,-18.3619,1339.0569],[31.0624,-18.3555,1336.2998],[31.0605,-18.3529,1337.917],[31.0603,-18.3433,1331.9303],[31.0559,-18.3424,1328.9108],[31.0516,-18.3365,1330.3469],[31.0346,-18.3345,1323.8639],[31.0257,-18.324,1325.1368],[31.0194,-18.3254,1319.6217],[31.016,-18.3293,1311.8845],[31.0127,-18.3303,1315.5975],[30.9996,-18.3209,1321.376]]]]}}