{"type": "Feature","bbox": [32.7996,-18.5407,32.895,-18.4414],"geometry": {"type": "MultiPolygon","coordinates": [[[[32.895,-18.5064,710.6458],[32.8909,-18.5048,707.1323],[32.8892,-18.4998,725.7749],[32.8854,-18.4991,732.3773],[32.8841,-18.5015,719.4758],[32.8788,-18.5001,749.2338],[32.8798,-18.4979,743.9395],[32.8826,-18.4974,749.2228],[32.8823,-18.4948,767.0903],[32.8774,-18.4938,747.9763],[32.876,-18.4904,771.1379],[32.8737,-18.4904,749.5426],[32.8736,-18.4888,755.7969],[32.869,-18.4866,751.1376],[32.8563,-18.4938,788.1757],[32.8475,-18.5012,805.8203],[32.8425,-18.4991,787.5323],[32.8314,-18.4772,890.3876],[32.8382,-18.4765,852.2642],[32.8485,-18.469,817.4303],[32.8485,-18.4673,812.8779],[32.8382,-18.4666,872.1874],[32.8364,-18.4646,904.3166],[32.8307,-18.4469,1252.6368],[32.8263,-18.442,1385.5618],[32.8223,-18.4414,1385.4094],[32.8152,-18.4467,1532.0221],[32.8164,-18.4567,1424.1958],[32.8019,-18.5111,919.4447],[32.7996,-18.5104,901.4927],[32.8001,-18.5133,891.298],[32.8061,-18.5175,853.9741],[32.8087,-18.5243,813.2583],[32.8077,-18.5293,797.4591],[32.8114,-18.5311,802.0808],[32.8143,-18.5372,800.1172],[32.8218,-18.5407,759.7144],[32.8291,-18.539,748.7126],[32.8347,-18.5362,735.656],[32.8369,-18.531,761.9941],[32.8412,-18.5333,734.1876],[32.8461,-18.5288,757.2697],[32.8485,-18.5299,738.2965],[32.8519,-18.5286,725.902],[32.8611,-18.522,748.8118],[32.8683,-18.5207,713.2167],[32.8695,-18.5183,734.5685],[32.8734,-18.5186,750.517],[32.8827,-18.5146,719.3921],[32.8883,-18.5112,723.3909],[32.8917,-18.5067,708.6923],[32.895,-18.5064,710.6458]]]]}
,"properties": {"GID_3": "ZWE.3.8.28_2","GID_0": "ZWE","country": "Zimbabwe","GID_1": "ZWE.3_1","province": "Manicaland","NL_NAME_1": "NA","GID_2": "ZWE.3.8_2","county": "Mutasa","NL_NAME_2": "NA","city": "Ward6","VARNAME_3": "NA","NL_NAME_3": "NA","TYPE_3": "Ward","ENGTYPE_3": "Ward","CC_3": "NA","HASC_3": "NA","name": "Ward6.city","area_km2": 47.29064,"hist_schema_id": "Elevation0-9000","hist_area_km2": {"700": 0.12064,"725": 1.38722,"750": 6.69499,"775": 9.5097,"800": 7.76068,"825": 4.30256,"850": 2.35245,"875": 1.52817,"900": 1.5885,"925": 1.24672,"950": 1.02555,"975": 0.90489,"1000": 0.94512,"1025": 0.78425,"1050": 0.74403,"1075": 0.66362,"1100": 0.68371,"1125": 0.50273,"1150": 0.58318,"1175": 0.32177,"1200": 0.30165,"1225": 0.84462,"1250": 0.543,"1275": 0.24134,"1300": 0.24135,"1325": 0.08045,"1350": 0.20112,"1375": 0.18101,"1400": 0.1609,"1425": 0.1609,"1450": 0.22124,"1475": 0.1609,"1500": 0.14079,"1525": 0.10056,"1550": 0.02011,"1575": 0.04022}}}