{"type":"Feature","properties":{"GID_3":"ZWE.1.1.22_2","GID_0":"ZWE","country":"Zimbabwe","GID_1":"ZWE.1_1","province":"Bulawayo","NL_NAME_1":"NA","GID_2":"ZWE.1.1_2","county":"Bulawayo","NL_NAME_2":"NA","city":"Ward29","VARNAME_3":"NA","NL_NAME_3":"NA","TYPE_3":"Ward","ENGTYPE_3":"Ward","CC_3":"NA","HASC_3":"NA","name":"Ward29.city"},
"geometry":{"type": "MultiPolygon","coordinates": [[[[28.5103,-20.1236,1357.3075],[28.5008,-20.1217,1356.9862],[28.4935,-20.1146,1337.6771],[28.4851,-20.1224,1327.3417],[28.4855,-20.125,1332.0775],[28.4883,-20.1272,1335.5634],[28.4896,-20.133,1350.0031],[28.4948,-20.1371,1360.2004],[28.5001,-20.1285,1355.6338],[28.5101,-20.1317,1375.3512],[28.5103,-20.1236,1357.3075]]]]}}