{"type": "Feature","bbox": [31.4032,-20.5826,32.3451,-19.8211],"geometry": {"type": "MultiPolygon","coordinates": [[[[31.8607,-20.4991,656.9997],[31.8647,-20.4888,690.5477],[31.9654,-20.423,535.8812],[31.9668,-20.4193,534.9147],[31.9694,-20.42,518.129],[31.974,-20.4159,536.0197],[31.9954,-20.4053,517.6934],[32.0005,-20.4057,521.0526],[32.0051,-20.4093,518.1093],[32.0164,-20.4131,516.5023],[32.0627,-20.4116,484.0087],[32.0708,-20.4093,501.6707],[32.1032,-20.4063,475.4409],[32.1462,-20.4093,452.3743],[32.1746,-20.42,449.8041],[32.1819,-20.4284,457.7327],[32.1941,-20.4369,444.7998],[32.2379,-20.4445,441.6188],[32.2582,-20.4521,437.5408],[32.2844,-20.4552,423.1418],[32.2881,-20.4233,425.5],[32.2889,-20.3971,432.4297],[32.2912,-20.3884,433.1221],[32.2957,-20.3449,441.5287],[32.3063,-20.3098,445.8081],[32.3067,-20.302,447.7259],[32.312,-20.2857,449.9091],[32.3146,-20.269,452.5898],[32.3197,-20.2601,449.4142],[32.3222,-20.2437,451.5551],[32.3236,-20.2162,458.3352],[32.3269,-20.2054,459.558],[32.3272,-20.1875,456.5],[32.3391,-20.1575,462.8096],[32.3381,-20.1318,467.7157],[32.3408,-20.1142,471.6635],[32.339,-20.1056,472.4034],[32.3396,-20.096,471.198],[32.3404,-20.089,476.1497],[32.3451,-20.0766,471.5],[32.3391,-20.0559,473.5358],[32.3374,-20.0362,479.2439],[32.3436,-20.0143,478.267],[32.3401,-20.0028,485.667],[32.3406,-20.0,479.0],[32.3344,-19.9898,486.7192],[32.3294,-19.9855,485.587],[32.3198,-19.982,487.7854],[32.2848,-19.9783,494.3989],[32.277,-19.9729,498.9399],[32.2717,-19.9642,508.6854],[32.2674,-19.9611,521.5871],[32.255,-19.9588,527.8033],[32.2336,-19.9414,533.8249],[32.2092,-19.9304,534.8849],[32.2022,-19.9094,562.213],[32.1963,-19.9037,564.7655],[32.1901,-19.9026,586.4283],[32.1662,-19.9037,576.6688],[32.1421,-19.9015,587.2191],[32.1088,-19.9045,605.1999],[32.0949,-19.9043,605.3428],[32.09,-19.893,609.2296],[32.086,-19.8912,629.0911],[32.0829,-19.8874,618.7339],[32.0762,-19.8702,626.1064],[32.0669,-19.868,647.4565],[32.0619,-19.8641,649.3829],[32.0531,-19.8622,653.8533],[32.027,-19.8654,677.8531],[32.0166,-19.8632,675.4912],[32.0037,-19.8578,683.0677],[31.9996,-19.8578,681.3058],[31.9848,-19.849,696.8402],[31.9789,-19.8426,692.7818],[31.9741,-19.8289,704.5835],[31.9735,-19.8211,729.8417],[31.9626,-19.8212,783.8399],[31.947,-19.8245,774.7178],[31.9272,-19.826,830.0891],[31.9166,-19.8302,750.6643],[31.9022,-19.8323,757.9251],[31.8933,-19.833,754.7881],[31.8866,-19.8303,757.2318],[31.8629,-19.8337,783.6655],[31.8532,-19.8381,793.8162],[31.8317,-19.8401,799.5087],[31.8131,-19.8476,813.2424],[31.8066,-19.8469,813.5928],[31.7953,-19.8413,809.758],[31.7695,-19.8421,833.8138],[31.749,-19.8377,851.4959],[31.7427,-19.838,851.7054],[31.7221,-19.8344,860.4472],[31.7159,-19.8362,868.2397],[31.6896,-19.8327,884.4394],[31.6806,-19.846,875.5066],[31.6736,-19.8451,892.2872],[31.6718,-19.8487,876.0195],[31.6674,-19.8473,908.1578],[31.6672,-19.8542,884.832],[31.6637,-19.8572,894.2812],[31.6626,-19.8604,888.3539],[31.6559,-19.861,899.5083],[31.649,-19.8555,909.1394],[31.6452,-19.8556,902.9801],[31.6378,-19.8513,902.6866],[31.6293,-19.844,912.0698],[31.6253,-19.8489,910.2078],[31.6233,-19.8622,908.8886],[31.6212,-19.8649,914.5938],[31.6134,-19.8682,925.6271],[31.6033,-19.869,936.1359],[31.5976,-19.8717,950.217],[31.5823,-19.8743,971.0482],[31.5786,-19.8817,947.5977],[31.5533,-19.8867,1005.1616],[31.5457,-19.8751,1009.1195],[31.5396,-19.8709,1017.1685],[31.5295,-19.8769,1023.2413],[31.5264,-19.8768,1026.5461],[31.5182,-19.8825,1030.7113],[31.5135,-19.8798,1038.155],[31.5113,-19.8839,1031.0564],[31.5056,-19.8866,1042.3834],[31.5013,-19.8853,1051.5925],[31.4967,-19.8862,1046.9551],[31.4932,-19.8835,1050.1548],[31.4813,-19.8994,1058.5183],[31.4812,-19.9059,1059.6359],[31.4724,-19.902,1061.5051],[31.4643,-19.902,1062.3777],[31.4493,-19.9064,1069.2252],[31.4423,-19.9175,1080.098],[31.4334,-19.9139,1122.8962],[31.4093,-19.9709,1171.3684],[31.4147,-19.9911,1221.2897],[31.4032,-20.0025,1165.4116],[31.422,-20.0364,1539.3735],[31.4383,-20.0223,1433.1978],[31.4565,-20.0508,1194.7242],[31.4679,-20.0608,1028.6698],[31.4679,-20.0644,1026.4626],[31.4706,-20.0674,1042.4751],[31.4707,-20.0776,1009.9805],[31.4758,-20.0787,1008.458],[31.4804,-20.076,1003.6511],[31.4855,-20.0782,1003.902],[31.4942,-20.0859,984.8391],[31.5011,-20.0828,1062.0433],[31.5039,-20.084,1014.061],[31.5121,-20.0819,990.0295],[31.5177,-20.0837,986.5972],[31.5216,-20.0901,969.9999],[31.527,-20.0871,955.3284],[31.5306,-20.0896,965.3519],[31.5388,-20.1014,988.0728],[31.5402,-20.1087,856.1624],[31.5352,-20.1128,868.3546],[31.534,-20.1167,846.4524],[31.5384,-20.1232,890.6864],[31.538,-20.1254,860.7802],[31.5447,-20.1283,863.5149],[31.5594,-20.1383,836.4579],[31.5714,-20.1504,811.1829],[31.5772,-20.1494,811.1643],[31.5809,-20.1541,793.1138],[31.5898,-20.1569,790.7404],[31.5942,-20.1614,782.1349],[31.5956,-20.1671,774.3234],[31.5911,-20.1744,783.2925],[31.5938,-20.1852,777.6581],[31.5906,-20.2012,771.9935],[31.5924,-20.206,762.6319],[31.5909,-20.2094,762.08],[31.5916,-20.2183,759.2739],[31.6031,-20.2256,754.0],[31.6055,-20.2296,754.0],[31.6062,-20.2372,754.0],[31.6193,-20.2429,754.0],[31.6119,-20.2694,780.1703],[31.61,-20.287,699.0364],[31.6147,-20.2862,710.3817],[31.6213,-20.2882,696.5986],[31.6358,-20.2887,695.1085],[31.636,-20.2959,681.9062],[31.6382,-20.2989,678.7103],[31.6479,-20.3034,675.1548],[31.6523,-20.3038,670.4937],[31.6534,-20.3072,665.6301],[31.6561,-20.3082,673.3289],[31.6531,-20.3152,663.6104],[31.6581,-20.3193,669.4243],[31.6599,-20.3229,663.6929],[31.6623,-20.323,656.247],[31.6636,-20.3193,669.5428],[31.6672,-20.3196,661.0223],[31.6721,-20.3233,657.7211],[31.6715,-20.3274,655.9057],[31.6733,-20.3309,654.2029],[31.6766,-20.3273,661.6959],[31.6796,-20.3339,650.4058],[31.6865,-20.3354,648.3658],[31.6885,-20.3377,653.4808],[31.6973,-20.341,642.1628],[31.7083,-20.3498,633.0933],[31.7158,-20.3536,639.0876],[31.7228,-20.3545,639.9641],[31.722,-20.3655,628.8219],[31.7269,-20.3669,629.2814],[31.7316,-20.3707,626.4435],[31.7285,-20.3727,629.0311],[31.7248,-20.3708,630.9222],[31.7154,-20.3723,628.1069],[31.7071,-20.3816,636.8502],[31.7035,-20.3828,641.8],[31.6994,-20.3906,648.4335],[31.7025,-20.3961,655.3512],[31.7017,-20.3995,657.7053],[31.6943,-20.4049,674.8008],[31.6916,-20.4172,697.4299],[31.6783,-20.4318,794.4148],[31.681,-20.4322,826.2128],[31.6832,-20.4351,804.7377],[31.6969,-20.4656,841.9617],[31.6949,-20.473,801.864],[31.6979,-20.4772,788.1273],[31.6943,-20.4803,786.8286],[31.6917,-20.4917,743.3684],[31.6955,-20.4942,734.6537],[31.6998,-20.4927,746.1794],[31.7028,-20.4937,720.3152],[31.7007,-20.498,716.4667],[31.7012,-20.5071,683.201],[31.7046,-20.5111,678.4287],[31.7088,-20.5288,599.4851],[31.7156,-20.5315,582.8457],[31.7211,-20.5526,567.4645],[31.7259,-20.5555,567.1499],[31.7268,-20.5577,567.874],[31.7439,-20.5644,566.7626],[31.7441,-20.5656,569.4557],[31.7399,-20.5677,559.1619],[31.7401,-20.5724,549.3096],[31.7511,-20.5703,567.0599],[31.7703,-20.5788,525.424],[31.775,-20.5826,530.9437],[31.7897,-20.5825,613.9822],[31.8283,-20.5656,656.8602],[31.8459,-20.5331,594.8741],[31.8607,-20.4991,656.9997]]]]}
,"properties": {"GID_2": "ZWE.7.1_2","GID_0": "ZWE","country": "Zimbabwe","GID_1": "ZWE.7_1","province": "Masvingo","NL_NAME_1": "NA","county": "Bikita","VARNAME_2": "NA","NL_NAME_2": "NA","TYPE_2": "District","ENGTYPE_2": "District","CC_2": "NA","HASC_2": "NA","name": "Bikita.county","area_km2": 5194.393,"hist_schema_id": "Elevation0-9000","hist_area_km2": {"425": 36.841,"450": 170.988,"475": 217.236,"500": 228.297,"525": 212.038,"550": 240.846,"575": 271.201,"600": 314.876,"625": 329.09,"650": 290.306,"675": 291.896,"700": 291.241,"725": 248.865,"750": 195.372,"775": 190.169,"800": 163.027,"825": 136.274,"850": 116.054,"875": 102.06,"900": 93.797,"925": 80.706,"950": 79.189,"975": 88.493,"1000": 94.233,"1025": 97.7,"1050": 90.069,"1075": 88.635,"1100": 74.044,"1125": 69.48,"1150": 63.58,"1175": 55.131,"1200": 40.305,"1225": 30.66,"1250": 23.566,"1275": 19.383,"1300": 17.25,"1325": 11.872,"1350": 8.546,"1375": 7.829,"1400": 5.478,"1425": 4.024,"1450": 2.111,"1475": 1.135,"1500": 0.418}}}