{"type": "Feature","bbox": [30.7085,-17.894,30.7476,-17.8524],"geometry": {"type": "MultiPolygon","coordinates": [[[[30.7476,-17.8643,1343.51],[30.7414,-17.8551,1344.926],[30.739,-17.8559,1344.214],[30.7383,-17.8619,1343.5601],[30.7367,-17.8634,1341.3729],[30.7315,-17.8524,1340.9124],[30.7204,-17.856,1339.5],[30.7168,-17.8547,1342.5911],[30.7151,-17.8573,1340.5624],[30.7152,-17.869,1344.0482],[30.7131,-17.8725,1341.8064],[30.7085,-17.8934,1350.1553],[30.7166,-17.894,1356.3228],[30.7476,-17.8643,1343.51]]]]}
,"properties": {"GID_3": "ZWE.6.11.6_2","GID_0": "ZWE","country": "Zimbabwe","GID_1": "ZWE.6_1","province": "MashonalandWest","NL_NAME_1": "NA","GID_2": "ZWE.6.11_2","county": "Norton","NL_NAME_2": "NA","city": "Ward2","VARNAME_3": "NA","NL_NAME_3": "NA","TYPE_3": "Ward","ENGTYPE_3": "Ward","CC_3": "NA","HASC_3": "NA","name": "Ward2.city","area_km2": 9.968494,"hist_schema_id": "Elevation0-9000","hist_area_km2": {"1350": 9.968494}}}