{"type": "Feature","bbox": [31.9601,-16.6769,32.0412,-16.589],"geometry": {"type": "MultiPolygon","coordinates": [[[[32.0121,-16.6586,904.9559],[32.0232,-16.6586,901.5391],[32.0322,-16.6538,884.5177],[32.0357,-16.6545,889.2092],[32.0407,-16.6507,886.3156],[32.0411,-16.6433,923.4939],[32.0091,-16.6425,980.3258],[32.007,-16.6388,1005.4668],[32.0071,-16.6339,975.7484],[32.0097,-16.6181,960.3557],[32.0404,-16.6183,1018.7141],[32.0412,-16.6088,997.2001],[32.0339,-16.6067,979.3657],[32.0253,-16.6094,956.0044],[32.0247,-16.6034,961.1403],[32.0084,-16.589,905.1604],[31.9988,-16.5986,928.0063],[31.994,-16.6001,929.6769],[31.9879,-16.6057,947.4193],[31.9796,-16.6164,943.3807],[31.9683,-16.6244,945.9675],[31.9734,-16.6279,932.7552],[31.9734,-16.6324,967.6774],[31.965,-16.6451,923.6602],[31.9648,-16.6561,889.567],[31.9601,-16.6588,890.4926],[31.9655,-16.6694,875.2501],[31.9761,-16.671,858.2997],[31.9784,-16.6769,861.5129],[31.9923,-16.6705,855.7921],[31.9997,-16.6648,882.7367],[32.0121,-16.6586,904.9559]]]]}
,"properties": {"GID_3": "ZWE.4.9.4_2","GID_0": "ZWE","country": "Zimbabwe","GID_1": "ZWE.4_1","province": "MashonalandCentral","NL_NAME_1": "NA","GID_2": "ZWE.4.9_2","county": "Rushinga","NL_NAME_2": "NA","city": "Ward12","VARNAME_3": "NA","NL_NAME_3": "NA","TYPE_3": "Ward","ENGTYPE_3": "Ward","CC_3": "NA","HASC_3": "NA","name": "Ward12.city","area_km2": 41.9094,"hist_schema_id": "Elevation0-9000","hist_area_km2": {"850": 1.13742,"875": 4.75299,"900": 5.52534,"925": 10.46257,"950": 10.97036,"975": 6.48067,"1000": 2.21438,"1025": 0.34535,"1050": 0.02031}}}