{"type":"Feature","properties":{"GID_3":"ZWE.6.10.9_2","GID_0":"ZWE","country":"Zimbabwe","GID_1":"ZWE.6_1","province":"MashonalandWest","NL_NAME_1":"NA","GID_2":"ZWE.6.10_2","county":"Mhondoro-Ngezi","NL_NAME_2":"NA","city":"Ward2","VARNAME_3":"NA","NL_NAME_3":"NA","TYPE_3":"Ward","ENGTYPE_3":"Ward","CC_3":"NA","HASC_3":"NA","name":"Ward2.city"},
"geometry":{"type": "MultiPolygon","coordinates": [[[[30.6133,-18.5334,1272.0951],[30.6122,-18.5358,1271.3025],[30.6093,-18.5358,1273.1168],[30.6028,-18.5329,1269.9797],[30.6015,-18.5336,1268.1254],[30.6017,-18.5361,1268.2378],[30.5986,-18.5379,1268.1492],[30.5936,-18.5334,1268.9698],[30.5862,-18.5345,1264.8607],[30.5844,-18.533,1264.7096],[30.5821,-18.5368,1264.5688],[30.5852,-18.5402,1266.2067],[30.5902,-18.5388,1268.0831],[30.5911,-18.543,1268.8596],[30.5977,-18.5468,1274.8611],[30.5968,-18.5511,1271.2955],[30.5992,-18.5515,1273.5132],[30.6004,-18.555,1274.1639],[30.5995,-18.5593,1275.528],[30.6013,-18.5632,1278.0337],[30.6003,-18.5654,1277.1498],[30.6039,-18.5682,1284.5542],[30.6066,-18.5679,1285.9192],[30.6094,-18.573,1286.9509],[30.6094,-18.5842,1287.7705],[30.611,-18.5859,1292.7744],[30.6097,-18.5914,1291.2446],[30.6176,-18.5981,1302.9824],[30.6196,-18.607,1309.6227],[30.6378,-18.6052,1317.7146],[30.6418,-18.6029,1320.6982],[30.6474,-18.5954,1327.9412],[30.6542,-18.5953,1323.5918],[30.6687,-18.5857,1334.2122],[30.6765,-18.5852,1341.207],[30.6768,-18.5738,1326.7285],[30.6685,-18.5643,1309.7549],[30.6628,-18.561,1305.1835],[30.6583,-18.556,1298.0769],[30.658,-18.5466,1291.4335],[30.6556,-18.5442,1286.3352],[30.6559,-18.5418,1285.5227],[30.6495,-18.5391,1285.5006],[30.6448,-18.5351,1281.999],[30.6405,-18.5349,1283.5696],[30.6305,-18.5307,1274.9453],[30.6193,-18.5301,1274.6984],[30.6133,-18.5334,1272.0951]]]]}}