{"type": "Feature","bbox": [29.8922,-18.5558,30.8313,-17.8224],"geometry": {"type": "MultiPolygon","coordinates": [[[[30.4989,-17.8425,1385.8044],[30.4853,-17.8414,1321.1967],[30.4883,-17.8354,1315.4176],[30.4847,-17.8337,1316.1703],[30.4747,-17.8327,1314.0356],[30.464,-17.8351,1315.1116],[30.4569,-17.829,1312.8101],[30.4495,-17.8302,1312.2644],[30.4428,-17.8279,1307.8295],[30.4278,-17.8322,1324.2106],[30.4199,-17.8473,1334.6711],[30.409,-17.8224,1322.8893],[30.3913,-17.8404,1303.8385],[30.3621,-17.8584,1272.1743],[30.3517,-17.8618,1267.3892],[30.3438,-17.8692,1261.6384],[30.3325,-17.8655,1261.0625],[30.3182,-17.8643,1250.3599],[30.3118,-17.866,1249.4244],[30.3035,-17.8728,1240.2402],[30.2985,-17.8709,1238.2488],[30.2967,-17.873,1229.8601],[30.2875,-17.869,1233.4871],[30.2805,-17.8702,1225.318],[30.2757,-17.8663,1224.3979],[30.2691,-17.8638,1229.8035],[30.2652,-17.8681,1218.1565],[30.2595,-17.866,1224.3157],[30.2537,-17.8698,1208.4567],[30.2422,-17.8628,1214.7091],[30.2359,-17.8625,1205.7765],[30.228,-17.8653,1202.8372],[30.224,-17.8616,1203.3522],[30.2144,-17.861,1185.1984],[30.2094,-17.8573,1191.1748],[30.2022,-17.8569,1169.9756],[30.2023,-17.8548,1177.2255],[30.1848,-17.8541,1156.3646],[30.1698,-17.8569,1140.7839],[30.1665,-17.8535,1134.4673],[30.1623,-17.8523,1144.8119],[30.1576,-17.854,1137.5349],[30.1558,-17.8569,1131.9712],[30.1487,-17.8553,1130.0519],[30.148,-17.8584,1125.2017],[30.1421,-17.8648,1120.6476],[30.1391,-17.866,1126.5795],[30.1384,-17.8682,1115.5693],[30.1346,-17.8667,1121.3931],[30.1337,-17.8708,1110.7448],[30.1299,-17.873,1109.3857],[30.125,-17.8675,1112.9351],[30.1214,-17.8674,1104.5887],[30.1185,-17.8618,1108.2637],[30.1137,-17.8601,1104.9705],[30.1137,-17.8622,1103.1785],[30.1066,-17.8637,1102.4867],[30.1035,-17.8571,1113.0259],[30.1019,-17.8565,1113.0259],[30.1002,-17.8593,1114.5476],[30.0955,-17.859,1093.5513],[30.0865,-17.8624,1087.5864],[30.0833,-17.862,1082.9224],[30.0765,-17.8668,1073.8436],[30.0763,-17.8706,1065.241],[30.0729,-17.8727,1071.172],[30.0679,-17.8694,1075.9414],[30.0573,-17.8716,1057.1276],[30.0553,-17.8661,1055.2784],[30.049,-17.8674,1057.0979],[30.0454,-17.8643,1068.2625],[30.041,-17.8664,1042.5229],[30.0423,-17.871,1037.22],[30.0383,-17.8707,1036.7322],[30.0366,-17.8725,1029.3705],[30.0309,-17.8648,1026.6075],[30.0199,-17.8641,1033.342],[30.0175,-17.8658,1019.3126],[29.9984,-17.8625,1026.049],[29.9816,-17.8635,1004.4979],[29.9782,-17.8609,1026.8235],[29.9715,-17.8634,989.2636],[29.9675,-17.8598,997.8231],[29.9628,-17.8645,991.0742],[29.9578,-17.8667,986.3009],[29.952,-17.8625,989.8009],[29.9486,-17.8618,987.2303],[29.9456,-17.8648,977.3839],[29.9451,-17.8691,977.8096],[29.9412,-17.8658,984.8336],[29.9378,-17.8659,989.9874],[29.9218,-17.8725,1022.3005],[29.911,-17.8743,1011.6813],[29.9047,-17.8795,971.9921],[29.9047,-17.8824,992.0726],[29.903,-17.8832,977.1158],[29.905,-17.8893,976.3679],[29.9037,-17.8939,957.6158],[29.8986,-17.8948,970.179],[29.8922,-17.901,984.2247],[29.8935,-17.9071,973.4342],[29.8951,-17.9067,998.8218],[29.8968,-17.9085,983.4478],[29.8972,-17.9174,979.9023],[29.8942,-17.9234,983.6317],[29.899,-17.9356,994.2516],[29.8952,-17.9407,1015.4191],[29.8941,-17.9459,1007.6865],[29.9061,-17.9571,1023.5],[29.9107,-17.9834,1031.1604],[29.9124,-17.9862,1034.9457],[29.9191,-17.9888,1042.817],[29.9159,-17.9934,1034.2367],[29.9157,-17.9983,1033.4774],[29.9192,-18.0019,1037.1543],[29.921,-17.9994,1063.1067],[29.928,-18.0058,1048.0712],[29.9221,-18.0215,1065.3606],[29.9188,-18.0231,1067.0376],[29.922,-18.0359,1069.4883],[29.9192,-18.0499,1083.2717],[29.9219,-18.0549,1084.1346],[29.9241,-18.0549,1087.5618],[29.9253,-18.0595,1087.6985],[29.9239,-18.0643,1089.8643],[29.9285,-18.0663,1091.814],[29.9287,-18.0703,1099.6145],[29.9352,-18.0783,1103.0],[29.9348,-18.0843,1103.6445],[29.9391,-18.0939,1107.7688],[29.939,-18.1011,1112.3097],[29.9407,-18.1048,1114.5],[29.9346,-18.1127,1119.6534],[29.9343,-18.1172,1116.6815],[29.9356,-18.1192,1118.7798],[29.9344,-18.125,1120.9871],[29.9359,-18.1303,1121.6411],[29.9338,-18.1351,1123.6707],[29.9341,-18.1424,1125.827],[29.9464,-18.1654,1135.5476],[29.9529,-18.1673,1142.2845],[29.9574,-18.1791,1141.1609],[29.9615,-18.1852,1144.4949],[29.9677,-18.1861,1149.2251],[30.0058,-18.1774,1147.4977],[30.0077,-18.1865,1153.5636],[29.9964,-18.1976,1162.8586],[30.0274,-18.2349,1189.5151],[30.0364,-18.2275,1186.0571],[30.0652,-18.2588,1203.1841],[30.0801,-18.2434,1199.3436],[30.0868,-18.2835,1201.698],[30.0971,-18.2729,1211.5728],[30.1161,-18.299,1212.339],[30.1214,-18.2969,1246.417],[30.1257,-18.3095,1190.316],[30.1108,-18.3273,1197.0825],[30.0951,-18.3508,1160.6957],[30.1909,-18.3451,1175.0244],[30.1921,-18.3904,1139.1292],[30.1995,-18.3884,1139.8021],[30.1967,-18.3845,1145.536],[30.1993,-18.3838,1144.7715],[30.2028,-18.3793,1150.2338],[30.2034,-18.3848,1142.3593],[30.2083,-18.3845,1143.6681],[30.2099,-18.3815,1146.5476],[30.2135,-18.3804,1155.8793],[30.2155,-18.3806,1158.5396],[30.2199,-18.3852,1144.7402],[30.2214,-18.3849,1145.1737],[30.2204,-18.3822,1145.9044],[30.2248,-18.3843,1145.3689],[30.2263,-18.383,1146.0493],[30.2294,-18.3857,1148.1758],[30.2285,-18.3815,1151.1963],[30.2344,-18.381,1161.7345],[30.2401,-18.3839,1150.4988],[30.2425,-18.3822,1150.2034],[30.2432,-18.3845,1149.7089],[30.2411,-18.3847,1151.1177],[30.24,-18.3881,1150.8905],[30.2431,-18.388,1152.3777],[30.2441,-18.3914,1151.7399],[30.2456,-18.3914,1151.7399],[30.2462,-18.3894,1158.7219],[30.2499,-18.3901,1161.2614],[30.2507,-18.3993,1155.1161],[30.2551,-18.4036,1156.9579],[30.2553,-18.4022,1157.4111],[30.2896,-18.4131,1169.2627],[30.3342,-18.4165,1203.4523],[30.3549,-18.416,1220.0757],[30.3807,-18.422,1232.1154],[30.3981,-18.409,1242.5963],[30.4323,-18.4375,1286.313],[30.4758,-18.4423,1278.9178],[30.4465,-18.5037,1236.3223],[30.4558,-18.5115,1238.6519],[30.4642,-18.5126,1247.2036],[30.4661,-18.5186,1241.6417],[30.4717,-18.5186,1245.5619],[30.4761,-18.5216,1242.6954],[30.4839,-18.5179,1246.8783],[30.4892,-18.5131,1249.8582],[30.4905,-18.5221,1250.9062],[30.4941,-18.5257,1246.1038],[30.4969,-18.5219,1247.3574],[30.5002,-18.5215,1247.1548],[30.5105,-18.5248,1247.5869],[30.5202,-18.5319,1250.5603],[30.5244,-18.531,1254.5774],[30.5302,-18.534,1252.5129],[30.5326,-18.531,1251.2758],[30.5409,-18.5406,1254.5559],[30.5418,-18.5451,1254.9696],[30.5467,-18.5463,1256.0935],[30.5503,-18.5497,1256.8718],[30.5528,-18.5498,1256.4541],[30.5556,-18.547,1262.8895],[30.5674,-18.548,1260.6879],[30.5683,-18.5458,1261.9019],[30.5701,-18.5459,1261.6146],[30.5688,-18.5423,1261.6686],[30.5721,-18.5353,1266.4033],[30.5812,-18.537,1264.5688],[30.5844,-18.533,1264.7096],[30.5866,-18.5345,1264.8607],[30.5918,-18.533,1266.4066],[30.5991,-18.5379,1268.1492],[30.6017,-18.5361,1268.2378],[30.6019,-18.5332,1268.6367],[30.6122,-18.5358,1271.3025],[30.6137,-18.533,1272.0951],[30.6208,-18.5301,1273.7993],[30.6305,-18.5307,1274.9453],[30.6405,-18.5349,1283.5696],[30.6448,-18.5351,1281.999],[30.6559,-18.5419,1285.5227],[30.6599,-18.5392,1287.7476],[30.6632,-18.5393,1290.6733],[30.6721,-18.543,1291.9025],[30.6865,-18.546,1306.9786],[30.6909,-18.5488,1305.8672],[30.7046,-18.5513,1313.5945],[30.7126,-18.5499,1325.9004],[30.7219,-18.5509,1343.4457],[30.727,-18.5548,1337.3115],[30.7338,-18.5558,1357.1],[30.7373,-18.5537,1359.8708],[30.747,-18.5359,1342.2976],[30.7482,-18.5309,1345.5206],[30.7538,-18.5268,1330.6028],[30.7652,-18.506,1346.3613],[30.7697,-18.4542,1327.0422],[30.7709,-18.4131,1292.8635],[30.7743,-18.4115,1292.7909],[30.7793,-18.4059,1291.9548],[30.7858,-18.4035,1290.6562],[30.7888,-18.3986,1291.0614],[30.7881,-18.3942,1294.7793],[30.7905,-18.3901,1290.6891],[30.7871,-18.386,1295.1038],[30.787,-18.3826,1297.4647],[30.7815,-18.3778,1288.9829],[30.7833,-18.3737,1291.8342],[30.7759,-18.3666,1284.7047],[30.7727,-18.3611,1291.0854],[30.767,-18.3602,1282.9362],[30.7671,-18.3563,1286.3041],[30.7639,-18.3489,1282.4246],[30.7585,-18.3504,1280.9834],[30.7582,-18.3437,1288.7039],[30.7537,-18.3413,1281.7574],[30.7463,-18.3432,1278.4843],[30.7403,-18.3361,1281.2676],[30.7403,-18.3325,1287.614],[30.7342,-18.3321,1277.0698],[30.7342,-18.3297,1280.5358],[30.7273,-18.3277,1279.3909],[30.7253,-18.3238,1279.1824],[30.7229,-18.3229,1275.8141],[30.7221,-18.3194,1274.7424],[30.7234,-18.3151,1280.1936],[30.7197,-18.3143,1276.1493],[30.7181,-18.3084,1279.4927],[30.7092,-18.3063,1272.7341],[30.7089,-18.2954,1277.7125],[30.7049,-18.2903,1274.7734],[30.6992,-18.2875,1261.3801],[30.6993,-18.2796,1258.9926],[30.6957,-18.2718,1260.842],[30.699,-18.2671,1262.7883],[30.6953,-18.2667,1260.761],[30.6979,-18.2608,1275.6395],[30.7012,-18.2581,1263.728],[30.6996,-18.2502,1267.1213],[30.6973,-18.247,1264.017],[30.697,-18.2409,1266.504],[30.6979,-18.2366,1270.1448],[30.7175,-18.2283,1270.7539],[30.7218,-18.2204,1276.3293],[30.7277,-18.2171,1274.373],[30.7366,-18.2079,1282.7229],[30.7436,-18.2052,1283.3058],[30.7489,-18.1988,1283.3396],[30.7477,-18.1952,1286.9976],[30.7494,-18.1906,1291.1094],[30.7543,-18.1874,1289.9348],[30.7597,-18.1769,1297.8206],[30.7646,-18.1723,1297.9419],[30.7626,-18.1676,1304.3625],[30.7574,-18.1679,1301.2749],[30.7574,-18.1613,1309.2458],[30.7466,-18.1543,1312.4283],[30.7515,-18.153,1308.6312],[30.7548,-18.1485,1315.2816],[30.7525,-18.1463,1312.2046],[30.7537,-18.142,1318.3577],[30.7562,-18.1388,1317.5209],[30.7566,-18.134,1329.5721],[30.7617,-18.126,1325.5828],[30.7614,-18.1055,1332.1196],[30.7651,-18.104,1325.8252],[30.7702,-18.0968,1338.6416],[30.7752,-18.094,1347.6296],[30.7902,-18.0931,1343.7322],[30.7938,-18.0906,1356.9797],[30.797,-18.0905,1356.6854],[30.8001,-18.0867,1348.1564],[30.7993,-18.0847,1353.3755],[30.7935,-18.082,1359.0105],[30.7904,-18.0772,1358.5496],[30.7907,-18.0667,1368.1304],[30.7833,-18.051,1374.1316],[30.7843,-18.0442,1380.2039],[30.7747,-18.0324,1391.7477],[30.7723,-18.0222,1398.2112],[30.8166,-17.9812,1424.1436],[30.8085,-17.9469,1378.1667],[30.8313,-17.9209,1376.3821],[30.8178,-17.9197,1383.9863],[30.8015,-17.9434,1391.436],[30.7513,-17.9237,1407.0437],[30.7514,-17.9212,1404.0287],[30.7374,-17.9046,1386.5676],[30.7678,-17.8783,1348.3053],[30.7604,-17.8654,1348.524],[30.754,-17.8682,1345.3213],[30.7476,-17.8643,1343.51],[30.7166,-17.894,1356.3228],[30.6994,-17.8927,1362.5161],[30.659,-17.9288,1392.4491],[30.6361,-17.912,1375.7728],[30.6244,-17.8967,1370.7987],[30.6465,-17.8604,1365.6226],[30.6677,-17.8459,1339.5],[30.6659,-17.8423,1339.5],[30.6594,-17.8411,1339.7833],[30.6554,-17.835,1339.5],[30.6501,-17.835,1339.8289],[30.648,-17.8376,1341.5232],[30.6457,-17.8342,1339.8088],[30.6333,-17.8299,1340.2808],[30.6308,-17.8395,1343.9573],[30.633,-17.846,1348.3059],[30.6322,-17.8514,1342.4669],[30.6307,-17.8466,1344.6715],[30.6261,-17.8406,1343.0282],[30.6258,-17.8339,1340.3105],[30.6235,-17.8309,1339.5],[30.6142,-17.8282,1339.5],[30.6126,-17.8297,1342.2426],[30.6075,-17.8258,1339.5],[30.6033,-17.8262,1339.5],[30.5979,-17.8339,1341.9569],[30.5978,-17.8377,1344.5985],[30.6035,-17.8511,1347.0876],[30.6038,-17.8573,1347.3942],[30.5988,-17.8509,1339.5],[30.596,-17.8515,1340.713],[30.5947,-17.8471,1339.7266],[30.5909,-17.8436,1339.7598],[30.5877,-17.8478,1342.7561],[30.5842,-17.8449,1344.3027],[30.586,-17.8405,1339.5],[30.5821,-17.8411,1339.5],[30.5782,-17.8378,1339.5],[30.5706,-17.8365,1341.7849],[30.5697,-17.8347,1343.5132],[30.5712,-17.8294,1339.5],[30.5661,-17.8276,1339.5],[30.5634,-17.8286,1340.175],[30.559,-17.8262,1339.7664],[30.5506,-17.8319,1342.1523],[30.5499,-17.8352,1340.881],[30.5527,-17.8389,1345.4403],[30.5533,-17.8459,1345.7477],[30.5633,-17.8561,1348.3794],[30.5695,-17.8668,1351.5393],[30.5699,-17.8704,1348.6558],[30.5594,-17.8588,1339.5],[30.5512,-17.8588,1340.8828],[30.5482,-17.8603,1340.7391],[30.5451,-17.8582,1340.8019],[30.5385,-17.8431,1339.5],[30.5364,-17.8472,1344.5592],[30.5354,-17.8582,1343.5156],[30.5312,-17.8698,1341.8678],[30.5273,-17.875,1341.4407],[30.5245,-17.8754,1340.8058],[30.5169,-17.8673,1341.1786],[30.513,-17.8444,1342.3792],[30.4989,-17.8425,1385.8044]],
[[30.1177,-18.1322,1174.0764],[30.0964,-18.108,1165.5513],[30.1283,-18.0809,1152.5645],[30.1326,-18.0869,1166.912],[30.1381,-18.0856,1164.3611],[30.1445,-18.0799,1159.5955],[30.1462,-18.0804,1162.5452],[30.1482,-18.0946,1161.8442],[30.139,-18.0979,1162.0139],[30.1402,-18.104,1159.5967],[30.157,-18.1077,1163.0225],[30.1635,-18.1067,1164.1481],[30.1615,-18.11,1163.4885],[30.162,-18.1169,1164.399],[30.1659,-18.1309,1172.3337],[30.1652,-18.136,1173.4679],[30.155,-18.1584,1187.7615],[30.1377,-18.1702,1200.7831],[30.1093,-18.1392,1172.3696],[30.1177,-18.1322,1174.0764]]]]}
,"properties": {"GID_2": "ZWE.6.1_2","GID_0": "ZWE","country": "Zimbabwe","GID_1": "ZWE.6_1","province": "MashonalandWest","NL_NAME_1": "NA","county": "Chegutu","VARNAME_2": "NA","NL_NAME_2": "NA","TYPE_2": "District","ENGTYPE_2": "District","CC_2": "NA","HASC_2": "NA","name": "Chegutu.county","area_km2": 5346.308,"hist_schema_id": "Elevation0-9000","hist_area_km2": {"950": 0.948,"975": 12.63,"1000": 36.576,"1025": 52.613,"1050": 62.007,"1075": 87.334,"1100": 94.768,"1125": 117.319,"1150": 278.264,"1175": 514.249,"1200": 684.775,"1225": 612.437,"1250": 549.606,"1275": 673.204,"1300": 476.781,"1325": 357.212,"1350": 328.218,"1375": 225.231,"1400": 120.947,"1425": 54.633,"1450": 4.216,"1475": 1.957,"1500": 0.383}}}