{"type":"Feature","properties":{"GID_3":"ZWE.7.1.2_2","GID_0":"ZWE","country":"Zimbabwe","GID_1":"ZWE.7_1","province":"Masvingo","NL_NAME_1":"NA","GID_2":"ZWE.7.1_2","county":"Bikita","NL_NAME_2":"NA","city":"Ward10","VARNAME_3":"NA","NL_NAME_3":"NA","TYPE_3":"Ward","ENGTYPE_3":"Ward","CC_3":"NA","HASC_3":"NA","name":"Ward10.city"},
"geometry":{"type": "MultiPolygon","coordinates": [[[[31.5348,-20.0959,946.6952],[31.5351,-20.09,954.2281],[31.5379,-20.0869,975.6904],[31.5484,-20.0881,987.2209],[31.5795,-20.087,992.9032],[31.5833,-20.089,1016.9294],[31.5958,-20.0876,917.7787],[31.5999,-20.0913,863.1239],[31.6028,-20.0899,873.9462],[31.6032,-20.0864,883.2252],[31.601,-20.0813,888.0151],[31.6018,-20.0759,892.3461],[31.6034,-20.0725,919.7187],[31.6085,-20.0687,929.6788],[31.6037,-20.0654,920.4221],[31.604,-20.0596,930.5761],[31.6005,-20.0557,919.6556],[31.6015,-20.0417,926.8297],[31.5964,-20.0381,937.5262],[31.5932,-20.0313,945.3843],[31.5934,-20.0298,946.9832],[31.596,-20.0295,944.8917],[31.5976,-20.0241,952.6397],[31.5943,-20.0189,958.0782],[31.595,-20.0131,962.2142],[31.5937,-20.0095,975.8531],[31.5853,-20.0116,984.7946],[31.5615,-20.0048,1060.1733],[31.5351,-20.0265,1140.8684],[31.5316,-20.0334,1238.5376],[31.5196,-20.034,1319.5981],[31.5063,-20.0272,1287.0463],[31.4996,-20.0346,1166.136],[31.5058,-20.0581,1015.856],[31.5058,-20.0611,1014.6166],[31.5025,-20.066,1005.3262],[31.4991,-20.0651,1010.7238],[31.4928,-20.0535,1037.7766],[31.4927,-20.0492,1055.7069],[31.4805,-20.0399,1136.4688],[31.4785,-20.0414,1122.2139],[31.4679,-20.0608,1028.6698],[31.4679,-20.0644,1026.4626],[31.4706,-20.0674,1042.4751],[31.4707,-20.0776,1009.9805],[31.4758,-20.0787,1008.458],[31.4804,-20.076,1003.6511],[31.4855,-20.0782,1003.902],[31.4942,-20.0859,984.8391],[31.5011,-20.0828,1062.0433],[31.5039,-20.084,1014.061],[31.5094,-20.0819,1002.1941],[31.5143,-20.0823,978.8168],[31.5177,-20.0837,986.5972],[31.5216,-20.0901,969.9999],[31.5277,-20.0873,955.3284],[31.5348,-20.0959,946.6952]]]]}}