{"type": "Feature","bbox": [28.804,-19.7106,28.9058,-19.61],"geometry": {"type": "MultiPolygon","coordinates": [[[[28.8822,-19.7008,1316.8511],[28.8926,-19.7106,1318.9873],[28.9058,-19.6838,1341.8958],[28.8834,-19.6686,1386.8123],[28.8936,-19.6356,1371.6704],[28.8617,-19.61,1339.0977],[28.8572,-19.6237,1334.9603],[28.8337,-19.6211,1306.7556],[28.8318,-19.6261,1303.8403],[28.8045,-19.6376,1274.366],[28.804,-19.641,1274.6089],[28.8069,-19.6413,1275.2198],[28.8082,-19.6447,1275.9182],[28.8132,-19.6457,1278.2744],[28.815,-19.6441,1281.342],[28.8212,-19.6436,1282.8789],[28.8223,-19.645,1280.8884],[28.8209,-19.6478,1283.6941],[28.8267,-19.6508,1285.0237],[28.8357,-19.6508,1295.4966],[28.8388,-19.6553,1291.7198],[28.8421,-19.6548,1303.4344],[28.8463,-19.6586,1303.0],[28.8443,-19.6629,1311.9315],[28.8517,-19.6664,1304.7334],[28.8541,-19.6741,1306.5039],[28.8587,-19.674,1312.8641],[28.8595,-19.6795,1311.2097],[28.8584,-19.6827,1309.8597],[28.8672,-19.6878,1312.4965],[28.872,-19.6879,1315.6134],[28.8822,-19.7008,1316.8511]]]]}
,"properties": {"GID_3": "ZWE.8.2.7_2","GID_0": "ZWE","country": "Zimbabwe","GID_1": "ZWE.8_1","province": "MatabelelandNorth","NL_NAME_1": "NA","GID_2": "ZWE.8.2_2","county": "Bubi","NL_NAME_2": "NA","city": "Ward15","VARNAME_3": "NA","NL_NAME_3": "NA","TYPE_3": "Ward","ENGTYPE_3": "Ward","CC_3": "NA","HASC_3": "NA","name": "Ward15.city","area_km2": 46.34333,"hist_schema_id": "Elevation0-9000","hist_area_km2": {"1275": 1.53758,"1300": 7.18843,"1325": 24.83778,"1350": 10.6431,"1375": 1.45758,"1400": 0.67885}}}