{"type":"Feature","properties":{"GID_3":"ZWE.10.3.24_2","GID_0":"ZWE","country":"Zimbabwe","GID_1":"ZWE.10_1","province":"Midlands","NL_NAME_1":"NA","GID_2":"ZWE.10.3_2","county":"GokweSouth","NL_NAME_2":"NA","city":"Ward30","VARNAME_3":"NA","NL_NAME_3":"NA","TYPE_3":"Ward","ENGTYPE_3":"Ward","CC_3":"NA","HASC_3":"NA","name":"Ward30.city"},
"geometry":{"type": "MultiPolygon","coordinates": [[[[28.936,-18.5754,1170.4635],[28.938,-18.5736,1173.3065],[28.9418,-18.5559,1200.8228],[28.9381,-18.5409,1271.2104],[28.9394,-18.5215,1278.624],[28.9422,-18.5123,1284.0643],[28.8946,-18.5384,1277.9669],[28.8269,-18.5053,1277.0798],[28.7537,-18.5059,1245.4297],[28.7426,-18.5241,1252.1239],[28.7327,-18.5247,1249.4233],[28.7309,-18.5236,1247.1674],[28.7394,-18.5454,1250.6251],[28.7432,-18.5688,1222.2518],[28.7424,-18.5699,1219.7368],[28.8657,-18.5747,1172.1833],[28.936,-18.5754,1170.4635]]]]}}