{"type":"Feature","properties":{"GID_3":"ZWE.10.4.5_2","GID_0":"ZWE","country":"Zimbabwe","GID_1":"ZWE.10_1","province":"Midlands","NL_NAME_1":"NA","GID_2":"ZWE.10.4_2","county":"GokweSouthUrban","NL_NAME_2":"NA","city":"Ward5","VARNAME_3":"NA","NL_NAME_3":"NA","TYPE_3":"Ward","ENGTYPE_3":"Ward","CC_3":"NA","HASC_3":"NA","name":"Ward5.city"},
"geometry":{"type": "MultiPolygon","coordinates": [[[[28.9487,-18.2214,1297.0396],[28.9454,-18.2257,1300.2301],[28.9475,-18.2273,1301.542],[28.9459,-18.2346,1303.7917],[28.9468,-18.2368,1303.6511],[28.9599,-18.2304,1303.5968],[28.9487,-18.2214,1297.0396]]]]}}