{"type": "Feature","bbox": [31.0332,-20.4716,31.2171,-20.3602],"geometry": {"type": "MultiPolygon","coordinates": [[[[31.0332,-20.3791,864.3863],[31.0448,-20.3915,772.6242],[31.0534,-20.4086,777.6649],[31.063,-20.4145,771.1637],[31.0743,-20.4331,758.7162],[31.0746,-20.4408,743.989],[31.0902,-20.455,738.8738],[31.0988,-20.4599,688.5818],[31.1033,-20.4695,681.8188],[31.1072,-20.4701,675.2289],[31.1353,-20.4599,667.9368],[31.1484,-20.4594,664.937],[31.152,-20.4604,663.3666],[31.1585,-20.4663,655.9623],[31.1726,-20.4661,651.941],[31.1907,-20.4695,643.3275],[31.2123,-20.4699,616.2298],[31.2171,-20.4716,623.2458],[31.2138,-20.4658,619.0911],[31.2151,-20.4606,622.4816],[31.2057,-20.44,623.3512],[31.2022,-20.4254,627.958],[31.1969,-20.4164,633.4633],[31.1968,-20.412,627.6765],[31.1996,-20.4094,629.4228],[31.1991,-20.407,631.8878],[31.1963,-20.401,643.3296],[31.1913,-20.3987,638.6044],[31.1907,-20.3877,644.9005],[31.1842,-20.3726,647.476],[31.149,-20.3808,679.4252],[31.1392,-20.3843,664.2007],[31.1367,-20.3891,674.4831],[31.1329,-20.3891,673.3209],[31.1317,-20.3864,679.6198],[31.1281,-20.3867,672.462],[31.1147,-20.3896,679.6394],[31.1117,-20.3928,683.9997],[31.1061,-20.3912,714.7445],[31.0955,-20.3924,711.3894],[31.088,-20.3968,720.8236],[31.0828,-20.3952,724.1542],[31.0766,-20.3854,746.7285],[31.0784,-20.3684,838.6397],[31.0783,-20.3631,858.8041],[31.076,-20.3603,923.2465],[31.0733,-20.3602,956.9787],[31.0713,-20.3647,905.1095],[31.064,-20.3672,844.309],[31.0609,-20.3663,867.802],[31.06,-20.3639,867.1367],[31.0332,-20.3791,864.3863]]]]}
,"properties": {"GID_3": "ZWE.7.6.8_2","GID_0": "ZWE","country": "Zimbabwe","GID_1": "ZWE.7_1","province": "Masvingo","NL_NAME_1": "NA","GID_2": "ZWE.7.6_2","county": "Masvingo","NL_NAME_2": "NA","city": "Ward16","VARNAME_3": "NA","NL_NAME_3": "NA","TYPE_3": "Ward","ENGTYPE_3": "Ward","CC_3": "NA","HASC_3": "NA","name": "Ward16.city","area_km2": 133.3461,"hist_schema_id": "Elevation0-9000","hist_area_km2": {"625": 4.2316,"650": 15.815,"675": 19.8886,"700": 20.6443,"725": 20.546,"750": 18.4591,"775": 18.9558,"800": 8.5649,"825": 3.001,"850": 1.6099,"875": 0.6956,"900": 0.4373,"925": 0.3379,"950": 0.159}}}