{"type": "Feature","bbox": [29.749,-19.4582,29.791,-19.4334],"geometry": {"type": "MultiPolygon","coordinates": [[[[29.7681,-19.455,1416.7852],[29.7783,-19.4523,1414.4874],[29.7841,-19.449,1409.5757],[29.7827,-19.4469,1410.2975],[29.7863,-19.445,1406.484],[29.791,-19.446,1406.375],[29.7853,-19.4414,1404.8306],[29.7832,-19.4369,1404.7838],[29.7764,-19.4334,1399.345],[29.7654,-19.4409,1401.4935],[29.7594,-19.4376,1399.8478],[29.7553,-19.4378,1402.152],[29.7494,-19.4436,1409.5094],[29.749,-19.4542,1420.73],[29.7583,-19.4527,1410.8406],[29.7616,-19.4582,1418.1545],[29.7681,-19.455,1416.7852]]]]}
,"properties": {"GID_3": "ZWE.10.6.7_2","GID_0": "ZWE","country": "Zimbabwe","GID_1": "ZWE.10_1","province": "Midlands","NL_NAME_1": "NA","GID_2": "ZWE.10.6_2","county": "GweruUrban","NL_NAME_2": "NA","city": "Ward15","VARNAME_3": "NA","NL_NAME_3": "NA","TYPE_3": "Ward","ENGTYPE_3": "Ward","CC_3": "NA","HASC_3": "NA","name": "Ward15.city","area_km2": 6.517649,"hist_schema_id": "Elevation0-9000","hist_area_km2": {"1400": 5.178184,"1425": 1.339465}}}