{"type": "Feature","bbox": [31.8221,-19.9795,32.0182,-19.8212],"geometry": {"type": "MultiPolygon","coordinates": [[[[31.9727,-19.8214,708.3416],[31.9626,-19.8212,783.8399],[31.947,-19.8245,774.7178],[31.9272,-19.826,830.0891],[31.9166,-19.8302,750.6643],[31.8957,-19.833,756.2924],[31.8869,-19.8303,757.2318],[31.8762,-19.8316,770.0679],[31.8629,-19.8337,783.6655],[31.8532,-19.8381,793.8162],[31.8322,-19.84,799.5087],[31.8221,-19.8442,804.9536],[31.8279,-19.8557,823.94],[31.828,-19.8603,833.3456],[31.8364,-19.8748,927.2166],[31.8451,-19.9013,1088.2739],[31.8517,-19.8992,1047.2225],[31.8522,-19.8945,1045.8833],[31.8652,-19.8916,952.4614],[31.8726,-19.8959,977.1672],[31.8798,-19.9068,921.5828],[31.8896,-19.9019,892.6039],[31.8991,-19.9027,838.5809],[31.9015,-19.912,817.5941],[31.9049,-19.9135,801.0009],[31.9096,-19.9228,766.3468],[31.9259,-19.9167,753.6995],[31.9217,-19.929,755.2612],[31.9212,-19.9375,771.8221],[31.9227,-19.939,773.2749],[31.9216,-19.9423,776.1782],[31.9231,-19.945,787.9176],[31.9228,-19.9524,788.6623],[31.9281,-19.9601,814.9308],[31.9259,-19.9643,810.568],[31.9268,-19.9662,814.0096],[31.9248,-19.9752,835.3082],[31.9277,-19.9795,838.7921],[31.9343,-19.9761,845.278],[31.9541,-19.9734,823.2192],[32.0182,-19.8636,725.2624],[32.0037,-19.8578,683.0677],[31.9996,-19.8578,681.3058],[31.9825,-19.8469,692.0247],[31.9778,-19.8403,690.5717],[31.9727,-19.8214,708.3416]]]]}
,"properties": {"GID_3": "ZWE.7.1.13_2","GID_0": "ZWE","country": "Zimbabwe","GID_1": "ZWE.7_1","province": "Masvingo","NL_NAME_1": "NA","GID_2": "ZWE.7.1_2","county": "Bikita","NL_NAME_2": "NA","city": "Ward20","VARNAME_3": "NA","NL_NAME_3": "NA","TYPE_3": "Ward","ENGTYPE_3": "Ward","CC_3": "NA","HASC_3": "NA","name": "Ward20.city","area_km2": 182.9741,"hist_schema_id": "Elevation0-9000","hist_area_km2": {"650": 0.0199,"675": 4.9851,"700": 11.5051,"725": 14.7344,"750": 18.6818,"775": 20.7549,"800": 22.9074,"825": 19.8973,"850": 15.5319,"875": 10.6676,"900": 9.0726,"925": 6.2612,"950": 5.2442,"975": 4.9849,"1000": 4.3668,"1025": 3.7486,"1050": 2.7516,"1075": 1.615,"1100": 1.4555,"1125": 1.0368,"1150": 0.638,"1175": 1.1166,"1200": 0.6979,"1225": 0.2393,"1250": 0.0199,"1275": 0.0399}}}