{"type":"Feature","properties":{"GID_3":"ZWE.6.5.5_2","GID_0":"ZWE","country":"Zimbabwe","GID_1":"ZWE.6_1","province":"MashonalandWest","NL_NAME_1":"NA","GID_2":"ZWE.6.5_2","county":"KadomaUrban","NL_NAME_2":"NA","city":"Ward13","VARNAME_3":"NA","NL_NAME_3":"NA","TYPE_3":"Ward","ENGTYPE_3":"Ward","CC_3":"NA","HASC_3":"NA","name":"Ward13.city"},
"geometry":{"type": "MultiPolygon","coordinates": [[[[29.8809,-18.3078,1135.0612],[29.849,-18.3282,1121.001],[29.8627,-18.3451,1123.6267],[29.8791,-18.334,1135.2976],[29.8806,-18.3352,1136.052],[29.8867,-18.331,1143.1597],[29.8838,-18.3284,1142.2721],[29.879,-18.3318,1136.99],[29.8766,-18.3293,1140.7968],[29.8929,-18.3182,1147.848],[29.8809,-18.3078,1135.0612]]]]}}