{"type":"Feature","properties":{"GID_3":"ZWE.10.3.7_2","GID_0":"ZWE","country":"Zimbabwe","GID_1":"ZWE.10_1","province":"Midlands","NL_NAME_1":"NA","GID_2":"ZWE.10.3_2","county":"GokweSouth","NL_NAME_2":"NA","city":"Ward15","VARNAME_3":"NA","NL_NAME_3":"NA","TYPE_3":"Ward","ENGTYPE_3":"Ward","CC_3":"NA","HASC_3":"NA","name":"Ward15.city"},
"geometry":{"type": "MultiPolygon","coordinates": [[[[28.9774,-18.5774,1154.7369],[29.0001,-18.5454,1284.9692],[29.006,-18.5346,1309.8711],[29.0317,-18.5015,1318.495],[29.035,-18.4998,1319.0806],[29.0836,-18.4341,1285.5282],[29.0814,-18.4271,1290.0078],[29.0926,-18.3507,1324.2952],[29.0938,-18.3279,1255.3844],[29.0951,-18.3267,1255.3844],[29.1015,-18.328,1237.2562],[29.1153,-18.3272,1236.8932],[29.12,-18.3301,1244.7742],[29.1207,-18.3331,1244.5894],[29.1245,-18.3307,1244.4719],[29.1344,-18.3319,1225.5469],[29.1381,-18.3293,1223.5059],[29.1424,-18.3216,1218.8052],[29.1515,-18.3123,1208.8962],[29.1632,-18.3055,1133.9967],[29.1675,-18.3036,1080.8051],[29.1797,-18.3051,1047.4122],[29.1878,-18.303,1005.9238],[29.1954,-18.2922,1002.2561],[29.1957,-18.2886,990.3444],[29.192,-18.285,1007.4742],[29.1843,-18.2859,1040.0399],[29.1836,-18.2849,1095.6099],[29.19,-18.2818,1109.0258],[29.1932,-18.2819,1017.7009],[29.2052,-18.2739,1040.9572],[29.2072,-18.2699,994.0926],[29.2063,-18.2669,982.4991],[29.1994,-18.2627,970.4318],[29.1914,-18.2628,995.1931],[29.1856,-18.2559,964.1859],[29.182,-18.2563,971.5909],[29.1786,-18.2632,995.9505],[29.173,-18.2602,984.0355],[29.1688,-18.2616,1003.6569],[29.168,-18.2542,968.9257],[29.1633,-18.2503,985.0517],[29.1588,-18.252,988.7453],[29.1514,-18.2581,1012.2226],[29.152,-18.2504,1020.8729],[29.1503,-18.2489,1098.8154],[29.155,-18.242,991.6751],[29.1546,-18.2401,973.1454],[29.1393,-18.2318,1033.4604],[29.1379,-18.2283,1019.4793],[29.1332,-18.2264,1007.3267],[29.1205,-18.2293,980.6183],[29.1119,-18.2353,1000.9973],[29.1105,-18.2351,1000.9973],[29.1104,-18.2327,1019.4294],[29.1028,-18.2344,1043.0391],[29.0901,-18.2328,1120.6959],[29.0844,-18.2347,1118.64],[29.0797,-18.2419,1084.2963],[29.07,-18.247,1185.5929],[29.0657,-18.2531,1172.7124],[29.0545,-18.2593,1207.6421],[29.0521,-18.2593,1213.0276],[29.0509,-18.2627,1213.056],[29.0252,-18.2776,1286.0568],[28.96,-18.2303,1303.5968],[28.9496,-18.2358,1305.7959],[28.9369,-18.2388,1295.884],[28.9424,-18.2477,1302.9688],[28.9485,-18.2639,1303.1573],[28.9426,-18.2822,1260.6567],[28.9429,-18.2961,1217.7936],[28.9379,-18.3112,1197.8628],[28.9325,-18.3222,1238.6378],[28.9313,-18.3368,1273.2546],[28.9195,-18.3538,1292.9564],[28.909,-18.3639,1261.6707],[28.8993,-18.3763,1186.8062],[28.8999,-18.3831,1215.6088],[28.8978,-18.387,1236.5354],[28.8907,-18.3854,1215.7474],[28.8858,-18.3862,1207.0339],[28.8853,-18.3893,1242.3545],[28.8834,-18.3902,1254.1389],[28.8721,-18.3837,1217.7616],[28.8631,-18.3854,1233.0352],[28.853,-18.3849,1227.2976],[28.8363,-18.3806,1235.2963],[28.7801,-18.3915,1246.9506],[28.7512,-18.3993,1241.0466],[28.7507,-18.3977,1240.1611],[28.7456,-18.3977,1236.9747],[28.7139,-18.3997,1233.9216],[28.7092,-18.4025,1235.3826],[28.7032,-18.403,1232.6064],[28.7,-18.4083,1235.6666],[28.6941,-18.4131,1213.1116],[28.6923,-18.4286,1179.311],[28.6842,-18.4427,1152.9952],[28.6745,-18.4397,1139.116],[28.6607,-18.4422,1138.1208],[28.6429,-18.4377,1141.9205],[28.6274,-18.4304,1130.8579],[28.6167,-18.4308,1131.4089],[28.6037,-18.4288,1130.6263],[28.5886,-18.4231,1118.1151],[28.5719,-18.4238,1119.8203],[28.5687,-18.4227,1127.4974],[28.5726,-18.4511,1144.725],[28.5756,-18.4567,1159.3955],[28.5748,-18.4588,1154.3354],[28.5816,-18.4722,1198.1487],[28.58,-18.4801,1214.8284],[28.5833,-18.4926,1239.4626],[28.5832,-18.5094,1243.3428],[28.6136,-18.5005,1247.6305],[28.714,-18.5151,1253.8584],[28.7327,-18.5247,1249.4233],[28.7426,-18.5241,1252.1239],[28.7537,-18.5059,1245.4297],[28.8269,-18.5053,1277.0798],[28.8945,-18.5384,1277.9669],[28.9422,-18.5123,1284.0643],[28.9394,-18.5215,1278.624],[28.9381,-18.5409,1271.2104],[28.9418,-18.5559,1200.8228],[28.938,-18.5736,1173.3065],[28.936,-18.5754,1170.4635],[28.9774,-18.5774,1154.7369]]]]}}