{"type": "Feature","bbox": [30.3812,-20.756,30.5199,-20.6303],"geometry": {"type": "MultiPolygon","coordinates": [[[[30.4506,-20.6319,702.7563],[30.443,-20.631,727.5618],[30.4316,-20.6326,732.9334],[30.4296,-20.631,752.7958],[30.4178,-20.633,747.9221],[30.4127,-20.6303,756.0206],[30.4063,-20.6312,765.845],[30.4023,-20.6366,766.7037],[30.4063,-20.6452,747.1],[30.4087,-20.6567,740.6187],[30.4111,-20.6601,748.2769],[30.4118,-20.6702,739.2825],[30.4057,-20.675,739.5482],[30.4027,-20.6745,746.5974],[30.401,-20.6772,743.8118],[30.3954,-20.6765,749.2343],[30.3856,-20.681,758.1401],[30.3821,-20.6848,776.2505],[30.3812,-20.6945,761.3829],[30.3865,-20.7107,734.8772],[30.3906,-20.7171,726.5555],[30.3964,-20.7178,726.0715],[30.396,-20.7232,721.3109],[30.3993,-20.7293,715.8425],[30.4042,-20.731,714.8974],[30.4126,-20.7287,717.6005],[30.4163,-20.7339,706.7194],[30.4152,-20.7364,704.406],[30.4188,-20.7405,702.1993],[30.4249,-20.7408,706.78],[30.4283,-20.7447,698.7544],[30.4353,-20.7428,701.0188],[30.4412,-20.7444,701.2203],[30.4492,-20.74,693.3287],[30.452,-20.7533,692.0865],[30.4565,-20.7516,690.3781],[30.4614,-20.7523,686.2632],[30.4642,-20.756,690.5317],[30.4744,-20.7551,688.1165],[30.4801,-20.7484,693.2985],[30.4786,-20.7407,709.6302],[30.4814,-20.7151,704.9494],[30.4869,-20.7049,704.497],[30.4975,-20.6974,729.5922],[30.5098,-20.6919,700.516],[30.5199,-20.6823,685.0805],[30.5116,-20.681,688.0723],[30.4925,-20.684,694.9467],[30.4811,-20.6799,695.4088],[30.4788,-20.6761,686.3681],[30.4814,-20.6611,699.9774],[30.4788,-20.6563,695.2742],[30.4769,-20.6544,704.2255],[30.467,-20.6524,701.2142],[30.4583,-20.6467,699.565],[30.4506,-20.6319,702.7563]]]]}
,"properties": {"GID_3": "ZWE.10.9.33_2","GID_0": "ZWE","country": "Zimbabwe","GID_1": "ZWE.10_1","province": "Midlands","NL_NAME_1": "NA","GID_2": "ZWE.10.9_2","county": "Mberengwa","NL_NAME_2": "NA","city": "Ward5","VARNAME_3": "NA","NL_NAME_3": "NA","TYPE_3": "Ward","ENGTYPE_3": "Ward","CC_3": "NA","HASC_3": "NA","name": "Ward5.city","area_km2": 108.75224,"hist_schema_id": "Elevation0-9000","hist_area_km2": {"675": 2.20164,"700": 34.38939,"725": 42.80376,"750": 25.15232,"775": 3.72916,"800": 0.39663,"825": 0.0595,"850": 0.01983}}}