{"type": "Feature","bbox": [31.6874,-16.769,31.8337,-16.6644],"geometry": {"type": "MultiPolygon","coordinates": [[[[31.7567,-16.6795,871.5651],[31.7533,-16.6881,868.0932],[31.7486,-16.6914,883.238],[31.7462,-16.6953,876.4879],[31.7364,-16.7041,893.1554],[31.73,-16.705,910.3916],[31.7281,-16.707,899.6945],[31.7303,-16.7097,902.7112],[31.7311,-16.7141,895.5132],[31.7342,-16.7161,913.1691],[31.7341,-16.7204,905.0],[31.7306,-16.7208,910.2938],[31.7279,-16.7236,905.967],[31.7255,-16.722,916.6327],[31.7198,-16.7257,915.0377],[31.7155,-16.7252,913.9023],[31.7162,-16.7212,929.6525],[31.7117,-16.7228,917.3586],[31.7028,-16.7227,923.4778],[31.6995,-16.7244,921.1685],[31.7033,-16.7308,926.8247],[31.704,-16.7388,921.9297],[31.7023,-16.743,926.9094],[31.6959,-16.7458,934.259],[31.6923,-16.7454,938.2371],[31.6922,-16.7492,929.4617],[31.6874,-16.7524,943.8944],[31.6925,-16.7575,955.2747],[31.6951,-16.7638,956.5987],[31.7224,-16.769,952.0618],[31.741,-16.755,952.2278],[31.753,-16.7493,941.1635],[31.7587,-16.754,934.4915],[31.7683,-16.7566,937.613],[31.7818,-16.7482,933.3095],[31.7881,-16.7422,926.4843],[31.7994,-16.7288,914.5748],[31.8009,-16.7211,900.9766],[31.8119,-16.7214,908.5071],[31.8181,-16.7178,911.7585],[31.8233,-16.7196,907.9558],[31.8272,-16.7243,888.4114],[31.8282,-16.7287,883.8712],[31.8337,-16.7262,880.5131],[31.8267,-16.713,893.2886],[31.8258,-16.7018,884.7008],[31.8287,-16.6968,877.35],[31.8226,-16.6913,885.0934],[31.8176,-16.6952,890.6262],[31.809,-16.6944,897.9893],[31.8085,-16.6816,882.3823],[31.8237,-16.6772,865.0798],[31.8187,-16.6675,858.4973],[31.8119,-16.6644,865.4871],[31.8007,-16.6649,852.3066],[31.7948,-16.6789,860.4425],[31.7899,-16.6827,859.041],[31.7843,-16.6822,863.0233],[31.7792,-16.6757,877.8199],[31.7765,-16.6748,870.7616],[31.7661,-16.6793,870.2594],[31.7596,-16.6782,872.8821],[31.7567,-16.6795,871.5651]]]]}
,"properties": {"GID_3": "ZWE.4.7.18_2","GID_0": "ZWE","country": "Zimbabwe","GID_1": "ZWE.4_1","province": "MashonalandCentral","NL_NAME_1": "NA","GID_2": "ZWE.4.7_2","county": "MountDarwin","NL_NAME_2": "NA","city": "Ward25","VARNAME_3": "NA","NL_NAME_3": "NA","TYPE_3": "Ward","ENGTYPE_3": "Ward","CC_3": "NA","HASC_3": "NA","name": "Ward25.city","area_km2": 84.24901,"hist_schema_id": "Elevation0-9000","hist_area_km2": {"850": 4.00117,"875": 15.02851,"900": 29.42423,"925": 25.78608,"950": 9.7248,"975": 0.28422}}}