{"type":"Feature","properties":{"GID_3":"ZWE.9.3.2_2","GID_0":"ZWE","country":"Zimbabwe","GID_1":"ZWE.9_1","province":"MatabelelandSouth","NL_NAME_1":"NA","GID_2":"ZWE.9.3_2","county":"Bulilima","NL_NAME_2":"NA","city":"Ward10","VARNAME_3":"NA","NL_NAME_3":"NA","TYPE_3":"Ward","ENGTYPE_3":"Ward","CC_3":"NA","HASC_3":"NA","name":"Ward10.city"},
"geometry":{"type": "MultiPolygon","coordinates": [[[[26.703,-19.8901,956.0336],[26.7023,-19.8941,956.6725],[26.7199,-19.9289,961.1276],[26.7266,-19.9377,962.2327],[26.7457,-19.9352,966.9547],[26.76,-19.936,968.6722],[26.7805,-19.9425,972.4203],[26.7914,-19.9432,973.6433],[26.8075,-19.9493,977.162],[26.8116,-19.9533,977.3341],[26.8188,-19.9534,978.7906],[26.827,-19.9615,980.4802],[26.8393,-19.9589,982.7595],[26.8519,-19.9592,984.7292],[26.8788,-19.9727,989.6661],[26.903199999999998,-19.9789,995.2618],[26.916,-19.9884,999.3854],[26.9507,-20.0025,1004.9351],[26.9594,-20.0079,1007.8073],[26.9711,-20.0118,1011.5238],[26.9882,-20.013,1012.019],[26.9987,-20.0094,1015.0621],[27.0157,-20.0072,1017.2405],[27.0404,-20.0078,1022.4229],[27.0462,-20.0095,1023.3085],[27.0788,-20.0277,1028.6719],[27.0864,-20.0339,1030.9833],[27.0969,-20.0519,1034.6821],[27.1131,-20.0652,1040.8113],[27.145,-20.0801,1044.3846],[27.1536,-20.0804,1047.158],[27.1632,-20.0772,1047.4991],[27.1686,-20.0771,1048.3989],[27.1755,-20.0786,1050.8701],[27.1923,-20.0783,1054.7566],[27.2038,-20.0819,1058.5344],[27.2134,-20.0881,1057.7405],[27.2225,-20.1066,1058.7332],[27.2281,-20.1134,1062.4294],[27.2351,-20.1165,1063.5789],[27.2424,-20.1106,1063.8395],[27.2457,-20.1053,1065.5859],[27.2472,-20.0991,1069.5753],[27.2511,-20.0952,1072.4281],[27.2548,-20.088,1082.0481],[27.2677,-20.0741,1099.5801],[27.2774,-20.0766,1103.5083],[27.2835,-20.076,1106.1759],[27.2928,-20.0787,1109.8296],[27.2949,-20.0712,1107.5699],[27.2963,-20.0539,1100.3593],[27.3057,-20.0366,1093.3607],[27.3084,-20.0241,1088.4098],[27.3211,-20.0137,1089.2091],[27.3275,-20.0107,1089.6736],[27.3401,-19.9988,1084.106],[27.3471,-19.9855,1074.2407],[27.3544,-19.99,1078.8016],[27.3564,-19.9941,1080.8406],[27.3682,-19.993,1075.7137],[27.3723,-19.9942,1075.1914],[27.3758,-19.9924,1076.4718],[27.3665,-19.9898,1075.3202],[27.3629,-19.9834,1076.1886],[27.335,-19.9676,1071.9604],[27.3223,-19.9635,1072.1038],[27.3185,-19.9639,1070.2202],[27.3133,-19.9677,1066.6057],[27.3107,-19.962,1070.6902],[27.3071,-19.9649,1063.1969],[27.3006,-19.9641,1067.4579],[27.2844,-19.9535,1058.5444],[27.2746,-19.9541,1056.3983],[27.2665,-19.9579,1055.6617],[27.2513,-19.9559,1055.0974],[27.251,-19.953,1055.4104],[27.2448,-19.9485,1051.3424],[27.2311,-19.9492,1051.9685],[27.2264,-19.945,1049.1564],[27.2049,-19.9332,1042.0249],[27.1934,-19.9323,1041.5579],[27.18,-19.9241,1037.9083],[27.1707,-19.9244,1039.5536],[27.1642,-19.928,1036.9391],[27.1523,-19.9258,1033.1228],[27.1432,-19.9222,1032.0664],[27.1259,-19.9206,1034.8455],[27.1197,-19.9164,1032.9247],[27.1146,-19.9182,1031.365],[27.1122,-19.9162,1032.7531],[27.1073,-19.9206,1029.2415],[27.1015,-19.9175,1028.3397],[27.0938,-19.9207,1025.729],[27.0909,-19.9177,1024.2001],[27.0859,-19.9184,1025.2628],[27.0831,-19.9155,1021.5519],[27.0773,-19.9143,1020.4616],[27.0748,-19.9123,1019.9464],[27.0719,-19.9164,1022.4304],[27.0693,-19.9141,1019.2628],[27.0613,-19.9141,1018.5287],[27.0502,-19.9074,1015.5186],[27.0443,-19.9012,1015.1455],[27.0368,-19.8998,1014.6729],[27.026,-19.8886,1009.4212],[27.0153,-19.8871,1008.5005],[26.9877,-19.8618,1003.5185],[26.9811,-19.8602,1002.3757],[26.976,-19.8621,1001.5715],[26.9648,-19.8622,1001.2839],[26.9431,-19.8494,996.4692],[26.9089,-19.8375,986.9344],[26.9019,-19.8307,984.7909],[26.8859,-19.8222,984.1542],[26.8846,-19.8192,981.3467],[26.8611,-19.82,979.8635],[26.8525,-19.8261,976.965],[26.8402,-19.8317,979.7063],[26.8159,-19.8373,976.0358],[26.8057,-19.8416,976.6906],[26.7997,-19.8463,971.494],[26.7886,-19.8501,969.7269],[26.7815,-19.8555,968.2062],[26.7568,-19.8581,967.2778],[26.7493,-19.8618,967.2599],[26.7334,-19.8833,959.5823],[26.703,-19.8901,956.0336]]]]}}