{"type": "Feature","bbox": [30.8882,-17.8455,30.9083,-17.8181],"geometry": {"type": "MultiPolygon","coordinates": [[[[30.9009,-17.8451,1403.7675],[30.9004,-17.8406,1407.4885],[30.9058,-17.8351,1409.4393],[30.9057,-17.8255,1414.8102],[30.9083,-17.8181,1417.9559],[30.8882,-17.8208,1432.9586],[30.8945,-17.8455,1411.6375],[30.9009,-17.8451,1403.7675]]]]}
,"properties": {"GID_3": "ZWE.2.3.38_2","GID_0": "ZWE","country": "Zimbabwe","GID_1": "ZWE.2_1","province": "Harare","NL_NAME_1": "NA","GID_2": "ZWE.2.3_2","county": "Harare","NL_NAME_2": "NA","city": "Ward44","VARNAME_3": "NA","NL_NAME_3": "NA","TYPE_3": "Ward","ENGTYPE_3": "Ward","CC_3": "NA","HASC_3": "NA","name": "Ward44.city","area_km2": 4.117506,"hist_schema_id": "Elevation0-9000","hist_area_km2": {"1400": 0.98896,"1425": 2.967067,"1450": 0.161478}}}