{"type": "Feature","bbox": [27.6166,-19.5869,27.7829,-19.3155],"geometry": {"type": "MultiPolygon","coordinates": [[[[27.6704,-19.3155,991.7114],[27.6676,-19.3156,990.9162],[27.6623,-19.3201,993.0953],[27.6445,-19.3287,994.0776],[27.6352,-19.3558,993.5131],[27.6356,-19.3594,993.7743],[27.6393,-19.3651,995.0003],[27.6358,-19.3788,996.2297],[27.6205,-19.3948,1001.6636],[27.6166,-19.4016,1003.1113],[27.6168,-19.4395,1030.731],[27.6324,-19.4346,1030.7252],[27.6683,-19.4873,1023.2651],[27.673,-19.489,1022.6566],[27.6687,-19.4942,1042.6963],[27.6688,-19.4996,1044.1501],[27.6626,-19.5064,1047.6202],[27.6628,-19.5083,1048.0591],[27.6698,-19.5081,1047.2173],[27.679,-19.5037,1043.7656],[27.6872,-19.5048,1042.7965],[27.6802,-19.5137,1046.1703],[27.6732,-19.5173,1049.1252],[27.6702,-19.5239,1047.0969],[27.6885,-19.5274,1048.3492],[27.6874,-19.5379,1048.5266],[27.691,-19.5509,1049.2688],[27.7248,-19.5734,1053.7207],[27.7317,-19.5798,1054.5149],[27.7365,-19.5869,1056.5853],[27.7402,-19.5833,1056.12],[27.7509,-19.5803,1056.4821],[27.7536,-19.5782,1057.0194],[27.766,-19.5788,1054.9154],[27.7826,-19.5755,1028.7686],[27.7806,-19.5682,1028.8804],[27.7829,-19.5572,1046.8372],[27.7815,-19.5557,1043.7356],[27.7737,-19.5562,1023.875],[27.7706,-19.5537,1022.6633],[27.7684,-19.5485,1030.0797],[27.762,-19.546,1022.8183],[27.7598,-19.5407,1021.4393],[27.7588,-19.5297,1016.7137],[27.7596,-19.5265,1019.2471],[27.7646,-19.5232,1018.6305],[27.7741,-19.5115,1017.2049],[27.779,-19.5089,1021.9396],[27.7794,-19.5068,1035.2712],[27.7744,-19.5026,1017.3117],[27.77,-19.4945,1018.6183],[27.7561,-19.4965,1018.3122],[27.7494,-19.4874,1013.6545],[27.7394,-19.4849,1012.5452],[27.7317,-19.4736,1011.3321],[27.724,-19.4726,1011.4216],[27.7213,-19.4701,1012.5791],[27.7211,-19.4619,1011.9017],[27.7246,-19.4549,1010.4425],[27.7238,-19.4513,1012.0164],[27.7155,-19.4409,1011.0731],[27.715699999999998,-19.4321,1011.1056],[27.7179,-19.429,1010.4761],[27.7266,-19.4293,1010.7565],[27.7272,-19.4264,1010.042],[27.7158,-19.4214,1011.1348],[27.7149,-19.4171,1003.946],[27.7175,-19.4105,1004.8717],[27.7178,-19.4037,1003.1974],[27.7221,-19.4034,1003.556],[27.7274,-19.4057,1013.6937],[27.7293,-19.404,1035.9995],[27.7284,-19.4015,1030.6323],[27.7064,-19.3912,1025.6272],[27.6992,-19.3942,1003.0404],[27.694,-19.3924,1006.6125],[27.6935,-19.3904,1000.6051],[27.7028,-19.3809,1022.4322],[27.6998,-19.3764,1012.9205],[27.6937,-19.3776,1003.9904],[27.6906,-19.3835,999.5566],[27.6868,-19.3854,999.6527],[27.6819,-19.3842,1001.2571],[27.6791,-19.3784,998.808],[27.6756,-19.3757,999.1759],[27.6643,-19.3774,1002.9548],[27.662,-19.373,996.5409],[27.6655,-19.3678,1000.8719],[27.6649,-19.3655,997.8146],[27.658,-19.3648,1000.2159],[27.655,-19.3604,994.8239],[27.6555,-19.3571,994.4408],[27.6651,-19.3583,994.7135],[27.6695,-19.3558,997.3882],[27.6706,-19.3527,996.682],[27.6588,-19.3402,996.2091],[27.6611,-19.3341,991.8315],[27.6639,-19.3337,993.5157],[27.6658,-19.3375,996.95],[27.6723,-19.3418,996.913],[27.6751,-19.3425,997.0582],[27.6778,-19.3402,995.4181],[27.6781,-19.337,996.468],[27.6751,-19.3336,993.1773],[27.667,-19.3345,994.9087],[27.669,-19.3277,991.9049],[27.6748,-19.3285,994.9969],[27.6778,-19.3248,995.1528],[27.6761,-19.3199,997.182],[27.6707,-19.3229,996.7145],[27.6692,-19.3196,993.0768],[27.6704,-19.3155,991.7114]]]]}
,"properties": {"GID_3": "ZWE.8.7.19_2","GID_0": "ZWE","country": "Zimbabwe","GID_1": "ZWE.8_1","province": "MatabelelandNorth","NL_NAME_1": "NA","GID_2": "ZWE.8.7_2","county": "Tsholotsho","NL_NAME_2": "NA","city": "Ward6","VARNAME_3": "NA","NL_NAME_3": "NA","TYPE_3": "Ward","ENGTYPE_3": "Ward","CC_3": "NA","HASC_3": "NA","name": "Ward6.city","area_km2": 211.3391,"hist_schema_id": "Elevation0-9000","hist_area_km2": {"1000": 103.5046,"1025": 52.4863,"1050": 55.3481}}}