{"type":"Feature","properties":{"GID_3":"ZWE.10.9.13_2","GID_0":"ZWE","country":"Zimbabwe","GID_1":"ZWE.10_1","province":"Midlands","NL_NAME_1":"NA","GID_2":"ZWE.10.9_2","county":"Mberengwa","NL_NAME_2":"NA","city":"Ward20","VARNAME_3":"NA","NL_NAME_3":"NA","TYPE_3":"Ward","ENGTYPE_3":"Ward","CC_3":"NA","HASC_3":"NA","name":"Ward20.city"},
"geometry":{"type": "MultiPolygon","coordinates": [[[[30.4744,-20.7551,688.1165],[30.4642,-20.756,690.5317],[30.4614,-20.7523,686.2632],[30.4565,-20.7516,690.3781],[30.452,-20.7533,692.0865],[30.4491,-20.7399,693.3287],[30.4412,-20.7444,701.2203],[30.4353,-20.7428,701.0188],[30.4283,-20.7447,698.7544],[30.4247,-20.7408,702.0026],[30.4161,-20.7405,705.7507],[30.4128,-20.7426,711.072],[30.4091,-20.7481,705.4753],[30.4062,-20.7502,709.687],[30.4031,-20.7502,713.536],[30.3998,-20.7535,709.7184],[30.3954,-20.7491,715.1787],[30.397,-20.7457,716.4597],[30.3955,-20.7439,715.5356],[30.3883,-20.7474,717.5305],[30.3828,-20.7482,716.5382],[30.3807,-20.744,721.2014],[30.3751,-20.7437,719.3507],[30.3712,-20.7525,720.8786],[30.3644,-20.7557,723.8271],[30.3617,-20.7535,724.9257],[30.3604,-20.7551,721.879],[30.3606,-20.7607,723.4362],[30.3519,-20.7625,730.7241],[30.3493,-20.7652,725.8924],[30.3552,-20.7819,798.2062],[30.355,-20.7866,769.0626],[30.3479,-20.815,747.7742],[30.3426,-20.8291,746.9467],[30.3412,-20.8394,759.2897],[30.3424,-20.8514,842.4958],[30.3689,-20.8521,837.9054],[30.3947,-20.8347,796.0861],[30.4217,-20.825,741.1503],[30.4505,-20.826,717.0609],[30.4534,-20.8265,718.2686],[30.4548,-20.8294,717.1704],[30.466,-20.7905,693.2468],[30.4691,-20.7696,701.6327],[30.4744,-20.7551,688.1165]]]]}}