{"type": "Feature","bbox": [28.9768,-19.0206,29.0614,-18.8838],"geometry": {"type": "MultiPolygon","coordinates": [[[[29.0015,-18.8838,1261.7781],[28.9768,-19.0206,1128.7566],[28.9847,-19.006,1141.9875],[28.9915,-19.0054,1140.7296],[28.9977,-19.0009,1150.1895],[28.9998,-19.0015,1145.1523],[29.0005,-18.9985,1148.7074],[29.0069,-18.9917,1158.4907],[29.0134,-18.9922,1156.771],[29.0225,-18.9881,1164.949],[29.0237,-18.9846,1170.4315],[29.0561,-18.972,1191.8542],[29.053,-18.9683,1203.696],[29.0599,-18.9473,1225.3422],[29.0614,-18.924,1282.9277],[29.053,-18.9207,1281.5068],[29.0335,-18.909,1279.4181],[29.0217,-18.9008,1274.5386],[29.0189,-18.8969,1273.009],[29.0046,-18.8916,1274.5236],[29.0044,-18.8853,1262.2166],[29.0015,-18.8838,1261.7781]]]]}
,"properties": {"GID_3": "ZWE.10.7.21_2","GID_0": "ZWE","country": "Zimbabwe","GID_1": "ZWE.10_1","province": "Midlands","NL_NAME_1": "NA","GID_2": "ZWE.10.7_2","county": "Kwekwe","NL_NAME_2": "NA","city": "Ward28","VARNAME_3": "NA","NL_NAME_3": "NA","TYPE_3": "Ward","ENGTYPE_3": "Ward","CC_3": "NA","HASC_3": "NA","name": "Ward28.city","area_km2": 67.15829,"hist_schema_id": "Elevation0-9000","hist_area_km2": {"1125": 0.16036,"1150": 4.97181,"1175": 15.13791,"1200": 15.52092,"1225": 10.66871,"1250": 9.70708,"1275": 10.8511,"1300": 0.1404}}}