{"type":"Feature","properties":{"GID_3":"ZWE.10.5.19_2","GID_0":"ZWE","country":"Zimbabwe","GID_1":"ZWE.10_1","province":"Midlands","NL_NAME_1":"NA","GID_2":"ZWE.10.5_2","county":"Gweru","NL_NAME_2":"NA","city":"Ward9","VARNAME_3":"NA","NL_NAME_3":"NA","TYPE_3":"Ward","ENGTYPE_3":"Ward","CC_3":"NA","HASC_3":"NA","name":"Ward9.city"},
"geometry":{"type": "MultiPolygon","coordinates": [[[[29.9084,-19.2226,1267.3142],[29.9071,-19.2173,1263.7969],[29.902,-19.215,1264.0632],[29.9041,-19.2056,1262.9672],[29.9008,-19.203,1254.4539],[29.9003,-19.1985,1257.865],[29.8981,-19.1965,1254.3577],[29.8971,-19.1872,1260.3611],[29.8813,-19.172,1254.5917],[29.9069,-19.1697,1288.9098],[29.915,-19.1625,1262.0143],[29.9388,-19.1339,1292.6006],[29.9255,-19.109,1280.104],[29.89,-19.1349,1256.9724],[29.8602,-19.1454,1242.9894],[29.8615,-19.1486,1243.2905],[29.8409,-19.1504,1261.2346],[29.7967,-19.1591,1284.67],[29.7557,-19.1814,1329.8813],[29.7525,-19.1536,1294.2184],[29.7362,-19.159,1299.848],[29.7292,-19.1423,1281.694],[29.6743,-19.1678,1322.324],[29.6265,-19.1852,1296.0223],[29.5523,-19.1674,1264.7587],[29.5245,-19.1673,1258.9574],[29.5597,-19.2148,1373.4209],[29.602,-19.2384,1319.3695],[29.612,-19.2556,1328.4482],[29.6429,-19.2953,1347.3492],[29.6717,-19.2809,1355.809],[29.7154,-19.2862,1395.6841],[29.8253,-19.3577,1459.0798],[29.825,-19.3587,1458.0577],[29.8985,-19.291,1329.9166],[29.8989,-19.2387,1294.796],[29.9084,-19.2226,1267.3142]]]]}}