{"type":"Feature","properties":{"GID_3":"ZWE.6.13.28_2","GID_0":"ZWE","country":"Zimbabwe","GID_1":"ZWE.6_1","province":"MashonalandWest","NL_NAME_1":"NA","GID_2":"ZWE.6.13_2","county":"Zvimba","NL_NAME_2":"NA","city":"Ward34","VARNAME_3":"NA","NL_NAME_3":"NA","TYPE_3":"Ward","ENGTYPE_3":"Ward","CC_3":"NA","HASC_3":"NA","name":"Ward34.city"},
"geometry":{"type": "MultiPolygon","coordinates": [[[[30.4037,-17.4021,1274.395],[30.4009,-17.3991,1256.2444],[30.3978,-17.4007,1262.9097],[30.3949,-17.3976,1263.9707],[30.3975,-17.3967,1258.969],[30.3966,-17.3954,1253.8723],[30.3903,-17.3977,1274.293],[30.3867,-17.3956,1272.3356],[30.3828,-17.3998,1273.0525],[30.3838,-17.4155,1248.1619],[30.3764,-17.4187,1253.025],[30.3625,-17.4516,1265.5012],[30.3868,-17.5203,1320.0038],[30.3893,-17.5083,1295.4794],[30.3922,-17.5068,1295.2759],[30.3958,-17.5007,1315.4653],[30.3924,-17.4943,1315.9076],[30.4309,-17.4893,1322.9214],[30.4336,-17.5006,1336.0295],[30.4395,-17.5111,1344.7344],[30.4486,-17.5212,1355.6694],[30.4554,-17.5365,1354.0449],[30.4571,-17.5487,1361.2253],[30.4714,-17.5541,1367.7842],[30.4772,-17.5008,1300.1027],[30.4807,-17.5026,1305.2131],[30.488,-17.5006,1307.4176],[30.4909,-17.5031,1305.075],[30.5061,-17.485,1295.1948],[30.5166,-17.4836,1324.7112],[30.5167,-17.4529,1295.1576],[30.4907,-17.4479,1271.0776],[30.4862,-17.466,1267.8346],[30.4736,-17.4633,1281.9381],[30.4603,-17.445,1247.2075],[30.4241,-17.4481,1292.9626],[30.4037,-17.4021,1274.395]]]]}}