{"type":"Feature","properties":{"GID_2":"ZWE.10.5_2","GID_0":"ZWE","country":"Zimbabwe","GID_1":"ZWE.10_1","province":"Midlands","NL_NAME_1":"NA","county":"Gweru","VARNAME_2":"NA","NL_NAME_2":"NA","TYPE_2":"District","ENGTYPE_2":"District","CC_2":"NA","HASC_2":"NA","name":"Gweru.county"},
"geometry":{"type": "MultiPolygon","coordinates": [[[[29.6874,-19.9289,1251.2576],[29.6952,-19.9722,1247.9552],[29.711,-19.9729,1234.3923],[29.7528,-19.9551,1206.4584],[29.7977,-19.9449,1208.7732],[29.7868,-19.9234,1215.726],[29.848,-19.8957,1169.4899],[29.8446,-19.8948,1175.6172],[29.8412,-19.896,1163.5886],[29.844,-19.8899,1171.0836],[29.837,-19.8875,1176.1046],[29.8362,-19.8699,1214.2693],[29.8394,-19.87,1183.4177],[29.8407,-19.8681,1186.2244],[29.8352,-19.8643,1187.4598],[29.8395,-19.8603,1194.8447],[29.8412,-19.8519,1189.9108],[29.8439,-19.848,1190.0474],[29.8405,-19.8432,1200.0647],[29.8418,-19.8387,1206.4453],[29.8377,-19.8359,1197.4507],[29.8411,-19.8284,1204.8976],[29.8415,-19.8201,1205.0984],[29.8454,-19.8125,1211.0812],[29.8459,-19.8055,1223.7632],[29.8442,-19.8019,1222.4612],[29.8458,-19.795,1228.4346],[29.8421,-19.795,1225.8784],[29.842,-19.7933,1226.9541],[29.8437,-19.7889,1242.5],[29.8474,-19.7861,1242.5],[29.8501,-19.7765,1242.5],[29.8538,-19.7742,1242.5],[29.8518,-19.7648,1242.5],[29.8552,-19.7626,1242.7588],[29.8541,-19.7561,1249.5194],[29.8595,-19.7495,1261.641],[29.8517,-19.7458,1254.1426],[29.847,-19.7371,1261.2046],[29.8373,-19.7362,1261.4321],[29.8339,-19.7257,1263.4983],[29.8346,-19.7226,1272.6562],[29.8331,-19.7217,1265.6561],[29.826,-19.7222,1270.0748],[29.8135,-19.7203,1280.3417],[29.8152,-19.7114,1284.248],[29.8186,-19.7089,1283.5779],[29.819,-19.7053,1288.7393],[29.8162,-19.7011,1292.2242],[29.817,-19.6999,1292.2242],[29.8124,-19.6996,1290.719],[29.8081,-19.6923,1298.634],[29.811,-19.689,1309.3811],[29.8215,-19.6859,1325.281],[29.8169,-19.6723,1337.3665],[29.8324,-19.6367,1310.266],[29.8286,-19.6107,1336.6554],[29.856,-19.5503,1409.9119],[29.9063,-19.547,1434.8132],[29.9379,-19.5475,1457.1775],[29.9537,-19.5264,1469.7047],[29.9941,-19.5067,1458.1802],[30.0178,-19.5144,1429.0913],[30.0336,-19.4858,1444.5901],[30.0434,-19.458,1411.074],[30.0803,-19.4637,1413.0314],[30.1058,-19.4815,1240.9888],[30.1444,-19.4831,1284.04],[30.1578,-19.4747,1300.6002],[30.1679,-19.4564,1379.4033],[30.1669,-19.434,1372.436],[30.1758,-19.4338,1461.1046],[30.1871,-19.4071,1395.5576],[30.1699,-19.4061,1482.4276],[30.1535,-19.401,1477.2483],[30.1297,-19.3903,1361.7852],[30.1269,-19.3934,1324.2216],[30.1264,-19.3963,1312.9202],[30.1165,-19.3951,1404.5216],[30.1302,-19.3566,1432.0365],[30.0737,-19.3481,1418.8094],[30.0749,-19.325,1416.3528],[30.0371,-19.3255,1377.9071],[30.0358,-19.2981,1392.7273],[30.0639,-19.2952,1404.0803],[30.0716,-19.284,1407.7122],[30.1148,-19.2695,1424.7192],[30.1354,-19.2501,1377.9521],[30.1663,-19.2736,1408.2137],[30.1711,-19.2492,1368.2169],[30.0651,-19.2004,1333.0239],[30.1307,-19.1314,1290.1206],[30.1149,-19.1228,1279.9556],[30.106,-19.1225,1275.3198],[30.103,-19.1185,1259.8937],[30.1029,-19.1131,1258.3939],[30.1017,-19.1125,1267.5632],[30.090699999999998,-19.1116,1251.8903],[30.0883,-19.1092,1256.297],[30.0844,-19.1085,1249.2183],[30.0702,-19.1005,1246.976],[30.0574,-19.1025,1247.2327],[30.0499,-19.0983,1243.4238],[30.0477,-19.1041,1234.5383],[30.0458,-19.1045,1226.6577],[30.0439,-19.1014,1234.9611],[30.0377,-19.1017,1223.5],[30.0311,-19.0996,1223.5],[30.0294,-19.0971,1223.7668],[30.0299,-19.0924,1228.23],[30.0187,-19.091,1223.5],[30.0154,-19.0938,1223.5],[30.0179,-19.1531,1260.2197],[29.9384,-19.1338,1292.6006],[29.9255,-19.109,1280.104],[29.89,-19.1349,1256.9724],[29.8602,-19.1454,1242.9894],[29.8615,-19.1486,1243.2905],[29.8409,-19.1504,1261.2346],[29.7967,-19.1591,1284.67],[29.7557,-19.1814,1329.8813],[29.7525,-19.1536,1294.2184],[29.7362,-19.159,1299.848],[29.7292,-19.1423,1281.694],[29.6743,-19.1678,1322.324],[29.6265,-19.1852,1296.0223],[29.5523,-19.1674,1264.7587],[29.5255,-19.1676,1258.9574],[29.4163,-19.1327,1211.3181],[29.3643,-19.1517,1259.8115],[29.2384,-19.2239,1285.6077],[29.1858,-19.2694,1218.6064],[29.1313,-19.3199,1289.2592],[29.0988,-19.3582,1221.4783],[29.092,-19.3735,1203.687],[29.1047,-19.3786,1212.224],[29.1212,-19.3894,1210.0535],[29.129,-19.3887,1213.1647],[29.1487,-19.3951,1218.8533],[29.1554,-19.4016,1221.1714],[29.1566,-19.4079,1218.0756],[29.1632,-19.4227,1220.6831],[29.175,-19.434,1226.189],[29.182,-19.4372,1228.6393],[29.1934,-19.4479,1231.0922],[29.1962,-19.4586,1228.252],[29.2007,-19.4613,1234.3472],[29.2073,-19.4595,1238.6244],[29.2167,-19.4702,1236.3518],[29.2192,-19.476,1236.3761],[29.2374,-19.4827,1247.4474],[29.2421,-19.4866,1238.7275],[29.246,-19.4981,1244.4358],[29.2538,-19.5026,1244.7388],[29.2579,-19.512,1247.0725],[29.2651,-19.5149,1253.452],[29.2711,-19.524,1255.6775],[29.2748,-19.526,1257.406],[29.2798,-19.5323,1259.0548],[29.2795,-19.5455,1249.3143],[29.2823,-19.5651,1256.1511],[29.2853,-19.5677,1260.4202],[29.292,-19.5687,1266.595],[29.2959,-19.5728,1267.8888],[29.3015,-19.5743,1283.52],[29.3007,-19.577,1269.3682],[29.2956,-19.5812,1270.5295],[29.2955,-19.5835,1268.5],[29.3076,-19.5953,1276.5039],[29.307,-19.6011,1269.9739],[29.3128,-19.6036,1277.031],[29.3167,-19.6092,1280.9613],[29.3152,-19.6133,1271.4572],[29.3165,-19.6173,1279.7682],[29.322,-19.6185,1284.0591],[29.3482,-19.6317,1286.373],[29.3568,-19.6414,1295.4506],[29.3544,-19.6432,1290.5515],[29.3564,-19.6444,1286.0569],[29.3563,-19.6468,1287.1301],[29.3588,-19.6496,1289.6929],[29.3588,-19.6523,1289.7721],[29.3567,-19.6549,1292.1616],[29.3618,-19.6606,1302.4426],[29.3599,-19.6624,1293.2627],[29.3597,-19.669,1293.4974],[29.3631,-19.6791,1300.1417],[29.3703,-19.6777,1307.5076],[29.3769,-19.6882,1300.927],[29.3867,-19.6904,1304.1028],[29.3892,-19.6938,1305.3834],[29.3922,-19.6936,1317.6521],[29.4014,-19.6989,1314.9565],[29.4007,-19.7032,1303.9089],[29.4041,-19.7095,1307.6093],[29.404,-19.713,1305.6268],[29.4064,-19.7144,1318.9597],[29.4036,-19.7171,1311.5848],[29.4035,-19.7193,1310.4247],[29.4065,-19.7221,1314.72],[29.4075,-19.7272,1313.0959],[29.413,-19.7333,1320.3975],[29.4136,-19.7435,1319.0261],[29.4095,-19.7478,1331.6814],[29.4121,-19.752,1326.6326],[29.4151,-19.7524,1325.4873],[29.4153,-19.7505,1332.1616],[29.4168,-19.7504,1333.3125],[29.4236,-19.7567,1329.7598],[29.4234,-19.7583,1332.6914],[29.4211,-19.7586,1328.9885],[29.416,-19.7636,1330.5138],[29.416,-19.7652,1331.8748],[29.4184,-19.7659,1329.499],[29.4155,-19.7726,1334.4644],[29.4128,-19.8068,1349.5508],[29.4037,-19.8183,1354.5314],[29.4032,-19.8427,1371.5435],[29.4138,-19.8871,1446.2269],[29.4454,-19.8638,1425.0044],[29.4724,-19.8478,1415.0929],[29.5024,-19.8614,1389.2014],[29.5176,-19.8635,1400.1801],[29.5429,-19.8749,1348.4672],[29.5622,-19.8861,1340.0081],[29.5822,-19.9182,1296.905],[29.5985,-19.9342,1278.6039],[29.6061,-19.935,1272.2786],[29.6185,-19.9322,1264.9076],[29.6541,-19.9122,1271.0338],[29.6639,-19.9083,1251.8523],[29.6802,-19.9051,1259.9014],[29.6874,-19.9289,1251.2576]],
[[29.7463,-19.4661,1427.7927],[29.7332,-19.4475,1424.5131],[29.7461,-19.434,1400.4344],[29.7509,-19.4254,1395.6094],[29.7571,-19.4305,1397.4331],[29.7542,-19.4347,1401.1665],[29.7654,-19.4409,1401.4935],[29.7764,-19.4334,1399.345],[29.7792,-19.4351,1403.202],[29.782,-19.4317,1402.2537],[29.7741,-19.425,1394.9539],[29.7807,-19.416,1389.1772],[29.786,-19.4171,1389.9241],[29.793,-19.3867,1392.8933],[29.8102,-19.373,1429.9655],[29.817,-19.3847,1423.7585],[29.832,-19.3908,1443.7805],[29.8264,-19.3993,1426.2833],[29.8276,-19.4002,1423.1113],[29.8301,-19.3985,1430.7885],[29.8322,-19.4001,1435.1775],[29.8357,-19.3968,1440.2104],[29.8412,-19.4017,1456.2134],[29.8456,-19.3981,1463.4786],[29.8533,-19.4048,1473.5748],[29.8647,-19.401,1425.5931],[29.8671,-19.4057,1431.5699],[29.8644,-19.4133,1470.8164],[29.8737,-19.4198,1456.0576],[29.8821,-19.4113,1419.2026],[29.9027,-19.4193,1423.0791],[29.9063,-19.4162,1417.7732],[29.9187,-19.4231,1426.0098],[29.9002,-19.4315,1442.5092],[29.9202,-19.4475,1446.6699],[29.911,-19.4536,1464.1622],[29.8996,-19.4445,1451.095],[29.8855,-19.4466,1437.0144],[29.8845,-19.4436,1441.6067],[29.8812,-19.4442,1441.6404],[29.8763,-19.4527,1427.6359],[29.8781,-19.4733,1417.9686],[29.8675,-19.4691,1414.4893],[29.8661,-19.4766,1426.6732],[29.8713,-19.4799,1426.2521],[29.8671,-19.4866,1437.6422],[29.8727,-19.4927,1443.3457],[29.8691,-19.496,1446.1238],[29.8653,-19.5057,1434.9246],[29.8518,-19.5061,1439.5544],[29.8492,-19.4994,1436.8564],[29.8468,-19.4976,1437.5791],[29.8412,-19.5063,1424.0605],[29.834,-19.5061,1424.8871],[29.8242,-19.4956,1441.3608],[29.815,-19.507,1419.454],[29.7865,-19.5073,1407.3342],[29.7845,-19.4994,1407.1315],[29.7619,-19.54,1384.7009],[29.7506,-19.4821,1395.9353],[29.7456,-19.4751,1411.7841],[29.7507,-19.4721,1407.2096],[29.7463,-19.4661,1427.7927]]]]}}