{"type":"Feature","properties":{"GID_3":"ZWE.6.7.2_2","GID_0":"ZWE","country":"Zimbabwe","GID_1":"ZWE.6_1","province":"MashonalandWest","NL_NAME_1":"NA","GID_2":"ZWE.6.7_2","county":"KaribaUrban","NL_NAME_2":"NA","city":"Ward2","VARNAME_3":"NA","NL_NAME_3":"NA","TYPE_3":"Ward","ENGTYPE_3":"Ward","CC_3":"NA","HASC_3":"NA","name":"Ward2.city"},
"geometry":{"type": "MultiPolygon","coordinates": [[[[28.8434,-16.5097,514.5562],[28.8302,-16.5112,537.3954],[28.8335,-16.5167,515.3984],[28.8346,-16.5157,518.0944],[28.8368,-16.518,503.8469],[28.8357,-16.52,510.2368],[28.8376,-16.5218,497.1033],[28.8463,-16.5211,496.5722],[28.8479,-16.5178,511.3583],[28.8444,-16.5152,504.4172],[28.8434,-16.5097,514.5562]]]]}}