{"type": "Feature","bbox": [29.9899,-17.2937,30.0466,-17.24],"geometry": {"type": "MultiPolygon","coordinates": [[[[30.0466,-17.2838,1153.9719],[30.0427,-17.2696,1150.6945],[30.0382,-17.2699,1152.4543],[30.0291,-17.2662,1141.6709],[30.0288,-17.2587,1137.2158],[30.0273,-17.2568,1138.4529],[30.021,-17.2585,1150.7283],[30.0181,-17.2552,1198.1312],[29.9984,-17.2449,1123.2622],[29.9924,-17.24,1117.5677],[29.9899,-17.2426,1125.0629],[29.9932,-17.2453,1116.6182],[29.9939,-17.2508,1124.4951],[29.9974,-17.2579,1123.4551],[30.0036,-17.2657,1127.8354],[30.0203,-17.2724,1144.3806],[30.0217,-17.2871,1150.0101],[30.0255,-17.2937,1152.2225],[30.0466,-17.2838,1153.9719]]]]}
,"properties": {"GID_3": "ZWE.6.9.17_2","GID_0": "ZWE","country": "Zimbabwe","GID_1": "ZWE.6_1","province": "MashonalandWest","NL_NAME_1": "NA","GID_2": "ZWE.6.9_2","county": "Makonde","NL_NAME_2": "NA","city": "Ward7","VARNAME_3": "NA","NL_NAME_3": "NA","TYPE_3": "Ward","ENGTYPE_3": "Ward","CC_3": "NA","HASC_3": "NA","name": "Ward7.city","area_km2": 12.046679,"hist_schema_id": "Elevation0-9000","hist_area_km2": {"1125": 4.393784,"1150": 7.288443,"1175": 0.121481,"1200": 0.101237,"1225": 0.080991,"1250": 0.040495,"1275": 0.020248}}}