{"type":"Feature","properties":{"GID_3":"ZWE.10.9.24_2","GID_0":"ZWE","country":"Zimbabwe","GID_1":"ZWE.10_1","province":"Midlands","NL_NAME_1":"NA","GID_2":"ZWE.10.9_2","county":"Mberengwa","NL_NAME_2":"NA","city":"Ward30","VARNAME_3":"NA","NL_NAME_3":"NA","TYPE_3":"Ward","ENGTYPE_3":"Ward","CC_3":"NA","HASC_3":"NA","name":"Ward30.city"},
"geometry":{"type": "MultiPolygon","coordinates": [[[[29.7533,-20.8351,927.95],[29.7502,-20.836,930.9524],[29.7428,-20.8532,1009.4854],[29.7392,-20.856,1056.7589],[29.7376,-20.8663,997.9707],[29.7325,-20.8667,1000.0997],[29.7219,-20.8618,1035.0615],[29.7166,-20.8722,1169.45],[29.7121,-20.8867,1030.5417],[29.7165,-20.892,994.5707],[29.7179,-20.9016,965.623],[29.7115,-20.9087,949.8676],[29.7117,-20.9134,945.8209],[29.7099,-20.9143,944.3292],[29.7089,-20.9177,941.9198],[29.7154,-20.927,927.8063],[29.7292,-20.9333,924.7973],[29.7373,-20.9398,909.9891],[29.7449,-20.9391,920.3533],[29.7545,-20.9346,923.8165],[29.7621,-20.9339,916.8851],[29.7811,-20.9249,897.3089],[29.7876,-20.9265,895.4797],[29.7986,-20.9336,876.7147],[29.8073,-20.9358,874.9783],[29.8161,-20.9302,857.2672],[29.8178,-20.9309,851.3462],[29.8179,-20.9285,858.4747],[29.8294,-20.9266,845.6039],[29.8302,-20.9231,850.9011],[29.8336,-20.9229,849.4399],[29.8383,-20.9193,840.9111],[29.8499,-20.9238,836.6411],[29.8565,-20.921,836.1099],[29.864,-20.9203,833.7421],[29.8747,-20.927,824.9946],[29.8763,-20.9212,833.8533],[29.8794,-20.9217,821.5252],[29.8837,-20.9172,812.7661],[29.8887,-20.9152,820.1956],[29.8826,-20.9126,816.223],[29.8788,-20.9081,818.9243],[29.8749,-20.9083,813.9636],[29.87,-20.9037,821.6161],[29.8603,-20.9001,820.3536],[29.8483,-20.8892,837.3737],[29.8375,-20.8827,842.212],[29.8332,-20.8818,842.3323],[29.8319,-20.8793,848.6522],[29.8236,-20.8775,846.5594],[29.8213,-20.8746,852.8882],[29.8188,-20.8749,848.5069],[29.8124,-20.8716,861.8403],[29.7925,-20.8524,886.3902],[29.786,-20.8518,897.4895],[29.7533,-20.8351,927.95]]]]}}