{"type": "Feature","bbox": [29.7563,-19.477,29.78,-19.4666],"geometry": {"type": "MultiPolygon","coordinates": [[[[29.7773,-19.4666,1426.3794],[29.7625,-19.4693,1418.7288],[29.7563,-19.473,1401.5071],[29.759,-19.4764,1399.366],[29.78,-19.477,1416.7511],[29.7773,-19.4666,1426.3794]]]]}
,"properties": {"GID_3": "ZWE.10.6.2_2","GID_0": "ZWE","country": "Zimbabwe","GID_1": "ZWE.10_1","province": "Midlands","NL_NAME_1": "NA","GID_2": "ZWE.10.6_2","county": "GweruUrban","NL_NAME_2": "NA","city": "Ward10","VARNAME_3": "NA","NL_NAME_3": "NA","TYPE_3": "Ward","ENGTYPE_3": "Ward","CC_3": "NA","HASC_3": "NA","name": "Ward10.city","area_km2": 1.978956,"hist_schema_id": "Elevation0-9000","hist_area_km2": {"1400": 0.819561,"1425": 1.159395}}}