{"type":"Feature","properties":{"GID_3":"ZWE.9.6.9_2","GID_0":"ZWE","country":"Zimbabwe","GID_1":"ZWE.9_1","province":"MatabelelandSouth","NL_NAME_1":"NA","GID_2":"ZWE.9.6_2","county":"Insiza","NL_NAME_2":"NA","city":"Ward17","VARNAME_3":"NA","NL_NAME_3":"NA","TYPE_3":"Ward","ENGTYPE_3":"Ward","CC_3":"NA","HASC_3":"NA","name":"Ward17.city"},
"geometry":{"type": "MultiPolygon","coordinates": [[[[29.3519,-20.2755,1249.5419],[29.3353,-20.2734,1175.964],[29.3195,-20.3204,1207.05],[29.3027,-20.3221,1172.1249],[29.2862,-20.3293,1173.7212],[29.2798,-20.3646,1161.5549],[29.289,-20.3649,1178.8574],[29.3003,-20.4112,1237.1608],[29.2937,-20.4638,1209.6364],[29.3305,-20.4594,1370.6091],[29.3418,-20.5065,1294.3602],[29.3576,-20.5189,1201.7427],[29.3629,-20.534,1154.7607],[29.336,-20.55,1065.1204],[29.3402,-20.556,1081.6182],[29.3694,-20.5665,1142.7537],[29.3075,-20.5853,1033.0165],[29.3213,-20.6051,1023.6523],[29.3213,-20.6205,1016.6694],[29.3189,-20.6366,1011.4296],[29.3247,-20.637,1020.134],[29.331,-20.6405,1012.2339],[29.3342,-20.6444,1019.4814],[29.3353,-20.6492,1012.9282],[29.3401,-20.6515,1011.2498],[29.3598,-20.6162,1049.1744],[29.4318,-20.6116,1058.3911],[29.429,-20.5792,1055.4774],[29.4885,-20.5768,1176.4645],[29.4481,-20.5244,1096.6188],[29.4492,-20.4467,1279.4],[29.4266,-20.3847,1219.4518],[29.4255,-20.3848,1219.4518],[29.4365,-20.3644,1197.4572],[29.4624,-20.3238,1228.1436],[29.4434,-20.3124,1242.9673],[29.4339,-20.3251,1223.4055],[29.4255,-20.3174,1222.4121],[29.4387,-20.309,1243.3403],[29.4353,-20.2947,1250.5547],[29.4065,-20.276,1254.963],[29.3993,-20.2948,1253.067],[29.3502,-20.3059,1221.2556],[29.3519,-20.2755,1249.5419]]]]}}