{"type": "Feature","bbox": [27.7238,-20.5931,27.9285,-20.4228],"geometry": {"type": "MultiPolygon","coordinates": [[[[27.781,-20.5289,1382.165],[27.7731,-20.5544,1324.6509],[27.7858,-20.5634,1333.1332],[27.819,-20.5931,1295.9351],[27.8435,-20.5616,1315.8589],[27.8677,-20.5259,1363.6537],[27.9052,-20.5156,1350.0793],[27.9285,-20.4882,1437.2598],[27.8648,-20.4934,1383.1627],[27.8701,-20.4773,1391.7374],[27.8668,-20.4593,1381.196],[27.8317,-20.4228,1328.5807],[27.8275,-20.4284,1346.9592],[27.7985,-20.449,1349.2434],[27.7915,-20.452,1346.6301],[27.7748,-20.4717,1372.9406],[27.7312,-20.465699999999998,1330.3723],[27.7275,-20.5121,1380.67],[27.7238,-20.5128,1377.3765],[27.781,-20.5289,1382.165]]]]}
,"properties": {"GID_2": "ZWE.9.9_2","GID_0": "ZWE","country": "Zimbabwe","GID_1": "ZWE.9_1","province": "MatabelelandSouth","NL_NAME_1": "NA","county": "Plumtree","VARNAME_2": "NA","NL_NAME_2": "NA","TYPE_2": "District","ENGTYPE_2": "District","CC_2": "NA","HASC_2": "NA","name": "Plumtree.county","area_km2": 174.7987,"hist_schema_id": "Elevation0-9000","hist_area_km2": {"1275": 0.7344,"1300": 10.9576,"1325": 20.4304,"1350": 55.9253,"1375": 75.5299,"1400": 10.9827,"1425": 0.2185,"1450": 0.0199}}}