{"type":"Feature","properties":{"GID_3":"ZWE.4.3.29_2","GID_0":"ZWE","country":"Zimbabwe","GID_1":"ZWE.4_1","province":"MashonalandCentral","NL_NAME_1":"NA","GID_2":"ZWE.4.3_2","county":"Centenary/Muzarabani","NL_NAME_2":"NA","city":"Ward9","VARNAME_3":"NA","NL_NAME_3":"NA","TYPE_3":"Ward","ENGTYPE_3":"Ward","CC_3":"NA","HASC_3":"NA","name":"Ward9.city"},
"geometry":{"type": "MultiPolygon","coordinates": [[[[31.1794,-16.4255,516.5498],[31.1658,-16.4247,530.4742],[31.1613,-16.4271,543.0602],[31.1494,-16.4262,546.0193],[31.1275,-16.4188,502.5306],[31.0981,-16.423,566.1449],[31.086,-16.4185,501.782],[31.0781,-16.4206,527.775],[31.0751,-16.4191,522.3957],[31.0694,-16.4195,523.0551],[31.0596,-16.4219,633.8864],[31.052,-16.4203,534.8453],[31.0494,-16.4213,581.0344],[31.0432,-16.4188,523.7549],[31.0293,-16.4206,577.0329],[30.9953,-16.4162,427.7219],[30.9914,-16.4202,519.8901],[30.9935,-16.4283,485.46],[30.9911,-16.4327,481.0856],[31.0003,-16.4375,635.1714],[30.9978,-16.44,581.6573],[30.9968,-16.4457,605.6552],[31.0045,-16.4449,561.6174],[31.0042,-16.4487,512.2162],[30.9985,-16.4519,585.6359],[30.9998,-16.4541,528.3236],[31.0019,-16.4534,535.7054],[31.0019,-16.4588,543.6457],[31.0095,-16.4599,729.9065],[31.011,-16.4643,583.4377],[31.0164,-16.4614,717.4384],[31.0199,-16.4622,742.3531],[31.0166,-16.4643,621.2357],[31.0142,-16.4714,713.0851],[31.0209,-16.4774,764.7781],[31.0166,-16.4772,696.174],[31.0117,-16.4846,730.7921],[31.013,-16.4854,730.7921],[31.0173,-16.482,778.5353],[31.0214,-16.4832,752.9453],[31.0228,-16.4804,802.5823],[31.0271,-16.4896,790.0251],[31.0347,-16.4897,860.9432],[31.0384,-16.4938,885.1588],[31.0383,-16.4955,858.6437],[31.0328,-16.4955,920.953],[31.0327,-16.5004,863.3657],[31.0379,-16.4993,828.6624],[31.0467,-16.5025,888.6519],[31.0466,-16.5049,850.8333],[31.0423,-16.5067,876.8157],[31.0429,-16.5097,881.3694],[31.0415,-16.5121,873.8068],[31.0381,-16.512,885.9932],[31.0364,-16.5143,884.5051],[31.0389,-16.5162,872.5872],[31.0388,-16.5217,892.0274],[31.0416,-16.523,896.8231],[31.0508,-16.5217,945.1378],[31.0533,-16.5389,977.9641],[31.0559,-16.5439,952.567],[31.0601,-16.5464,970.8082],[31.0582,-16.5488,964.9701],[31.0601,-16.5499,973.7195],[31.0584,-16.5528,984.0206],[31.063,-16.5541,1009.5154],[31.0689,-16.5532,1026.3412],[31.0704,-16.5629,999.3018],[31.0744,-16.5633,1030.42],[31.0817,-16.5595,1005.9447],[31.0824,-16.5641,1002.5811],[31.079,-16.5721,1032.7721],[31.0905,-16.5729,1099.8595],[31.1079,-16.5569,1198.7683],[31.1068,-16.5574,1198.7683],[31.104,-16.5371,1127.1553],[31.1071,-16.5217,1129.4991],[31.0783,-16.4608,1476.6864],[31.1423,-16.4474,1127.6227],[31.1534,-16.4855,1279.9419],[31.1588,-16.4938,1294.2418],[31.1868,-16.4928,1162.3501],[31.1863,-16.4831,1142.2648],[31.1848,-16.4806,1112.8472],[31.1869,-16.4781,1078.1355],[31.1835,-16.4723,1012.2162],[31.186,-16.4674,981.8991],[31.1841,-16.4647,954.3599],[31.1854,-16.4608,881.9603],[31.1838,-16.457,778.4603],[31.1853,-16.4525,720.4978],[31.179,-16.4449,623.9324],[31.1806,-16.4314,540.3248],[31.1788,-16.4277,527.6295],[31.1794,-16.4255,516.5498]]]]}}