{"type":"Feature","properties":{"GID_3":"ZWE.7.5.16_2","GID_0":"ZWE","country":"Zimbabwe","GID_1":"ZWE.7_1","province":"Masvingo","NL_NAME_1":"NA","GID_2":"ZWE.7.5_2","county":"Gutu","NL_NAME_2":"NA","city":"Ward23","VARNAME_3":"NA","NL_NAME_3":"NA","TYPE_3":"Ward","ENGTYPE_3":"Ward","CC_3":"NA","HASC_3":"NA","name":"Ward23.city"},
"geometry":{"type": "MultiPolygon","coordinates": [[[[31.4932,-19.8835,1050.1548],[31.4894,-19.8822,1049.6703],[31.437,-19.8296,1178.6628],[31.4411,-19.8233,1169.3712],[31.4539,-19.8318,1120.917],[31.4518,-19.8138,1177.7488],[31.4474,-19.8087,1203.7047],[31.4714,-19.7841,1161.4243],[31.4683,-19.782,1128.6726],[31.4674,-19.7789,1122.0233],[31.4488,-19.7809,1164.1511],[31.4505,-19.7748,1120.7444],[31.4474,-19.7609,1085.5396],[31.4448,-19.7651,1078.1521],[31.4438,-19.7719,1088.5784],[31.4467,-19.7802,1126.9382],[31.4432,-19.7835,1133.3628],[31.4303,-19.7744,1171.7728],[31.4234,-19.7743,1176.9939],[31.4307,-19.788,1195.8586],[31.4417,-19.7951,1220.0758],[31.4386,-19.8076,1185.6177],[31.4242,-19.808,1170.453],[31.4224,-19.8207,1212.7014],[31.4161,-19.8283,1222.7513],[31.3985,-19.8238,1185.2083],[31.3917,-19.8268,1242.3462],[31.3866,-19.8314,1250.5385],[31.3825,-19.8428,1245.1477],[31.292,-19.8007,1320.2661],[31.2926,-19.8072,1300.9556],[31.2982,-19.8243,1294.9448],[31.3058,-19.8342,1237.3486],[31.3175,-19.8679,1208.858],[31.3277,-19.885,1328.1439],[31.3294,-19.8939,1170.7457],[31.3316,-19.8956,1188.0889],[31.3316,-19.8999,1162.3138],[31.3383,-19.9025,1171.6873],[31.3378,-19.9076,1161.7897],[31.3485,-19.9192,1153.0748],[31.3534,-19.9218,1189.4244],[31.3533,-19.9269,1140.9036],[31.3592,-19.9244,1159.5166],[31.3697,-19.9332,1117.3254],[31.3737,-19.9328,1117.7642],[31.3746,-19.9348,1110.4009],[31.3847,-19.938,1102.3846],[31.4,-19.9377,1098.2903],[31.4139,-19.9283,1093.0],[31.4296,-19.9225,1104.0146],[31.4334,-19.9139,1122.8962],[31.4423,-19.9175,1080.098],[31.4493,-19.9064,1069.2252],[31.4643,-19.902,1062.3777],[31.4724,-19.902,1061.5051],[31.4812,-19.9059,1059.6359],[31.4813,-19.8994,1058.5183],[31.4932,-19.8835,1050.1548]]]]}}