{"type":"Feature","properties":{"featurecla":"River","scalerank":9,"rivernum":1043,"dissolve":"1043River","name":"Umzingwani1","name_alt":null,"note":null,"min_zoom":7.1,"strokeweig":0.2,"name_en":"Umzingwani","min_label":8.1},
"geometry":{"type": "LineString","coordinates": [[29.746972656250023,-21.886748956255886,519.6699],[29.686279296875,-21.813311456255889,550.5],[29.679101562500023,-21.799151300005889,553.4161],[29.679882812500011,-21.788604425005886,553.978],[29.6845703125,-21.778350518755886,556.5803],[29.683837890625,-21.769854425005889,555.3268],[29.66953125,-21.764483331255889,563.4606],[29.648828125000023,-21.759795831255886,562.1713],[29.638671875,-21.75579192500588,565.0137],[29.629980468750006,-21.750811456255889,558.7933],[29.620703125,-21.73992278438088,569.2182],[29.606054687500006,-21.71453215938088,578.9172],[29.54833984375,-21.67278411250588,593.9023],[29.489501953125,-21.572100518755889,644.4689],[29.428125,-21.52263762813088,652.0672],[29.412695312500006,-21.487334893755886,670.4847],[29.3955078125,-21.41619231563088,688.0531],[29.368359375000011,-21.347198175005886,697.7688],[29.363037109375,-21.32366301875588,716.347],[29.362890625,-21.318389581255886,722.0357],[29.36376953125,-21.31389739375588,725.7988],[29.366455078125,-21.30437590938088,727.7928],[29.365966796875,-21.295440362505886,741.3469],[29.360742187500023,-21.289092706255886,730.2402],[29.354394531250023,-21.28337981563088,729.1328],[29.350976562500023,-21.27654387813088,767.546],[29.350830078125,-21.26091887813088,751.5912],[29.354248046875,-21.25530364375588,771.6533],[29.359765625000023,-21.25090911250588,781.2029],[29.366455078125,-21.239288018755886,772.1719],[29.37109375,-21.22210051875588,773.3744],[29.370361328125,-21.20891692500588,778.3185],[29.357812500000023,-21.177764581255886,781.5159],[29.358154296875,-21.170440362505886,794.6467],[29.364990234375,-21.136260675005886,814.0967],[29.36376953125,-21.13176848750588,822.5555],[29.360058593750011,-21.12688567500588,825.4839],[29.358642578125,-21.12200286250588,828.4914],[29.36376953125,-21.11760833125588,827.2472],[29.373437500000023,-21.11443450313088,824.967],[29.37841796875,-21.11174895625588,822.96],[29.380859375,-21.10857512813088,832.2449],[29.377197265625,-21.08464934688088,839.8508],[29.355712890625,-21.03557708125588,850.4254],[29.349023437500023,-21.009600518755889,853.2801],[29.350830078125,-20.948760675005886,872.9474],[29.343505859375,-20.930694268755886,870.4104],[29.334375,-20.923174737505889,867.3217],[29.310937500000023,-20.91277434688088,889.8223],[29.301367187500006,-20.90520598750588,889.2823],[29.294335937500023,-20.893096612505886,885.8058],[29.27978515625,-20.851592706255886,895.8209],[29.22509765625,-20.737823175005886,925.8867],[29.19140625,-20.63689544063088,945.1476],[29.190820312500023,-20.626006768755886,928.2777],[29.192138671875,-20.60295989375588,956.0526],[29.190820312500023,-20.592608331255889,955.0723],[29.185644531250006,-20.579131768755886,957.3467],[29.18017578125,-20.57293059688088,939.8832],[29.17333984375,-20.568194268755889,967.136],[29.163964843750023,-20.55901458125588,976.2849],[29.14794921875,-20.53753020625588,1013.0572],[29.137792968750006,-20.51677825313088,999.6334],[29.13330078125,-20.49431731563088,998.5833],[29.135351562500006,-20.460479425005886,1003.9888],[29.134960937500011,-20.45281340938088,1007.9398],[29.133544921875,-20.44500090938088,1008.8774],[29.131103515625,-20.437334893755889,1019.396]]}}