{"type":"Feature","properties":{"featurecla":"River","scalerank":9,"rivernum":1043,"dissolve":"1043River","name":"Umzingwani2","name_alt":null,"note":null,"min_zoom":7.1,"strokeweig":0.25,"name_en":"Umzingwani","min_label":8.1},
"geometry":{"type": "LineString","coordinates": [[29.932373046875,-22.188018487505886,450.5253],[29.939550781250006,-22.134600518755889,465.4045],[29.914306640625,-22.08391692500588,495.5266],[29.874609375,-22.040362237505889,488.2317],[29.795166015625,-21.97112395625588,506.4458],[29.764892578125,-21.95159270625588,516.6369],[29.761474609375,-21.94304778438088,516.2104],[29.762939453125,-21.93425872188088,520.6134],[29.7626953125,-21.92351653438088,520.9442],[29.755957031250006,-21.903350518755886,529.1019],[29.746972656250023,-21.886748956255886,519.6699]]}}