{"type":"Feature","properties":{"featurecla":"River","scalerank":9,"rivernum":1043,"dissolve":"1043River","name":"Umzingwani","name_alt":null,"note":null,"min_zoom":7.1,"strokeweig":0.15,"name_en":"Umzingwani","min_label":8.1},
"geometry":{"type": "LineString","coordinates": [[29.131103515625,-20.437334893755889,1019.396],[29.125,-20.424151300005889,1014.2973],[29.116601562500023,-20.41204192500588,1036.3323],[29.106542968750006,-20.40154387813088,1035.7185],[29.09521484375,-20.39299895625588,1112.1903],[29.080322265625,-20.38738372188088,1141.7175],[29.06396484375,-20.38616301875588,1115.3833],[28.980224609375,-20.39055755000588,1097.0193],[28.954003906250023,-20.38787200313088,1089.0945],[28.93125,-20.37957122188088,1142.3079],[28.912841796875,-20.364092706255889,1206.6377],[28.906347656250006,-20.36003997188088,1253.3608],[28.894140625,-20.35662200313088,1205.8677],[28.881445312500006,-20.356475518755886,1179.3887],[28.856201171875,-20.35979583125588,1133.5522],[28.843505859375,-20.35930755000588,1169.3839],[28.792089843750006,-20.345733331255886,1183.6199],[28.763574218750023,-20.343584893755889,1197.4073],[28.7490234375,-20.34465911250588,1212.8414],[28.629003906250006,-20.367705987505886,1299.9517]]}}