{"type": "Feature","bbox": [32.1679,-21.1334,32.4423,-20.9817],"geometry": {"type": "MultiPolygon","coordinates": [[[[32.3799,-21.111,289.2212],[32.3879,-21.0985,315.1089],[32.4013,-21.0877,324.6978],[32.4423,-21.0416,290.7382],[32.4401,-21.0403,292.6081],[32.4403,-21.0356,305.0703],[32.4376,-21.0344,306.6193],[32.437,-21.0287,297.4344],[32.4349,-21.0274,300.7954],[32.4346,-21.0237,304.0988],[32.4371,-21.0186,304.8665],[32.4327,-21.0123,310.7726],[32.4273,-21.0098,309.3968],[32.4274,-21.007,312.5602],[32.4312,-21.0057,320.9356],[32.4279,-21.0026,316.6223],[32.4229,-21.0027,322.5589],[32.421,-21.0052,323.4509],[32.4093,-21.0039,343.5031],[32.4,-21.0064,350.3997],[32.3913,-21.0052,365.747],[32.3889,-21.0067,363.828],[32.3853,-21.0033,372.0755],[32.3853,-21.0007,379.6621],[32.3833,-20.9985,384.1856],[32.3764,-20.9956,393.9359],[32.359,-20.9942,388.9059],[32.3518,-20.991,384.531],[32.3405,-20.9927,378.9711],[32.3157,-20.9926,361.0338],[32.3073,-20.9865,361.1636],[32.3043,-20.9881,362.738],[32.2796,-20.9824,373.4488],[32.2574,-20.9817,380.0063],[32.2501,-20.9864,380.325],[32.2404,-20.9882,383.5908],[32.1975,-20.9883,389.3272],[32.178,-20.9863,389.4785],[32.1736,-20.9882,384.476],[32.1686,-20.9933,380.2492],[32.1702,-21.0027,372.7173],[32.1679,-21.0063,365.81],[32.1749,-21.0079,371.2375],[32.1905,-21.0164,372.2389],[32.1963,-21.0247,359.0],[32.1953,-21.0355,358.1992],[32.1866,-21.0426,362.7902],[32.186,-21.0455,357.5366],[32.188,-21.0526,356.2216],[32.1947,-21.0643,356.8781],[32.1999,-21.0669,352.3182],[32.2165,-21.0686,349.1416],[32.2247,-21.077,344.3237],[32.2338,-21.0795,342.8304],[32.2404,-21.0975,345.1285],[32.2466,-21.0984,336.3186],[32.2564,-21.0967,345.4612],[32.2621,-21.0979,345.0347],[32.2678,-21.1011,329.8208],[32.2713,-21.1056,331.9269],[32.2774,-21.1034,343.1476],[32.2833,-21.1039,356.212],[32.3002,-21.1151,382.71],[32.3051,-21.1163,395.7046],[32.3186,-21.103,351.1122],[32.3349,-21.1053,312.1923],[32.3449,-21.1043,305.1255],[32.3535,-21.1101,291.6988],[32.3578,-21.1163,287.2352],[32.3617,-21.1173,288.8849],[32.3653,-21.1283,274.2856],[32.3687,-21.1334,271.9275],[32.3762,-21.1218,284.8862],[32.3799,-21.111,289.2212]]]]}
,"properties": {"GID_3": "ZWE.3.3.22_2","GID_0": "ZWE","country": "Zimbabwe","GID_1": "ZWE.3_1","province": "Manicaland","NL_NAME_1": "NA","GID_2": "ZWE.3.3_2","county": "Chipinge","NL_NAME_2": "NA","city": "Ward29","VARNAME_3": "NA","NL_NAME_3": "NA","TYPE_3": "Ward","ENGTYPE_3": "Ward","CC_3": "NA","HASC_3": "NA","name": "Ward29.city","area_km2": 294.3481,"hist_schema_id": "Elevation0-9000","hist_area_km2": {"275": 0.8109,"300": 12.3637,"325": 26.2736,"350": 98.7925,"375": 118.1293,"400": 30.4983,"425": 2.5329,"450": 1.2268,"475": 1.5434,"500": 1.2664,"525": 0.7321,"550": 0.1781}}}