{"type": "Feature","bbox": [30.1271,-16.9267,30.5279,-16.3348],"geometry": {"type": "MultiPolygon","coordinates": [[[[30.5094,-16.7586,886.8383],[30.5216,-16.744,888.8502],[30.5211,-16.7412,895.4288],[30.5187,-16.7396,884.1553],[30.5184,-16.7354,910.1371],[30.5279,-16.73,888.04],[30.5255,-16.7251,907.5047],[30.5221,-16.7261,901.2487],[30.5182,-16.7238,880.012],[30.5199,-16.7203,887.9025],[30.5192,-16.7149,878.8122],[30.5148,-16.7023,879.4149],[30.5103,-16.6959,875.5045],[30.5146,-16.6818,882.8198],[30.51,-16.6808,931.1503],[30.5018,-16.6853,879.1819],[30.4975,-16.6758,898.0518],[30.4717,-16.672,925.2901],[30.462,-16.6681,904.1038],[30.4558,-16.6636,870.5995],[30.4479,-16.6636,863.1974],[30.4397,-16.6562,918.4376],[30.4294,-16.6543,943.5438],[30.4222,-16.6552,856.2709],[30.4137,-16.6454,929.8514],[30.4113,-16.6452,948.6873],[30.41,-16.648,899.9647],[30.4066,-16.649,913.4389],[30.4027,-16.6471,859.4395],[30.3994,-16.6446,831.1254],[30.3995,-16.638,820.0397],[30.3947,-16.6345,818.8096],[30.3968,-16.6307,841.6502],[30.3946,-16.6279,824.625],[30.3948,-16.623,862.8988],[30.3854,-16.6133,875.7826],[30.3783,-16.6085,820.8773],[30.3725,-16.5945,838.6849],[30.3751,-16.5826,951.7919],[30.3784,-16.5772,781.3862],[30.3778,-16.5738,868.3975],[30.3859,-16.5647,773.1766],[30.3859,-16.5633,806.1013],[30.3814,-16.5606,751.4816],[30.3803,-16.5551,742.8284],[30.3878,-16.5466,733.8467],[30.3868,-16.5411,800.377],[30.39,-16.5354,721.4877],[30.3883,-16.5298,747.3121],[30.3911,-16.5267,800.0053],[30.3954,-16.5263,701.5542],[30.3947,-16.5216,691.2914],[30.3974,-16.5168,737.4429],[30.4034,-16.5169,770.7355],[30.4069,-16.5138,732.7645],[30.4054,-16.5097,683.2694],[30.4058,-16.495,674.7782],[30.4038,-16.4892,648.3418],[30.4084,-16.4794,652.809],[30.4078,-16.4693,750.6775],[30.4136,-16.4615,595.8986],[30.4134,-16.4546,612.126],[30.416,-16.4505,612.4631],[30.4064,-16.441,565.2099],[30.4063,-16.4379,661.1338],[30.4113,-16.4342,611.8782],[30.4185,-16.4318,630.4434],[30.418,-16.4256,760.1539],[30.4234,-16.4232,542.3176],[30.4275,-16.4132,630.5031],[30.4333,-16.4081,517.9897],[30.4349,-16.4051,524.1881],[30.4351,-16.3978,565.8784],[30.4382,-16.3938,586.8411],[30.4367,-16.3903,528.2979],[30.4307,-16.385,452.3656],[30.4276,-16.3715,451.154],[30.4175,-16.3551,497.2441],[30.4216,-16.3509,493.8791],[30.4188,-16.3466,413.9399],[30.42,-16.339,399.4595],[30.3819,-16.3368,686.6652],[30.3741,-16.3348,696.8759],[30.3643,-16.3402,715.2551],[30.3593,-16.3406,792.9229],[30.343,-16.335,668.6356],[30.3312,-16.3359,695.387],[30.3338,-16.3414,666.0974],[30.3322,-16.3467,738.7634],[30.3255,-16.3567,802.9513],[30.319,-16.3628,867.6107],[30.3183,-16.3663,805.9678],[30.3134,-16.3687,861.1204],[30.3083,-16.3685,934.1169],[30.3022,-16.3737,873.7849],[30.2953,-16.375,885.9794],[30.2824,-16.3836,965.1774],[30.2692,-16.3997,1110.7192],[30.2612,-16.403199999999998,1126.2037],[30.256,-16.4077,1117.085],[30.2518,-16.4159,1103.1814],[30.2468,-16.4184,1072.8088],[30.2406,-16.4186,1075.6921],[30.2344,-16.4237,1114.0891],[30.22,-16.4452,1150.0068],[30.2032,-16.4496,1141.3169],[30.1936,-16.4578,1110.1703],[30.1866,-16.4551,1078.5897],[30.1841,-16.4557,1087.0502],[30.1806,-16.4609,1079.1885],[30.1744,-16.4645,1060.2302],[30.174,-16.4687,1064.9175],[30.1708,-16.4739,1026.7462],[30.1637,-16.4743,995.0199],[30.1604,-16.4768,999.2819],[30.1363,-16.4834,972.8275],[30.132,-16.4903,982.4724],[30.1271,-16.492,975.6583],[30.1316,-16.4984,951.0292],[30.1356,-16.5007,966.0393],[30.1383,-16.4995,964.0501],[30.1397,-16.5008,957.8109],[30.1473,-16.5009,979.3186],[30.1501,-16.4995,983.7739],[30.1502,-16.4969,1009.8612],[30.1523,-16.4962,1003.7072],[30.1551,-16.5022,960.3895],[30.1589,-16.5029,1014.4885],[30.1593,-16.5071,972.8658],[30.1626,-16.5045,995.562],[30.164,-16.509,965.2617],[30.1683,-16.5127,976.3508],[30.1722,-16.5114,984.7448],[30.1772,-16.5187,976.2199],[30.1798,-16.5193,988.4774],[30.1798,-16.5217,978.6071],[30.1845,-16.5203,992.1658],[30.1864,-16.5237,982.5049],[30.1851,-16.5257,990.8961],[30.1859,-16.5281,990.2512],[30.1828,-16.5329,990.2587],[30.1896,-16.5365,992.9255],[30.1944,-16.5443,999.993],[30.1957,-16.5448,994.9447],[30.1964,-16.5413,1001.0776],[30.1995,-16.5442,1001.671],[30.2032,-16.5443,1020.2485],[30.2046,-16.5428,1047.8416],[30.2062,-16.5455,1005.9802],[30.2124,-16.5442,1026.1344],[30.2134,-16.5415,1024.4445],[30.223,-16.5537,1018.6222],[30.227,-16.556,1026.4675],[30.2271,-16.5593,1024.5083],[30.2303,-16.5587,1033.9626],[30.2342,-16.5665,1026.4979],[30.2359,-16.5653,1029.4205],[30.2382,-16.5711,1033.3759],[30.2426,-16.5721,1036.8988],[30.2462,-16.5821,1034.786],[30.2437,-16.5863,1045.0371],[30.2462,-16.5862,1041.9762],[30.2478,-16.589,1061.2467],[30.2509,-16.5878,1056.8456],[30.252,-16.589,1071.5771],[30.2522,-16.5931,1072.5796],[30.2475,-16.6008,1069.1921],[30.2515,-16.6028,1059.0538],[30.2491,-16.6075,1066.4038],[30.2518,-16.6093,1059.3855],[30.251,-16.6129,1066.9603],[30.2538,-16.615,1083.8516],[30.2509,-16.6164,1073.8768],[30.2536,-16.6216,1073.8503],[30.2493,-16.6231,1077.9905],[30.2593,-16.6369,1078.2377],[30.259,-16.6394,1075.5052],[30.2561,-16.6419,1081.0881],[30.2563,-16.6479,1082.2136],[30.2581,-16.6552,1086.9227],[30.2606,-16.6577,1099.4376],[30.2596,-16.6597,1092.5664],[30.2627,-16.6626,1105.3506],[30.2632,-16.6676,1086.3228],[30.2658,-16.67,1088.8929],[30.2671,-16.6747,1093.8132],[30.2669,-16.6759,1093.8132],[30.2629,-16.675,1105.1725],[30.2621,-16.6781,1094.5117],[30.2673,-16.686,1102.0366],[30.265,-16.6871,1101.9766],[30.2686,-16.6894,1108.272],[30.2689,-16.692,1099.5525],[30.2601,-16.6921,1112.0614],[30.2559,-16.6949,1126.1299],[30.2553,-16.6974,1122.5657],[30.2587,-16.7042,1117.546],[30.2514,-16.7067,1131.8121],[30.2558,-16.7116,1126.9474],[30.2566,-16.7174,1124.7126],[30.2471,-16.7221,1148.7323],[30.2479,-16.7267,1145.1498],[30.2461,-16.7269,1138.1475],[30.2454,-16.7308,1146.5],[30.2475,-16.7335,1149.1782],[30.2418,-16.7354,1157.8717],[30.2408,-16.7383,1152.8789],[30.2418,-16.7398,1146.5],[30.2381,-16.745,1155.8704],[30.238,-16.7475,1148.4043],[30.2403,-16.7486,1153.3024],[30.2381,-16.7516,1147.615],[30.2379,-16.7574,1150.516],[30.2446,-16.7666,1161.6146],[30.2432,-16.7819,1163.7139],[30.245,-16.7878,1165.0929],[30.243,-16.7915,1174.3933],[30.2427,-16.7993,1172.1958],[30.241,-16.8013,1175.8849],[30.2423,-16.8062,1177.8037],[30.2386,-16.8114,1180.9307],[30.2389,-16.8334,1195.9766],[30.242,-16.8437,1200.5594],[30.2406,-16.8521,1207.8848],[30.224,-16.8533,1220.6355],[30.2162,-16.856,1233.885],[30.2076,-16.8564,1236.4124],[30.2044,-16.8585,1245.2671],[30.2236,-16.8633,1306.1383],[30.2001,-16.9013,1260.325],[30.1996,-16.9136,1257.1982],[30.2288,-16.9267,1246.8274],[30.2653,-16.8935,1265.127],[30.3076,-16.9203,1191.5822],[30.3164,-16.8897,1153.0259],[30.3387,-16.8916,1120.0143],[30.3436,-16.8714,1128.6671],[30.3656,-16.8724,1038.5798],[30.368,-16.8772,998.1685],[30.3798,-16.8792,991.7504],[30.3842,-16.8815,975.7952],[30.3913,-16.8814,964.296],[30.3956,-16.8838,963.6097],[30.4014,-16.8844,957.3367],[30.4057,-16.8791,955.8225],[30.4109,-16.8802,947.3461],[30.4174,-16.8782,956.9613],[30.4235,-16.8811,941.346],[30.4222,-16.867,934.9582],[30.4252,-16.861,933.567],[30.4247,-16.8491,937.5107],[30.4262,-16.8458,942.4594],[30.4301,-16.8433,938.1744],[30.4404,-16.8475,939.6271],[30.4547,-16.8433,930.6714],[30.4618,-16.8439,934.3168],[30.4648,-16.8336,930.3181],[30.4634,-16.8263,921.6472],[30.4723,-16.8192,924.4106],[30.4788,-16.8199,923.3857],[30.4818,-16.8173,913.0199],[30.4892,-16.8021,905.9818],[30.4888,-16.7981,914.1745],[30.4854,-16.7963,902.9519],[30.4846,-16.7907,908.5481],[30.4903,-16.7873,909.1711],[30.4953,-16.7769,896.311],[30.4998,-16.7749,890.1461],[30.5064,-16.7672,896.0609],[30.5089,-16.7636,888.39],[30.5094,-16.7586,886.8383]]]]}
,"properties": {"GID_3": "ZWE.6.9.12_2","GID_0": "ZWE","country": "Zimbabwe","GID_1": "ZWE.6_1","province": "MashonalandWest","NL_NAME_1": "NA","GID_2": "ZWE.6.9_2","county": "Makonde","NL_NAME_2": "NA","city": "Ward2","VARNAME_3": "NA","NL_NAME_3": "NA","TYPE_3": "Ward","ENGTYPE_3": "Ward","CC_3": "NA","HASC_3": "NA","name": "Ward2.city","area_km2": 1326.447,"hist_schema_id": "Elevation0-9000","hist_area_km2": {"400": 0.203,"425": 0.509,"450": 0.509,"475": 0.407,"500": 0.814,"525": 1.058,"550": 1.811,"575": 2.217,"600": 3.682,"625": 4.943,"650": 5.899,"675": 6.854,"700": 8.095,"725": 10.007,"750": 11.633,"775": 11.286,"800": 15.637,"825": 23.321,"850": 33.911,"875": 49.618,"900": 65.305,"925": 78.902,"950": 97.612,"975": 100.471,"1000": 102.945,"1025": 100.485,"1050": 97.863,"1075": 98.859,"1100": 90.07,"1125": 83.761,"1150": 69.223,"1175": 58.645,"1200": 36.57,"1225": 41.84,"1250": 9.557,"1275": 1.136,"1300": 0.365,"1325": 0.284,"1350": 0.061,"1375": 0.061,"1400": 0.02}}}