{"type": "Feature","bbox": [27.747,-17.3325,28.1356,-16.9702],"geometry": {"type": "MultiPolygon","coordinates": [[[[27.747,-17.0873,483.5],[27.8009,-17.1335,483.5],[27.8128,-17.1462,485.6438],[27.8382,-17.1682,483.5],[27.8476,-17.1689,561.7339],[27.8493,-17.1729,492.6889],[27.8457,-17.1784,509.9399],[27.8488,-17.1793,497.2604],[27.8532,-17.175,532.1108],[27.8558,-17.1747,556.4901],[27.8634,-17.1867,507.9453],[27.8651,-17.1858,572.5283],[27.867,-17.1875,541.6855],[27.8663,-17.1909,503.3357],[27.8749,-17.1925,509.6034],[27.8791,-17.1899,513.6112],[27.8804,-17.1924,507.1937],[27.8895,-17.192,519.9192],[27.8993,-17.1886,541.4221],[27.8992,-17.1923,519.3802],[27.9077,-17.1867,576.6498],[27.9124,-17.1893,546.0442],[27.9211,-17.1904,538.8463],[27.9223,-17.1968,535.5162],[27.9261,-17.196,543.4203],[27.9277,-17.1937,554.0272],[27.9284,-17.1983,538.1956],[27.9313,-17.1986,538.4343],[27.9315,-17.1973,540.9587],[27.9356,-17.1984,545.0909],[27.9357,-17.2028,543.2224],[27.9325,-17.202,544.371],[27.9308,-17.2039,546.7422],[27.9352,-17.2058,544.2435],[27.9381,-17.2134,580.8281],[27.9353,-17.2147,586.394],[27.9322,-17.2134,568.7711],[27.9315,-17.2169,568.2622],[27.9334,-17.2178,570.5278],[27.9334,-17.2207,585.7554],[27.9379,-17.223,615.5182],[27.9342,-17.2251,605.3204],[27.9342,-17.2268,608.2551],[27.9387,-17.2365,632.645],[27.941,-17.2377,669.5892],[27.9432,-17.2348,684.4094],[27.9446,-17.2364,644.4163],[27.9407,-17.243,679.8632],[27.9433,-17.2452,699.0744],[27.9444,-17.2549,669.4586],[27.9472,-17.2565,676.4031],[27.9446,-17.2576,673.104],[27.9454,-17.2611,674.5028],[27.9514,-17.268,689.1171],[27.9488,-17.2683,678.2438],[27.9488,-17.2696,675.5914],[27.9469,-17.2687,707.7056],[27.9461,-17.2716,678.004],[27.9555,-17.2801,687.6835],[27.9554,-17.2827,682.6345],[27.9577,-17.2858,689.1896],[27.9565,-17.2883,684.2789],[27.9584,-17.2882,684.0455],[27.9575,-17.2904,683.8316],[27.9598,-17.2896,690.5795],[27.963,-17.2945,685.7405],[27.9634,-17.3038,692.5822],[27.968,-17.3095,706.0529],[27.9676,-17.3136,695.2292],[27.9726,-17.3148,714.8353],[27.9748,-17.3206,702.504],[27.9843,-17.3242,740.2501],[27.9954,-17.3325,696.8231],[28.0185,-17.3259,715.7537],[28.0425,-17.3235,822.9598],[28.0795,-17.308,741.6944],[28.0889,-17.2963,707.7297],[28.089,-17.2921,709.105],[28.0813,-17.2795,696.8905],[28.0827,-17.2746,708.0587],[28.0895,-17.267,772.512],[28.0897,-17.2619,783.5106],[28.0855,-17.2578,772.1699],[28.089,-17.2468,737.2462],[28.096,-17.246,772.8094],[28.1037,-17.2386,746.1722],[28.1083,-17.2314,721.9806],[28.1262,-17.2226,719.7623],[28.1356,-17.2201,582.7257],[28.0715,-17.1761,512.5202],[28.039,-17.1816,592.5652],[27.9365,-17.0829,504.9732],[27.8327,-16.9702,483.5],[27.747,-17.0873,483.5]]]]}
,"properties": {"GID_3": "ZWE.8.1.15_2","GID_0": "ZWE","country": "Zimbabwe","GID_1": "ZWE.8_1","province": "MatabelelandNorth","NL_NAME_1": "NA","GID_2": "ZWE.8.1_2","county": "Binga","NL_NAME_2": "NA","city": "Ward22","VARNAME_3": "NA","NL_NAME_3": "NA","TYPE_3": "Ward","ENGTYPE_3": "Ward","CC_3": "NA","HASC_3": "NA","name": "Ward22.city","area_km2": 600.8366,"hist_schema_id": "Elevation0-9000","hist_area_km2": {"475": 204.4861,"500": 16.9791,"525": 37.4358,"550": 41.7096,"575": 45.31,"600": 40.1263,"625": 33.7662,"650": 33.1153,"675": 29.4258,"700": 35.7589,"725": 32.5777,"750": 24.1534,"775": 14.7781,"800": 9.3924,"825": 1.6193,"850": 0.2024}}}