{"type":"Feature","properties":{"GID_3":"ZWE.6.13.17_2","GID_0":"ZWE","country":"Zimbabwe","GID_1":"ZWE.6_1","province":"MashonalandWest","NL_NAME_1":"NA","GID_2":"ZWE.6.13_2","county":"Zvimba","NL_NAME_2":"NA","city":"Ward24","VARNAME_3":"NA","NL_NAME_3":"NA","TYPE_3":"Ward","ENGTYPE_3":"Ward","CC_3":"NA","HASC_3":"NA","name":"Ward24.city"},
"geometry":{"type": "MultiPolygon","coordinates": [[[[30.9625,-17.7139,1452.9609],[30.9579,-17.6693,1484.5503],[30.9554,-17.6605,1480.254],[30.9305,-17.6621,1463.4773],[30.9285,-17.7006,1444.9443],[30.9127,-17.6872,1437.7086],[30.8671,-17.6645,1435.3517],[30.8446,-17.6505,1420.5059],[30.8378,-17.6627,1418.0417],[30.8412,-17.7048,1442.8156],[30.8402,-17.711,1428.9204],[30.825,-17.7547,1407.7356],[30.8435,-17.754,1413.1377],[30.8658,-17.7187,1450.0951],[30.8624,-17.7092,1444.1031],[30.8706,-17.7102,1475.4092],[30.8755,-17.7035,1455.4736],[30.9063,-17.7307,1469.9669],[30.918,-17.7375,1476.9447],[30.9485,-17.7486,1472.2753],[30.9508,-17.7094,1448.5619],[30.9625,-17.7139,1452.9609]]]]}}