{"type": "Feature","bbox": [32.029,-17.2978,32.191,-17.166],"geometry": {"type": "MultiPolygon","coordinates": [[[[32.0474,-17.166,741.3617],[32.0406,-17.1842,758.1744],[32.0361,-17.1905,742.4473],[32.0353,-17.1993,761.1396],[32.029,-17.216,769.162],[32.0294,-17.2205,769.4148],[32.041,-17.2349,865.4695],[32.0405,-17.2424,889.9023],[32.0377,-17.2439,963.5735],[32.037,-17.2468,875.6185],[32.0365,-17.2551,870.8102],[32.0394,-17.2603,886.4753],[32.0383,-17.2672,895.2266],[32.0394,-17.2752,906.7456],[32.0603,-17.2978,925.124],[32.0807,-17.2905,967.0042],[32.0918,-17.2889,983.142],[32.102,-17.2917,1030.7271],[32.1059,-17.2914,1069.1825],[32.1151,-17.287,1119.3163],[32.1336,-17.2882,1024.7155],[32.1415,-17.2909,985.8025],[32.1567,-17.2897,1027.1475],[32.1726,-17.2793,1026.7214],[32.1774,-17.2792,924.442],[32.1771,-17.2742,923.0217],[32.1841,-17.2574,889.226],[32.1833,-17.2484,882.6816],[32.1852,-17.2472,875.889],[32.1871,-17.2386,868.6509],[32.1895,-17.238,859.8262],[32.191,-17.2298,850.9285],[32.171,-17.2415,900.4203],[32.1675,-17.2421,913.6727],[32.1401,-17.2203,1019.725],[32.1401,-17.2147,1073.2953],[32.1317,-17.2115,988.8894],[32.1295,-17.2081,976.2936],[32.1278,-17.1985,958.3719],[32.123,-17.1916,994.3304],[32.1124,-17.1821,921.3909],[32.1088,-17.1734,893.9076],[32.0953,-17.1729,947.6224],[32.0896,-17.1707,970.8007],[32.0794,-17.1726,825.5229],[32.0769,-17.1699,823.7779],[32.0723,-17.1706,818.9257],[32.0654,-17.1683,803.2767],[32.0622,-17.1698,786.0296],[32.0592,-17.1668,793.0178],[32.0474,-17.166,741.3617]]]]}
,"properties": {"GID_3": "ZWE.5.8.12_2","GID_0": "ZWE","country": "Zimbabwe","GID_1": "ZWE.5_1","province": "MashonalandEast","NL_NAME_1": "NA","GID_2": "ZWE.5.8_2","county": "Mutoko","NL_NAME_2": "NA","city": "Ward2","VARNAME_3": "NA","NL_NAME_3": "NA","TYPE_3": "Ward","ENGTYPE_3": "Ward","CC_3": "NA","HASC_3": "NA","name": "Ward2.city","area_km2": 161.5742,"hist_schema_id": "Elevation0-9000","hist_area_km2": {"725": 0.2228,"750": 1.0736,"775": 1.9243,"800": 2.451,"825": 3.0991,"850": 3.504,"875": 4.557,"900": 7.3312,"925": 10.6519,"950": 14.0538,"975": 16.5236,"1000": 19.0955,"1025": 17.7185,"1050": 13.2836,"1075": 11.0558,"1100": 8.5245,"1125": 9.1317,"1150": 7.9573,"1175": 4.0091,"1200": 2.045,"1225": 1.3161,"1250": 0.9719,"1275": 0.7289,"1300": 0.1417,"1325": 0.1012,"1350": 0.0607,"1375": 0.0202,"1400": 0.0202}}}