{"type": "Feature","bbox": [29.3868,-17.8262,29.6019,-17.5046],"geometry": {"type": "MultiPolygon","coordinates": [[[[29.4895,-17.5822,805.7344],[29.4789,-17.5676,818.9108],[29.4737,-17.5637,818.7361],[29.4561,-17.5614,806.4008],[29.4518,-17.5591,802.7823],[29.4526,-17.5537,842.9194],[29.4577,-17.5504,810.0188],[29.4523,-17.542,822.4982],[29.4482,-17.5418,838.5573],[29.4429,-17.5454,804.4732],[29.4353,-17.5465,836.6477],[29.43,-17.545,795.3379],[29.431,-17.5392,807.9493],[29.4249,-17.5333,805.0519],[29.4191,-17.5362,801.6519],[29.4123,-17.5312,828.481],[29.4065,-17.5333,832.1879],[29.4031,-17.5313,812.1838],[29.401,-17.5283,813.5339],[29.4035,-17.5265,801.5985],[29.4035,-17.5248,823.9309],[29.4001,-17.5217,789.5303],[29.396,-17.5128,800.3434],[29.3888,-17.5046,774.7985],[29.39,-17.5098,791.9001],[29.3869,-17.5129,804.187],[29.3889,-17.5191,837.3055],[29.3899,-17.5306,871.1104],[29.3868,-17.5364,880.2015],[29.3876,-17.541,875.5858],[29.3933,-17.5459,890.7299],[29.387,-17.5537,882.3449],[29.3887,-17.5594,853.5151],[29.3907,-17.559,843.5372],[29.3996,-17.5704,847.3447],[29.4073,-17.573,851.9242],[29.4089,-17.5757,849.2612],[29.3966,-17.5858,844.8502],[29.3888,-17.6036,825.9738],[29.3949,-17.6062,831.313],[29.3974,-17.6123,861.1385],[29.4125,-17.6079,880.7432],[29.4135,-17.6229,879.4733],[29.412,-17.6291,883.4042],[29.4191,-17.6375,888.9036],[29.418,-17.6432,877.756],[29.4253,-17.6504,871.9532],[29.4226,-17.6589,879.324],[29.4239,-17.6651,876.4882],[29.4224,-17.6716,863.908],[29.4233,-17.6808,876.8234],[29.4271,-17.6904,871.3879],[29.4229,-17.7104,888.5502],[29.4234,-17.7143,888.1266],[29.4282,-17.7161,876.1263],[29.4379,-17.7245,861.2053],[29.4376,-17.7322,878.3392],[29.4405,-17.7367,876.787],[29.4449,-17.7382,887.0692],[29.4527,-17.7446,911.1859],[29.4596,-17.7561,923.0555],[29.4553,-17.7638,908.4131],[29.4537,-17.7642,908.4131],[29.4445,-17.7956,896.4551],[29.4481,-17.7925,889.7905],[29.4981,-17.7935,928.2875],[29.4981,-17.8127,925.5577],[29.5097,-17.8262,927.0106],[29.5179,-17.8223,929.4585],[29.5192,-17.8156,926.4635],[29.5557,-17.7937,882.3036],[29.5622,-17.7669,891.1683],[29.5916,-17.7626,913.2848],[29.5969,-17.7476,859.913],[29.6019,-17.7408,864.2579],[29.5998,-17.7385,853.1151],[29.5986,-17.7313,859.0784],[29.5889,-17.7275,849.8083],[29.5861,-17.7223,836.7389],[29.5865,-17.7185,851.3678],[29.5835,-17.7158,838.8854],[29.5822,-17.7111,866.0428],[29.5726,-17.7046,839.4882],[29.5586,-17.7059,841.1245],[29.5561,-17.7041,828.5697],[29.5533,-17.6983,838.0716],[29.546,-17.6903,823.4346],[29.5456,-17.6802,843.1685],[29.5416,-17.6736,834.278],[29.5377,-17.6713,832.8843],[29.5281,-17.6714,829.7385],[29.5212,-17.6672,825.3536],[29.5211,-17.6639,839.2918],[29.5255,-17.6562,829.6945],[29.5256,-17.6523,832.7953],[29.519,-17.6464,824.0477],[29.5163,-17.6409,838.6381],[29.5006,-17.6388,863.3697],[29.4973,-17.6368,815.0557],[29.494,-17.6273,836.5694],[29.4857,-17.621,811.7021],[29.4841,-17.6121,817.817],[29.4886,-17.6047,809.0496],[29.4854,-17.5956,808.8079],[29.4862,-17.5928,822.4485],[29.4915,-17.5874,809.7478],[29.4895,-17.5822,805.7344]]]]}
,"properties": {"GID_3": "ZWE.6.12.8_2","GID_0": "ZWE","country": "Zimbabwe","GID_1": "ZWE.6_1","province": "MashonalandWest","NL_NAME_1": "NA","GID_2": "ZWE.6.12_2","county": "Sanyati","NL_NAME_2": "NA","city": "Ward16","VARNAME_3": "NA","NL_NAME_3": "NA","TYPE_3": "Ward","ENGTYPE_3": "Ward","CC_3": "NA","HASC_3": "NA","name": "Ward16.city","area_km2": 338.2142,"hist_schema_id": "Elevation0-9000","hist_area_km2": {"775": 0.3437,"800": 9.2381,"825": 37.8108,"850": 70.2138,"875": 99.6895,"900": 83.4845,"925": 35.8791,"950": 1.5548}}}