{"type":"Feature","properties":{"GID_3":"ZWE.6.2.2_2","GID_0":"ZWE","country":"Zimbabwe","GID_1":"ZWE.6_1","province":"MashonalandWest","NL_NAME_1":"NA","GID_2":"ZWE.6.2_2","county":"ChegutuUrban","NL_NAME_2":"NA","city":"Ward10","VARNAME_3":"NA","NL_NAME_3":"NA","TYPE_3":"Ward","ENGTYPE_3":"Ward","CC_3":"NA","HASC_3":"NA","name":"Ward10.city"},
"geometry":{"type": "MultiPolygon","coordinates": [[[[30.1622,-18.1117,1163.1127],[30.1615,-18.1095,1163.9214],[30.1635,-18.1067,1164.1481],[30.157,-18.1077,1163.0225],[30.1507,-18.1057,1161.1097],[30.1458,-18.1062,1158.3223],[30.1405,-18.1038,1159.5967],[30.1417,-18.1082,1162.5598],[30.1448,-18.1104,1164.0375],[30.1436,-18.1271,1179.8955],[30.1415,-18.1283,1181.9873],[30.1442,-18.1316,1185.0588],[30.1531,-18.1234,1176.7084],[30.1622,-18.1117,1163.1127]]]]}}