{"type": "Feature","bbox": [29.4578,-21.0405,29.6707,-20.8391],"geometry": {"type": "MultiPolygon","coordinates": [[[[29.6471,-21.0297,890.3661],[29.6465,-21.0265,892.9202],[29.6422,-21.0233,897.7745],[29.6397,-21.0177,912.051],[29.6359,-21.0151,903.0568],[29.6295,-21.0144,906.6946],[29.6298,-21.0129,910.1744],[29.6235,-21.0062,913.99],[29.624,-21.0035,916.8714],[29.6195,-20.9986,919.234],[29.6171,-20.992,930.1155],[29.6128,-20.9898,927.0327],[29.6106,-20.9856,933.0337],[29.6079,-20.9843,933.1339],[29.6075,-20.98,936.5485],[29.6056,-20.979,937.6224],[29.6093,-20.975,943.7313],[29.6081,-20.9732,945.6953],[29.6095,-20.9713,947.9468],[29.6186,-20.9668,967.2135],[29.6202,-20.9642,979.4614],[29.6248,-20.9617,991.4604],[29.6242,-20.9585,986.3566],[29.6275,-20.9493,983.7678],[29.6353,-20.9423,993.589],[29.6376,-20.9347,1003.444],[29.6441,-20.9262,1012.3562],[29.6444,-20.9235,1023.2125],[29.6501,-20.9197,988.9321],[29.6537,-20.9135,989.8491],[29.651,-20.901,1012.5127],[29.6611,-20.8835,1021.6995],[29.6597,-20.8749,1033.792],[29.6622,-20.8644,1068.1812],[29.6692,-20.852,1090.2645],[29.6707,-20.842,1058.2812],[29.6594,-20.8391,1033.8566],[29.6462,-20.8406,1051.8792],[29.6335,-20.8449,1043.8481],[29.6243,-20.8912,1134.2419],[29.5857,-20.926,991.0352],[29.5414,-20.9534,956.1666],[29.4894,-20.9953,888.1127],[29.4578,-21.0156,884.9686],[29.4995,-21.0284,946.8148],[29.5345,-21.0368,992.8748],[29.5925,-21.0405,949.1686],[29.6471,-21.0297,890.3661]]]]}
,"properties": {"GID_3": "ZWE.10.9.26_2","GID_0": "ZWE","country": "Zimbabwe","GID_1": "ZWE.10_1","province": "Midlands","NL_NAME_1": "NA","GID_2": "ZWE.10.9_2","county": "Mberengwa","NL_NAME_2": "NA","city": "Ward32","VARNAME_3": "NA","NL_NAME_3": "NA","TYPE_3": "Ward","ENGTYPE_3": "Ward","CC_3": "NA","HASC_3": "NA","name": "Ward32.city","area_km2": 181.7467,"hist_schema_id": "Elevation0-9000","hist_area_km2": {"875": 1.2865,"900": 15.518,"925": 35.0564,"950": 43.9866,"975": 26.845,"1000": 15.4427,"1025": 15.6055,"1050": 14.1025,"1075": 5.9021,"1100": 3.0893,"1125": 2.6738,"1150": 1.3469,"1175": 0.6932,"1200": 0.1981}}}