{"type": "Feature","bbox": [32.257,-17.9167,32.5179,-17.6632],"geometry": {"type": "MultiPolygon","coordinates": [[[[32.4376,-17.6721,935.2516],[32.4346,-17.6718,931.0563],[32.4254,-17.6639,948.5393],[32.4221,-17.6632,952.3704],[32.4124,-17.6716,944.4114],[32.408,-17.6708,947.9619],[32.4021,-17.6736,945.6023],[32.3914,-17.6717,949.0546],[32.382,-17.6746,950.0928],[32.376,-17.6813,947.05],[32.3657,-17.6888,956.6948],[32.3519,-17.6962,963.5298],[32.3383,-17.7069,967.0826],[32.3313,-17.7089,963.7767],[32.3249,-17.7198,970.0059],[32.319,-17.7231,972.6282],[32.3091,-17.7215,972.2323],[32.3009,-17.7252,976.0977],[32.2916,-17.7339,982.5557],[32.2932,-17.7391,974.5257],[32.2908,-17.7418,982.8066],[32.2806,-17.743,983.362],[32.2757,-17.7464,991.8323],[32.2677,-17.76,986.631],[32.2687,-17.7641,984.834],[32.2657,-17.7706,1003.172],[32.2621,-17.7709,1008.9709],[32.257,-17.7756,1009.0363],[32.28,-17.8216,1099.9385],[32.2634,-17.861,1096.9812],[32.2804,-17.9042,1075.6863],[32.2859,-17.9036,1069.239],[32.2872,-17.9069,1063.5377],[32.294,-17.9095,1065.8961],[32.2955,-17.9138,1049.8329],[32.3056,-17.9102,1048.3909],[32.3077,-17.9111,1054.1113],[32.3107,-17.9167,1029.6981],[32.3152,-17.9122,1040.7612],[32.3217,-17.9109,1024.0371],[32.3205,-17.9068,1026.3347],[32.3223,-17.9041,1026.5923],[32.3297,-17.8999,1025.9218],[32.3304,-17.8918,1013.5286],[32.3321,-17.8895,1034.2227],[32.3437,-17.8923,1018.9238],[32.3513,-17.8916,992.5254],[32.3638,-17.881,991.1683],[32.3642,-17.8743,995.9824],[32.3671,-17.8694,1001.4154],[32.3733,-17.8655,992.2506],[32.3771,-17.865,989.0446],[32.3787,-17.8666,980.4984],[32.3897,-17.8543,974.6808],[32.3893,-17.8486,980.2295],[32.4157,-17.8307,970.1659],[32.4203,-17.8297,960.0251],[32.4223,-17.8195,965.4843],[32.4247,-17.8162,992.2391],[32.435,-17.8173,952.7279],[32.4489,-17.8149,943.533],[32.47,-17.8038,937.8741],[32.4772,-17.7956,981.6903],[32.4839,-17.7921,943.8865],[32.4893,-17.792,931.1721],[32.4896,-17.7858,943.6162],[32.4998,-17.7891,914.4749],[32.5016,-17.7862,912.8091],[32.5005,-17.777,911.5511],[32.5018,-17.7748,925.2156],[32.5058,-17.7779,919.9649],[32.5109,-17.778199999999998,956.7962],[32.5179,-17.7814,901.6592],[32.4714,-17.7386,1086.1953],[32.4512,-17.7267,1041.663],[32.4376,-17.6721,935.2516]]]]}
,"properties": {"GID_3": "ZWE.3.5.12_2","GID_0": "ZWE","country": "Zimbabwe","GID_1": "ZWE.3_1","province": "Manicaland","NL_NAME_1": "NA","GID_2": "ZWE.3.5_2","county": "Makoni","NL_NAME_2": "NA","city": "Ward2","VARNAME_3": "NA","NL_NAME_3": "NA","TYPE_3": "Ward","ENGTYPE_3": "Ward","CC_3": "NA","HASC_3": "NA","name": "Ward2.city","area_km2": 398.4688,"hist_schema_id": "Elevation0-9000","hist_area_km2": {"900": 0.0404,"925": 3.5947,"950": 26.3164,"975": 50.3644,"1000": 68.3869,"1025": 93.495,"1050": 77.2717,"1075": 43.2527,"1100": 21.2729,"1125": 6.6814,"1150": 3.7144,"1175": 1.8573,"1200": 0.8681,"1225": 0.4441,"1250": 0.3432,"1275": 0.2019,"1300": 0.1615,"1325": 0.0606,"1350": 0.0807,"1375": 0.0404,"1400": 0.0202}}}