{"type":"Feature","properties":{"GID_2":"ZWE.7.8_2","GID_0":"ZWE","country":"Zimbabwe","GID_1":"ZWE.7_1","province":"Masvingo","NL_NAME_1":"NA","county":"Mwenezi","VARNAME_2":"NA","NL_NAME_2":"NA","TYPE_2":"District","ENGTYPE_2":"District","CC_2":"NA","HASC_2":"NA","name":"Mwenezi.county"},
"geometry":{"type": "MultiPolygon","coordinates": [[[[31.2668,-21.498,482.3108],[31.2675,-21.4914,481.8368],[31.4693,-21.3181,386.6791],[31.5036,-21.2902,370.5593],[31.5072,-21.2853,371.1662],[31.5081,-21.2729,365.3588],[31.5122,-21.2663,364.9033],[31.5255,-21.2655,361.0115],[31.5285,-21.2606,359.3283],[31.5396,-21.2559,359.1746],[31.5496,-21.2541,353.7765],[31.5554,-21.2494,353.2116],[31.5587,-21.249,350.5082],[31.5633,-21.2435,351.6898],[31.5742,-21.2426,348.3848],[31.5841,-21.2385,343.6578],[31.5828,-21.2353,345.5928],[31.588,-21.2337,341.9583],[31.5924,-21.2213,338.0764],[31.5912,-21.2176,335.9614],[31.5943,-21.2126,332.913],[31.6005,-21.2109,334.6076],[31.6027,-21.2138,329.3353],[31.6034,-21.2118,332.023],[31.6055,-21.2129,313.1373],[31.6084,-21.2097,317.9539],[31.599,-21.2041,311.0937],[31.5928,-21.195,333.0929],[31.581,-21.188,315.0673],[31.5768,-21.1827,316.0783],[31.5739,-21.1703,313.8265],[31.568,-21.1671,318.257],[31.5522,-21.174,326.1998],[31.5402,-21.1736,318.6691],[31.5147,-21.1537,333.7852],[31.4979,-21.1491,336.5718],[31.4814,-21.1564,334.7607],[31.3778,-21.1716,352.1992],[31.3544,-21.1779,356.2152],[31.3251,-21.18,362.5159],[31.3131,-21.1702,365.5465],[31.309,-21.1515,376.6184],[31.2997,-21.1393,390.3731],[31.2825,-21.1359,390.6755],[31.2679,-21.1357,385.0309],[31.2591,-21.1486,386.0889],[31.2387,-21.1524,393.8195],[31.2116,-21.1496,389.3876],[31.1902,-21.1408,405.6217],[31.1812,-21.1403,402.434],[31.1648,-21.1433,393.0616],[31.1563,-21.141,397.4722],[31.1464,-21.1262,409.3056],[31.1411,-21.1226,419.5854],[31.1326,-21.1199,407.618],[31.1264,-21.1149,407.9573],[31.1212,-21.1034,420.6315],[31.1103,-21.092,413.1537],[31.1097,-21.0773,415.1337],[31.108,-21.0737,426.1314],[31.1048,-21.0712,430.1603],[31.0624,-21.0545,422.5336],[31.0587,-21.0471,423.1434],[31.0521,-21.0402,426.053],[31.0432,-21.0228,439.292],[31.0394,-21.0188,435.715],[31.0253,-21.0148,459.2806],[31.0136,-21.0001,429.7176],[31.0051,-20.9941,441.8438],[30.9948,-20.9928,469.0984],[30.9824,-20.9987,464.3492],[30.9645,-20.9789,499.6938],[30.9472,-20.9686,501.8012],[30.9256,-20.9663,506.209],[30.9067,-20.9577,500.8289],[30.8711,-20.9518,520.4787],[30.8632,-20.9476,529.6548],[30.8563,-20.9406,521.6722],[30.8464,-20.9377,538.533],[30.8388,-20.9326,531.5702],[30.8247,-20.9278,538.5693],[30.8127,-20.9258,546.9288],[30.8108,-20.9224,548.0143],[30.8133,-20.9164,543.3037],[30.8126,-20.9142,548.5034],[30.7795,-20.889,571.3522],[30.7645,-20.8947,557.318],[30.7549,-20.9022,558.5007],[30.7376,-20.9123,561.6536],[30.71,-20.9129,575.2025],[30.706,-20.9108,583.7957],[30.6908,-20.9083,581.1971],[30.6891,-20.9051,568.5],[30.6898,-20.8966,579.0923],[30.6941,-20.8888,579.9483],[30.7001,-20.8674,584.9077],[30.7048,-20.8369,573.5],[30.7087,-20.8285,585.3068],[30.7084,-20.8256,582.716],[30.704,-20.8243,606.991],[30.678,-20.8301,599.4963],[30.6764,-20.8284,611.5449],[30.6744,-20.8186,673.1391],[30.6685,-20.8103,596.915],[30.6648,-20.8083,603.5858],[30.653,-20.8098,615.323],[30.6484,-20.8072,623.5946],[30.6455,-20.7929,629.6194],[30.6427,-20.7876,627.5256],[30.6345,-20.7873,634.2534],[30.6308,-20.7849,628.6096],[30.6278,-20.777,619.1634],[30.6347,-20.7712,661.0505],[30.633,-20.7622,646.7304],[30.6275,-20.7531,639.0189],[30.6049,-20.7678,644.2412],[30.5934,-20.7794,641.9669],[30.5905,-20.7764,652.0184],[30.5726,-20.7746,652.6472],[30.5597,-20.7706,657.76],[30.5515,-20.7656,711.5257],[30.5418,-20.7563,657.3944],[30.5218,-20.7488,666.7985],[30.5155,-20.7407,665.5928],[30.5127,-20.7257,672.4246],[30.514,-20.7185,669.3769],[30.5209,-20.7051,673.2252],[30.5237,-20.6938,677.0529],[30.5234,-20.6853,674.9249],[30.5199,-20.6823,685.0805],[30.5098,-20.6919,700.516],[30.4975,-20.6974,729.5922],[30.4869,-20.7049,704.497],[30.4814,-20.7151,704.9494],[30.4786,-20.7407,709.6302],[30.4801,-20.7484,693.2985],[30.4734,-20.7563,684.8372],[30.4691,-20.7696,701.6327],[30.466,-20.7905,693.2468],[30.4543,-20.8311,718.248],[30.4508,-20.8692,728.527],[30.4534,-20.8826,749.9575],[30.4488,-20.894,719.9576],[30.4477,-20.9095,697.6915],[30.4434,-20.9231,685.3191],[30.4427,-20.9392,707.5309],[30.4452,-20.9625,711.3664],[30.4175,-20.9865,646.2275],[30.4093,-20.9993,632.5626],[30.4027,-20.9998,620.7665],[30.4011,-21.0061,618.8618],[30.3958,-21.0097,621.1896],[30.3965,-21.0146,618.8436],[30.3934,-21.0195,618.0],[30.3813,-21.019,624.8575],[30.3783,-21.0204,626.9316],[30.3719,-21.0256,633.1238],[30.3637,-21.0354,618.0],[30.3572,-21.0379,693.4104],[30.3568,-21.0399,618.0],[30.3426,-21.0434,618.0],[30.3372,-21.0431,618.0],[30.3163,-21.0301,654.9199],[30.3089,-21.0307,634.6644],[30.3009,-21.0366,631.1099],[30.288,-21.0272,675.22],[30.2817,-21.0194,668.8049],[30.2533,-21.0298,650.771],[30.2501,-21.041,663.1939],[30.2294,-21.0374,669.8276],[30.2171,-21.0317,669.8488],[30.2095,-21.0321,678.9947],[30.1933,-21.0378,681.6212],[30.1794,-21.0278,685.3284],[30.1726,-21.03,685.3722],[30.1694,-21.0338,681.3598],[30.1659,-21.0345,686.5044],[30.1465,-21.022,680.1508],[30.1419,-21.0165,682.5834],[30.1313,-21.0084,695.16],[30.109,-21.007,693.9837],[30.0736,-20.9901,698.2114],[30.0712,-20.9875,701.8443],[30.0673,-20.9745,714.7335],[30.0688,-20.9663,723.8731],[30.0595,-20.9603,734.6478],[30.0492,-20.9593,734.9922],[29.9911,-20.9181,769.8226],[29.9876,-20.9114,771.0468],[29.9718,-20.9094,791.7135],[29.9543,-20.9153,781.3943],[29.9468,-20.9117,799.3965],[29.9431,-20.9153,814.5593],[29.9274,-20.9228,864.0424],[29.9029,-20.9454,849.4151],[29.8823,-20.9586,950.7568],[29.8457,-20.9925,882.4081],[29.841,-20.9948,900.9974],[29.8236,-21.0129,1023.2167],[29.7846,-21.0315,864.3434],[29.7674,-21.0324,881.1901],[29.7307,-21.0229,870.6164],[29.7321,-21.0312,852.588],[29.731,-21.0333,834.31],[29.7361,-21.0429,869.6409],[29.7478,-21.0732,817.9328],[29.7474,-21.0773,809.5529],[29.7521,-21.0873,811.8858],[29.7547,-21.0878,817.892],[29.7567,-21.0909,811.8945],[29.766,-21.0889,804.204],[29.7655,-21.098,797.2595],[29.7701,-21.1022,796.439],[29.7707,-21.1074,800.725],[29.7743,-21.1116,791.1699],[29.7772,-21.1123,790.3926],[29.786,-21.1195,790.3307],[29.7915,-21.128,784.3015],[29.8013,-21.1356,783.5514],[29.804,-21.1358,782.0493],[29.8077,-21.1391,781.4272],[29.8128,-21.1394,785.3043],[29.8159,-21.1422,777.1904],[29.8204,-21.1422,777.7483],[29.8341,-21.1501,773.919],[29.8388,-21.1499,771.6738],[29.8411,-21.1514,772.3674],[29.8434,-21.1585,763.5966],[29.8314,-21.1649,778.623],[29.8311,-21.1741,754.0],[29.8385,-21.179,755.9542],[29.8422,-21.1884,733.2472],[29.8448,-21.1878,748.0614],[29.8457,-21.189,741.1135],[29.8472,-21.1928,737.113],[29.8469,-21.2007,733.6675],[29.851,-21.2044,734.9605],[29.8791,-21.21,724.1707],[29.8808,-21.2143,717.7249],[29.8857,-21.217,720.2635],[29.8878,-21.2214,725.1278],[29.8947,-21.2266,712.0605],[29.893,-21.2293,714.1783],[29.8862,-21.2317,710.2031],[29.8874,-21.246,708.4607],[29.8924,-21.251,705.8337],[29.8865,-21.2634,691.898],[29.8893,-21.2652,694.4454],[29.8914,-21.2698,686.244],[29.9012,-21.2681,689.9025],[29.9063,-21.2694,695.4617],[29.9188,-21.2768,688.3932],[29.919,-21.2934,694.09],[29.9214,-21.2985,687.5369],[29.9364,-21.3083,669.7913],[29.9481,-21.3489,669.2587],[29.9538,-21.3536,651.0098],[29.9991,-21.3713,647.6],[30.0077,-21.3811,633.879],[30.0188,-21.3878,635.5144],[30.0247,-21.4074,623.5148],[30.0272,-21.4109,630.7145],[30.0338,-21.4137,630.1246],[30.035,-21.4181,623.071],[30.0402,-21.423,621.646],[30.0391,-21.4276,616.7628],[30.0415,-21.4394,613.7526],[30.0459,-21.4438,621.1288],[30.0546,-21.4476,620.115],[30.0689,-21.4594,614.9024],[30.0696,-21.4725,606.2401],[30.0727,-21.4789,610.8511],[30.0814,-21.4791,605.4098],[30.0935,-21.4762,608.3871],[30.1087,-21.4834,602.1086],[30.107,-21.4875,601.9219],[30.097,-21.4928,602.6473],[30.0957,-21.4957,594.6437],[30.0961,-21.5007,601.0024],[30.1269,-21.4965,592.2693],[30.1335,-21.4982,588.778],[30.1414,-21.5045,587.5902],[30.1462,-21.5058,588.6803],[30.1658,-21.5005,584.9689],[30.1701,-21.5041,580.0521],[30.1661,-21.5162,572.9313],[30.1684,-21.5263,577.1965],[30.1725,-21.5319,577.0356],[30.1783,-21.5327,576.6053],[30.1852,-21.5285,570.5684],[30.193,-21.5287,574.599],[30.2086,-21.5387,568.2608],[30.2115,-21.5426,570.8901],[30.2144,-21.5514,562.939],[30.2183,-21.5539,570.2393],[30.2213,-21.5535,564.1415],[30.2308,-21.544,563.4649],[30.2361,-21.5458,562.3495],[30.2418,-21.552,559.3244],[30.2429,-21.5636,557.3586],[30.2397,-21.5758,552.9022],[30.2298,-21.5858,550.3539],[30.2302,-21.5915,556.168],[30.2334,-21.5944,557.2486],[30.2639,-21.5916,546.4819],[30.2757,-21.5969,547.828],[30.295,-21.5953,541.5325],[30.306,-21.6014,542.4128],[30.3282,-21.6002,537.4547],[30.3321,-21.6023,535.7758],[30.3383,-21.6111,537.5192],[30.345,-21.6072,532.3286],[30.3559,-21.5956,530.3666],[30.3611,-21.5949,531.5895],[30.3722,-21.601,526.8782],[30.3812,-21.6108,533.2858],[30.3878,-21.6111,530.0168],[30.3952,-21.6088,524.254],[30.4022,-21.6204,523.322],[30.4075,-21.6246,518.985],[30.4269,-21.6305,524.8227],[30.4434,-21.6312,513.4313],[30.4464,-21.6357,515.3168],[30.4461,-21.647,518.044],[30.4502,-21.6526,519.0759],[30.4704,-21.6516,508.7037],[30.4762,-21.656,507.5332],[30.4783,-21.6615,511.0391],[30.4825,-21.6632,509.5654],[30.4855,-21.6625,512.564],[30.4899,-21.6568,505.4723],[30.5035,-21.6581,502.5499],[30.5081,-21.6634,502.6958],[30.5076,-21.6738,506.8533],[30.5053,-21.6777,506.8044],[30.5001,-21.6795,500.5049],[30.4992,-21.6818,501.692],[30.4995,-21.6871,504.4663],[30.5019,-21.6914,497.8246],[30.4979,-21.7011,496.3602],[30.4982,-21.705,497.0284],[30.4998,-21.708,498.2333],[30.5038,-21.7103,498.1341],[30.5185,-21.7115,493.9332],[30.5218,-21.7142,493.576],[30.5243,-21.7198,491.0255],[30.5341,-21.7199,490.3643],[30.5353,-21.7283,489.4556],[30.5431,-21.736,494.5742],[30.5408,-21.745,483.8105],[30.5443,-21.7479,485.5596],[30.554,-21.7453,486.6118],[30.5577,-21.7384,482.9023],[30.5592,-21.7319,481.8009],[30.5622,-21.7298,484.2962],[30.5712,-21.7374,483.284],[30.5767,-21.7351,480.9299],[30.5821,-21.736,479.2809],[30.5877,-21.7449,481.6649],[30.5881,-21.752,478.5994],[30.5902,-21.754,481.7107],[30.5965,-21.7519,473.0078],[30.5995,-21.7431,473.459],[30.6071,-21.7458,481.3874],[30.6195,-21.7632,470.7612],[30.6316,-21.7594,470.7257],[30.6396,-21.7509,470.0327],[30.6445,-21.7481,470.2876],[30.6485,-21.7485,466.2927],[30.6498,-21.7514,461.3128],[30.6376,-21.764,464.3093],[30.6348,-21.7689,460.2401],[30.6354,-21.7713,464.0589],[30.6532,-21.7814,459.6545],[30.6586,-21.7799,460.7481],[30.6652,-21.7816,455.2271],[30.669,-21.7972,452.272],[30.6649,-21.8082,455.5318],[30.6651,-21.8112,456.6256],[30.6742,-21.8174,452.0131],[30.6698,-21.8237,450.0959],[30.6702,-21.8295,449.1387],[30.6724,-21.8315,447.1499],[30.6828,-21.8305,449.4421],[30.6852,-21.8316,447.2896],[30.7029,-21.8473,446.6239],[30.7108,-21.8503,443.6633],[30.7151,-21.856,444.9252],[30.7143,-21.8587,440.9111],[30.7101,-21.8618,436.8996],[30.7128,-21.8721,438.0593],[30.7167,-21.8753,440.8138],[30.7305,-21.8751,435.6021],[30.7276,-21.8903,434.7212],[30.7381,-21.8913,431.3839],[30.7503,-21.9035,429.1996],[30.7614,-21.907,426.4923],[30.7602,-21.9135,422.257],[30.7689,-21.9188,426.4034],[30.7713,-21.9222,423.1198],[30.7561,-21.9296,419.4059],[30.7542,-21.9326,421.853],[30.7569,-21.9414,420.4991],[30.7616,-21.9492,414.8164],[30.7672,-21.9548,417.4863],[30.7727,-21.9566,421.0409],[30.7833,-21.9646,416.0278],[30.7981,-21.9642,414.461],[30.8068,-21.9698,412.2967],[30.8087,-21.9748,408.3665],[30.8011,-21.9753,408.3822],[30.7966,-21.9808,407.8276],[30.7978,-21.9855,407.0057],[30.8029,-21.9915,400.7057],[30.8017,-21.9966,401.1761],[30.8037,-21.9991,410.6641],[30.833,-21.9975,406.0897],[30.8574,-22.0167,392.0186],[30.8595,-22.0343,393.4016],[30.8734,-22.0418,410.3226],[30.8869,-22.0811,377.7776],[30.8895,-22.0843,381.3188],[30.8997,-22.0835,366.024],[30.9171,-22.0736,383.7561],[30.9276,-22.0725,354.7548],[30.9313,-22.0738,370.26],[30.9353,-22.0862,354.8098],[30.9312,-22.1053,335.8452],[30.944,-22.1128,315.2913],[30.9479,-22.1072,330.1451],[30.9593,-22.1019,342.1964],[30.9761,-22.0966,408.5005],[30.9878,-22.09,363.0109],[30.9993,-22.09,441.7846],[31.0661,-22.0616,528.3391],[31.2463,-21.7494,471.158],[31.2488,-21.7424,440.6051],[31.257,-21.7296,432.856],[31.2777,-21.7168,375.2929],[31.2689,-21.7141,383.9922],[31.2619,-21.7094,376.8588],[31.2481,-21.6923,387.3532],[31.2465,-21.6879,388.5881],[31.2298,-21.68,390.1736],[31.2292,-21.6755,391.4412],[31.2308,-21.6696,395.6533],[31.2371,-21.6657,396.8064],[31.2397,-21.6592,392.226],[31.252,-21.6524,396.8185],[31.2552,-21.6474,397.3935],[31.2529,-21.6443,400.1869],[31.2546,-21.6411,411.5824],[31.2491,-21.6411,400.9034],[31.2476,-21.6365,403.0294],[31.239,-21.6274,409.6801],[31.2439,-21.5987,425.8083],[31.2496,-21.593,424.5289],[31.2528,-21.5871,429.6635],[31.2512,-21.5805,431.5776],[31.2527,-21.5781,433.8762],[31.2513,-21.5751,433.6396],[31.252,-21.5658,440.857],[31.247,-21.5606,439.5498],[31.2432,-21.5483,449.2614],[31.2501,-21.5369,459.4842],[31.2628,-21.5044,479.5408],[31.2668,-21.498,482.3108]]]]}}