{"type": "Feature","bbox": [30.5177,-20.3691,30.6547,-20.2272],"geometry": {"type": "MultiPolygon","coordinates": [[[[30.5265,-20.2737,908.1445],[30.5372,-20.2764,898.8078],[30.5335,-20.2844,903.2521],[30.5333,-20.2954,915.1169],[30.5214,-20.3048,928.9801],[30.5214,-20.3222,986.2549],[30.5177,-20.3271,979.2319],[30.5339,-20.3585,962.3887],[30.5315,-20.3687,959.7855],[30.5408,-20.3691,939.8542],[30.5425,-20.3675,945.789],[30.5582,-20.3667,981.9325],[30.569,-20.3416,911.3564],[30.5521,-20.321,962.3691],[30.583,-20.301,897.2906],[30.5911,-20.299,887.7192],[30.596,-20.3037,894.5699],[30.5995,-20.3115,872.589],[30.61,-20.3204,864.0203],[30.6176,-20.3207,867.1295],[30.6422,-20.3157,836.8856],[30.6506,-20.3171,827.9407],[30.6533,-20.316,817.3221],[30.6547,-20.3111,822.727],[30.6522,-20.308,811.2048],[30.653,-20.2921,812.1375],[30.6511,-20.2889,821.5697],[30.6399,-20.2758,837.3448],[30.628,-20.2668,838.0436],[30.6232,-20.2598,841.1259],[30.6175,-20.2552,841.5972],[30.6055,-20.2511,846.0787],[30.6043,-20.247,849.5181],[30.6078,-20.2364,845.4238],[30.6034,-20.2301,847.6198],[30.5985,-20.2272,856.7649],[30.5936,-20.2276,861.5504],[30.5847,-20.238,852.6073],[30.5635,-20.2494,871.103],[30.5621,-20.2528,867.4542],[30.5645,-20.2556,873.0842],[30.563,-20.2581,871.5237],[30.5602,-20.2578,880.156],[30.556,-20.2537,878.2177],[30.5519,-20.2557,878.5259],[30.5452,-20.2535,891.6779],[30.5419,-20.2616,888.8545],[30.5352,-20.2619,898.5417],[30.5293,-20.2665,897.2023],[30.5265,-20.2737,908.1445]]]]}
,"properties": {"GID_3": "ZWE.7.4.4_2","GID_0": "ZWE","country": "Zimbabwe","GID_1": "ZWE.7_1","province": "Masvingo","NL_NAME_1": "NA","GID_2": "ZWE.7.4_2","county": "Chivi","NL_NAME_2": "NA","city": "Ward12","VARNAME_3": "NA","NL_NAME_3": "NA","TYPE_3": "Ward","ENGTYPE_3": "Ward","CC_3": "NA","HASC_3": "NA","name": "Ward12.city","area_km2": 106.0722,"hist_schema_id": "Elevation0-9000","hist_area_km2": {"800": 0.45736,"825": 4.65339,"850": 17.04422,"875": 21.00252,"900": 23.16933,"925": 15.15242,"950": 11.7304,"975": 5.94418,"1000": 4.53267,"1025": 1.55068,"1050": 0.49704,"1075": 0.2187,"1100": 0.11929}}}