{"type":"Feature","properties":{"GID_3":"ZWE.4.3.22_2","GID_0":"ZWE","country":"Zimbabwe","GID_1":"ZWE.4_1","province":"MashonalandCentral","NL_NAME_1":"NA","GID_2":"ZWE.4.3_2","county":"Centenary/Muzarabani","NL_NAME_2":"NA","city":"Ward29","VARNAME_3":"NA","NL_NAME_3":"NA","TYPE_3":"Ward","ENGTYPE_3":"Ward","CC_3":"NA","HASC_3":"NA","name":"Ward29.city"},
"geometry":{"type": "MultiPolygon","coordinates": [[[[31.079,-16.5721,1032.7721],[31.0813,-16.5683,1003.111],[31.0821,-16.56,1006.2836],[31.0809,-16.5594,1017.2986],[31.0741,-16.5634,1030.42],[31.0704,-16.5629,999.3018],[31.0689,-16.5532,1026.3412],[31.063,-16.5541,1009.5154],[31.0584,-16.5528,984.0206],[31.0601,-16.5499,973.7195],[31.0582,-16.5488,964.9701],[31.0601,-16.5464,970.8082],[31.0559,-16.5439,952.567],[31.0533,-16.5389,977.9641],[31.0508,-16.5217,945.1378],[31.0416,-16.523,896.8231],[31.0382,-16.5211,907.4749],[31.0389,-16.5162,872.5872],[31.0364,-16.5137,884.5051],[31.0381,-16.512,885.9932],[31.0415,-16.5121,873.8068],[31.0429,-16.5097,881.3694],[31.0423,-16.5067,876.8157],[31.0466,-16.5049,850.8333],[31.0464,-16.5021,888.6519],[31.0433,-16.5022,902.2841],[31.0379,-16.4993,828.6624],[31.0327,-16.5004,863.3657],[31.0328,-16.4955,920.953],[31.0383,-16.4955,858.6437],[31.0384,-16.4938,885.1588],[31.0347,-16.4897,860.9432],[31.0271,-16.4896,790.0251],[31.0228,-16.4804,802.5823],[31.0214,-16.4832,752.9453],[31.0173,-16.482,778.5353],[31.013,-16.4854,730.7921],[31.0117,-16.4846,730.7921],[31.0166,-16.4772,696.174],[31.0209,-16.4774,764.7781],[31.0142,-16.4714,713.0851],[31.0166,-16.4643,621.2357],[31.0199,-16.4622,742.3531],[31.0164,-16.4614,717.4384],[31.011,-16.4643,583.4377],[31.0095,-16.4599,729.9065],[31.0019,-16.4588,543.6457],[31.0019,-16.4534,535.7054],[30.9986,-16.4534,577.6915],[30.9987,-16.4516,585.6359],[31.0042,-16.4487,512.2162],[31.0045,-16.4449,561.6174],[30.9968,-16.4457,605.6552],[30.9978,-16.44,581.6573],[31.0003,-16.4375,635.1714],[30.9911,-16.4327,481.0856],[30.9935,-16.4283,485.46],[30.9914,-16.4202,519.8901],[30.9953,-16.4162,427.7219],[30.9904,-16.4143,434.5079],[30.9817,-16.4147,453.6076],[30.9766,-16.4122,432.9117],[30.9699,-16.4138,446.7297],[30.9536,-16.4126,543.1554],[30.951,-16.4093,479.0983],[30.9369,-16.406,467.5138],[30.8936,-16.4033,499.8256],[30.8502,-16.3942,482.0637],[30.8325,-16.3957,480.1485],[30.8258,-16.3931,480.5657],[30.7969,-16.3936,474.8588],[30.7948,-16.3989,503.8658],[30.7985,-16.4116,577.7781],[30.7967,-16.4145,666.36],[30.7927,-16.4146,756.329],[30.7924,-16.4167,652.1806],[30.7938,-16.4207,654.5082],[30.7984,-16.4243,725.9794],[30.7949,-16.426,725.0008],[30.8023,-16.4311,736.0983],[30.7999,-16.4326,692.9335],[30.8007,-16.434,700.2859],[30.8069,-16.4337,763.3271],[30.8048,-16.4389,737.6304],[30.8092,-16.4386,736.8928],[30.8086,-16.4419,708.5171],[30.8112,-16.4406,736.66],[30.814,-16.4426,818.0029],[30.8096,-16.4483,721.3192],[30.8069,-16.4467,748.6929],[30.8064,-16.45,728.8945],[30.809,-16.4521,747.3951],[30.8061,-16.4517,742.3179],[30.8073,-16.4535,746.3174],[30.8056,-16.4542,746.3174],[30.8071,-16.4559,744.6729],[30.8032,-16.4566,782.4066],[30.8042,-16.4581,774.14],[30.8061,-16.4574,755.0209],[30.8061,-16.46,779.4949],[30.8036,-16.4618,797.9987],[30.8018,-16.459,799.0188],[30.7993,-16.4623,798.5072],[30.8046,-16.468,804.7112],[30.8072,-16.4671,845.9946],[30.8079,-16.4703,825.5653],[30.8057,-16.4701,803.1757],[30.8062,-16.4723,805.0316],[30.8034,-16.4735,823.104],[30.8035,-16.4754,816.1374],[30.8073,-16.4774,832.3333],[30.8075,-16.4801,823.8298],[30.8108,-16.4828,843.6127],[30.8121,-16.4902,847.4365],[30.8159,-16.4905,913.5613],[30.8157,-16.4935,866.7798],[30.8177,-16.4949,891.1058],[30.8162,-16.4968,872.89],[30.8177,-16.5023,895.1923],[30.8152,-16.5054,927.0181],[30.8169,-16.5066,960.3044],[30.8164,-16.5091,954.3406],[30.82,-16.5111,984.2466],[30.8219,-16.5162,989.9288],[30.8263,-16.5138,1078.9441],[30.8274,-16.5226,1028.4615],[30.8316,-16.5256,1099.6062],[30.8259,-16.5413,1224.5789],[30.825,-16.5519,1318.0836],[30.8477,-16.5595,1514.9451],[30.8013,-16.6103,1392.0837],[30.8172,-16.6085,1361.3158],[30.835,-16.6021,1378.1329],[30.8692,-16.6371,1403.5177],[30.8823,-16.6406,1513.3489],[30.9462,-16.6394,1480.7244],[30.9553,-16.6489,1519.9307],[30.9687,-16.6573,1678.3492],[30.9858,-16.6553,1348.9927],[31.0281,-16.6577,1226.3326],[31.0708,-16.6743,1083.5],[31.0685,-16.6679,1113.2648],[31.0735,-16.6649,1067.5886],[31.0724,-16.6605,1071.8333],[31.0744,-16.6563,1095.1418],[31.0869,-16.6444,1055.6732],[31.0871,-16.6416,1072.6516],[31.0895,-16.6407,1046.0417],[31.0915,-16.6369,1056.1592],[31.0965,-16.6334,1043.9758],[31.0937,-16.6257,1058.9927],[31.0873,-16.6205,1045.0221],[31.0865,-16.6132,1037.0354],[31.0919,-16.6037,1032.1792],[31.0915,-16.5986,1042.9124],[31.0873,-16.5945,1036.4656],[31.09,-16.5863,1049.9014],[31.0866,-16.5878,1026.6975],[31.0853,-16.5867,1026.6975],[31.0855,-16.581,1019.5551],[31.0875,-16.5794,1048.8099],[31.0766,-16.5767,1048.1108],[31.079,-16.5721,1032.7721]]]]}}