{"type":"Feature","properties":{"GID_3":"ZWE.4.4.17_2","GID_0":"ZWE","country":"Zimbabwe","GID_1":"ZWE.4_1","province":"MashonalandCentral","NL_NAME_1":"NA","GID_2":"ZWE.4.4_2","county":"Guruve","NL_NAME_2":"NA","city":"Ward24","VARNAME_3":"NA","NL_NAME_3":"NA","TYPE_3":"Ward","ENGTYPE_3":"Ward","CC_3":"NA","HASC_3":"NA","name":"Ward24.city"},
"geometry":{"type": "MultiPolygon","coordinates": [[[[30.4828,-16.4991,1038.2292],[30.4918,-16.4945,1057.3103],[30.4994,-16.4981,1079.7566],[30.5072,-16.4932,1129.4222],[30.5093,-16.4893,1197.5233],[30.5238,-16.48,1052.0103],[30.5434,-16.4689,946.5552],[30.5486,-16.4676,946.9833],[30.5449,-16.4644,935.0903],[30.5413,-16.4639,882.9731],[30.5378,-16.4579,882.5245],[30.5378,-16.4535,861.7538],[30.542,-16.4505,854.5054],[30.5466,-16.4511,858.4156],[30.5523,-16.4467,846.6347],[30.5516,-16.4419,817.6954],[30.5473,-16.4367,795.5623],[30.5499,-16.4318,794.3452],[30.5556,-16.4289,800.2115],[30.5551,-16.4239,771.2211],[30.5521,-16.4224,777.006],[30.5501,-16.4164,744.3508],[30.5584,-16.4071,705.1182],[30.5559,-16.4041,680.4],[30.5518,-16.4065,702.0262],[30.5487,-16.4021,668.5663],[30.5359,-16.4034,697.3562],[30.5396,-16.398,674.4893],[30.5324,-16.3939,665.8212],[30.533,-16.389,597.796],[30.5197,-16.3859,614.5253],[30.5223,-16.379,554.0858],[30.5219,-16.374,592.7922],[30.5204,-16.373,534.56],[30.5204,-16.367,512.3031],[30.5184,-16.365,531.9586],[30.519,-16.3616,538.7812],[30.5178,-16.3608,499.4095],[30.5069,-16.3607,967.8947],[30.5021,-16.3555,936.9389],[30.4924,-16.351,828.9935],[30.4831,-16.3545,791.1207],[30.4697,-16.3561,731.9645],[30.4631,-16.3559,816.1443],[30.4551,-16.3526,727.5229],[30.4421,-16.3503,852.3492],[30.433,-16.3516,903.5174],[30.4283,-16.3391,770.0089],[30.4198,-16.3391,399.4595],[30.4188,-16.3466,413.9399],[30.4216,-16.3509,493.8791],[30.4175,-16.3551,497.2441],[30.4276,-16.3715,451.154],[30.4307,-16.385,452.3656],[30.4367,-16.3903,528.2979],[30.4382,-16.3938,586.8411],[30.4351,-16.3978,565.8784],[30.4349,-16.4051,524.1881],[30.4333,-16.4081,517.9897],[30.4275,-16.4132,630.5031],[30.4234,-16.4232,542.3176],[30.418,-16.4256,760.1539],[30.4185,-16.4318,630.4434],[30.4113,-16.4342,611.8782],[30.4063,-16.4379,661.1338],[30.4064,-16.441,565.2099],[30.416,-16.4505,612.4631],[30.4134,-16.4546,612.126],[30.4136,-16.4615,595.8986],[30.4109,-16.4642,614.9406],[30.4176,-16.4703,721.7556],[30.4176,-16.4729,746.0563],[30.4203,-16.4741,829.7457],[30.4211,-16.4779,853.4896],[30.4254,-16.4772,868.5895],[30.4305,-16.4788,913.7188],[30.434,-16.483,927.9211],[30.4383,-16.4838,944.8975],[30.4534,-16.4772,1008.7057],[30.4569,-16.4799,1059.5994],[30.456,-16.4878,1019.2045],[30.4701,-16.491,1025.9197],[30.4728,-16.4933,1036.9218],[30.4811,-16.4942,1034.8208],[30.4828,-16.4991,1038.2292]]]]}}