{"type": "Feature","bbox": [28.1695,-17.744,28.3455,-17.5696],"geometry": {"type": "MultiPolygon","coordinates": [[[[28.1695,-17.7049,775.4761],[28.1761,-17.7038,727.948],[28.181,-17.7005,734.7239],[28.1873,-17.7029,723.0261],[28.1877,-17.6979,719.6393],[28.2033,-17.6871,717.5865],[28.2102,-17.6777,717.5659],[28.218,-17.6745,715.2421],[28.2334,-17.6731,716.5684],[28.2396,-17.6743,713.9644],[28.2426,-17.6794,718.0087],[28.2427,-17.6844,719.0232],[28.2404,-17.6882,721.7617],[28.2433,-17.6882,720.9026],[28.2437,-17.6944,725.2289],[28.2473,-17.6941,724.3921],[28.2451,-17.6998,727.1122],[28.2483,-17.7001,729.1245],[28.25,-17.7098,734.3624],[28.253,-17.7129,732.6022],[28.2524,-17.7208,744.6773],[28.259,-17.7223,740.4614],[28.2567,-17.7255,741.5768],[28.2577,-17.7302,746.5035],[28.2591,-17.7321,747.4039],[28.264,-17.733,747.5767],[28.2611,-17.7383,749.72],[28.2636,-17.744,751.598],[28.2732,-17.7334,752.0705],[28.3045,-17.7329,775.7737],[28.3143,-17.7266,795.3772],[28.3364,-17.7243,814.1874],[28.3389,-17.7193,797.9396],[28.3455,-17.7168,802.8457],[28.3369,-17.7083,787.4081],[28.3325,-17.699,778.9283],[28.333,-17.6968,777.5607],[28.327,-17.6926,769.8841],[28.3218,-17.683,756.6241],[28.3192,-17.6819,753.5841],[28.3209,-17.6682,743.9014],[28.3181,-17.6636,743.6335],[28.3158,-17.6552,739.7468],[28.3165,-17.6533,738.2659],[28.3134,-17.6465,732.4308],[28.3025,-17.6403,723.436],[28.3015,-17.636,726.7112],[28.298,-17.6346,723.5996],[28.2935,-17.6289,718.868],[28.2874,-17.6244,715.7667],[28.2846,-17.6249,711.5553],[28.2802,-17.6211,715.2526],[28.2722,-17.6208,711.9755],[28.2705,-17.6244,708.3833],[28.2684,-17.6237,708.6199],[28.2653,-17.6271,707.2413],[28.2583,-17.6232,704.644],[28.2528,-17.6266,702.4243],[28.2501,-17.6166,700.4716],[28.2564,-17.6017,721.8004],[28.2554,-17.5969,733.6796],[28.2509,-17.5937,691.6944],[28.2502,-17.5905,718.8557],[28.2455,-17.5883,711.4883],[28.2424,-17.5828,701.0576],[28.2352,-17.5821,700.3736],[28.2377,-17.5751,714.9038],[28.2327,-17.5772,703.4918],[28.2292,-17.5765,690.2325],[28.2231,-17.5696,723.7223],[28.2214,-17.5735,680.6965],[28.2172,-17.5753,701.1854],[28.2185,-17.5763,683.7911],[28.2186,-17.5821,694.9608],[28.2127,-17.5911,748.9234],[28.2108,-17.5992,759.1064],[28.2039,-17.6102,771.2034],[28.2016,-17.6106,779.541],[28.1979,-17.6158,808.0564],[28.1957,-17.6474,940.7989],[28.197,-17.6577,917.4206],[28.1931,-17.6628,795.9727],[28.1948,-17.6665,843.4404],[28.1914,-17.6689,848.5793],[28.1901,-17.6736,837.8755],[28.181,-17.6794,859.8269],[28.1843,-17.6855,793.1779],[28.1823,-17.6946,829.0479],[28.1724,-17.6999,847.4236],[28.1695,-17.7049,775.4761]]]]}
,"properties": {"GID_3": "ZWE.10.2.1_2","GID_0": "ZWE","country": "Zimbabwe","GID_1": "ZWE.10_1","province": "Midlands","NL_NAME_1": "NA","GID_2": "ZWE.10.2_2","county": "GokweNorth","NL_NAME_2": "NA","city": "Ward1","VARNAME_3": "NA","NL_NAME_3": "NA","TYPE_3": "Ward","ENGTYPE_3": "Ward","CC_3": "NA","HASC_3": "NA","name": "Ward1.city","area_km2": 153.1758,"hist_schema_id": "Elevation0-9000","hist_area_km2": {"675": 0.7074,"700": 15.4379,"725": 41.6793,"750": 50.5008,"775": 18.9481,"800": 8.0811,"825": 5.2331,"850": 4.7887,"875": 3.3137,"900": 2.2226,"925": 1.5154,"950": 0.5658,"975": 0.1212,"1000": 0.0606}}}