{"type":"Feature","properties":{"GID_3":"ZWE.5.10.14_2","GID_0":"ZWE","country":"Zimbabwe","GID_1":"ZWE.5_1","province":"MashonalandEast","NL_NAME_1":"NA","GID_2":"ZWE.5.10_2","county":"Seke","NL_NAME_2":"NA","city":"Ward21","VARNAME_3":"NA","NL_NAME_3":"NA","TYPE_3":"Ward","ENGTYPE_3":"Ward","CC_3":"NA","HASC_3":"NA","name":"Ward21.city"},
"geometry":{"type": "MultiPolygon","coordinates": [[[[30.7477,-18.6421,1332.4131],[30.7699,-18.5704,1418.1302],[30.8205,-18.5656,1379.2937],[30.7946,-18.5365,1358.9913],[30.7667,-18.5327,1339.4707],[30.7662,-18.5707,1402.4008],[30.7039,-18.6343,1318.3313],[30.7052,-18.6364,1314.9126],[30.7091,-18.6347,1330.8448],[30.7089,-18.6371,1331.8767],[30.7069,-18.6382,1369.5],[30.7067,-18.6433,1409.9006],[30.7435,-18.6861,1501.1682],[30.7928,-18.6822,1368.2173],[30.7915,-18.673,1361.8711],[30.7743,-18.6769,1351.2162],[30.7723,-18.6559,1355.239],[30.746,-18.6601,1367.937],[30.7477,-18.6421,1332.4131]]]]}}