{"type":"Feature","properties":{"GID_3":"ZWE.3.6.7_2","GID_0":"ZWE","country":"Zimbabwe","GID_1":"ZWE.3_1","province":"Manicaland","NL_NAME_1":"NA","GID_2":"ZWE.3.6_2","county":"Mutare","NL_NAME_2":"NA","city":"Ward15","VARNAME_3":"NA","NL_NAME_3":"NA","TYPE_3":"Ward","ENGTYPE_3":"Ward","CC_3":"NA","HASC_3":"NA","name":"Ward15.city"},
"geometry":{"type": "MultiPolygon","coordinates": [[[[32.6585,-19.2119,1087.2031],[32.6605,-19.2166,1423.615],[32.6935,-19.1845,1372.843],[32.6955,-19.1351,1334.281],[32.7124,-19.1339,1645.9015],[32.6983,-19.0966,1470.5659],[32.6817,-19.0873,1175.0315],[32.6804,-19.0969,1146.3883],[32.6736,-19.1041,1153.4053],[32.6709,-19.1104,1140.8389],[32.6722,-19.1141,1130.5948],[32.6677,-19.1182,1118.356],[32.6648,-19.1183,1117.1072],[32.6587,-19.1242,1099.4883],[32.6583,-19.1348,1075.8315],[32.65,-19.1492,1049.097],[32.6486,-19.1572,999.2585],[32.6443,-19.1589,1042.5623],[32.6464,-19.1639,964.4793],[32.6444,-19.1656,975.6115],[32.6443,-19.1717,952.0766],[32.6405,-19.1752,1003.9769],[32.6585,-19.2119,1087.2031]]]]}}