{"type":"Feature","properties":{"GID_3":"ZWE.4.7.13_2","GID_0":"ZWE","country":"Zimbabwe","GID_1":"ZWE.4_1","province":"MashonalandCentral","NL_NAME_1":"NA","GID_2":"ZWE.4.7_2","county":"MountDarwin","NL_NAME_2":"NA","city":"Ward20","VARNAME_3":"NA","NL_NAME_3":"NA","TYPE_3":"Ward","ENGTYPE_3":"Ward","CC_3":"NA","HASC_3":"NA","name":"Ward20.city"},
"geometry":{"type": "MultiPolygon","coordinates": [[[[31.5028,-16.6025,981.0174],[31.4074,-16.6706,1002.0182],[31.4056,-16.6699,1002.9012],[31.4049,-16.6644,1004.4254],[31.4002,-16.6661,1005.0025],[31.3937,-16.6619,1005.1787],[31.3901,-16.6639,1005.7075],[31.3896,-16.6608,1008.7626],[31.3702,-16.6928,1010.0042],[31.3765,-16.695,994.0629],[31.3765,-16.6978,990.6603],[31.3869,-16.6986,984.1274],[31.3898,-16.7049,983.9553],[31.3934,-16.7021,970.188],[31.4024,-16.7029,960.3147],[31.4045,-16.7074,961.4496],[31.4027,-16.7137,950.16],[31.3962,-16.7133,973.5443],[31.3897,-16.7097,990.0624],[31.3818,-16.7149,1014.6689],[31.3731,-16.7148,1012.298],[31.3732,-16.7283,1048.5039],[31.383,-16.7317,1041.0365],[31.3811,-16.7531,957.2376],[31.3955,-16.7559,946.9645],[31.4021,-16.7594,962.5684],[31.4099,-16.7545,952.5534],[31.4125,-16.7496,942.7268],[31.4218,-16.7501,944.1523],[31.4269,-16.7482,940.6487],[31.4316,-16.7447,944.0175],[31.4306,-16.7383,933.7461],[31.4347,-16.7373,932.2046],[31.4383,-16.7403,944.3041],[31.4482,-16.7285,926.9282],[31.4528,-16.729,927.8323],[31.4595,-16.7261,927.4056],[31.462,-16.7321,929.9642],[31.4677,-16.7325,927.9668],[31.4552,-16.7109,991.9183],[31.5342,-16.659,949.4364],[31.5295,-16.6566,935.1922],[31.527,-16.6507,938.5498],[31.5262,-16.6415,949.5832],[31.5176,-16.6379,949.8531],[31.5169,-16.6344,950.603],[31.5132,-16.6325,963.5817],[31.5109,-16.6332,946.7477],[31.5075,-16.6283,960.9768],[31.5038,-16.6278,953.585],[31.5023,-16.6226,977.4349],[31.4992,-16.6229,970.3717],[31.4954,-16.6208,966.5749],[31.4971,-16.6186,977.8743],[31.502,-16.618,961.7261],[31.5012,-16.6089,966.5538],[31.5037,-16.6053,965.9359],[31.5028,-16.6025,981.0174]]]]}}