{"type":"Feature","properties":{"GID_3":"ZWE.10.7.8_2","GID_0":"ZWE","country":"Zimbabwe","GID_1":"ZWE.10_1","province":"Midlands","NL_NAME_1":"NA","GID_2":"ZWE.10.7_2","county":"Kwekwe","NL_NAME_2":"NA","city":"Ward16","VARNAME_3":"NA","NL_NAME_3":"NA","TYPE_3":"Ward","ENGTYPE_3":"Ward","CC_3":"NA","HASC_3":"NA","name":"Ward16.city"},
"geometry":{"type": "MultiPolygon","coordinates": [[[[29.0019,-18.6805,1134.8547],[29.011,-18.6896,1139.0557],[29.0191,-18.701,1151.2568],[29.0243,-18.6963,1182.1494],[29.2039,-18.7135,1253.4335],[29.2002,-18.6933,1204.4135],[29.1991,-18.6729,1178.679],[29.2035,-18.6698,1178.9888],[29.2122,-18.6672,1172.5212],[29.2164,-18.6609,1166.1102],[29.2176,-18.6552,1170.0868],[29.2209,-18.6528,1176.4376],[29.2169,-18.6349,1158.2161],[29.2203,-18.6291,1152.0813],[29.22,-18.6185,1144.6118],[29.2245,-18.6046,1118.1328],[29.218,-18.6061,1121.9012],[29.2069,-18.605,1127.9285],[29.2026,-18.6069,1122.1478],[29.1918,-18.6046,1118.8586],[29.129,-18.6129,1172.9783],[29.1255,-18.6334,1159.4194],[29.0019,-18.6805,1134.8547]]]]}}