{"type":"Feature","properties":{"GID_2":"ZWE.8.3_2","GID_0":"ZWE","country":"Zimbabwe","GID_1":"ZWE.8_1","province":"MatabelelandNorth","NL_NAME_1":"NA","county":"Hwange","VARNAME_2":"NA","NL_NAME_2":"NA","TYPE_2":"District","ENGTYPE_2":"District","CC_2":"NA","HASC_2":"NA","name":"Hwange.county"},
"geometry":{"type": "MultiPolygon","coordinates": [[[[25.9928,-19.0347,1038.6766],[25.9917,-19.0398,1036.4639],[25.9807,-19.0471,1037.5747],[25.9734,-19.0543,1037.8813],[25.9679,-19.0606,1037.2394],[25.9662,-19.0652,1036.2861],[25.9662,-19.0708,1036.1051],[25.9629,-19.0803,1035.0105],[25.9635,-19.0991,1035.4541],[25.966,-19.1066,1034.2374],[25.9697,-19.1122,1033.1384],[25.9756,-19.1296,1031.5117],[25.9953,-19.1491,1030.5581],[26.0422,-19.2075,993.2766],[26.0445,-19.2133,989.8118],[26.0444,-19.236,983.9045],[26.0565,-19.2499,982.8372],[26.0619,-19.2602,980.8523],[26.0717,-19.269,982.1519],[26.077,-19.2961,978.9038],[26.0912,-19.3216,977.9623],[26.0987,-19.3458,981.6228],[26.1102,-19.3621,979.321],[26.1273,-19.4254,974.1984],[26.1423,-19.4362,982.7275],[26.1417,-19.4463,983.074],[26.1482,-19.4651,984.1572],[26.15,-19.482,984.899],[26.1543,-19.4995,981.8085],[26.1591,-19.5055,976.0558],[26.161,-19.5194,971.816],[26.1692,-19.5413,964.0514],[26.1967,-19.5561,968.088],[26.2067,-19.5598,966.4766],[26.2153,-19.56,966.3418],[26.2405,-19.5803,961.9192],[26.2448,-19.5822,962.7391],[26.312,-19.5736,970.3107],[26.3258,-19.5914,968.4876],[26.3359,-19.5997,968.0673],[26.3502,-19.6087,967.6526],[26.3572,-19.611,967.8414],[26.3389,-19.6319,965.7399],[26.3335,-19.6438,962.6702],[26.3294,-19.6484,961.5829],[26.3291,-19.6632,956.377],[26.3389,-19.6645,958.6794],[26.3507,-19.6724,966.251],[26.3666,-19.6714,969.2996],[26.3869,-19.6665,969.7988],[26.3911,-19.6674,970.0667],[26.3965,-19.6814,965.8871],[26.4057,-19.6906,965.1045],[26.4104,-19.7022,959.2007],[26.4153,-19.7234,960.0527],[26.4318,-19.7406,955.2586],[26.4421,-19.7464,954.7831],[26.4528,-19.7499,955.9901],[26.4693,-19.751,959.064],[26.4923,-19.7552,950.0518],[26.5007,-19.7573,945.2711],[26.5114,-19.7652,942.9121],[26.5259,-19.7655,940.5778],[26.5367,-19.7747,940.6479],[26.5569,-19.7821,938.902],[26.5721,-19.7932,940.9979],[26.5793,-19.8055,941.7674],[26.5945,-19.8442,945.3368],[26.6163,-19.876,948.3395],[26.6227,-19.8786,949.1969],[26.6443,-19.8813,951.8071],[26.6748,-19.8882,953.4764],[26.6812,-19.8864,954.5875],[26.6989,-19.8871,959.8239],[26.7187,-19.8567,958.4022],[26.7443,-19.7696,960.6833],[26.7435,-19.7665,959.6077],[26.7583,-19.7525,962.3109],[26.7781,-19.6988,962.7371],[26.7856,-19.6715,963.3408],[26.8062,-19.6248,962.325],[26.8087,-19.6061,963.9071],[26.8235,-19.5719,961.049],[26.8235,-19.5688,960.2917],[26.8482,-19.5034,961.4393],[26.8476,-19.4997,960.4407],[26.8639,-19.4558,961.1353],[26.8638,-19.4526,960.4231],[26.8721,-19.4472,962.6987],[26.8705,-19.4431,963.2351],[26.8714,-19.4402,962.8083],[26.8689,-19.4349,960.3202],[26.8724,-19.431,962.6359],[26.8724,-19.4256,962.1984],[26.8755,-19.4207,962.1239],[26.8837,-19.4136,962.5803],[26.8878,-19.4028,963.2328],[26.8871,-19.3955,963.061],[26.8943,-19.3859,964.6281],[26.895,-19.3817,964.2285],[26.9084,-19.3675,966.9356],[26.9084,-19.3644,965.0077],[26.9241,-19.3487,965.3666],[26.9289,-19.3403,966.2604],[26.9345,-19.3406,967.0073],[26.9391,-19.3367,967.2013],[26.9421,-19.3382,967.8444],[26.9597,-19.3372,968.6055],[26.9653,-19.3339,970.7123],[26.9774,-19.3364,970.4263],[26.9836,-19.3336,970.8141],[26.9933,-19.3323,972.2873],[26.9904,-19.3291,975.7709],[26.9913,-19.3275,984.8679],[27.0,-19.3317,973.1786],[27.0089,-19.3326,973.5201],[27.0173,-19.3298,974.4596],[27.0305,-19.3286,974.8089],[27.061,-19.3225,987.8269],[27.0655,-19.3261,977.6866],[27.0677,-19.3224,987.9565],[27.0742,-19.3247,980.0552],[27.0883,-19.325,978.3636],[27.099,-19.3213,979.6264],[27.1017,-19.319,982.5966],[27.1065,-19.3184,981.239],[27.109,-19.3198,979.4944],[27.1121,-19.3172,981.353],[27.1193,-19.3195,985.0282],[27.1265,-19.3196,980.313],[27.1321,-19.3177,980.7012],[27.1346,-19.3147,986.1492],[27.1417,-19.3162,989.1445],[27.1537,-19.3145,989.0354],[27.1653,-19.3179,983.61],[27.1801,-19.3173,985.3179],[27.2046,-19.3234,986.4382],[27.2117,-19.3193,986.1793],[27.2259,-19.3177,988.162],[27.2308,-19.3142,990.1342],[27.2343,-19.3137,989.5939],[27.2345,-19.312,989.3862],[27.2313,-19.3089,990.4241],[27.2339,-19.3016,989.8368],[27.2336,-19.2934,990.673],[27.2433,-19.2835,992.7314],[27.2428,-19.2812,1006.6879],[27.2677,-19.2635,1007.9117],[27.2788,-19.2627,995.0487],[27.2799,-19.2549,995.1829],[27.2787,-19.2529,998.3603],[27.2801,-19.2506,1006.2617],[27.2913,-19.2408,1002.3602],[27.3,-19.2355,1002.9648],[27.303,-19.2358,999.3399],[27.3062,-19.2334,1005.4781],[27.3068,-19.2368,996.9382],[27.3091,-19.2364,998.9318],[27.3218,-19.2294,998.9286],[27.3238,-19.2269,1004.7352],[27.3413,-19.2259,1006.3253],[27.3495,-19.228,1003.6856],[27.3539,-19.225,1006.8102],[27.357,-19.2248,1003.5258],[27.3584,-19.2163,1002.0495],[27.3749,-19.225,1003.5684],[27.3906,-19.2288,1006.8613],[27.3984,-19.2274,1004.6314],[27.4082,-19.219,1007.2365],[27.4184,-19.2135,1008.514],[27.4402,-19.2115,1011.3671],[27.4494,-19.217,1009.8019],[27.4532,-19.2172,1010.4041],[27.455,-19.2149,1008.0652],[27.4535,-19.2024,1009.9491],[27.4599,-19.1973,1012.5198],[27.4595,-19.19,1013.649],[27.4556,-19.1854,1012.5147],[27.4565,-19.1726,1012.7173],[27.4526,-19.1602,1014.0498],[27.4492,-19.1546,1014.5999],[27.4441,-19.1513,1013.2319],[27.4429,-19.1465,1012.71],[27.4455,-19.1417,1014.9425],[27.4454,-19.1344,1015.1368],[27.4476,-19.131,1016.8237],[27.4453,-19.1258,1015.0186],[27.4665,-19.0981,1018.9202],[27.4683,-19.0981,1018.9938],[27.2831,-18.9558,1035.3464],[27.3664,-18.86,1038.462],[27.3363,-18.8056,1038.8562],[27.2427,-18.7828,1044.4657],[27.1816,-18.7776,1043.8876],[27.1534,-18.7612,1048.177],[27.157,-18.7317,1038.0518],[27.1415,-18.7334,1047.9834],[27.036,-18.6659,1078.8174],[27.0742,-18.5986,1040.3948],[27.1033,-18.588,980.5797],[27.1139,-18.5901,965.0977],[27.1182,-18.587,977.913],[27.1223,-18.5904,957.4784],[27.1258,-18.5889,971.5408],[27.1288,-18.5911,976.5954],[27.1312,-18.5896,990.7643],[27.136,-18.5903,922.9233],[27.1367,-18.5859,925.468],[27.1403,-18.5803,927.609],[27.1352,-18.571,911.2415],[27.1358,-18.5636,916.3945],[27.1407,-18.5594,913.3895],[27.1478,-18.5574,907.6467],[27.1481,-18.5476,908.9833],[27.1575,-18.5404,897.743],[27.1666,-18.5276,897.0602],[27.1769,-18.5215,898.393],[27.1809,-18.5116,887.7064],[27.1863,-18.5086,908.4548],[27.1928,-18.5108,890.7358],[27.2125,-18.5009,897.5219],[27.2227,-18.4988,898.0225],[27.2355,-18.4835,923.8591],[27.2376,-18.474,943.2312],[27.2391,-18.4516,971.9117],[27.2527,-18.4421,972.0203],[27.2704,-18.4376,965.3896],[27.2774,-18.4338,967.2922],[27.2981,-18.434,999.706],[27.2962,-18.4278,992.4094],[27.2969,-18.4242,999.39],[27.2922,-18.4091,1019.1021],[27.2921,-18.3992,1031.1265],[27.2944,-18.3879,1019.0709],[27.2936,-18.3847,1015.1559],[27.2877,-18.3829,1013.0308],[27.2766,-18.3824,996.1744],[27.2703,-18.378,988.9445],[27.2622,-18.3755,985.533],[27.2697,-18.3626,970.4871],[27.2691,-18.3419,948.5262],[27.2511,-18.346,1023.9166],[27.2463,-18.349,1023.0945],[27.2413,-18.3464,1007.8962],[27.2322,-18.3501,999.6383],[27.2179,-18.3504,986.7391],[27.2088,-18.3534,985.5984],[27.2023,-18.3526,987.5437],[27.196,-18.347,990.0011],[27.1921,-18.3378,982.616],[27.1886,-18.3343,989.1319],[27.1701,-18.3277,994.6675],[27.1666,-18.3225,985.2618],[27.1594,-18.3243,990.3578],[27.1564,-18.3231,993.5271],[27.1478,-18.2996,962.183],[27.131,-18.3009,965.6113],[27.1295,-18.303,979.4287],[27.1266,-18.3014,972.9973],[27.122,-18.3026,962.9089],[27.1182,-18.3009,957.7461],[27.1165,-18.2977,952.2998],[27.1177,-18.2849,946.3918],[27.1244,-18.276,939.821],[27.1209,-18.2629,939.71],[27.1251,-18.2483,927.0772],[27.1221,-18.2449,933.9035],[27.1193,-18.2347,1011.7673],[27.1104,-18.2356,1021.436],[27.0841,-18.2316,1002.6685],[27.0742,-18.2334,980.9548],[27.0631,-18.2314,988.9515],[27.0571,-18.2337,986.0912],[27.0528,-18.2242,938.3781],[27.0437,-18.2259,934.6774],[27.0419,-18.2152,933.8469],[27.0194,-18.2187,932.343],[27.0001,-18.217,886.8334],[26.9882,-18.2194,821.9397],[26.9842,-18.2137,799.496],[26.965,-18.206,726.5721],[26.9576,-18.1863,705.0508],[26.9722,-18.1698,700.5763],[26.9711,-18.1585,704.5271],[26.869,-18.1605,576.1531],[26.8642,-18.15,602.5314],[26.8531,-18.1463,522.4501],[26.8527,-18.1407,569.0808],[26.8624,-18.1264,513.4924],[26.8645,-18.1194,513.0428],[26.8636,-18.1057,513.4794],[26.8676,-18.0983,513.8256],[26.8668,-18.0881,522.0549],[26.871,-18.0826,564.1306],[26.8873,-18.0739,517.842],[26.8901,-18.07,505.6201],[26.8902,-18.0628,621.4637],[26.8872,-18.0569,532.4971],[26.8881,-18.0458,659.0483],[26.8841,-18.0403,579.2594],[26.8913,-18.0354,526.4701],[26.8866,-18.0311,523.2791],[26.8865,-18.0191,587.049],[26.882,-18.0123,507.2735],[26.8817,-18.0091,515.9441],[26.9065,-18.0007,488.9768],[26.9124,-17.9961,514.2567],[26.9213,-17.9949,533.7073],[26.9236,-17.9927,485.8282],[26.924,-17.9873,514.309],[26.9274,-17.9816,501.3788],[26.9234,-17.975,536.2179],[26.9298,-17.9729,567.9158],[26.9101,-17.9774,610.5792],[26.8905,-17.9862,664.0149],[26.884,-17.9872,483.5],[26.8667,-17.9846,541.6547],[26.8596,-17.9911,487.3454],[26.8478,-17.9928,483.5],[26.8341,-17.9895,483.5],[26.8262,-17.9901,491.4743],[26.8179,-17.9973,531.675],[26.8008,-18.0255,484.0],[26.7873,-18.0294,491.0515],[26.7709,-18.0367,578.9644],[26.753,-18.0412,560.6029],[26.749,-18.0465,572.9749],[26.7377,-18.0543,581.3503],[26.7178,-18.0774,512.4672],[26.7108,-18.0792,545.3471],[26.6976,-18.0783,505.6772],[26.6842,-18.0734,484.0],[26.6789,-18.0686,485.25],[26.6626,-18.0638,488.3076],[26.6471,-18.0547,490.0679],[26.6148,-18.0547,492.8408],[26.6031,-18.0503,497.1479],[26.5951,-18.0491,505.8372],[26.5868,-18.0424,521.088],[26.5834,-18.0239,520.2802],[26.5785,-18.0127,531.3118],[26.5669,-17.9972,576.2404],[26.554,-17.9858,550.7184],[26.5449,-17.984,558.0909],[26.5052,-17.9841,768.0824],[26.4895,-17.9823,576.903],[26.4573,-17.962,631.8542],[26.4327,-17.9533,521.8677],[26.4125,-17.9416,579.7272],[26.3992,-17.9359,534.2256],[26.3676,-17.9331,605.4941],[26.3485,-17.929,535.2988],[26.3301,-17.9289,776.0735],[26.309,-17.9316,770.7761],[26.2977,-17.928,616.0924],[26.2909,-17.921,591.4529],[26.2817,-17.9153,664.671],[26.2706,-17.9132,597.0485],[26.2586,-17.9126,734.6322],[26.2505,-17.9143,603.0796],[26.2381,-17.9131,655.0193],[26.2304,-17.9083,704.3242],[26.228,-17.9048,734.3051],[26.2234,-17.8974,560.8306],[26.2204,-17.8858,576.2475],[26.2152,-17.8817,662.9901],[26.2092,-17.8805,611.407],[26.1793,-17.8994,808.1013],[26.1454,-17.914,752.3062],[26.1009,-17.9211,775.4219],[26.0926,-17.9252,819.9478],[26.0899,-17.9321,667.3171],[26.0903,-17.937,655.7844],[26.1018,-17.942,853.8207],[26.1035,-17.9447,654.2287],[26.1026,-17.9481,721.0862],[26.0976,-17.9536,831.9694],[26.0918,-17.9673,723.1852],[26.0827,-17.9739,809.4977],[26.0724,-17.976,814.4866],[26.0636,-17.9758,832.4908],[26.0377,-17.9691,850.3956],[26.0278,-17.972,859.14],[26.0094,-17.9707,883.4324],[25.9916,-17.98,760.2292],[25.9857,-17.9857,855.7697],[25.979,-17.9965,758.0118],[25.9734,-17.9977,756.2091],[25.9567,-17.9915,849.3423],[25.941,-17.9924,715.7668],[25.9197,-17.9896,884.225],[25.9102,-17.986,705.231],[25.902,-17.9782,876.558],[25.8829,-17.9752,736.138],[25.8783,-17.9722,891.9161],[25.8599,-17.9683,746.4825],[25.8562,-17.9631,859.4069],[25.8533,-17.9443,810.3292],[25.8497,-17.9389,848.0521],[25.8368,-17.9482,912.6719],[25.8302,-17.9596,907.0279],[25.8134,-17.9688,906.0785],[25.81,-17.9737,914.434],[25.8095,-17.9252,961.7039],[25.8173,-17.9092,906.5426],[25.8203,-17.8977,888.1271],[25.8212,-17.8849,886.3411],[25.8104,-17.8831,885.0],[25.8007,-17.8772,891.8144],[25.774,-17.8505,887.5],[25.7612,-17.8421,897.4648],[25.7514,-17.8406,898.2846],[25.7471,-17.8416,900.1606],[25.7375,-17.8369,900.2004],[25.7227,-17.8349,904.5982],[25.7054,-17.83,901.1444],[25.699,-17.824,894.5],[25.6962,-17.8117,894.5],[25.6886,-17.8042,904.7676],[25.6794,-17.8036,906.1669],[25.6735,-17.8052,905.6002],[25.6545,-17.8171,906.7015],[25.642,-17.8274,905.1812],[25.6181,-17.8354,904.2226],[25.5761,-17.8347,903.3456],[25.5578,-17.8313,910.1588],[25.5493,-17.8338,912.0297],[25.5368,-17.8478,906.0],[25.5275,-17.8534,913.509],[25.5131,-17.8543,914.5758],[25.4738,-17.8403,918.8883],[25.4628,-17.8384,920.5278],[25.4451,-17.841,918.367],[25.403,-17.8389,930.0562],[25.3943,-17.8366,922.5259],[25.3897,-17.8332,925.4495],[25.3837,-17.8331,924.1781],[25.3823,-17.83,931.7076],[25.3792,-17.8285,928.0044],[25.3579,-17.8305,923.0659],[25.3433,-17.8295,921.9642],[25.3219,-17.8193,922.2154],[25.3148,-17.8101,922.3177],[25.2677,-17.7825,930.4977],[25.2655,-17.7899,922.1616],[25.2687,-17.7891,928.7136],[25.2719,-17.7937,923.7793],[25.2703,-17.7989,921.3364],[25.2639,-17.7995,925.0067],[25.2648,-17.8161,930.2044],[25.2392,-17.8732,960.8298],[25.2405,-17.89,981.235],[25.2426,-17.8971,993.5704],[25.2377,-17.9095,1002.7203],[25.2525,-17.9373,1019.6264],[25.2594,-17.9442,1027.0695],[25.2656,-17.9466,1027.1945],[25.2686,-17.9516,1040.9407],[25.2824,-17.9869,1052.2397],[25.281,-17.9926,1052.4183],[25.2821,-18.0055,1052.2645],[25.2915,-18.0286,1052.606],[25.3043,-18.0487,1053.0759],[25.3166,-18.0621,1054.3418],[25.3221,-18.0776,1057.3938],[25.3336,-18.0799,1057.0526],[25.3393,-18.0836,1057.951],[25.3627,-18.0919,1061.84],[25.366,-18.0972,1061.3931],[25.3658,-18.1089,1061.2794],[25.3687,-18.1135,1059.2898],[25.3728,-18.1164,1055.8074],[25.3885,-18.1171,1056.6317],[25.3949,-18.1203,1057.875],[25.4192,-18.1557,1073.776],[25.4247,-18.1653,1076.8458],[25.4281,-18.1776,1077.871],[25.4445,-18.2021,1079.9407],[25.4451,-18.2102,1079.0973],[25.4479,-18.2168,1078.1389],[25.4561,-18.2241,1080.7767],[25.4614,-18.2349,1074.7605],[25.4666,-18.2581,1071.5245],[25.4901,-18.2961,1071.9468],[25.496,-18.3123,1069.9241],[25.5006,-18.315,1070.0068],[25.5179,-18.3595,1061.5815],[25.518,-18.3701,1062.51],[25.5214,-18.3792,1063.4329],[25.575,-18.4323,1074.9077],[25.5821,-18.4453,1060.4943],[25.6046,-18.4752,1060.7266],[25.6194,-18.4853,1065.4211],[25.642,-18.4912,1038.5518],[25.649,-18.4952,1041.9758],[25.6516,-18.4994,1038.0],[25.6539,-18.5122,1047.0769],[25.6569,-18.5175,1053.498],[25.6658,-18.5256,1054.4414],[25.6739,-18.5454,1062.5015],[25.6817,-18.5578,1067.6542],[25.6915,-18.5693,1075.5281],[25.7197,-18.5906,1105.6497],[25.7336,-18.5927,1103.1682],[25.7596,-18.6031,1105.412],[25.7662,-18.6105,1097.0671],[25.7756,-18.6156,1090.2322],[25.7784,-18.6205,1087.7925],[25.783,-18.623,1082.7021],[25.7878,-18.6339,1071.5714],[25.7909,-18.6609,1062.9678],[25.7973,-18.6718,1056.0369],[25.7985,-18.6776,1062.874],[25.8041,-18.6838,1060.8119],[25.8034,-18.6864,1058.9976],[25.7974,-18.6898,1063.24],[25.7918,-18.6964,1069.531],[25.7935,-18.7061,1083.1084],[25.7911,-18.7178,1086.8068],[25.7967,-18.7505,1078.1401],[25.8072,-18.7887,1066.4419],[25.8195,-18.8038,1068.5627],[25.8233,-18.8194,1069.1404],[25.8222,-18.8262,1071.1288],[25.8261,-18.8349,1073.3298],[25.8377,-18.8423,1077.2498],[25.8466,-18.8444,1087.1046],[25.8551,-18.8526,1084.5719],[25.8637,-18.8534,1071.7548],[25.8743,-18.8592,1069.2421],[25.8944,-18.8766,1072.7654],[25.9239,-18.8962,1069.2688],[25.9391,-18.8988,1068.4558],[25.9502,-18.9077,1069.9141],[25.9682,-18.9377,1061.2168],[25.9712,-18.9497,1055.5753],[25.9864,-18.9755,1051.3289],[25.9872,-18.9859,1047.1133],[25.9967,-19.0252,1038.6725],[25.9965,-19.0308,1037.3655],[25.9928,-19.0347,1038.6766]],
[[26.4493,-18.3119,698.3759],[26.4521,-18.3149,717.215],[26.4731,-18.315,718.3129],[26.5166,-18.2502,644.8845],[26.515,-18.2435,646.9791],[26.5552,-18.2025,654.8887],[26.5714,-18.1913,656.5385],[26.5809,-18.1948,588.9507],[26.5885,-18.1947,577.5186],[26.5661,-18.2103,624.5394],[26.5336,-18.2463,650.1748],[26.5326,-18.2619,700.4921],[26.5466,-18.2775,782.301],[26.546,-18.3405,747.7191],[26.5457,-18.3431,754.2695],[26.5427,-18.3446,756.8323],[26.5466,-18.3509,745.3373],[26.5465,-18.3565,746.5991],[26.5513,-18.3629,749.2742],[26.5483,-18.3702,774.6859],[26.5484,-18.3795,770.0823],[26.5454,-18.3836,785.7241],[26.5419,-18.404,798.6404],[26.5363,-18.4096,813.43],[26.5367,-18.4139,803.1473],[26.534,-18.4183,807.3829],[26.528,-18.4199,820.2264],[26.5247,-18.4228,829.7659],[26.5224,-18.433,814.0623],[26.5156,-18.4404,808.4972],[26.5155,-18.4458,809.3508],[26.506,-18.4514,821.1182],[26.5035,-18.4513,821.4004],[26.4994,-18.4445,833.303],[26.4841,-18.4464,900.3673],[26.3929,-18.4839,923.6328],[26.3527,-18.3947,765.6665],[26.3842,-18.372,717.1582],[26.4186,-18.3421,707.437],[26.4124,-18.3377,697.8002],[26.4198,-18.3301,703.2043],[26.4299,-18.3245,734.134],[26.4389,-18.3238,701.4745],[26.4418,-18.3215,703.5325],[26.4432,-18.3146,706.0823],[26.4493,-18.3119,698.3759]]]]}}