{"type":"Feature","properties":{"GID_3":"ZWE.10.13.8_2","GID_0":"ZWE","country":"Zimbabwe","GID_1":"ZWE.10_1","province":"Midlands","NL_NAME_1":"NA","GID_2":"ZWE.10.13_2","county":"Zvishavane","NL_NAME_2":"NA","city":"Ward16","VARNAME_3":"NA","NL_NAME_3":"NA","TYPE_3":"Ward","ENGTYPE_3":"Ward","CC_3":"NA","HASC_3":"NA","name":"Ward16.city"},
"geometry":{"type": "MultiPolygon","coordinates": [[[[30.2555,-20.3499,801.3356],[30.2513,-20.3507,807.0605],[30.2472,-20.3488,811.7294],[30.2456,-20.3503,808.0272],[30.2393,-20.3471,813.4623],[30.2387,-20.3483,808.181],[30.2423,-20.3541,813.7245],[30.2416,-20.3559,809.0507],[30.2307,-20.3564,817.3871],[30.2234,-20.3601,817.1306],[30.2125,-20.3605,822.75],[30.2098,-20.3667,819.5373],[30.2046,-20.3681,820.2371],[30.205,-20.3735,823.3419],[30.1992,-20.3819,826.8335],[30.212,-20.4016,858.3958],[30.2172,-20.406,851.4821],[30.233,-20.412,842.3023],[30.237,-20.418,831.7006],[30.2398,-20.4172,827.7795],[30.2418,-20.414,830.9601],[30.2506,-20.413,822.899],[30.253,-20.4159,822.3043],[30.2572,-20.417,816.2853],[30.2663,-20.4084,809.789],[30.2662,-20.4118,809.5237],[30.268,-20.4134,809.9625],[30.2653,-20.4193,811.867],[30.258,-20.4247,818.5559],[30.2572,-20.4272,817.7844],[30.2539,-20.4294,822.7182],[30.2521,-20.4288,822.7182],[30.2505,-20.4311,823.8853],[30.2557,-20.4349,828.6998],[30.2656,-20.4376,825.9543],[30.2681,-20.4426,829.386],[30.2736,-20.4368,827.7078],[30.2751,-20.443,834.7056],[30.2783,-20.4449,836.9447],[30.2937,-20.4301,822.1221],[30.2997,-20.4339,834.402],[30.3067,-20.4445,857.7818],[30.3286,-20.4432,876.1096],[30.3288,-20.4473,873.6479],[30.3325,-20.4526,905.3943],[30.3325,-20.4616,916.778],[30.3422,-20.4804,1096.2],[30.3509,-20.4791,950.3806],[30.3563,-20.4721,909.7589],[30.3574,-20.4674,889.5798],[30.3738,-20.4402,765.2011],[30.3643,-20.4274,762.5217],[30.3602,-20.4161,790.2662],[30.358,-20.4155,782.2671],[30.3524,-20.4199,779.9016],[30.3452,-20.4231,780.2138],[30.3391,-20.4181,782.0774],[30.3227,-20.3964,783.9068],[30.3183,-20.3876,788.3976],[30.3201,-20.3713,790.9147],[30.3138,-20.3649,819.8743],[30.2868,-20.3566,793.3686],[30.2819,-20.357,801.4059],[30.2739,-20.3538,804.324],[30.2615,-20.3536,801.1833],[30.2555,-20.3499,801.3356]]]]}}