{"type": "Feature","bbox": [30.9945,-18.0203,31.053,-17.9935],"geometry": {"type": "MultiPolygon","coordinates": [[[[31.0527,-18.0093,1432.8971],[31.0512,-18.0055,1439.9873],[31.053,-18.0019,1441.2528],[31.0484,-17.9987,1432.7318],[31.0455,-18.0035,1430.7036],[31.0349,-18.0032,1417.9459],[31.0226,-17.9935,1385.363],[31.0208,-17.9963,1385.9646],[31.0206,-18.0025,1386.1382],[31.0168,-18.0034,1391.5374],[31.0095,-18.0006,1388.2441],[31.0072,-17.9979,1384.0964],[31.0046,-17.9996,1388.1437],[30.9945,-18.0009,1388.6193],[30.9992,-18.0058,1385.7084],[31.0026,-18.0055,1383.385],[31.0028,-18.0116,1386.0869],[31.0054,-18.0122,1382.5947],[31.0071,-18.0146,1387.1626],[31.0096,-18.0128,1383.1799],[31.0118,-18.0155,1389.3639],[31.0184,-18.0129,1384.3337],[31.0253,-18.0181,1389.2844],[31.034,-18.0203,1389.3256],[31.0393,-18.0173,1403.4995],[31.0424,-18.0133,1418.9634],[31.0527,-18.0093,1432.8971]]]]}
,"properties": {"GID_3": "ZWE.2.1.22_2","GID_0": "ZWE","country": "Zimbabwe","GID_1": "ZWE.2_1","province": "Harare","NL_NAME_1": "NA","GID_2": "ZWE.2.1_2","county": "Chitungwiza","NL_NAME_2": "NA","city": "Ward6","VARNAME_3": "NA","NL_NAME_3": "NA","TYPE_3": "Ward","ENGTYPE_3": "Ward","CC_3": "NA","HASC_3": "NA","name": "Ward6.city","area_km2": 8.771172,"hist_schema_id": "Elevation0-9000","hist_area_km2": {"1375": 1.8752,"1400": 4.597311,"1425": 2.157512,"1450": 0.141149}}}