{"type":"Feature","properties":{"GID_3":"ZWE.7.2.18_2","GID_0":"ZWE","country":"Zimbabwe","GID_1":"ZWE.7_1","province":"Masvingo","NL_NAME_1":"NA","GID_2":"ZWE.7.2_2","county":"Chiredzi","NL_NAME_2":"NA","city":"Ward25","VARNAME_3":"NA","NL_NAME_3":"NA","TYPE_3":"Ward","ENGTYPE_3":"Ward","CC_3":"NA","HASC_3":"NA","name":"Ward25.city"},
"geometry":{"type": "MultiPolygon","coordinates": [[[[32.0372,-20.9035,423.7226],[32.0342,-20.9044,405.8828],[32.0641,-20.9805,427.8176],[32.079,-20.9679,414.0463],[32.0876,-20.9631,408.2614],[32.0945,-20.9674,405.2876],[32.1132,-20.9673,396.8682],[32.1247,-20.9611,389.1165],[32.1293,-20.9533,383.9004],[32.1401,-20.9417,377.5732],[32.1344,-20.9414,379.5547],[32.1244,-20.9338,380.5778],[32.1227,-20.9295,387.4359],[32.1063,-20.9224,387.432],[32.0945,-20.9242,388.0115],[32.0819,-20.9215,391.2071],[32.0512,-20.9194,409.6058],[32.0469,-20.9169,407.1045],[32.0424,-20.908,430.9406],[32.0372,-20.9035,423.7226]]]]}}