{"type":"Feature","properties":{"GID_3":"ZWE.4.3.18_2","GID_0":"ZWE","country":"Zimbabwe","GID_1":"ZWE.4_1","province":"MashonalandCentral","NL_NAME_1":"NA","GID_2":"ZWE.4.3_2","county":"Centenary/Muzarabani","NL_NAME_2":"NA","city":"Ward25","VARNAME_3":"NA","NL_NAME_3":"NA","TYPE_3":"Ward","ENGTYPE_3":"Ward","CC_3":"NA","HASC_3":"NA","name":"Ward25.city"},
"geometry":{"type": "MultiPolygon","coordinates": [[[[31.2245,-16.4926,1210.3945],[31.222,-16.502,1266.8512],[31.2225,-16.5055,1263.7109],[31.2258,-16.507,1258.2786],[31.2326,-16.52,1241.0758],[31.1958,-16.5269,1328.4706],[31.1976,-16.5473,1233.1733],[31.2053,-16.5549,1274.6271],[31.2152,-16.5775,1254.2592],[31.2503,-16.5618,1197.264],[31.2523,-16.5666,1172.9519],[31.2543,-16.5679,1192.2355],[31.2541,-16.5713,1151.6527],[31.2571,-16.5718,1157.3765],[31.2593,-16.5748,1137.3545],[31.2629,-16.5759,1156.0963],[31.2642,-16.5827,1123.627],[31.2677,-16.5819,1145.6648],[31.2717,-16.5838,1126.2341],[31.3044,-16.5558,1244.7988],[31.2816,-16.5406,1212.5327],[31.3032,-16.523,1225.5269],[31.2779,-16.5083,1273.5929],[31.2992,-16.4904,1205.5267],[31.2989,-16.4862,1227.2427],[31.2879,-16.478,1235.6486],[31.2245,-16.4926,1210.3945]]]]}}