{"type": "Feature","bbox": [30.8293,-19.6192,30.9402,-19.4887],"geometry": {"type": "MultiPolygon","coordinates": [[[[30.9124,-19.5914,1378.6622],[30.9402,-19.5521,1369.6652],[30.9362,-19.5469,1359.7511],[30.9347,-19.5414,1360.4897],[30.938,-19.5354,1400.5131],[30.9348,-19.5307,1371.0713],[30.9365,-19.5224,1372.4021],[30.9141,-19.5122,1432.666],[30.9005,-19.4998,1447.3922],[30.8884,-19.5034,1472.7684],[30.8715,-19.4887,1485.6898],[30.8675,-19.4966,1495.6656],[30.8574,-19.4983,1497.843],[30.85,-19.5016,1489.8998],[30.8293,-19.5812,1422.522],[30.8675,-19.5897,1392.0958],[30.8799,-19.6192,1359.9917],[30.8936,-19.6174,1368.2998],[30.9124,-19.5914,1378.6622]]]]}
,"properties": {"GID_3": "ZWE.7.5.39_2","GID_0": "ZWE","country": "Zimbabwe","GID_1": "ZWE.7_1","province": "Masvingo","NL_NAME_1": "NA","GID_2": "ZWE.7.5_2","county": "Gutu","NL_NAME_2": "NA","city": "Ward6","VARNAME_3": "NA","NL_NAME_3": "NA","TYPE_3": "Ward","ENGTYPE_3": "Ward","CC_3": "NA","HASC_3": "NA","name": "Ward6.city","area_km2": 101.47706,"hist_schema_id": "Elevation0-9000","hist_area_km2": {"1350": 1.05873,"1375": 18.25845,"1400": 24.77247,"1425": 22.59703,"1450": 18.26322,"1475": 12.68987,"1500": 3.83728}}}