{"type":"Feature","properties":{"GID_3":"ZWE.5.2.21_2","GID_0":"ZWE","country":"Zimbabwe","GID_1":"ZWE.5_1","province":"MashonalandEast","NL_NAME_1":"NA","GID_2":"ZWE.5.2_2","county":"Goromonzi","NL_NAME_2":"NA","city":"Ward5","VARNAME_3":"NA","NL_NAME_3":"NA","TYPE_3":"Ward","ENGTYPE_3":"Ward","CC_3":"NA","HASC_3":"NA","name":"Ward5.city"},
"geometry":{"type": "MultiPolygon","coordinates": [[[[31.0647,-17.5439,1481.2316],[31.0918,-17.5727,1402.4318],[31.1214,-17.5609,1438.0157],[31.1218,-17.5651,1427.5027],[31.1185,-17.5719,1451.0745],[31.116,-17.5845,1449.3804],[31.1483,-17.5925,1507.4883],[31.1581,-17.5757,1462.8831],[31.1608,-17.5754,1468.9559],[31.1582,-17.5708,1457.609],[31.1513,-17.5727,1504.335],[31.1455,-17.5703,1548.2792],[31.1429,-17.5717,1526.1287],[31.1409,-17.556,1460.1497],[31.1312,-17.5482,1457.7268],[31.1261,-17.5401,1482.8191],[31.1225,-17.5398,1470.4092],[31.119,-17.5298,1348.1982],[31.1158,-17.5359,1365.2017],[31.1148,-17.5427,1369.1895],[31.0647,-17.5439,1481.2316]]]]}}