{"type": "Feature","bbox": [29.7599,-19.4693,29.7773,-19.4603],"geometry": {"type": "MultiPolygon","coordinates": [[[[29.7773,-19.4666,1426.3794],[29.7753,-19.4625,1425.5532],[29.7726,-19.4635,1430.8159],[29.7709,-19.4603,1424.9427],[29.7599,-19.4658,1418.207],[29.7625,-19.4693,1418.7288],[29.7773,-19.4666,1426.3794]]]]}
,"properties": {"GID_3": "ZWE.10.6.18_2","GID_0": "ZWE","country": "Zimbabwe","GID_1": "ZWE.10_1","province": "Midlands","NL_NAME_1": "NA","GID_2": "ZWE.10.6_2","county": "GweruUrban","NL_NAME_2": "NA","city": "Ward9","VARNAME_3": "NA","NL_NAME_3": "NA","TYPE_3": "Ward","ENGTYPE_3": "Ward","CC_3": "NA","HASC_3": "NA","name": "Ward9.city","area_km2": 0.9995179,"hist_schema_id": "Elevation0-9000","hist_area_km2": {"1425": 0.939547,"1450": 0.0599709}}}