{"type":"Feature","properties":{"GID_3":"ZWE.10.11.6_2","GID_0":"ZWE","country":"Zimbabwe","GID_1":"ZWE.10_1","province":"Midlands","NL_NAME_1":"NA","GID_2":"ZWE.10.11_2","county":"Shurugwi","NL_NAME_2":"NA","city":"Ward14","VARNAME_3":"NA","NL_NAME_3":"NA","TYPE_3":"Ward","ENGTYPE_3":"Ward","CC_3":"NA","HASC_3":"NA","name":"Ward14.city"},
"geometry":{"type": "MultiPolygon","coordinates": [[[[30.2723,-19.5389,1274.1772],[30.2211,-19.5342,1295.5515],[30.2226,-19.5372,1284.4084],[30.2195,-19.5493,1267.7961],[30.2344,-19.563,1239.5154],[30.2364,-19.5687,1233.1554],[30.2223,-19.5827,1243.7292],[30.2163,-19.5853,1238.7418],[30.2142,-19.6012,1222.473],[30.2152,-19.6082,1198.4622],[30.2186,-19.6121,1186.09],[30.2224,-19.6128,1188.0067],[30.2276,-19.6189,1182.7305],[30.2296,-19.6243,1172.6428],[30.2263,-19.63,1171.7728],[30.229,-19.6342,1170.1047],[30.2281,-19.6383,1160.4661],[30.2428,-19.6489,1154.1201],[30.2486,-19.6512,1155.4653],[30.2507,-19.6575,1151.3746],[30.254,-19.6572,1149.6997],[30.2591,-19.6599,1147.5364],[30.2578,-19.6638,1141.7594],[30.2634,-19.6666,1135.735],[30.2702,-19.6661,1154.0549],[30.2695,-19.6791,1124.3789],[30.275,-19.682,1129.177],[30.2743,-19.616,1175.879],[30.2723,-19.5389,1274.1772]]]]}}