{"type": "Feature","bbox": [28.664,-18.1453,28.9146,-17.9336],"geometry": {"type": "MultiPolygon","coordinates": [[[[28.8093,-17.9336,892.1694],[28.8095,-17.9365,896.3942],[28.8059,-17.9408,876.1399],[28.8009,-17.9425,879.0702],[28.7988,-17.9456,861.0387],[28.7938,-17.9483,849.3948],[28.788,-17.9563,835.3721],[28.7795,-17.9605,826.9475],[28.7662,-17.9708,815.1834],[28.7584,-17.9716,813.6491],[28.7571,-17.969,811.2961],[28.7585,-17.9655,812.0699],[28.7549,-17.96,812.0099],[28.75,-17.9573,809.3017],[28.7473,-17.9587,808.8803],[28.7472,-17.9688,814.5108],[28.7428,-17.9712,814.7263],[28.7444,-17.976,824.8207],[28.7399,-17.9768,825.5813],[28.7363,-17.981,823.5815],[28.7297,-17.9832,830.3541],[28.7281,-17.9907,833.183],[28.7257,-17.9894,835.1001],[28.7243,-17.9915,835.6125],[28.7213,-17.991,841.8934],[28.7263,-17.9997,841.6882],[28.7203,-18.0075,851.1865],[28.7112,-18.0146,852.8766],[28.7061,-18.0162,861.7625],[28.7054,-18.0229,861.0727],[28.7085,-18.0243,864.0566],[28.7081,-18.028,865.4433],[28.7025,-18.0331,870.0053],[28.701,-18.0376,870.3713],[28.6923,-18.0421,878.798],[28.6957,-18.0453,880.4743],[28.6958,-18.0486,882.1406],[28.6845,-18.0615,896.387],[28.6859,-18.0623,896.387],[28.6857,-18.066,904.316],[28.6832,-18.0685,923.7733],[28.6862,-18.0693,917.6794],[28.6875,-18.0717,919.152],[28.6827,-18.0816,930.4156],[28.6798,-18.0792,943.225],[28.6782,-18.081,943.6405],[28.6795,-18.0843,936.9311],[28.6767,-18.0953,951.4426],[28.678,-18.1003,979.254],[28.6693,-18.1197,1017.8256],[28.6696,-18.1282,1032.7019],[28.6644,-18.1383,1084.4053],[28.664,-18.142,1073.0603],[28.6803,-18.1443,1045.2732],[28.695,-18.1423,1011.9279],[28.706,-18.1453,977.9858],[28.7128,-18.1406,964.2025],[28.7206,-18.1402,969.1401],[28.7307,-18.1364,944.6526],[28.7296,-18.1309,949.0637],[28.7314,-18.1297,936.761],[28.7349,-18.1304,929.0126],[28.734,-18.1252,936.6318],[28.7375,-18.1262,927.0335],[28.7456,-18.1201,922.8838],[28.7443,-18.1177,921.4665],[28.7462,-18.1149,923.9127],[28.7499,-18.1183,912.8438],[28.7524,-18.1066,903.6309],[28.755,-18.1035,910.0665],[28.7591,-18.1041,898.6728],[28.7614,-18.0989,892.8336],[28.766,-18.0952,887.215],[28.7648,-18.0905,886.9675],[28.7715,-18.0799,878.6757],[28.7697,-18.0788,879.2539],[28.7695,-18.0731,892.0934],[28.7712,-18.0712,884.6391],[28.7779,-18.0695,866.6151],[28.7772,-18.0654,883.1465],[28.7899,-18.0586,859.2753],[28.7977,-18.0512,850.1728],[28.7975,-18.0445,849.6335],[28.7942,-18.0443,846.4399],[28.794,-18.041,845.0394],[28.7928,-18.0409,845.2036],[28.7932,-18.0362,843.4919],[28.8022,-18.0215,836.7757],[28.8057,-18.0263,839.3135],[28.8053,-18.0284,839.6934],[28.8068,-18.0285,840.0395],[28.8069,-18.0266,839.3135],[28.8094,-18.0247,843.3754],[28.8124,-18.0286,844.0391],[28.8138,-18.0283,843.2766],[28.8132,-18.0256,843.9732],[28.8167,-18.027,855.4872],[28.8164,-18.031,845.3993],[28.8126,-18.0325,850.7872],[28.8162,-18.0347,849.8601],[28.8187,-18.0344,857.8549],[28.8196,-18.047,855.2385],[28.8212,-18.0517,857.0759],[28.8244,-18.0537,875.4783],[28.8232,-18.0557,862.9182],[28.8249,-18.0571,875.4933],[28.8274,-18.0566,881.8116],[28.8273,-18.059,875.4604],[28.8311,-18.0593,894.6786],[28.8366,-18.0633,905.6657],[28.8377,-18.0668,897.9872],[28.8391,-18.0665,902.5627],[28.8388,-18.0694,902.1644],[28.8434,-18.0714,925.1686],[28.8494,-18.0783,953.1074],[28.8542,-18.0936,1018.8692],[28.8534,-18.1024,1099.0659],[28.8545,-18.1022,1099.0659],[28.8564,-18.0959,1039.916],[28.8622,-18.0971,1117.8557],[28.8637,-18.096,1134.037],[28.863,-18.0945,1135.5619],[28.8573,-18.0924,1132.1134],[28.8553,-18.0881,1130.7881],[28.8569,-18.0816,1092.5061],[28.8549,-18.0776,1023.9905],[28.8579,-18.0772,1069.0831],[28.8588,-18.075,1101.3938],[28.8564,-18.0741,1012.4692],[28.8576,-18.0644,969.3552],[28.8609,-18.0641,1041.3032],[28.8614,-18.0697,1054.6837],[28.864,-18.0662,1018.5553],[28.8684,-18.0642,995.9579],[28.8745,-18.0643,992.9952],[28.8749,-18.0711,1125.7372],[28.873,-18.0753,1128.2123],[28.8756,-18.0757,1081.2164],[28.8776,-18.0818,1110.0986],[28.8781,-18.071,1087.6155],[28.8849,-18.074,1087.4844],[28.8836,-18.0704,1126.217],[28.8788,-18.0668,1098.5056],[28.879,-18.0591,1123.3463],[28.8739,-18.0583,1111.1863],[28.8726,-18.0558,1033.6124],[28.8737,-18.0535,1013.3765],[28.8777,-18.0551,1102.6676],[28.8807,-18.0538,1074.2798],[28.8748,-18.0484,1012.0086],[28.8786,-18.0444,1041.5439],[28.8788,-18.0387,1017.2334],[28.8808,-18.0359,1002.1066],[28.8854,-18.0349,1051.9048],[28.8863,-18.0324,1086.0623],[28.8895,-18.0307,1115.5497],[28.885,-18.0297,1017.4203],[28.8878,-18.0208,1128.92],[28.8821,-18.0239,1130.7391],[28.8802,-18.021,1106.9938],[28.8763,-18.023,1116.1438],[28.8766,-18.0202,1038.5225],[28.8783,-18.0187,1031.6073],[28.8806,-18.0192,1045.2065],[28.8831,-18.0131,1024.3993],[28.8864,-18.0113,1114.1454],[28.8888,-18.0066,1021.8681],[28.8901,-18.0068,1032.2933],[28.8912,-18.0145,1139.4529],[28.8926,-18.0149,1084.5316],[28.8973,-18.0065,1037.132],[28.9033,-18.0006,1014.8358],[28.9103,-18.0114,1134.2991],[28.9085,-17.9997,1083.8895],[28.9146,-17.9919,1011.4456],[28.9109,-17.9921,1002.2812],[28.9085,-17.9943,990.3615],[28.904,-17.9932,961.1208],[28.8942,-17.9805,920.3335],[28.8795,-17.9688,909.1748],[28.8551,-17.9575,942.8475],[28.85,-17.9578,948.9937],[28.8474,-17.9532,947.9946],[28.8373,-17.9485,926.1193],[28.8357,-17.9442,924.3514],[28.8321,-17.9426,931.7711],[28.83,-17.9432,919.1159],[28.8203,-17.9385,899.3365],[28.817,-17.9387,901.1398],[28.8093,-17.9336,892.1694]]]]}
,"properties": {"GID_3": "ZWE.10.3.4_2","GID_0": "ZWE","country": "Zimbabwe","GID_1": "ZWE.10_1","province": "Midlands","NL_NAME_1": "NA","GID_2": "ZWE.10.3_2","county": "GokweSouth","NL_NAME_2": "NA","city": "Ward12","VARNAME_3": "NA","NL_NAME_3": "NA","TYPE_3": "Ward","ENGTYPE_3": "Ward","CC_3": "NA","HASC_3": "NA","name": "Ward12.city","area_km2": 284.0828,"hist_schema_id": "Elevation0-9000","hist_area_km2": {"800": 1.0488,"825": 24.4815,"850": 53.3742,"875": 50.6269,"900": 31.6523,"925": 31.4695,"950": 33.5044,"975": 21.6276,"1000": 13.6254,"1025": 7.2561,"1050": 5.3404,"1075": 4.5744,"1100": 2.3175,"1125": 1.854,"1150": 0.6448,"1175": 0.6649,"1200": 0.0201}}}