{"type": "Feature","bbox": [31.6159,-19.952,31.7613,-19.8327],"geometry": {"type": "MultiPolygon","coordinates": [[[[31.6356,-19.952,1009.1702],[31.6529,-19.9425,1047.5094],[31.6768,-19.9417,1021.0117],[31.6915,-19.9279,1029.6539],[31.7145,-19.9287,1002.0232],[31.7455,-19.9234,975.5544],[31.7477,-19.9184,973.4717],[31.7442,-19.9139,958.6433],[31.744,-19.9003,1032.4236],[31.7467,-19.8858,946.4288],[31.7546,-19.8753,887.7635],[31.7613,-19.8549,852.0769],[31.7598,-19.8408,842.1276],[31.749,-19.8377,851.4959],[31.7427,-19.838,851.7054],[31.7221,-19.8344,860.4472],[31.7159,-19.8362,868.2397],[31.6896,-19.8327,884.4394],[31.6806,-19.846,875.5066],[31.6736,-19.8451,892.2872],[31.6718,-19.8487,876.0195],[31.6675,-19.8473,908.1578],[31.6672,-19.8542,884.832],[31.6637,-19.8572,894.2812],[31.6628,-19.8601,888.3539],[31.6565,-19.8611,899.5083],[31.649,-19.8555,909.1394],[31.6452,-19.8556,902.9801],[31.6378,-19.8513,902.6866],[31.6306,-19.8442,912.0698],[31.6281,-19.8448,907.1252],[31.6249,-19.8504,906.4072],[31.6233,-19.8622,908.8886],[31.6194,-19.8693,913.4733],[31.6222,-19.8756,921.825],[31.6174,-19.8917,948.5399],[31.6185,-19.9033,945.5521],[31.6159,-19.9066,956.8738],[31.6179,-19.9117,952.3271],[31.6164,-19.9175,957.0278],[31.6185,-19.9263,971.825],[31.6175,-19.9292,969.1058],[31.6195,-19.9451,982.9277],[31.6211,-19.9465,989.9708],[31.6255,-19.9465,995.2982],[31.6297,-19.9508,1000.2573],[31.6356,-19.952,1009.1702]]]]}
,"properties": {"GID_3": "ZWE.7.1.15_2","GID_0": "ZWE","country": "Zimbabwe","GID_1": "ZWE.7_1","province": "Masvingo","NL_NAME_1": "NA","GID_2": "ZWE.7.1_2","county": "Bikita","NL_NAME_2": "NA","city": "Ward22","VARNAME_3": "NA","NL_NAME_3": "NA","TYPE_3": "Ward","ENGTYPE_3": "Ward","CC_3": "NA","HASC_3": "NA","name": "Ward22.city","area_km2": 141.7561,"hist_schema_id": "Elevation0-9000","hist_area_km2": {"825": 0.1994,"850": 4.906,"875": 12.9626,"900": 17.0895,"925": 18.7432,"950": 19.5791,"975": 21.0526,"1000": 18.599,"1025": 15.3686,"1050": 8.6909,"1075": 2.3324,"1100": 1.0964,"1125": 0.5781,"1150": 0.4784,"1175": 0.0399,"1200": 0.0399}}}