{"type": "Feature","bbox": [28.146,-18.5698,28.4167,-18.4991],"geometry": {"type": "MultiPolygon","coordinates": [[[[28.2896,-18.5666,1082.5471],[28.2936,-18.5641,1086.8552],[28.3,-18.5657,1084.9736],[28.3052,-18.5633,1087.9868],[28.3141,-18.563,1089.8582],[28.3296,-18.5698,1089.3489],[28.3333,-18.5663,1090.8374],[28.3359,-18.566,1093.8236],[28.3373,-18.5683,1091.0906],[28.3427,-18.5678,1096.4706],[28.3514,-18.5643,1100.3516],[28.3624,-18.5649,1094.616],[28.3669,-18.5633,1095.6986],[28.3682,-18.565,1097.0801],[28.3716,-18.5626,1103.4606],[28.378,-18.5636,1101.8882],[28.3835,-18.5615,1102.5975],[28.3889,-18.5643,1099.4727],[28.395,-18.5599,1104.9531],[28.3963,-18.5611,1104.4215],[28.4065,-18.5607,1101.8226],[28.4074,-18.5584,1103.5837],[28.4108,-18.5595,1108.0642],[28.4114,-18.5613,1103.1302],[28.4167,-18.5627,1109.9142],[28.4136,-18.5452,1134.78],[28.4056,-18.5306,1162.8386],[28.398,-18.5223,1206.4122],[28.4019,-18.5076,1203.5203],[28.2609,-18.5011,1164.489],[28.2493,-18.502,1159.4797],[28.1462,-18.4991,1160.2518],[28.146,-18.5278,1149.7163],[28.1593,-18.5539,1062.2976],[28.1642,-18.5516,1063.5173],[28.1736,-18.5533,1064.2957],[28.1796,-18.5522,1077.3252],[28.1865,-18.5543,1082.3264],[28.1889,-18.5574,1071.701],[28.1975,-18.5598,1067.6582],[28.2025,-18.5573,1081.3563],[28.207,-18.5572,1079.062],[28.2098,-18.5598,1067.0833],[28.2129,-18.5599,1071.6694],[28.2171,-18.5645,1074.0546],[28.2218,-18.5658,1072.3276],[28.2266,-18.564,1085.2134],[28.2287,-18.5659,1075.1503],[28.236,-18.5641,1076.7156],[28.2429,-18.5673,1076.0469],[28.2445,-18.5646,1080.9939],[28.2472,-18.5656,1080.4932],[28.2582,-18.5625,1084.8979],[28.259,-18.5608,1089.5906],[28.2714,-18.5657,1084.8715],[28.2811,-18.564,1085.8057],[28.2867,-18.5645,1091.7175],[28.2896,-18.5666,1082.5471]]]]}
,"properties": {"GID_3": "ZWE.10.3.19_2","GID_0": "ZWE","country": "Zimbabwe","GID_1": "ZWE.10_1","province": "Midlands","NL_NAME_1": "NA","GID_2": "ZWE.10.3_2","county": "GokweSouth","NL_NAME_2": "NA","city": "Ward26","VARNAME_3": "NA","NL_NAME_3": "NA","TYPE_3": "Ward","ENGTYPE_3": "Ward","CC_3": "NA","HASC_3": "NA","name": "Ward26.city","area_km2": 179.0749,"hist_schema_id": "Elevation0-9000","hist_area_km2": {"1050": 0.0201,"1075": 6.231,"1100": 42.4521,"1125": 40.5653,"1150": 23.9836,"1175": 44.532,"1200": 21.2909}}}