{"type":"Feature","properties":{"GID_1":"ZWE.4_1","GID_0":"ZWE","country":"Zimbabwe","province":"MashonalandCentral","VARNAME_1":"NA","NL_NAME_1":"NA","TYPE_1":"Province","ENGTYPE_1":"Province","CC_1":"NA","HASC_1":"ZW.MC","ISO_1":"ZW-MC","name":"Mashonaland_Central.province"},
"geometry":{"type": "MultiPolygon","coordinates": [[[[31.0258,-17.7383,1476.4844],[31.0259,-17.7271,1492.7793],[31.0375,-17.7374,1484.7717],[31.0416,-17.7324,1492.0825],[31.0463,-17.7402,1482.6877],[31.0817,-17.7304,1517.4982],[31.0823,-17.7288,1520.4664],[31.074,-17.687,1503.9642],[31.0523,-17.6413,1435.7601],[31.0676,-17.6345,1427.2111],[31.0518,-17.6128,1378.3732],[31.0584,-17.6163,1395.0947],[31.061,-17.5915,1323.2546],[31.0606,-17.5675,1353.515],[31.0639,-17.5439,1481.2316],[31.1148,-17.5427,1369.1895],[31.1158,-17.5359,1365.2017],[31.1208,-17.525,1357.5718],[31.1161,-17.5186,1351.0732],[31.1088,-17.5169,1328.257],[31.1124,-17.5127,1344.2621],[31.1085,-17.5062,1319.5398],[31.1177,-17.501,1301.6389],[31.1254,-17.4924,1259.6964],[31.1249,-17.4844,1257.5078],[31.1186,-17.4822,1225.9791],[31.1197,-17.4786,1253.3103],[31.1162,-17.4771,1222.8787],[31.1171,-17.4735,1221.5103],[31.1199,-17.4724,1219.0249],[31.1192,-17.4701,1225.6353],[31.1251,-17.4687,1217.0],[31.1264,-17.4653,1233.0558],[31.1346,-17.4652,1240.3328],[31.1407,-17.456,1234.0651],[31.1457,-17.4524,1183.075],[31.1437,-17.4482,1197.8395],[31.1394,-17.447,1184.876],[31.1382,-17.4448,1180.1541],[31.1552,-17.4517,1249.2809],[31.1739,-17.4559,1238.9128],[31.2278,-17.4737,1451.8665],[31.2386,-17.4706,1271.0188],[31.2434,-17.4733,1265.0221],[31.2453,-17.4722,1375.296],[31.2534,-17.4765,1241.5109],[31.2619,-17.4759,1254.7887],[31.2692,-17.48,1203.1135],[31.2755,-17.4783,1266.9856],[31.2923,-17.4858,1214.946],[31.3071,-17.4866,1137.4725],[31.3047,-17.503,1148.5551],[31.3011,-17.5075,1155.869],[31.3024,-17.5102,1149.2511],[31.2992,-17.5172,1172.3861],[31.3003,-17.5203,1157.8677],[31.2983,-17.5227,1158.3892],[31.2978,-17.5288,1178.575],[31.295,-17.5354,1166.7542],[31.2921,-17.5391,1199.5052],[31.2903,-17.5497,1167.4789],[31.2878,-17.5548,1181.3577],[31.2847,-17.5694,1246.0845],[31.2859,-17.5727,1213.3542],[31.2835,-17.5732,1219.6034],[31.2828,-17.5752,1228.4075],[31.2842,-17.5774,1225.8384],[31.2828,-17.5814,1228.8312],[31.2768,-17.5901,1235.1678],[31.2799,-17.6006,1268.5826],[31.2805,-17.6095,1273.7192],[31.2852,-17.6177,1309.8262],[31.2852,-17.6217,1305.3943],[31.2821,-17.6269,1329.1538],[31.2843,-17.6299,1338.1121],[31.2803,-17.6355,1327.5752],[31.2799,-17.6437,1311.144],[31.2904,-17.6414,1416.8356],[31.3086,-17.6434,1479.9636],[31.3352,-17.6083,1383.9525],[31.3745,-17.6288,1390.7994],[31.42,-17.5946,1243.3757],[31.4586,-17.5625,1199.4824],[31.4695,-17.5828,1158.8359],[31.47,-17.579,1164.9],[31.4756,-17.5716,1157.5078],[31.4727,-17.5658,1150.9596],[31.4739,-17.5589,1168.0469],[31.4829,-17.5501,1146.7825],[31.4838,-17.5462,1183.6902],[31.5059,-17.5178,1142.859],[31.5073,-17.5144,1150.1465],[31.5054,-17.5086,1145.4702],[31.508,-17.5051,1146.3518],[31.5101,-17.4965,1139.7407],[31.5133,-17.4941,1132.2015],[31.513,-17.49,1155.4812],[31.5212,-17.4867,1130.8862],[31.526,-17.4825,1125.4617],[31.5283,-17.4712,1139.0344],[31.5323,-17.4679,1143.7712],[31.5404,-17.4692,1127.9624],[31.5528,-17.4654,1119.8862],[31.5634,-17.4645,1109.9564],[31.564,-17.4608,1121.2847],[31.5696,-17.4586,1120.8582],[31.5731,-17.4603,1116.2683],[31.5843,-17.4595,1110.8612],[31.5863,-17.4516,1110.5692],[31.5881,-17.4511,1120.0522],[31.5905,-17.4544,1107.9456],[31.5916,-17.4522,1114.9065],[31.5964,-17.453,1105.1456],[31.6025,-17.4473,1109.7926],[31.6049,-17.4473,1089.8011],[31.6058,-17.4433,1099.4155],[31.6113,-17.4403,1083.588],[31.6117,-17.4349,1109.9922],[31.6133,-17.4324,1092.1893],[31.6178,-17.434,1090.1195],[31.623,-17.433,1083.7836],[31.6139,-17.4165,1068.8043],[31.6228,-17.4113,1050.5524],[31.6267,-17.4056,1051.3127],[31.6338,-17.4005,1039.7798],[31.6356,-17.3921,1043.694],[31.6409,-17.3865,1034.5065],[31.6443,-17.3852,1039.3296],[31.6493,-17.386,1026.6676],[31.6565,-17.3744,1017.5933],[31.6624,-17.3734,989.0735],[31.6661,-17.3693,1018.3361],[31.6721,-17.369,991.4799],[31.6777,-17.3655,990.635],[31.6888,-17.3504,918.4265],[31.6909,-17.3437,926.2325],[31.6984,-17.3387,932.6268],[31.7035,-17.3303,920.2133],[31.708,-17.3288,934.3334],[31.7159,-17.3221,912.2551],[31.721,-17.3152,963.0116],[31.7374,-17.3025,899.2066],[31.743,-17.2952,908.1681],[31.7514,-17.2881,886.2336],[31.7543,-17.279,941.8704],[31.7482,-17.2691,879.9147],[31.7494,-17.2585,864.9398],[31.7438,-17.2476,886.2364],[31.7414,-17.2365,854.3627],[31.7226,-17.2156,839.6064],[31.728,-17.2021,852.8704],[31.7331,-17.1975,880.2841],[31.7402,-17.1954,867.9374],[31.7449,-17.1955,855.2623],[31.7498,-17.199,830.6608],[31.7578,-17.1983,814.7537],[31.7619,-17.1953,813.4802],[31.7621,-17.1895,889.6248],[31.7648,-17.1865,831.1],[31.772,-17.1844,856.9255],[31.7826,-17.1852,822.7437],[31.7882,-17.1789,852.7941],[31.7985,-17.1778,828.4633],[31.804,-17.1723,875.6887],[31.8113,-17.168,876.0665],[31.8481,-17.151,864.9474],[31.841,-17.1428,813.873],[31.8325,-17.1362,782.394],[31.8351,-17.1314,780.5284],[31.8334,-17.1231,783.6304],[31.839,-17.1183,779.8749],[31.8485,-17.1044,761.533],[31.8551,-17.0895,761.7263],[31.8532,-17.0846,742.9175],[31.8561,-17.0793,753.3594],[31.8686,-17.0698,750.6378],[31.8753,-17.07,752.132],[31.8959,-17.0536,795.4008],[31.9094,-17.0396,726.4615],[31.9107,-17.0324,736.3646],[31.9064,-17.0224,737.1326],[31.9039,-17.0209,743.5156],[31.8943,-17.0206,735.1092],[31.8916,-17.0167,744.4998],[31.8961,-17.0107,714.4946],[31.8951,-17.0006,785.8741],[31.9077,-17.0021,724.7939],[31.9129,-17.0007,712.4406],[31.9122,-16.9882,694.1731],[31.9149,-16.9779,766.1653],[31.9096,-16.9727,712.0898],[31.9245,-16.9651,808.3724],[31.9318,-16.9637,697.8654],[31.9425,-16.9566,647.3501],[31.941,-16.9534,694.6749],[31.9447,-16.9461,649.1989],[31.9442,-16.9387,663.813],[31.9513,-16.921,697.5891],[31.9543,-16.9171,737.7451],[31.9607,-16.9161,749.856],[31.9677,-16.9202,662.3066],[31.9764,-16.922,662.2293],[31.9808,-16.9212,655.6708],[31.9925,-16.9135,660.4148],[31.9967,-16.9128,663.2964],[32.0014,-16.9098,641.1574],[32.0048,-16.9052,643.7424],[32.0038,-16.9012,646.8489],[32.0095,-16.8919,628.0916],[32.0098,-16.8888,639.2931],[32.0085,-16.8846,643.1504],[32.0043,-16.8804,629.4516],[32.0031,-16.8756,634.9497],[32.003,-16.8626,620.075],[32.0007,-16.856,649.0762],[32.0033,-16.8479,703.6271],[32.0114,-16.8401,633.3132],[32.022,-16.8353,651.4891],[32.0302,-16.8338,619.9995],[32.0332,-16.8289,681.2347],[32.0404,-16.8269,618.4138],[32.0419,-16.8217,614.2769],[32.0399,-16.8116,628.4825],[32.0475,-16.8058,630.7466],[32.0516,-16.8035,635.1247],[32.0643,-16.8049,626.7],[32.0737,-16.8027,623.8986],[32.0926,-16.8098,620.9314],[32.0984,-16.8056,637.9592],[32.1037,-16.8061,613.9802],[32.1043,-16.7998,610.7784],[32.1101,-16.7945,619.8983],[32.125,-16.7893,622.0995],[32.1311,-16.7891,615.6892],[32.1377,-16.7911,601.1028],[32.1454,-16.7886,609.0438],[32.1535,-16.7888,608.1603],[32.1629,-16.7786,596.8584],[32.1771,-16.7773,587.6108],[32.1808,-16.7737,594.1649],[32.2005,-16.7669,603.14],[32.2161,-16.7724,600.8922],[32.2259,-16.7833,584.0219],[32.2281,-16.7839,588.5967],[32.2344,-16.7736,587.1439],[32.2479,-16.7722,572.6284],[32.2556,-16.767,581.3058],[32.2723,-16.7473,580.2855],[32.2851,-16.7479,585.2328],[32.2974,-16.747,571.2656],[32.3144,-16.7433,559.682],[32.3267,-16.7444,567.3234],[32.3327,-16.7423,569.9131],[32.3394,-16.7428,560.343],[32.3531,-16.7294,557.8667],[32.3611,-16.7264,560.4519],[32.3709,-16.7159,549.0886],[32.39,-16.7188,544.1763],[32.3969,-16.7126,550.2052],[32.408,-16.7132,545.6383],[32.4204,-16.7062,561.592],[32.4264,-16.7049,542.8157],[32.4413,-16.7053,560.9973],[32.4602,-16.6969,528.5235],[32.4634,-16.6971,525.3024],[32.4711,-16.7023,542.959],[32.4742,-16.7024,520.3618],[32.4819,-16.6989,531.5837],[32.4873,-16.7038,520.836],[32.5011,-16.702,513.9285],[32.51,-16.7046,497.4958],[32.5165,-16.7084,501.5556],[32.5275,-16.719,500.6365],[32.5452,-16.722,499.4161],[32.5501,-16.7277,497.176],[32.5619,-16.7299,472.3327],[32.5751,-16.739,478.749],[32.5835,-16.7415,473.1612],[32.5937,-16.7418,457.92],[32.6301,-16.732,450.0366],[32.6435,-16.7233,462.7904],[32.649,-16.7218,470.4431],[32.6565,-16.723,446.3581],[32.6622,-16.73,438.5632],[32.6801,-16.7413,429.5853],[32.6926,-16.7397,428.2092],[32.7091,-16.729,490.286],[32.7202,-16.7284,449.191],[32.7328,-16.7241,418.1073],[32.7482,-16.713,405.9127],[32.7486,-16.7099,418.392],[32.7551,-16.7035,410.0573],[32.7092,-16.6855,875.5724],[32.7035,-16.6798,1061.0908],[32.7023,-16.6751,1037.6747],[32.712,-16.6025,709.1843],[32.7092,-16.6,755.2076],[32.5756,-16.5367,584.4054],[32.4877,-16.4994,577.8502],[32.412,-16.4696,577.0476],[32.3482,-16.452,567.8441],[32.3452,-16.4499,562.4418],[32.2853,-16.4346,539.0502],[32.0375,-16.4424,1108.9065],[31.9135,-16.4129,625.8593],[31.9058,-16.392,601.2559],[31.9081,-16.3907,595.5986],[31.9075,-16.3888,597.1857],[31.9092,-16.3885,593.4327],[31.9098,-16.3718,580.2626],[31.9055,-16.3676,577.88],[31.9022,-16.3476,562.9808],[31.8938,-16.3365,551.7061],[31.8834,-16.3329,545.3984],[31.8728,-16.3259,540.1868],[31.8628,-16.3241,535.1646],[31.8579,-16.319,532.4003],[31.8519,-16.3178,531.8081],[31.8485,-16.3095,525.9889],[31.84,-16.3076,524.3238],[31.8359,-16.3126,523.2936],[31.834,-16.3111,522.2415],[31.8307,-16.3084,520.6358],[31.8304,-16.3051,518.4629],[31.828,-16.3024,518.2063],[31.8295,-16.299,516.0151],[31.8254,-16.2943,513.5977],[31.8149,-16.2949,514.2765],[31.8167,-16.2879,509.7941],[31.8145,-16.2874,509.9059],[31.814,-16.284,508.4867],[31.8178,-16.2813,508.0819],[31.8161,-16.2774,506.9886],[31.8032,-16.2702,500.2104],[31.7998,-16.2634,498.4133],[31.7955,-16.2628,496.0169],[31.7951,-16.2613,497.4188],[31.7976,-16.2579,495.8129],[31.7907,-16.2583,494.2769],[31.7857,-16.2564,495.2501],[31.7708,-16.2367,483.9012],[31.758,-16.237,479.8477],[31.7331,-16.2284,479.8511],[31.7028,-16.2066,458.8598],[31.6917,-16.2017,454.6914],[31.6352,-16.1972,443.1061],[31.6182,-16.1901,436.3335],[31.588,-16.1913,429.7844],[31.5451,-16.1842,419.0314],[31.4993,-16.1707,406.5952],[31.4814,-16.1569,402.9149],[31.4659,-16.159,398.7041],[31.4628,-16.1575,404.8204],[31.4611,-16.1588,397.1318],[31.4568,-16.1558,405.6818],[31.4525,-16.1592,397.3829],[31.4511,-16.1581,399.4249],[31.4517,-16.1549,400.6749],[31.4463,-16.1538,397.8502],[31.4321,-16.1562,390.6329],[31.4268,-16.1591,392.5597],[31.4242,-16.1563,393.5616],[31.4244,-16.1541,394.7539],[31.429,-16.1532,394.3249],[31.4278,-16.1508,391.6304],[31.4306,-16.1415,390.4087],[31.4266,-16.1352,390.0464],[31.4228,-16.1335,390.8464],[31.4176,-16.1359,389.9926],[31.4131,-16.1403,391.1218],[31.4064,-16.1367,388.3661],[31.4045,-16.1371,386.7683],[31.3943,-16.1267,386.1796],[31.3873,-16.1156,385.4083],[31.3733,-16.1032,379.1048],[31.364,-16.0911,379.0704],[31.3487,-16.0801,371.1117],[31.3417,-16.0684,368.4396],[31.3386,-16.0666,368.9797],[31.3364,-16.0603,366.8721],[31.3366,-16.0574,367.0321],[31.3394,-16.0554,365.0663],[31.3389,-16.0531,364.1334],[31.3338,-16.0485,362.4224],[31.3171,-16.0367,359.4773],[31.3073,-16.0272,356.6872],[31.2835,-16.0199,355.5844],[31.2678,-16.0098,347.7337],[31.2497,-16.0097,345.7329],[31.2393,-16.0012,349.604],[31.2251,-16.0071,343.1832],[31.2154,-16.0076,341.4751],[31.202,-16.0046,339.9513],[31.1866,-16.0047,338.4729],[31.1783,-15.9904,335.8111],[31.1523,-15.9886,330.0711],[31.15,-15.9899,330.5616],[31.144,-15.9847,329.601],[31.1067,-15.9958,328.9208],[31.1047,-16.0009,325.2422],[31.0988,-16.0022,327.6704],[31.0944,-16.0087,326.0299],[31.0879,-16.0088,328.0634],[31.0875,-16.0172,327.5741],[31.0796,-16.0121,332.2433],[31.0724,-16.0162,328.6518],[31.0721,-16.015,328.6518],[31.0651,-16.0182,330.579],[31.0619,-16.0145,332.5152],[31.0663,-16.0067,331.6707],[31.0665,-16.0026,329.7446],[31.0643,-16.0,331.7406],[31.0581,-16.0117,331.4485],[31.0518,-16.0176,334.2119],[31.0438,-16.0211,337.3235],[31.0303,-16.0204,337.2896],[31.0289,-16.0279,338.2754],[31.0244,-16.0365,338.5044],[31.0251,-16.0388,340.2897],[31.0171,-16.0498,342.0844],[31.0126,-16.0499,344.2443],[31.0068,-16.057,345.9984],[30.9907,-16.0595,346.289],[30.9821,-16.059,349.0901],[30.9663,-16.0494,355.6686],[30.9572,-16.0387,362.1764],[30.9549,-16.0282,367.6248],[30.9499,-16.0163,367.8208],[30.921,-16.0,379.0434],[30.6542,-16.0,380.3969],[30.4884,-16.0019,406.8188],[30.4219,-16.0008,400.9779],[30.4224,-15.6225,322.5],[30.4115,-15.6107,332.2294],[30.4138,-15.6149,326.0967],[30.4121,-15.6184,323.0],[30.3913,-15.6339,351.9414],[30.3609,-15.6457,364.6307],[30.3407,-15.6455,386.6384],[30.3217,-15.6404,338.0053],[30.2796,-15.6394,439.2644],[30.2702,-15.6358,326.5],[30.2641,-15.6233,330.9361],[30.2606,-15.6216,334.6434],[30.2564,-15.6258,332.0956],[30.2585,-15.6244,333.1588],[30.2638,-15.6253,328.3442],[30.2705,-15.6371,380.8451],[30.2854,-15.6446,350.9783],[30.2847,-15.6675,894.2072],[30.2863,-15.7017,1005.5715],[30.3131,-15.7168,780.0637],[30.3345,-15.7503,605.4966],[30.3311,-15.7518,571.0049],[30.1513,-15.9189,763.4402],[30.0515,-15.9883,595.8815],[30.052,-15.9939,593.5928],[30.0463,-16.0012,593.0515],[30.0474,-16.0031,586.2597],[30.0553,-16.0033,588.5535],[30.058,-16.0,622.9957],[30.0612,-16.0008,646.1478],[30.0633,-16.0056,586.664],[30.062,-16.0128,578.8257],[30.0589,-16.0163,603.2737],[30.0636,-16.0163,609.0815],[30.0631,-16.0204,578.4891],[30.065,-16.0235,576.2313],[30.0742,-16.0276,622.384],[30.0722,-16.03,575.3812],[30.0751,-16.0339,569.5907],[30.0795,-16.0344,576.6785],[30.0824,-16.0366,580.0767],[30.0867,-16.034,587.0495],[30.0878,-16.0389,547.8654],[30.0926,-16.034,596.5554],[30.0961,-16.0394,551.2476],[30.0935,-16.0416,545.4529],[30.0936,-16.0443,529.6183],[30.0986,-16.0454,534.083],[30.1079,-16.0433,532.2626],[30.1101,-16.0441,534.7822],[30.1079,-16.0471,511.9041],[30.0994,-16.0494,554.9402],[30.1012,-16.0582,530.5708],[30.0998,-16.0602,520.9183],[30.1005,-16.0633,515.3979],[30.0954,-16.0623,518.4157],[30.0943,-16.0671,522.2444],[30.099,-16.0729,495.8986],[30.094,-16.0751,499.7174],[30.0891,-16.0748,516.4598],[30.0881,-16.0796,495.1645],[30.0788,-16.092,481.7929],[30.0809,-16.0941,473.3079],[30.0783,-16.1013,476.3938],[30.0814,-16.1047,464.2911],[30.0858,-16.1047,483.1584],[30.0869,-16.1091,459.3619],[30.085,-16.1136,470.3594],[30.0875,-16.1184,456.2648],[30.0932,-16.1222,450.3273],[30.1001,-16.1212,465.0849],[30.1042,-16.1247,465.2939],[30.0985,-16.1262,447.2418],[30.1027,-16.1283,441.7843],[30.0991,-16.1311,457.5231],[30.1016,-16.137,451.0453],[30.1098,-16.1469,442.756],[30.112,-16.1581,434.2343],[30.1189,-16.1636,433.5154],[30.1178,-16.1649,435.3383],[30.1137,-16.1643,446.4352],[30.1139,-16.1672,441.3727],[30.1205,-16.172,434.7891],[30.1247,-16.1728,424.8244],[30.1286,-16.1711,438.4362],[30.1245,-16.1685,426.1804],[30.1279,-16.1624,443.2942],[30.1303,-16.1624,443.6511],[30.1337,-16.1656,422.481],[30.1397,-16.1611,428.5511],[30.1384,-16.1677,416.8722],[30.1415,-16.1773,418.4507],[30.1352,-16.1858,424.7891],[30.1272,-16.1889,433.2511],[30.1233,-16.1924,434.9656],[30.1199,-16.203,428.4379],[30.1121,-16.213,423.0627],[30.1078,-16.2142,444.4446],[30.0956,-16.2279,443.6252],[30.0901,-16.228,440.4113],[30.0932,-16.2488,430.6228],[30.0904,-16.26,435.2034],[30.0952,-16.2745,454.9333],[30.0949,-16.2835,463.1854],[30.0904,-16.2879,482.4833],[30.0941,-16.2934,461.5869],[30.0893,-16.303,479.4428],[30.0917,-16.307,489.5741],[30.0891,-16.3085,495.1932],[30.0858,-16.3176,479.2952],[30.0741,-16.3205,497.0349],[30.0636,-16.3328,496.3116],[30.0657,-16.3378,492.6341],[30.0651,-16.343,488.7579],[30.0584,-16.3455,552.2028],[30.0582,-16.3541,502.4815],[30.0542,-16.358,530.9982],[30.0546,-16.3618,501.3314],[30.0503,-16.3656,515.9477],[30.0495,-16.3758,509.7892],[30.0512,-16.3826,541.9749],[30.0495,-16.3866,552.4292],[30.0555,-16.3927,697.9364],[30.0609,-16.3937,718.2089],[30.0656,-16.3982,708.4773],[30.0753,-16.3997,793.5107],[30.0801,-16.4037,883.0696],[30.0834,-16.4036,846.6114],[30.0862,-16.4011,792.5859],[30.0864,-16.3987,793.0518],[30.081,-16.3919,890.6271],[30.0812,-16.3891,764.272],[30.0913,-16.3725,831.858],[30.1059,-16.3734,809.5292],[30.1105,-16.373,798.0526],[30.118,-16.3693,801.8389],[30.1442,-16.3688,875.5931],[30.1465,-16.3682,885.7709],[30.1533,-16.361,863.22],[30.1639,-16.3548,817.4935],[30.1932,-16.3512,976.2083],[30.1976,-16.349,962.319],[30.2084,-16.3364,848.45],[30.2103,-16.329,646.253],[30.2057,-16.3156,614.7238],[30.2082,-16.3121,679.3561],[30.2143,-16.3096,746.1407],[30.214,-16.3064,692.3863],[30.2093,-16.3048,702.8267],[30.2069,-16.2996,721.8936],[30.208,-16.2895,694.5191],[30.2071,-16.2763,893.3002],[30.2177,-16.2682,647.3823],[30.2342,-16.2649,708.2745],[30.2409,-16.2655,878.3223],[30.2442,-16.2673,878.3535],[30.2482,-16.2731,960.1974],[30.2542,-16.2762,1069.3542],[30.2663,-16.2714,951.9914],[30.2767,-16.27,929.0594],[30.2949,-16.2767,601.7438],[30.2996,-16.2821,792.0634],[30.3021,-16.2904,700.3113],[30.3017,-16.3116,644.25],[30.3041,-16.3149,663.2878],[30.315,-16.3178,663.957],[30.3184,-16.3243,675.988],[30.3162,-16.3305,710.2498],[30.3177,-16.3339,800.2671],[30.3204,-16.3352,793.6694],[30.3276,-16.3371,818.549],[30.343,-16.335,668.6356],[30.3593,-16.3406,792.9229],[30.3643,-16.3402,715.2551],[30.3741,-16.3348,696.8759],[30.3819,-16.3368,686.6652],[30.42,-16.339,399.4595],[30.4188,-16.3466,413.9399],[30.4216,-16.3509,493.8791],[30.4175,-16.3551,497.2441],[30.4276,-16.3715,451.154],[30.4307,-16.385,452.3656],[30.4367,-16.3903,528.2979],[30.4382,-16.3938,586.8411],[30.4351,-16.3978,565.8784],[30.4349,-16.4051,524.1881],[30.4333,-16.4081,517.9897],[30.4275,-16.4132,630.5031],[30.4234,-16.4232,542.3176],[30.418,-16.4256,760.1539],[30.4185,-16.4318,630.4434],[30.4113,-16.4342,611.8782],[30.4063,-16.4379,661.1338],[30.4064,-16.441,565.2099],[30.416,-16.4505,612.4631],[30.4134,-16.4546,612.126],[30.4136,-16.4615,595.8986],[30.4078,-16.4693,750.6775],[30.4084,-16.4794,652.809],[30.4038,-16.4892,648.3418],[30.4058,-16.495,674.7782],[30.4054,-16.5097,683.2694],[30.4069,-16.5138,732.7645],[30.4034,-16.5169,770.7355],[30.3974,-16.5168,737.4429],[30.3947,-16.5216,691.2914],[30.3954,-16.5263,701.5542],[30.3911,-16.5267,800.0053],[30.3883,-16.5298,747.3121],[30.39,-16.5354,721.4877],[30.3868,-16.5411,800.377],[30.3878,-16.5466,733.8467],[30.3803,-16.5551,742.8284],[30.3814,-16.5606,751.4816],[30.3859,-16.5633,806.1013],[30.3859,-16.5647,773.1766],[30.3778,-16.5738,868.3975],[30.3784,-16.5772,781.3862],[30.3751,-16.5826,951.7919],[30.3725,-16.5945,838.6849],[30.3783,-16.6085,820.8773],[30.3854,-16.6133,875.7826],[30.3948,-16.623,862.8988],[30.3946,-16.6279,824.625],[30.3968,-16.6307,841.6502],[30.3947,-16.6345,818.8096],[30.3995,-16.638,820.0397],[30.3994,-16.6446,831.1254],[30.4027,-16.6471,859.4395],[30.4066,-16.649,913.4389],[30.41,-16.648,899.9647],[30.4113,-16.6452,948.6873],[30.4137,-16.6454,929.8514],[30.4222,-16.6552,856.2709],[30.4294,-16.6543,943.5438],[30.4397,-16.6562,918.4376],[30.4479,-16.6636,863.1974],[30.4558,-16.6636,870.5995],[30.462,-16.6681,904.1038],[30.4717,-16.672,925.2901],[30.4975,-16.6758,898.0518],[30.5018,-16.6853,879.1819],[30.51,-16.6808,931.1503],[30.5146,-16.6818,882.8198],[30.5103,-16.6959,875.5045],[30.5148,-16.7023,879.4149],[30.5192,-16.7149,878.8122],[30.5199,-16.7203,887.9025],[30.5182,-16.7238,880.012],[30.5221,-16.7261,901.2487],[30.5255,-16.7251,907.5047],[30.5279,-16.73,888.04],[30.5184,-16.7354,910.1371],[30.5187,-16.7396,884.1553],[30.5211,-16.7412,895.4288],[30.5216,-16.744,888.8502],[30.5102,-16.7569,892.309],[30.5089,-16.7636,888.39],[30.5064,-16.7672,896.0609],[30.4998,-16.7749,890.1461],[30.4953,-16.7769,896.311],[30.4903,-16.7873,909.1711],[30.4845,-16.7914,898.332],[30.4854,-16.7963,902.9519],[30.4888,-16.7981,914.1745],[30.4891,-16.8023,905.9818],[30.4971,-16.8058,926.2122],[30.4964,-16.8135,929.1757],[30.4976,-16.8153,916.0905],[30.5016,-16.815,918.1411],[30.5037,-16.8171,919.0369],[30.5057,-16.8312,923.7604],[30.5037,-16.8312,931.9142],[30.5031,-16.8337,923.3882],[30.5052,-16.8352,929.2117],[30.5101,-16.8345,947.9111],[30.5113,-16.8368,939.0753],[30.5098,-16.8415,928.0646],[30.5181,-16.8473,954.8229],[30.5213,-16.8471,960.0016],[30.5241,-16.8533,947.3057],[30.5203,-16.8601,943.8116],[30.5204,-16.863,947.0148],[30.5231,-16.8654,952.2923],[30.518,-16.8704,957.4919],[30.5208,-16.8727,954.9294],[30.5253,-16.8845,979.0051],[30.5229,-16.9082,976.85],[30.5234,-16.9181,980.4348],[30.5188,-16.9222,987.8905],[30.5221,-16.9317,1006.2342],[30.5208,-16.9371,993.3137],[30.527,-16.9427,1010.4602],[30.5276,-16.9595,1010.1505],[30.5339,-16.9614,1040.6774],[30.5337,-16.9629,1026.4183],[30.53,-16.9643,1017.446],[30.5296,-16.9665,1031.4408],[30.5324,-16.9685,1031.2926],[30.5487,-16.9727,1056.7946],[30.5502,-16.9793,1032.761],[30.5524,-16.9815,1051.5647],[30.5507,-16.9863,1045.0659],[30.542,-16.9882,1088.6167],[30.5369,-16.998,1066.1279],[30.5404,-17.0018,1080.5559],[30.5368,-17.013,1079.7954],[30.5394,-17.0151,1081.048],[30.5422,-17.0216,1133.1609],[30.545,-17.0402,1103.4652],[30.5447,-17.0503,1110.1934],[30.548,-17.053,1125.0474],[30.5769,-17.0518,1231.1848],[30.5808,-17.0425,1247.1141],[30.5984,-17.0313,1160.3547],[30.6114,-17.0293,1149.8182],[30.619,-17.0298,1158.6141],[30.6335,-17.0251,1182.1011],[30.6365,-17.0274,1178.9713],[30.6406,-17.0481,1205.7817],[30.663,-17.0362,1286.0435],[30.6693,-17.0632,1260.1904],[30.6921,-17.0508,1297.626],[30.7389,-17.0613,1606.2738],[30.7183,-17.1558,1623.2058],[30.682,-17.2177,1583.9102],[30.6551,-17.2362,1342.1945],[30.6714,-17.241,1467.0834],[30.6685,-17.2512,1479.1691],[30.6578,-17.2791,1505.5094],[30.6177,-17.3628,1455.6041],[30.6214,-17.3681,1534.8826],[30.6324,-17.4063,1499.8912],[30.6195,-17.455,1384.1801],[30.6213,-17.4763,1440.4376],[30.617,-17.5022,1433.4365],[30.6124,-17.5183,1454.3264],[30.6115,-17.5519,1421.9153],[30.6448,-17.5519,1405.4573],[30.6912,-17.5596,1413.9656],[30.7285,-17.5526,1433.7168],[30.7854,-17.5577,1465.9033],[30.7601,-17.6043,1402.4811],[30.7899,-17.64,1406.0322],[30.8375,-17.6627,1418.0417],[30.8446,-17.6505,1420.5059],[30.8671,-17.6645,1435.3517],[30.9127,-17.6872,1437.7086],[30.9285,-17.7006,1444.9443],[30.9305,-17.6621,1463.4773],[30.9554,-17.6605,1480.254],[30.9579,-17.6693,1484.5503],[30.9625,-17.7139,1452.9609],[30.9755,-17.7188,1457.075],[30.9956,-17.7371,1463.6177],[31.0258,-17.7383,1476.4844]]]]}}