{"type": "Feature","id": "524","bbox": [30.04481,-17.74088,32.73095,-15.636],"geometry": {"type": "Polygon","coordinates": [[[30.40257,-16.00124,428.5598],[30.40133,-15.93169,435.6028],[30.39926,-15.81201,401.4988],[30.39771,-15.71682,349.2326],[30.39626,-15.636,334.4252],[30.35668,-15.6515,341.0475],[30.32805,-15.65243,325.548],[30.2962,-15.63904,487.1469],[30.29374,-15.65016,499.6216],[30.29405,-15.69031,902.3677],[30.29808,-15.70462,727.7638],[30.31017,-15.71806,739.2457],[30.31544,-15.72808,899.1963],[30.32335,-15.7501,486.5211],[30.31932,-15.76421,387.2276],[30.31172,-15.77681,396.0398],[30.0506,-15.9952,599.1595],[30.04683,-15.99902,595.8427],[30.04512,-16.00166,592.7573],[30.04481,-16.00569,591.9832],[30.04512,-16.01081,640.5994],[30.04652,-16.01608,626.2401],[30.04915,-16.02073,642.6913],[30.05194,-16.02481,622.6259],[30.05959,-16.03137,675.1908],[30.06409,-16.03375,634.1322],[30.08486,-16.04181,623.9501],[30.08827,-16.04708,576.9678],[30.08936,-16.05551,522.0095],[30.08517,-16.08176,513.9125],[30.08486,-16.09018,483.401],[30.08719,-16.10103,485.9627],[30.0892,-16.10573,477.8419],[30.09184,-16.10997,473.7862],[30.09478,-16.11385,467.4094],[30.10129,-16.11995,465.0849],[30.10269,-16.12258,458.8533],[30.10347,-16.12641,444.2003],[30.10285,-16.13157,446.474],[30.103,-16.13746,443.7725],[30.10424,-16.14263,436.8533],[30.11013,-16.1509,438.8617],[30.1139,-16.15385,446.0804],[30.11793,-16.15658,446.8357],[30.12305,-16.15782,443.5371],[30.12863,-16.15757,442.1364],[30.1339,-16.15695,440.7533],[30.13948,-16.15726,435.4887],[30.14367,-16.16036,415.0351],[30.1463,-16.16609,430.929],[30.14693,-16.17596,435.3268],[30.14506,-16.1818,436.8691],[30.14181,-16.1862,430.1395],[30.11576,-16.20242,440.5001],[30.11106,-16.20707,439.7885],[30.0985,-16.2264,426.6727],[30.09509,-16.23503,446.1569],[30.09354,-16.24283,442.2458],[30.09385,-16.24914,435.3011],[30.09881,-16.28174,484.7005],[30.09866,-16.29544,500.3615],[30.09695,-16.30345,485.1478],[30.09401,-16.30944,483.3756],[30.09075,-16.31322,492.3896],[30.07851,-16.32154,481.3918],[30.07354,-16.32624,485.4401],[30.06703,-16.33549,495.8899],[30.04977,-16.37368,503.4152],[30.04869,-16.38381,572.5283],[30.05091,-16.38954,647.5697],[30.05535,-16.39207,697.9364],[30.06052,-16.3943,727.0401],[30.07168,-16.39766,675.0516],[30.07742,-16.39812,702.9193],[30.08285,-16.39766,784.2404],[30.08688,-16.39476,731.2427],[30.08951,-16.39073,706.282],[30.0937,-16.38024,763.2545],[30.09618,-16.37538,813.4477],[30.09928,-16.37171,825.6999],[30.10331,-16.36887,818.4879],[30.11344,-16.36531,737.993],[30.11902,-16.36422,751.6047],[30.12507,-16.36407,640.6517],[30.14724,-16.36939,888.3065],[30.15251,-16.3697,949.3073],[30.15685,-16.36763,938.0667],[30.16041,-16.36412,926.1496],[30.16646,-16.35637,840.5989],[30.17054,-16.35327,792.9433],[30.17519,-16.35084,710.723],[30.19752,-16.34598,949.8652],[30.20217,-16.34381,962.281],[30.2062,-16.34102,895.0409],[30.20976,-16.33745,864.9209],[30.21286,-16.33347,743.0527],[30.21503,-16.32872,618.6586],[30.21643,-16.32376,627.0457],[30.21627,-16.3174,680.9779],[30.21147,-16.29699,657.6036],[30.21069,-16.29136,639.0287],[30.21147,-16.28578,768.1053],[30.21333,-16.28097,886.3373],[30.21658,-16.27709,872.8008],[30.22062,-16.27394,780.4919],[30.23074,-16.27001,644.4393],[30.26671,-16.26567,758.1526],[30.27322,-16.26567,794.6202],[30.28645,-16.26743,797.105],[30.29234,-16.26929,664.3082],[30.2973,-16.27436,580.126],[30.30149,-16.28237,779.3307],[30.31017,-16.30888,523.7625],[30.31374,-16.31518,617.1171],[30.33141,-16.3344,689.9956],[30.3342,-16.33688,693.7589],[30.33844,-16.3389,660.3794],[30.34355,-16.33983,625.0621],[30.40081,-16.33688,669.9537],[30.40763,-16.33843,647.6093],[30.41445,-16.342,689.5271],[30.42236,-16.35544,507.7412],[30.42748,-16.36799,556.9036],[30.4343,-16.3898,464.5199],[30.43569,-16.40138,486.8807],[30.43554,-16.41011,576.2311],[30.43352,-16.41548,675.0804],[30.4205,-16.43765,625.2272],[30.41678,-16.44628,771.8712],[30.41569,-16.45026,612.4631],[30.41337,-16.47563,965.7342],[30.4067,-16.50711,796.2889],[30.40236,-16.51713,770.7355],[30.39647,-16.52555,766.1802],[30.39394,-16.53031,796.8372],[30.38588,-16.55336,786.6069],[30.37859,-16.59578,951.8752],[30.37906,-16.60446,918.8384],[30.38076,-16.61113,835.6166],[30.39053,-16.62565,854.113],[30.39833,-16.64033,814.8879],[30.40205,-16.64493,821.5119],[30.40624,-16.64787,918.3247],[30.42252,-16.65413,902.0461],[30.42717,-16.65686,860.0038],[30.43538,-16.66291,909.1838],[30.44034,-16.66498,876.2668],[30.45202,-16.66684,859.6191],[30.45729,-16.66885,865.4634],[30.48969,-16.6874,925.3802],[30.4976,-16.69097,898.222],[30.50029,-16.69268,915.1068],[30.50277,-16.69547,989.9178],[30.51796,-16.72864,881.8583],[30.51843,-16.73546,910.1371],[30.51672,-16.74151,921.9817],[30.5144,-16.74632,952.7008],[30.51269,-16.75174,912.0135],[30.51641,-16.75484,901.5201],[30.52106,-16.75758,902.0859],[30.52633,-16.7596,903.5728],[30.53114,-16.76223,914.7122],[30.53641,-16.76662,923.6986],[30.54137,-16.77339,933.1558],[30.54804,-16.78611,965.7538],[30.55067,-16.79474,999.5969],[30.55145,-16.80218,1125.9438],[30.55021,-16.80797,1104.9757],[30.54509,-16.81763,986.9288],[30.52959,-16.83701,975.7051],[30.52711,-16.84135,961.3238],[30.52525,-16.84672,940.5367],[30.52385,-16.85267,941.5665],[30.52292,-16.85913,939.155],[30.52866,-16.94687,1013.038],[30.53083,-16.95504,1024.8762],[30.53362,-16.95896,1026.6504],[30.53688,-16.96294,1049.8206],[30.55284,-16.97581,1057.7469],[30.55641,-16.97948,1038.1116],[30.56003,-16.98475,1069.5532],[30.55941,-16.98945,1094.4874],[30.55662,-16.99281,1098.6849],[30.55238,-16.9955,1141.0303],[30.5485,-16.99736,1119.0988],[30.54478,-16.99979,1100.8439],[30.54447,-17.00341,1090.8381],[30.5454,-17.0294,1142.5081],[30.54943,-17.04966,1146.2944],[30.55222,-17.05426,1149.543],[30.55641,-17.05705,1140.1774],[30.56199,-17.05813,1162.0166],[30.56824,-17.05834,1189.1083],[30.59336,-17.05612,1209.4794],[30.59925,-17.05663,1200.0953],[30.60405,-17.05849,1208.197],[30.60824,-17.06108,1204.4292],[30.61294,-17.06283,1205.3572],[30.61801,-17.0633,1220.1099],[30.62255,-17.06159,1191.709],[30.6348,-17.05291,1238.0681],[30.64798,-17.04526,1238.9387],[30.65341,-17.0433,1203.3606],[30.65852,-17.04294,1216.6785],[30.66441,-17.04666,1251.9973],[30.6672,-17.05307,1240.1957],[30.66865,-17.06278,1272.4985],[30.67268,-17.0663,1261.4009],[30.67702,-17.0665,1270.1649],[30.68167,-17.06402,1289.3481],[30.68973,-17.05849,1298.9431],[30.69454,-17.05617,1327.2513],[30.69966,-17.05477,1352.6664],[30.70539,-17.05503,1355.6758],[30.71144,-17.05617,1414.1707],[30.72322,-17.05989,1493.9452],[30.72849,-17.06263,1536.407],[30.7335,-17.06769,1542.1919],[30.73474,-17.07327,1474.5485],[30.7349,-17.07968,1527.6017],[30.72384,-17.16231,1584.6864],[30.72012,-17.17203,1565.2751],[30.71764,-17.17637,1568.231],[30.70539,-17.19321,1637.1021],[30.69237,-17.20763,1636.5164],[30.67764,-17.22127,1632.8177],[30.6733,-17.22453,1530.8633],[30.66937,-17.22841,1587.1078],[30.66627,-17.23378,1563.4635],[30.66736,-17.23828,1506.8779],[30.67113,-17.2421,1471.03],[30.67563,-17.24582,1504.7488],[30.67997,-17.25094,1567.4274],[30.67997,-17.2559,1624.2882],[30.67873,-17.26086,1498.3882],[30.64116,-17.33005,1580.7368],[30.6269,-17.35124,1497.3333],[30.62473,-17.35661,1531.8704],[30.62271,-17.36349,1514.0459],[30.63604,-17.41992,1372.8704],[30.6379,-17.4363,1371.8169],[30.63806,-17.44994,1371.7321],[30.62566,-17.53288,1417.1591],[30.62597,-17.55691,1404.4246],[30.6317,-17.5611,1396.9401],[30.63542,-17.56306,1389.0328],[30.77598,-17.5626,1456.7384],[30.78162,-17.56353,1462.7017],[30.78327,-17.56787,1455.9673],[30.77986,-17.58523,1422.5217],[30.77242,-17.60466,1420.3892],[30.77025,-17.612,1404.5447],[30.77025,-17.62099,1407.3687],[30.77397,-17.62745,1400.5953],[30.78348,-17.63329,1409.3417],[30.83836,-17.65463,1432.6976],[30.88538,-17.67913,1432.0817],[30.89923,-17.68796,1440.8536],[30.9059,-17.69117,1444.4745],[30.91194,-17.69137,1445.3888],[30.91876,-17.68621,1454.6951],[30.92357,-17.68006,1456.3599],[30.92946,-17.67453,1463.9424],[30.93597,-17.67107,1470.333],[30.95463,-17.67758,1466.4083],[30.98207,-17.72171,1464.5045],[30.99835,-17.73597,1466.7538],[31.00346,-17.73902,1466.2161],[31.00847,-17.74036,1471.9779],[31.01824,-17.74088,1471.6659],[31.03002,-17.73928,1477.7947],[31.03979,-17.73566,1488.0601],[31.05824,-17.73613,1492.5363],[31.0646,-17.73483,1499.9961],[31.07131,-17.73148,1507.4707],[31.07782,-17.72512,1519.7056],[31.08573,-17.70925,1541.6116],[31.08868,-17.6661,1475.0403],[31.10852,-17.58239,1431.2435],[31.1079,-17.57464,1431.0377],[31.10573,-17.56621,1417.7668],[31.09891,-17.56544,1423.1687],[31.09209,-17.56156,1433.4235],[31.0862,-17.5488,1421.7827],[31.08775,-17.54327,1413.7759],[31.10868,-17.52007,1328.679],[31.12438,-17.48798,1230.8834],[31.13772,-17.47516,1243.5994],[31.15105,-17.46834,1265.5759],[31.30856,-17.48188,1130.908],[31.31662,-17.48369,1187.5311],[31.31724,-17.48999,1173.3052],[31.31554,-17.49609,1189.9812],[31.28184,-17.58053,1236.5251],[31.27967,-17.59112,1245.7175],[31.28122,-17.60172,1276.6404],[31.28432,-17.61257,1292.7433],[31.28949,-17.62208,1330.1523],[31.29631,-17.62988,1371.795],[31.30577,-17.62802,1361.9263],[31.32794,-17.61665,1351.1172],[31.33926,-17.61288,1367.3856],[31.37388,-17.62647,1369.0629],[31.38458,-17.62187,1257.4979],[31.39558,-17.6137,1248.4847],[31.4485,-17.56513,1218.145],[31.45889,-17.55769,1203.2659],[31.46498,-17.55784,1189.2317],[31.47134,-17.56048,1164.4094],[31.47723,-17.56203,1172.8644],[31.48436,-17.55428,1163.1948],[31.49041,-17.54523,1183.3644],[31.50049,-17.52575,1143.0693],[31.5117,-17.50829,1168.9017],[31.51604,-17.50276,1163.1208],[31.60715,-17.45589,1095.6583],[31.62477,-17.4395,1097.7648],[31.62735,-17.43077,1104.0465],[31.64373,-17.40566,1137.6179],[31.72931,-17.32463,1044.2386],[31.74512,-17.30416,1044.8376],[31.75468,-17.28143,887.8938],[31.7536,-17.25419,951.1709],[31.75003,-17.23766,1064.6572],[31.74817,-17.21905,997.9286],[31.75024,-17.20097,820.9332],[31.75861,-17.18644,913.7786],[31.76988,-17.17802,1029.3787],[31.7953,-17.1635,1147.6588],[31.80667,-17.15378,977.9927],[31.81178,-17.14671,856.4171],[31.82052,-17.13136,811.1688],[31.82615,-17.12479,803.5546],[31.83178,-17.12051,809.733],[31.85121,-17.1095,762.7469],[31.86718,-17.0956,788.2516],[31.88051,-17.07947,767.5812],[31.9033,-17.0433,748.0162],[31.90775,-17.03328,744.9222],[31.91374,-17.00041,712.4406],[31.92,-16.98232,755.0765],[31.92987,-16.96496,682.8115],[31.94258,-16.94982,663.4462],[31.95741,-16.93793,766.3582],[31.98991,-16.92233,679.3094],[31.99875,-16.91421,634.7587],[32.00418,-16.9045,648.9631],[32.01544,-16.8568,691.004],[32.02242,-16.84083,628.6882],[32.03151,-16.82616,662.2687],[32.04195,-16.8152,597.7274],[32.07006,-16.79861,661.4845],[32.08619,-16.79246,640.1501],[32.10086,-16.78998,681.624],[32.10996,-16.79138,627.7695],[32.12675,-16.79815,633.9095],[32.13569,-16.80016,621.6384],[32.15719,-16.79923,630.4119],[32.18075,-16.79401,631.4585],[32.2036,-16.78575,612.3428],[32.22251,-16.77556,600.096],[32.23905,-16.76409,596.2605],[32.24768,-16.76011,605.4901],[32.25868,-16.75794,597.3575],[32.29977,-16.75944,629.5316],[32.31346,-16.7581,607.6801],[32.33935,-16.7488,565.0317],[32.38725,-16.72141,537.2374],[32.41299,-16.71226,535.3022],[32.4379,-16.70952,522.8194],[32.57313,-16.72565,540.558],[32.58192,-16.72869,626.4532],[32.59882,-16.73717,476.7284],[32.60765,-16.74042,457.7374],[32.66512,-16.74523,684.4146],[32.68377,-16.7426,430.4912],[32.70077,-16.73536,425.5795],[32.72723,-16.71107,454.1883],[32.73095,-16.70866,446.4776],[32.72522,-16.70642,458.0307],[32.69865,-16.68678,715.0956],[32.68863,-16.6473,712.7329],[32.68791,-16.62426,668.9345],[32.6831,-16.60989,676.6208],[32.67178,-16.59976,679.2267],[32.5521,-16.55336,640.3259],[32.39366,-16.49176,630.4786],[32.29046,-16.45176,599.6094],[32.21176,-16.44018,589.6118],[32.01415,-16.44494,860.2889],[31.91028,-16.42892,679.4216],[31.89436,-16.42148,670.3342],[31.88563,-16.40628,616.4625],[31.88072,-16.36804,572.9805],[31.87194,-16.35037,554.9568],[31.86005,-16.34076,544.4574],[31.81809,-16.31957,530.5786],[31.79876,-16.30365,519.8832],[31.7382,-16.23978,480.5199],[31.7107,-16.21787,464.8693],[31.68611,-16.20723,458.2062],[31.51919,-16.19648,418.4054],[31.48064,-16.17798,409.8001],[31.46566,-16.16775,402.1176],[31.44571,-16.16496,397.6245],[31.42411,-16.16475,398.2116],[31.40457,-16.16227,397.7398],[31.40271,-16.15937,395.157],[31.40406,-16.15452,394.2904],[31.40432,-16.14987,392.5334],[31.39961,-16.14728,393.3708],[31.39558,-16.1477,393.255],[31.38773,-16.14956,392.321],[31.38401,-16.14883,393.1772],[31.37775,-16.14222,388.7205],[31.3746,-16.13292,386.4656],[31.37026,-16.12372,383.7289],[31.36034,-16.1169,388.3172],[31.34091,-16.10666,381.9003],[31.32835,-16.09282,381.8978],[31.30959,-16.05902,369.7677],[31.29533,-16.04166,369.729],[31.2789,-16.03029,360.7099],[31.25998,-16.02347,354.0175],[31.15849,-16.00021,341.3076],[31.1141,-15.9969,331.92],[31.08904,-16.01189,326.7314],[31.08087,-16.02595,329.8651],[31.07333,-16.02553,331.9783],[31.06542,-16.01964,331.9405],[31.05689,-16.01757,334.181],[31.04222,-16.02491,337.4881],[31.02372,-16.04517,341.2859],[31.01204,-16.05488,344.8922],[30.98977,-16.06429,345.4073],[30.97308,-16.06202,351.1877],[30.9583,-16.05106,369.1108],[30.94217,-16.03452,371.2348],[30.90187,-16.00714,392.0199],[30.85742,-15.99814,408.8387],[30.74973,-15.99887,448.4847],[30.58659,-16.0,394.6758],[30.51481,-16.00042,375.8483],[30.40257,-16.00124,428.5598]]]}
,"properties": {"ISO3166-1-Alpha-3": "ZWE","country": "Zimbabwe","fill": "#FF0","name": "Mashonaland Central","area_km2": 27803.08,"hist_schema_id": "Elevation0-9000","hist_area_km2": {"325": 54.92,"350": 523.17,"375": 1158.1,"400": 1429.26,"425": 1274.99,"450": 1019.15,"475": 663.91,"500": 424.82,"525": 320.36,"550": 280.01,"575": 259.44,"600": 261.75,"625": 275.64,"650": 296.59,"675": 289.62,"700": 271.94,"725": 284.68,"750": 310.88,"775": 361.84,"800": 385.05,"825": 419.21,"850": 461.31,"875": 535.83,"900": 569.13,"925": 581.37,"950": 621.92,"975": 654.03,"1000": 683.81,"1025": 733.42,"1050": 802.21,"1075": 846.24,"1100": 923.37,"1125": 963.03,"1150": 960.99,"1175": 870.33,"1200": 798.01,"1225": 768.72,"1250": 706.76,"1275": 621.39,"1300": 524.81,"1325": 454.19,"1350": 418.93,"1375": 425.62,"1400": 468.83,"1425": 503.87,"1450": 434.74,"1475": 310.25,"1500": 249.93,"1525": 155.77,"1550": 84.14,"1575": 50.43,"1600": 24.8,"1625": 14.56,"1650": 8.94,"1675": 3.41,"1700": 1.44,"1725": 1.26}}}