{"type":"Feature","properties":{"GID_3":"ZWE.1.1.28_2","GID_0":"ZWE","country":"Zimbabwe","GID_1":"ZWE.1_1","province":"Bulawayo","NL_NAME_1":"NA","GID_2":"ZWE.1.1_2","county":"Bulawayo","NL_NAME_2":"NA","city":"Ward8","VARNAME_3":"NA","NL_NAME_3":"NA","TYPE_3":"Ward","ENGTYPE_3":"Ward","CC_3":"NA","HASC_3":"NA","name":"Ward8.city"},
"geometry":{"type": "MultiPolygon","coordinates": [[[[28.5613,-20.1357,1346.2528],[28.5603,-20.1391,1350.979],[28.5469,-20.1537,1353.6633],[28.5534,-20.15,1340.4177],[28.5629,-20.1483,1331.4819],[28.5688,-20.1452,1332.4036],[28.5728,-20.1386,1324.1379],[28.5775,-20.1359,1320.4274],[28.5786,-20.1382,1324.4258],[28.5819,-20.1398,1334.1558],[28.5824,-20.1225,1324.032],[28.5709,-20.1216,1330.1812],[28.5478,-20.1159,1327.5022],[28.5541,-20.1204,1333.834],[28.5553,-20.1281,1336.6333],[28.5613,-20.1357,1346.2528]]]]}}