{"type": "Feature","bbox": [29.7564,-20.625,30.4614,-19.9348],"geometry": {"type": "MultiPolygon","coordinates": [[[[30.3751,-20.4408,765.2011],[30.3717,-20.4389,770.3678],[30.3681,-20.4311,771.7612],[30.3643,-20.4274,762.5217],[30.3602,-20.4161,790.2662],[30.358,-20.4155,782.2671],[30.3524,-20.4199,779.9016],[30.3452,-20.4231,780.2138],[30.3391,-20.4181,782.0774],[30.3227,-20.3964,783.9068],[30.3183,-20.3876,788.3976],[30.3201,-20.3713,790.9147],[30.3138,-20.3649,819.8743],[30.2868,-20.3566,793.3686],[30.2819,-20.357,801.4059],[30.2739,-20.3538,804.324],[30.258,-20.3523,801.4715],[30.2436,-20.3348,802.5516],[30.2436,-20.322,810.1562],[30.2602,-20.2835,872.6522],[30.2613,-20.2764,825.9889],[30.2671,-20.272,827.6023],[30.2692,-20.2651,832.9513],[30.2681,-20.2627,838.363],[30.2748,-20.2569,836.6437],[30.2751,-20.2512,839.098],[30.2795,-20.2425,845.9471],[30.2773,-20.2374,844.6456],[30.2778,-20.229,850.5958],[30.1978,-20.1717,905.4708],[30.1585,-20.2065,880.5381],[30.1565,-20.2073,865.2119],[30.1553,-20.202,872.6376],[30.1536,-20.2004,872.2836],[30.1479,-20.1988,868.3167],[30.1527,-20.1903,873.4581],[30.16,-20.1877,869.4421],[30.1606,-20.1759,875.5089],[30.164,-20.1695,873.9592],[30.1667,-20.155,877.01],[30.1619,-20.1352,890.3245],[30.1582,-20.1267,885.2262],[30.1618,-20.1224,895.5877],[30.1666,-20.1211,892.3038],[30.1683,-20.1188,890.4108],[30.1719,-20.1082,897.1136],[30.1759,-20.1038,900.1643],[30.1767,-20.1001,901.4343],[30.1875,-20.098,902.2753],[30.185,-20.0891,910.1808],[30.1863,-20.0844,919.0468],[30.1853,-20.0806,916.792],[30.1882,-20.0717,922.3459],[30.1917,-20.0673,923.1663],[30.1904,-20.0653,930.3776],[30.1707,-20.0545,935.973],[30.1668,-20.0436,941.2587],[30.1604,-20.044,940.3314],[30.151,-20.0365,943.7621],[30.144,-20.0333,943.7126],[30.1426,-20.0283,950.8919],[30.1452,-20.024,952.7179],[30.1442,-20.0199,957.6851],[30.1466,-20.016,958.4198],[30.139,-20.0104,963.9395],[30.1425,-20.0056,963.53],[30.1425,-19.9998,964.7545],[30.139,-19.9925,968.6821],[30.1444,-19.987,966.804],[30.138,-19.9746,976.0276],[30.1388,-19.9704,972.0546],[30.1425,-19.9686,974.0505],[30.1442,-19.9647,977.1122],[30.1447,-19.9604,981.7768],[30.1433,-19.9586,989.1895],[30.0919,-19.9439,1254.2852],[30.078,-19.9432,1069.1963],[30.0474,-19.9348,1111.058],[30.0333,-19.9394,1081.1388],[29.9859,-19.9735,1052.5081],[29.9771,-20.0006,1042.0168],[29.9384,-20.0077,1070.7124],[29.9019,-20.0718,1108.3909],[29.8734,-20.0614,1101.5444],[29.8443,-20.1005,1177.9276],[29.816,-20.1592,1180.5551],[29.7927,-20.2139,1121.6755],[29.7922,-20.2392,1169.5415],[29.7874,-20.2487,1125.3259],[29.778199999999998,-20.2846,1117.9232],[29.7564,-20.3349,1030.896],[29.7684,-20.3337,1038.9219],[29.7836,-20.3518,1030.1715],[29.7889,-20.3518,1030.2081],[29.7934,-20.3565,1034.2927],[29.7968,-20.3574,1038.1304],[29.8017,-20.3658,1022.0889],[29.809,-20.3671,1016.4456],[29.8148,-20.3649,1011.9564],[29.8197,-20.3654,1015.3994],[29.8235,-20.3773,1004.8061],[29.8263,-20.379,1006.8762],[29.8342,-20.3786,999.1767],[29.8452,-20.3809,1000.8066],[29.8575,-20.3872,996.5112],[29.8735,-20.4002,988.4468],[29.879,-20.4109,974.3007],[29.8955,-20.4149,968.4468],[29.9029,-20.4189,968.1464],[29.9132,-20.4176,967.5403],[29.92,-20.4185,964.319],[29.9235,-20.4294,962.5006],[29.9285,-20.4328,960.9611],[29.9314,-20.4308,959.8525],[29.935,-20.4312,971.2117],[29.942,-20.4364,951.7722],[29.948,-20.4383,957.3593],[29.9593,-20.435,942.8537],[29.9636,-20.4359,953.0626],[29.9754,-20.449,992.3522],[29.9976,-20.4583,949.8016],[29.9953,-20.3947,1191.1292],[30.1373,-20.5095,949.3463],[30.1326,-20.5321,890.9673],[30.136,-20.5336,885.7432],[30.1391,-20.5374,882.7739],[30.1452,-20.5358,880.9167],[30.1528,-20.5373,876.699],[30.1633,-20.5327,874.7089],[30.177,-20.5189,871.3825],[30.1795,-20.5201,866.6384],[30.1815,-20.5267,863.7549],[30.1866,-20.5321,872.3723],[30.1929,-20.5313,864.1853],[30.2006,-20.5269,864.5933],[30.2034,-20.5273,868.6407],[30.2056,-20.5399,859.8278],[30.2107,-20.5431,860.9152],[30.2304,-20.5419,855.5813],[30.2504,-20.5499,830.7223],[30.2536,-20.5479,834.3549],[30.2553,-20.5484,836.6394],[30.2717,-20.5628,803.9459],[30.2752,-20.5634,797.9494],[30.2762,-20.56,798.0281],[30.2794,-20.5568,805.1313],[30.2977,-20.5625,784.71],[30.3073,-20.5685,768.6031],[30.3107,-20.5755,761.8829],[30.3363,-20.5752,743.8904],[30.3445,-20.5722,751.1948],[30.3674,-20.5689,744.0505],[30.3892,-20.5796,730.9205],[30.3976,-20.5786,732.4775],[30.4153,-20.589,727.0217],[30.4172,-20.5869,723.6452],[30.4144,-20.5825,733.5497],[30.4151,-20.581,731.6905],[30.4201,-20.5765,721.9923],[30.4287,-20.5746,724.8848],[30.4306,-20.5755,721.5779],[30.4318,-20.5809,725.8275],[30.4366,-20.5861,723.1472],[30.441,-20.5958,717.058],[30.4409,-20.6059,709.8201],[30.4436,-20.6125,719.5007],[30.4474,-20.6166,718.5002],[30.4451,-20.6227,718.2284],[30.447,-20.625,711.5717],[30.4497,-20.6248,703.5012],[30.4538,-20.6173,727.4454],[30.4495,-20.6092,714.5807],[30.4512,-20.5963,713.3337],[30.4506,-20.5895,719.119],[30.4493,-20.5827,719.9373],[30.4449,-20.5757,723.5862],[30.445,-20.5719,720.755],[30.4481,-20.5657,721.849],[30.4525,-20.5629,730.9874],[30.4603,-20.5629,726.4571],[30.4614,-20.5603,731.3824],[30.4606,-20.5556,727.2255],[30.4438,-20.528,732.1659],[30.421,-20.4993,751.8304],[30.4123,-20.4912,737.7042],[30.411,-20.4878,736.1373],[30.4141,-20.4813,737.2352],[30.4135,-20.4777,748.5645],[30.3941,-20.4574,769.3794],[30.3902,-20.4564,745.1567],[30.3751,-20.4408,765.2011]],
[[30.0676,-20.3628,903.7096],[30.0628,-20.3607,904.7726],[30.0627,-20.3555,921.3497],[30.0586,-20.3556,905.3312],[30.0515,-20.3523,911.3086],[30.0527,-20.3457,912.1609],[30.0484,-20.3429,913.149],[30.048,-20.3409,918.8269],[30.0408,-20.3399,916.6019],[30.0382,-20.3384,920.9789],[30.0377,-20.3361,925.373],[30.0349,-20.3357,920.1169],[30.0332,-20.3338,925.4319],[30.0371,-20.3317,924.821],[30.0366,-20.33,935.8565],[30.0322,-20.3303,927.4791],[30.0263,-20.3244,947.623],[30.0242,-20.3266,925.7145],[30.0181,-20.3273,930.2641],[30.0183,-20.3211,941.1327],[30.0167,-20.3197,937.7911],[30.0084,-20.319,942.2353],[30.005,-20.321,937.713],[30.0028,-20.317,939.1988],[29.9911,-20.3061,941.735],[29.9946,-20.303,943.0352],[29.9954,-20.2962,942.1333],[30.0395,-20.2762,984.3159],[30.0586,-20.2874,949.3642],[30.066,-20.2846,936.2744],[30.0689,-20.2884,925.897],[30.0685,-20.2943,926.7192],[30.086,-20.3061,917.3654],[30.0835,-20.3113,927.8807],[30.1019,-20.3258,1065.8926],[30.098,-20.3601,911.6974],[30.0984,-20.3766,881.5085],[30.0925,-20.3725,886.0348],[30.0913,-20.3673,888.0198],[30.0874,-20.3635,901.2081],[30.0866,-20.3668,888.8688],[30.085,-20.3673,892.6466],[30.0798,-20.3626,898.9581],[30.0676,-20.3628,903.7096]]]]}
,"properties": {"GID_2": "ZWE.10.13_2","GID_0": "ZWE","country": "Zimbabwe","GID_1": "ZWE.10_1","province": "Midlands","NL_NAME_1": "NA","county": "Zvishavane","VARNAME_2": "NA","NL_NAME_2": "NA","TYPE_2": "District","ENGTYPE_2": "District","CC_2": "NA","HASC_2": "NA","name": "Zvishavane.county","area_km2": 2482.799,"hist_schema_id": "Elevation0-9000","hist_area_km2": {"700": 0.357,"725": 10.838,"750": 35.28,"775": 42.197,"800": 61.549,"825": 132.761,"850": 210.227,"875": 218.171,"900": 171.457,"925": 128.687,"950": 145.322,"975": 192.839,"1000": 204.674,"1025": 236.292,"1050": 238.153,"1075": 190.788,"1100": 124.001,"1125": 60.751,"1150": 33.648,"1175": 17.389,"1200": 11.143,"1225": 9.49,"1250": 3.92,"1275": 1.473,"1300": 0.995,"1325": 0.358,"1350": 0.04}}}