{"type": "Feature","bbox": [30.6277,-17.8925,30.6644,-17.8792],"geometry": {"type": "MultiPolygon","coordinates": [[[[30.6277,-17.8912,1361.3064],[30.6316,-17.8925,1361.2401],[30.6562,-17.8914,1382.0297],[30.6644,-17.8812,1372.2019],[30.635,-17.8792,1365.2607],[30.6277,-17.8912,1361.3064]]]]}
,"properties": {"GID_3": "ZWE.6.11.4_2","GID_0": "ZWE","country": "Zimbabwe","GID_1": "ZWE.6_1","province": "MashonalandWest","NL_NAME_1": "NA","GID_2": "ZWE.6.11_2","county": "Norton","NL_NAME_2": "NA","city": "Ward12","VARNAME_3": "NA","NL_NAME_3": "NA","TYPE_3": "Ward","ENGTYPE_3": "Ward","CC_3": "NA","HASC_3": "NA","name": "Ward12.city","area_km2": 4.096031,"hist_schema_id": "Elevation0-9000","hist_area_km2": {"1350": 0.28248,"1375": 3.813551}}}