{"type": "Feature","bbox": [30.0017,-20.2824,30.0878,-20.1228],"geometry": {"type": "MultiPolygon","coordinates": [[[[30.0499,-20.2824,954.4362],[30.0509,-20.2805,983.2363],[30.0482,-20.2764,965.5834],[30.0531,-20.2633,976.9279],[30.046,-20.2483,988.2853],[30.0574,-20.2333,1018.5074],[30.0806,-20.2398,1042.9854],[30.0816,-20.1987,921.62],[30.0703,-20.1947,938.7395],[30.0659,-20.1958,944.0432],[30.0646,-20.1941,950.4747],[30.0608,-20.1949,948.1059],[30.0575,-20.1932,958.7941],[30.083,-20.1753,924.3749],[30.0878,-20.1627,901.1207],[30.0802,-20.1637,915.9816],[30.0737,-20.1623,933.5557],[30.0598,-20.1507,957.6882],[30.0553,-20.1447,945.6729],[30.0532,-20.138,934.0243],[30.0438,-20.1337,953.9688],[30.0447,-20.1281,946.3536],[30.0432,-20.127,953.1907],[30.0447,-20.1228,975.7006],[30.0386,-20.1238,965.7889],[30.031,-20.142,1047.8566],[30.023,-20.1429,1031.9143],[30.0208,-20.1481,1057.2117],[30.017,-20.1507,1080.9443],[30.0073,-20.148,1311.996],[30.0075,-20.1534,1136.6711],[30.0093,-20.1554,1111.0697],[30.0191,-20.1604,1042.2827],[30.0194,-20.1688,1016.0406],[30.0222,-20.1726,992.9224],[30.0197,-20.175,998.024],[30.0045,-20.2085,1005.3687],[30.0033,-20.2134,999.0114],[30.0052,-20.2177,994.134],[30.0017,-20.225,983.6583],[30.0044,-20.2248,986.9169],[30.004,-20.2291,980.0771],[30.007,-20.2325,976.1536],[30.0061,-20.2425,969.5746],[30.0094,-20.241,973.9515],[30.0218,-20.2424,988.7324],[30.0175,-20.2497,983.251],[30.0132,-20.2522,979.6718],[30.0109,-20.2619,969.4061],[30.012,-20.2635,966.6588],[30.0248,-20.2689,992.5225],[30.031,-20.2799,981.0205],[30.0395,-20.2762,984.3159],[30.0499,-20.2824,954.4362]]]]}
,"properties": {"GID_3": "ZWE.10.13.2_2","GID_0": "ZWE","country": "Zimbabwe","GID_1": "ZWE.10_1","province": "Midlands","NL_NAME_1": "NA","GID_2": "ZWE.10.13_2","county": "Zvishavane","NL_NAME_2": "NA","city": "Ward10","VARNAME_3": "NA","NL_NAME_3": "NA","TYPE_3": "Ward","ENGTYPE_3": "Ward","CC_3": "NA","HASC_3": "NA","name": "Ward10.city","area_km2": 87.92797,"hist_schema_id": "Elevation0-9000","hist_area_km2": {"900": 0.33834,"925": 5.27365,"950": 13.03504,"975": 20.414,"1000": 23.81501,"1025": 10.44629,"1050": 6.72572,"1075": 4.15888,"1100": 1.96995,"1125": 1.05464,"1150": 0.39794,"1175": 0.13927,"1200": 0.03981,"1225": 0.03981,"1250": 0.0199,"1275": 0.0199,"1300": 0.0199,"1325": 0.0199}}}