{"type": "Feature","bbox": [25.8163,-17.9561,25.8546,-17.8849],"geometry": {"type": "MultiPolygon","coordinates": [[[[25.8212,-17.8849,886.3411],[25.8203,-17.8977,888.1271],[25.8163,-17.9113,912.959],[25.8217,-17.9215,959.585],[25.8269,-17.9239,961.6992],[25.8306,-17.9305,960.1635],[25.8361,-17.9284,928.2856],[25.8322,-17.9561,917.6038],[25.8368,-17.9482,912.6719],[25.8497,-17.9389,848.0521],[25.8475,-17.9344,846.5402],[25.8546,-17.9256,850.7868],[25.8546,-17.9224,882.0],[25.8513,-17.9179,886.3671],[25.8529,-17.9096,882.5],[25.8498,-17.9016,883.0],[25.8458,-17.8986,883.125],[25.8438,-17.8934,887.0409],[25.8398,-17.8897,887.7095],[25.831,-17.8853,884.0],[25.8212,-17.8849,886.3411]]]]}
,"properties": {"GID_3": "ZWE.8.9.4_2","GID_0": "ZWE","country": "Zimbabwe","GID_1": "ZWE.8_1","province": "MatabelelandNorth","NL_NAME_1": "NA","GID_2": "ZWE.8.9_2","county": "VictoriaFalls","NL_NAME_2": "NA","city": "Ward2","VARNAME_3": "NA","NL_NAME_3": "NA","TYPE_3": "Ward","ENGTYPE_3": "Ward","CC_3": "NA","HASC_3": "NA","name": "Ward2.city","area_km2": 17.18855,"hist_schema_id": "Elevation0-9000","hist_area_km2": {"775": 0.16138,"800": 0.06052,"825": 0.16138,"850": 0.18155,"875": 4.86223,"900": 7.54534,"925": 3.30837,"950": 0.86744,"975": 0.04035}}}