{"type": "Feature","bbox": [29.5257,-19.9732,29.8595,-19.6908],"geometry": {"type": "MultiPolygon","coordinates": [[[[29.6994,-19.9732,1239.2068],[29.711,-19.9729,1234.3923],[29.7528,-19.9551,1206.4584],[29.7977,-19.9449,1208.7732],[29.7868,-19.9234,1215.726],[29.848,-19.8957,1169.4899],[29.8446,-19.8948,1175.6172],[29.8412,-19.896,1163.5886],[29.844,-19.8899,1171.0836],[29.837,-19.8875,1176.1046],[29.8362,-19.8699,1214.2693],[29.8394,-19.87,1183.4177],[29.8407,-19.8681,1186.2244],[29.8352,-19.8643,1187.4598],[29.8395,-19.8603,1194.8447],[29.8412,-19.8519,1189.9108],[29.8439,-19.848,1190.0474],[29.8405,-19.8432,1200.0647],[29.8418,-19.8387,1206.4453],[29.8377,-19.8359,1197.4507],[29.8411,-19.8284,1204.8976],[29.8415,-19.8201,1205.0984],[29.8454,-19.8125,1211.0812],[29.8459,-19.8055,1223.7632],[29.8442,-19.8019,1222.4612],[29.8458,-19.795,1228.4346],[29.8421,-19.795,1225.8784],[29.842,-19.7933,1226.9541],[29.8437,-19.7889,1242.5],[29.8474,-19.7861,1242.5],[29.8501,-19.7765,1242.5],[29.8538,-19.7742,1242.5],[29.8518,-19.7648,1242.5],[29.8552,-19.7626,1242.7588],[29.8541,-19.7561,1249.5194],[29.8595,-19.7495,1261.641],[29.8517,-19.7458,1254.1426],[29.847,-19.7371,1261.2046],[29.8373,-19.7362,1261.4321],[29.8339,-19.7257,1263.4983],[29.8346,-19.7226,1272.6562],[29.8331,-19.7217,1265.6561],[29.826,-19.7222,1270.0748],[29.8135,-19.7203,1280.3417],[29.8152,-19.7114,1284.248],[29.8186,-19.7089,1283.5779],[29.819,-19.7053,1288.7393],[29.8162,-19.7011,1292.2242],[29.817,-19.6999,1292.2242],[29.8124,-19.6996,1290.719],[29.8081,-19.6908,1298.6671],[29.7881,-19.6964,1329.8588],[29.694,-19.7885,1317.417],[29.6595,-19.7966,1316.6274],[29.6075,-19.8126,1309.9969],[29.5859,-19.8228,1291.5566],[29.5563,-19.8309,1313.8716],[29.5257,-19.8677,1408.8394],[29.5429,-19.8749,1348.4672],[29.5622,-19.8861,1340.0081],[29.5822,-19.9182,1296.905],[29.5985,-19.9342,1278.6039],[29.6061,-19.935,1272.2786],[29.6185,-19.9322,1264.9076],[29.6541,-19.9122,1271.0338],[29.6639,-19.9083,1251.8523],[29.6802,-19.9051,1259.9014],[29.6874,-19.9289,1251.2576],[29.6943,-19.9688,1249.7679],[29.6952,-19.9722,1247.9552],[29.6994,-19.9732,1239.2068]]]]}
,"properties": {"GID_3": "ZWE.10.5.9_2","GID_0": "ZWE","country": "Zimbabwe","GID_1": "ZWE.10_1","province": "Midlands","NL_NAME_1": "NA","GID_2": "ZWE.10.5_2","county": "Gweru","NL_NAME_2": "NA","city": "Ward17","VARNAME_3": "NA","NL_NAME_3": "NA","TYPE_3": "Ward","ENGTYPE_3": "Ward","CC_3": "NA","HASC_3": "NA","name": "Ward17.city","area_km2": 555.4969,"hist_schema_id": "Elevation0-9000","hist_area_km2": {"1150": 0.8573,"1175": 8.2337,"1200": 44.4586,"1225": 56.0295,"1250": 92.4107,"1275": 157.6163,"1300": 128.177,"1325": 40.0328,"1350": 11.3278,"1375": 7.2394,"1400": 4.3275,"1425": 2.0143,"1450": 1.4957,"1475": 0.698,"1500": 0.2991,"1525": 0.1994,"1550": 0.0797}}}