{"type":"Feature","properties":{"GID_3":"ZWE.10.3.18_2","GID_0":"ZWE","country":"Zimbabwe","GID_1":"ZWE.10_1","province":"Midlands","NL_NAME_1":"NA","GID_2":"ZWE.10.3_2","county":"GokweSouth","NL_NAME_2":"NA","city":"Ward25","VARNAME_3":"NA","NL_NAME_3":"NA","TYPE_3":"Ward","ENGTYPE_3":"Ward","CC_3":"NA","HASC_3":"NA","name":"Ward25.city"},
"geometry":{"type": "MultiPolygon","coordinates": [[[[29.1788,-18.4367,1234.4062],[29.1794,-18.4415,1137.9016],[29.1945,-18.4428,1131.6125],[29.1988,-18.4465,1121.0565],[29.199,-18.4444,1124.7115],[29.2007,-18.4436,1126.9396],[29.2072,-18.4459,1120.3248],[29.2104,-18.4441,1124.3821],[29.2092,-18.4469,1120.0641],[29.2116,-18.4481,1123.6298],[29.2131,-18.4526,1114.3965],[29.2151,-18.4536,1112.6631],[29.2153,-18.4519,1117.2767],[29.2177,-18.4522,1124.4497],[29.2176,-18.4547,1111.1736],[29.2193,-18.4525,1121.3566],[29.2207,-18.4537,1114.4402],[29.2203,-18.4573,1111.2897],[29.2181,-18.4584,1119.7335],[29.221,-18.4599,1107.4961],[29.2234,-18.4585,1116.5759],[29.2253,-18.4607,1111.2817],[29.2277,-18.4601,1123.683],[29.2268,-18.4625,1106.1437],[29.2279,-18.4655,1111.0679],[29.2255,-18.4678,1109.2733],[29.227,-18.4693,1105.5032],[29.2266,-18.4715,1103.7882],[29.2289,-18.473,1101.604],[29.2316,-18.472,1103.2329],[29.2338,-18.474,1101.1714],[29.2346,-18.4716,1102.6763],[29.2362,-18.4732,1100.2002],[29.2387,-18.4722,1109.3927],[29.2374,-18.4741,1100.2002],[29.2386,-18.4793,1098.3911],[29.2419,-18.4772,1107.8396],[29.2489,-18.4775,1106.21],[29.2571,-18.5022,1113.7007],[29.2607,-18.5087,1108.6294],[29.2708,-18.5188,1098.4683],[29.2784,-18.5194,1088.0668],[29.3071,-18.5302,1070.6357],[29.3198,-18.5188,1049.7142],[29.325,-18.5173,1048.2466],[29.328,-18.5109,1047.1405],[29.3481,-18.5018,1044.6586],[29.3615,-18.504,1048.3359],[29.3675,-18.4984,1045.2394],[29.3736,-18.499,1045.5],[29.3875,-18.5041,1030.2466],[29.3914,-18.4964,1029.1936],[29.3973,-18.4927,1020.1613],[29.398,-18.4862,1019.6003],[29.4015,-18.4792,1021.2661],[29.4042,-18.4763,1019.8243],[29.4078,-18.4755,1016.9296],[29.4085,-18.4717,1018.9929],[29.4141,-18.4662,1017.0221],[29.4121,-18.4616,1014.5],[29.4152,-18.4472,1000.1884],[29.4147,-18.4452,1012.179],[29.4075,-18.4399,996.9476],[29.414,-18.4326,994.4069],[29.4091,-18.4277,983.435],[29.4125,-18.4205,988.1767],[29.4057,-18.4104,976.746],[29.4097,-18.4035,986.9081],[29.4044,-18.401,970.7431],[29.4044,-18.3976,979.2604],[29.3942,-18.3859,966.8475],[29.3909,-18.3749,955.517],[29.3883,-18.373,952.1265],[29.3903,-18.366,947.9402],[29.3892,-18.3631,946.9823],[29.3802,-18.3521,951.0878],[29.3855,-18.3481,940.1348],[29.3841,-18.3438,938.0004],[29.3859,-18.3372,947.2275],[29.3799,-18.33,921.174],[29.3829,-18.3183,916.7458],[29.3707,-18.3213,925.9945],[29.3637,-18.3337,939.3076],[29.3567,-18.3402,975.0179],[29.3436,-18.3638,977.7927],[29.3362,-18.368,987.7236],[29.3323,-18.3724,994.098],[29.325,-18.3741,1058.677],[29.3187,-18.3715,1213.5541],[29.3126,-18.3746,1207.5541],[29.3087,-18.3893,1071.7776],[29.303,-18.3952,1087.4539],[29.2971,-18.398,1221.299],[29.2925,-18.4039,1238.9375],[29.2993,-18.4076,1127.05],[29.3006,-18.4147,1270.1697],[29.2993,-18.4214,1214.9357],[29.3026,-18.4279,1270.4338],[29.3171,-18.4299,1237.5771],[29.3257,-18.4396,1270.77],[29.3334,-18.4427,1272.7629],[29.3334,-18.4503,1191.5266],[29.322,-18.4593,1152.7444],[29.3195,-18.4736,1078.5798],[29.3122,-18.4753,1090.3162],[29.3078,-18.4711,1094.4851],[29.3056,-18.4632,1100.3792],[29.3045,-18.449,1270.5447],[29.2986,-18.4509,1256.4716],[29.2953,-18.4578,1181.8298],[29.283,-18.465,1135.8927],[29.2855,-18.4721,1118.6307],[29.2826,-18.4784,1104.5472],[29.2754,-18.4757,1105.8435],[29.2725,-18.4684,1113.0988],[29.2727,-18.4624,1125.616],[29.2657,-18.4622,1129.4253],[29.2496,-18.4428,1211.5803],[29.2455,-18.4318,1172.5686],[29.2481,-18.431,1207.3569],[29.2494,-18.428,1252.7894],[29.2467,-18.4267,1253.0507],[29.2447,-18.4283,1242.4166],[29.2424,-18.4274,1174.6289],[29.2449,-18.4178,1266.8372],[29.2425,-18.419,1246.1191],[29.2401,-18.4148,1248.5391],[29.2343,-18.4129,1214.4567],[29.2358,-18.411,1267.2428],[29.2326,-18.4068,1250.2194],[29.2315,-18.4103,1223.3193],[29.2268,-18.4123,1228.3849],[29.2247,-18.4062,1260.1782],[29.2202,-18.415,1236.7695],[29.2181,-18.4139,1235.7875],[29.2186,-18.4114,1242.3802],[29.2159,-18.4128,1240.9492],[29.2127,-18.411,1237.535],[29.2117,-18.4124,1231.4841],[29.2146,-18.4184,1230.8435],[29.2105,-18.4186,1241.446],[29.209,-18.4244,1192.3156],[29.206,-18.4276,1236.4553],[29.2033,-18.4254,1199.1726],[29.2039,-18.4198,1231.6289],[29.1971,-18.4274,1231.5665],[29.1942,-18.4261,1207.2551],[29.1937,-18.4198,1186.7571],[29.1954,-18.4172,1229.1133],[29.1951,-18.4152,1237.1625],[29.1933,-18.4167,1219.8033],[29.1927,-18.4123,1237.7114],[29.1921,-18.4165,1232.8687],[29.1896,-18.4162,1236.3298],[29.1912,-18.4193,1208.3568],[29.1893,-18.4221,1228.4249],[29.1818,-18.4169,1204.2384],[29.1819,-18.4135,1232.8995],[29.1797,-18.4142,1226.5143],[29.1785,-18.4116,1230.7673],[29.1787,-18.414,1226.5143],[29.1769,-18.4153,1229.7084],[29.1788,-18.4183,1175.1313],[29.1779,-18.4206,1176.3723],[29.184,-18.4235,1152.6033],[29.1831,-18.4281,1228.3834],[29.1851,-18.4307,1152.8081],[29.1824,-18.4357,1231.1227],[29.1788,-18.4367,1234.4062]]]]}}