{"type":"Feature","properties":{"GID_3":"ZWE.8.8.11_2","GID_0":"ZWE","country":"Zimbabwe","GID_1":"ZWE.8_1","province":"MatabelelandNorth","NL_NAME_1":"NA","GID_2":"ZWE.8.8_2","county":"Umguza","NL_NAME_2":"NA","city":"Ward19","VARNAME_3":"NA","NL_NAME_3":"NA","TYPE_3":"Ward","ENGTYPE_3":"Ward","CC_3":"NA","HASC_3":"NA","name":"Ward19.city"},
"geometry":{"type": "MultiPolygon","coordinates": [[[[28.1488,-19.7549,1163.5737],[28.1345,-19.779,1179.2117],[28.1398,-19.779,1177.3921],[28.1131,-19.8248,1178.2363],[28.0948,-19.8207,1202.7367],[28.0703,-19.8718,1126.1096],[28.0742,-19.8686,1127.6747],[28.0787,-19.8679,1129.1135],[28.0846,-19.8733,1131.2405],[28.0923,-19.8746,1132.1007],[28.1019,-19.8697,1133.8574],[28.1186,-19.8687,1138.4551],[28.1235,-19.8645,1149.6389],[28.1243,-19.8677,1141.1489],[28.1344,-19.8687,1145.0026],[28.1362,-19.872,1145.9106],[28.1401,-19.874,1146.484],[28.1548,-19.8721,1148.4934],[28.1652,-19.8668,1150.4691],[28.1732,-19.8692,1152.3436],[28.1819,-19.8655,1153.5531],[28.1882,-19.8698,1155.061],[28.1972,-19.8716,1157.5947],[28.1992,-19.8763,1160.2046],[28.2034,-19.8784,1159.1663],[28.205,-19.8854,1162.0217],[28.2076,-19.8895,1163.0371],[28.2125,-19.8872,1164.1216],[28.2141,-19.8833,1163.7137],[28.2161,-19.8829,1169.499],[28.2188,-19.8891,1164.7339],[28.2225,-19.8874,1166.7976],[28.2251,-19.89,1170.8529],[28.2269,-19.888,1169.165],[28.2384,-19.8948,1169.8495],[28.2388,-19.8973,1169.3049],[28.241,-19.8989,1169.7593],[28.2412,-19.8956,1171.0574],[28.2437,-19.8954,1172.1151],[28.2439,-19.899,1171.9934],[28.246,-19.9009,1173.3911],[28.2487,-19.8995,1172.4703],[28.2482,-19.8967,1171.8667],[28.2543,-19.8967,1172.9897],[28.2545,-19.9016,1174.4913],[28.2627,-19.9041,1173.4534],[28.2666,-19.9036,1174.4197],[28.2711,-19.9116,1177.5107],[28.276,-19.9135,1178.1814],[28.2781,-19.9171,1177.1503],[28.2811,-19.9183,1178.558],[28.2864,-19.9173,1179.8135],[28.2869,-19.9187,1180.7578],[28.2843,-19.921,1176.8033],[28.2888,-19.9252,1178.9219],[28.2917,-19.9252,1178.8423],[28.2951,-19.9207,1181.083],[28.301,-19.9222,1182.87],[28.301,-19.9292,1184.0634],[28.3049,-19.9301,1183.6118],[28.3065,-19.929,1185.3344],[28.3073,-19.9239,1184.0815],[28.3088,-19.9234,1184.436],[28.3135,-19.9309,1187.2839],[28.3141,-19.9249,1186.3909],[28.3196,-19.9236,1187.3926],[28.3194,-19.927,1189.2869],[28.3229,-19.9327,1190.4908],[28.326,-19.9313,1188.1307],[28.324,-19.9269,1188.7749],[28.3283,-19.9251,1190.0463],[28.3325,-19.9267,1196.8752],[28.3352,-19.9295,1195.7627],[28.3345,-19.9357,1189.7476],[28.3368,-19.9356,1194.3093],[28.3384,-19.9391,1191.8511],[28.341,-19.9404,1195.6589],[28.3379,-19.9491,1193.295],[28.3403,-19.9504,1194.3865],[28.3485,-19.9478,1193.9246],[28.3528,-19.9499,1195.3273],[28.3506,-19.9568,1197.0583],[28.3527,-19.9634,1196.219],[28.357,-19.9668,1197.4097],[28.3546,-19.9718,1198.1464],[28.3654,-19.9748,1210.0023],[28.3677,-19.9808,1206.5902],[28.3729,-19.9838,1211.0266],[28.3746,-19.9895,1202.2518],[28.3634,-20.0084,1209.8177],[28.3692,-20.0217,1212.8872],[28.3719,-20.034,1218.8535],[28.4055,-20.0174,1246.3835],[28.4301,-20.0024,1263.759],[28.4454,-19.9836,1284.3265],[28.4685,-19.962,1247.1965],[28.4401,-19.9345,1304.0455],[28.4204,-19.93,1281.3875],[28.4217,-19.9144,1295.7622],[28.3906,-19.8896,1249.4021],[28.3936,-19.8757,1281.6499],[28.352,-19.8616,1272.5771],[28.3237,-19.8618,1275.3132],[28.3228,-19.8703,1272.426],[28.3128,-19.8794,1219.2853],[28.2668,-19.8756,1192.8608],[28.2689,-19.8672,1201.0276],[28.2623,-19.8671,1197.6292],[28.2628,-19.8576,1203.2664],[28.2498,-19.8492,1207.7041],[28.2497,-19.827,1243.0889],[28.2774,-19.8184,1219.5863],[28.2993,-19.7746,1247.1183],[28.2496,-19.7634,1212.8839],[28.2478,-19.7645,1212.8839],[28.2433,-19.7636,1210.7721],[28.2505,-19.7513,1202.4298],[28.251,-19.7427,1199.738],[28.2323,-19.7358,1194.5452],[28.22,-19.7529,1224.1428],[28.1976,-19.7429,1216.5332],[28.1818,-19.7628,1176.0687],[28.1662,-19.7583,1171.0388],[28.1641,-19.7563,1169.7806],[28.1556,-19.7573,1166.1672],[28.1488,-19.7549,1163.5737]]]]}}