{"type":"Feature","properties":{"GID_3":"ZWE.8.5.27_2","GID_0":"ZWE","country":"Zimbabwe","GID_1":"ZWE.8_1","province":"MatabelelandNorth","NL_NAME_1":"NA","GID_2":"ZWE.8.5_2","county":"Lupane","NL_NAME_2":"NA","city":"Ward8","VARNAME_3":"NA","NL_NAME_3":"NA","TYPE_3":"Ward","ENGTYPE_3":"Ward","CC_3":"NA","HASC_3":"NA","name":"Ward8.city"},
"geometry":{"type": "MultiPolygon","coordinates": [[[[27.6469,-18.73,937.1884],[27.6484,-18.7258,942.142],[27.6465,-18.7199,945.4214],[27.6484,-18.716,951.4439],[27.6538,-18.7104,957.3574],[27.6678,-18.7018,983.5793],[27.7162,-18.6496,1026.9939],[27.7228,-18.6471,1026.7633],[27.7506,-18.6459,1045.3389],[27.7502,-18.6397,1070.8203],[27.7562,-18.635,1078.2842],[27.7579,-18.6311,1081.6429],[27.7578,-18.624,1081.7493],[27.7523,-18.5838,1089.5645],[27.7473,-18.5614,1070.5383],[27.7305,-18.5632,1046.5217],[27.6828,-18.5737,1051.1754],[27.6785,-18.5776,1080.9349],[27.668,-18.5792,1078.9811],[27.622,-18.5971,1067.7148],[27.6016,-18.6077,1057.114],[27.5948,-18.615,1013.1627],[27.5943,-18.6349,975.874],[27.5814,-18.6294,981.8059],[27.5656,-18.6195,971.5228],[27.5496,-18.615,978.4977],[27.5304,-18.603,981.1451],[27.5177,-18.6031,976.8704],[27.5004,-18.5917,977.9867],[27.4914,-18.5661,949.0058],[27.4744,-18.5716,957.4279],[27.4556,-18.6132,926.9984],[27.4388,-18.6196,918.1221],[27.4475,-18.6219,920.1915],[27.4601,-18.6311,923.4226],[27.4706,-18.6452,919.0686],[27.4781,-18.6476,924.2312],[27.495,-18.6487,930.6376],[27.4998,-18.6535,922.8683],[27.5014,-18.6588,922.1693],[27.5052,-18.6592,923.0007],[27.5145,-18.6564,923.4044],[27.5215,-18.6616,922.0103],[27.5593,-18.6785,926.2344],[27.5649,-18.6847,927.2258],[27.5941,-18.691,932.5127],[27.597,-18.6937,932.9959],[27.5957,-18.7067,934.7502],[27.6022,-18.7151,935.1515],[27.6053,-18.7155,935.2219],[27.6162,-18.7114,937.8875],[27.6224,-18.7205,935.8206],[27.6266,-18.7237,937.3362],[27.6424,-18.7273,936.5067],[27.6469,-18.73,937.1884]]]]}}