{"type": "Feature","bbox": [32.6137,-20.2378,32.6606,-20.1933],"geometry": {"type": "MultiPolygon","coordinates": [[[[32.6409,-20.1986,1048.2545],[32.6274,-20.1933,1092.265],[32.6185,-20.1984,1090.045],[32.6183,-20.2082,1076.7783],[32.6245,-20.2173,1032.3802],[32.6143,-20.2177,1146.119],[32.6137,-20.2252,1137.5062],[32.6606,-20.2378,1043.3438],[32.6516,-20.2149,1009.33],[32.6364,-20.2057,1081.9987],[32.6361,-20.2023,1069.6172],[32.6412,-20.2029,1043.1326],[32.6409,-20.1986,1048.2545]]]]}
,"properties": {"GID_3": "ZWE.3.4.7_2","GID_0": "ZWE","country": "Zimbabwe","GID_1": "ZWE.3_1","province": "Manicaland","NL_NAME_1": "NA","GID_2": "ZWE.3.4_2","county": "ChipingeUrban","NL_NAME_2": "NA","city": "Ward7","VARNAME_3": "NA","NL_NAME_3": "NA","TYPE_3": "Ward","ENGTYPE_3": "Ward","CC_3": "NA","HASC_3": "NA","name": "Ward7.city","area_km2": 12.554366,"hist_schema_id": "Elevation0-9000","hist_area_km2": {"950": 0.198942,"975": 1.691049,"1000": 2.069095,"1025": 2.108911,"1050": 1.551911,"1075": 1.731029,"1100": 1.671357,"1125": 1.372908,"1150": 0.139268,"1175": 0.019895}}}