{"type": "Feature","bbox": [30.8695,-16.852,31.0804,-16.7404],"geometry": {"type": "MultiPolygon","coordinates": [[[[30.956,-16.7507,1585.8188],[30.9577,-16.7594,1620.9332],[30.9364,-16.7792,1590.7043],[30.8695,-16.8123,1633.1816],[30.917,-16.8347,1358.7006],[30.9797,-16.852,1266.7068],[31.0512,-16.8421,1285.8545],[31.0493,-16.8306,1272.4127],[31.0437,-16.8222,1249.6437],[31.0387,-16.8201,1243.993],[31.0804,-16.8009,1272.2943],[31.073,-16.7922,1264.6769],[31.0771,-16.7663,1249.7568],[31.0492,-16.7404,1139.7281],[31.0474,-16.7407,1186.9561],[31.0484,-16.7435,1137.4633],[31.047,-16.7438,1165.9316],[31.0477,-16.7463,1145.399],[31.0458,-16.7483,1170.1112],[31.0458,-16.7521,1148.9615],[31.0407,-16.7573,1158.1594],[31.0408,-16.7616,1152.7147],[30.9961,-16.7505,1395.2218],[30.956,-16.7507,1585.8188]]]]}
,"properties": {"GID_3": "ZWE.4.3.21_2","GID_0": "ZWE","country": "Zimbabwe","GID_1": "ZWE.4_1","province": "MashonalandCentral","NL_NAME_1": "NA","GID_2": "ZWE.4.3_2","county": "Centenary/Muzarabani","NL_NAME_2": "NA","city": "Ward28","VARNAME_3": "NA","NL_NAME_3": "NA","TYPE_3": "Ward","ENGTYPE_3": "Ward","CC_3": "NA","HASC_3": "NA","name": "Ward28.city","area_km2": 163.1898,"hist_schema_id": "Elevation0-9000","hist_area_km2": {"1125": 0.0406,"1150": 1.1775,"1175": 5.9279,"1200": 13.2153,"1225": 22.1053,"1250": 29.5118,"1275": 28.6575,"1300": 20.2345,"1325": 11.6092,"1350": 7.9361,"1375": 6.0486,"1400": 4.9932,"1425": 3.7956,"1450": 3.2272,"1475": 0.812,"1500": 0.6699,"1525": 0.609,"1550": 0.5278,"1575": 0.7714,"1600": 0.4263,"1625": 0.3045,"1650": 0.3045,"1675": 0.0812,"1700": 0.1624,"1725": 0.0406}}}