{"type":"Feature","properties":{"GID_3":"ZWE.3.1.14_2","GID_0":"ZWE","country":"Zimbabwe","GID_1":"ZWE.3_1","province":"Manicaland","NL_NAME_1":"NA","GID_2":"ZWE.3.1_2","county":"Buhera","NL_NAME_2":"NA","city":"Ward22","VARNAME_3":"NA","NL_NAME_3":"NA","TYPE_3":"Ward","ENGTYPE_3":"Ward","CC_3":"NA","HASC_3":"NA","name":"Ward22.city"},
"geometry":{"type": "MultiPolygon","coordinates": [[[[31.9597,-19.4257,847.416],[31.9501,-19.4282,852.1108],[31.9499,-19.4303,852.265],[31.9422,-19.4315,868.3253],[31.9426,-19.4343,862.836],[31.9264,-19.4366,880.1069],[31.9228,-19.4393,881.1133],[31.919,-19.4395,883.2444],[31.918,-19.4416,884.7679],[31.9019,-19.4397,904.0743],[31.9018,-19.442,907.0507],[31.8943,-19.4504,914.0135],[31.8861,-19.455,924.743],[31.8775,-19.4549,936.9276],[31.8764,-19.4575,936.4314],[31.874,-19.4584,941.0898],[31.8671,-19.4577,957.5878],[31.8644,-19.4558,959.671],[31.8586,-19.4578,967.5444],[31.838,-19.4598,1012.4005],[31.8421,-19.4691,1003.6023],[31.8479,-19.4715,1003.427],[31.8487,-19.4904,978.3943],[31.8453,-19.4955,973.5911],[31.8451,-19.5043,968.4617],[31.8433,-19.5103,961.2811],[31.844,-19.5154,957.2454],[31.8418,-19.5172,956.2528],[31.8391,-19.5249,950.1111],[31.8393,-19.5303,951.3144],[31.8439,-19.5369,938.8315],[31.8428,-19.5414,935.9256],[31.8469,-19.5467,932.2772],[31.8471,-19.5495,930.2872],[31.8452,-19.549,932.355],[31.8454,-19.5518,931.522],[31.8473,-19.5549,929.8644],[31.848,-19.5529,929.8121],[31.8512,-19.5612,923.6209],[31.8498,-19.5696,915.282],[31.854,-19.573,913.6086],[31.8538,-19.5747,913.5321],[31.8618,-19.5765,905.6297],[31.8645,-19.5827,905.8857],[31.8645,-19.5878,904.0571],[31.8673,-19.5884,900.0481],[31.8668,-19.5927,900.1361],[31.8713,-19.5951,890.7925],[31.8713,-19.5974,893.1276],[31.8748,-19.6025,886.7675],[31.874,-19.6039,886.1757],[31.8775,-19.6143,876.9928],[31.8811,-19.6171,873.7633],[31.8831,-19.6214,869.0861],[31.8911,-19.6,893.6791],[31.8922,-19.5892,894.2388],[31.8966,-19.5827,900.1635],[31.8973,-19.5766,905.3911],[31.8956,-19.5683,915.7507],[31.8995,-19.5649,963.1503],[31.9056,-19.5482,965.0495],[31.9048,-19.5396,1053.4485],[31.912,-19.5393,1112.0614],[31.9291,-19.5443,1064.0381],[31.9454,-19.5604,1016.5],[31.9511,-19.5608,1007.3137],[31.9593,-19.5644,977.9259],[31.9694,-19.5634,947.9839],[31.9834,-19.5728,907.646],[31.9915,-19.5711,890.8862],[31.9978,-19.5641,881.8142],[32.0033,-19.5619,871.5575],[32.0085,-19.5514,855.9967],[32.0206,-19.5472,837.4263],[32.0231,-19.5444,846.0599],[32.0275,-19.5447,833.4465],[32.0285,-19.548,826.6975],[32.0338,-19.551,822.5053],[32.0395,-19.5464,814.927],[32.0461,-19.549,808.1012],[32.0505,-19.5486,798.1117],[32.0529,-19.5439,801.1621],[32.0671,-19.5414,781.0802],[32.0709,-19.5359,773.5382],[32.0759,-19.5323,769.4653],[32.0833,-19.5317,767.187],[32.0913,-19.5345,758.1584],[32.0987,-19.5287,753.1405],[32.105,-19.5292,743.4529],[32.1077,-19.5269,748.0341],[32.1129,-19.5279,737.0693],[32.1259,-19.5154,718.1976],[32.1217,-19.5128,730.3298],[32.1053,-19.5117,738.3103],[32.101,-19.5089,743.403],[32.094,-19.5116,744.5801],[32.0869,-19.51,760.6375],[32.0723,-19.5142,768.3647],[32.0663,-19.5106,779.4319],[32.0617,-19.515,780.0421],[32.0571,-19.5147,790.9993],[32.0512,-19.5172,792.5952],[32.0401,-19.5168,802.9547],[32.0302,-19.5103,819.7071],[32.023,-19.5118,826.0499],[32.0205,-19.5072,833.4031],[32.0161,-19.5042,838.3402],[32.0147,-19.5048,838.5757],[32.0123,-19.503,842.7036],[32.0108,-19.5048,843.6],[32.0084,-19.5025,854.9244],[32.0012,-19.5024,855.9639],[31.9992,-19.5005,859.5641],[31.9992,-19.4972,866.9988],[31.9925,-19.4956,877.5529],[31.9895,-19.4881,888.5919],[31.974,-19.4755,902.053],[31.9698,-19.4696,918.7402],[31.9606,-19.4666,925.6555],[31.9597,-19.461,906.7079],[31.9639,-19.4499,891.6783],[31.9793,-19.4346,860.6479],[31.9816,-19.4285,848.0515],[32.0016,-19.4145,802.2904],[32.0054,-19.4141,803.7171],[31.9991,-19.4104,816.7807],[31.987,-19.4125,823.3985],[31.9791,-19.4155,828.071],[31.9775,-19.4188,826.5468],[31.9731,-19.4195,835.511],[31.9682,-19.4252,836.2007],[31.9597,-19.4257,847.416]]]]}}