{"type":"Feature","properties":{"GID_3":"ZWE.6.12.18_2","GID_0":"ZWE","country":"Zimbabwe","GID_1":"ZWE.6_1","province":"MashonalandWest","NL_NAME_1":"NA","GID_2":"ZWE.6.12_2","county":"Sanyati","NL_NAME_2":"NA","city":"Ward9","VARNAME_3":"NA","NL_NAME_3":"NA","TYPE_3":"Ward","ENGTYPE_3":"Ward","CC_3":"NA","HASC_3":"NA","name":"Ward9.city"},
"geometry":{"type": "MultiPolygon","coordinates": [[[[29.4105,-18.0062,906.6508],[29.4602,-17.997,894.5684],[29.462,-17.9879,889.0046],[29.4665,-17.9862,895.0732],[29.4585,-17.9834,888.3585],[29.4601,-17.9809,902.4957],[29.4588,-17.975,888.3096],[29.4608,-17.9748,887.5],[29.4649,-17.9703,890.206],[29.4628,-17.9617,880.8254],[29.4569,-17.9509,877.827],[29.4522,-17.9508,874.775],[29.4461,-17.9433,869.5044],[29.446,-17.9413,868.8378],[29.4479,-17.942,872.0945],[29.4468,-17.9374,870.2629],[29.4431,-17.9372,872.2157],[29.4456,-17.9334,867.4977],[29.4443,-17.9311,868.2994],[29.4464,-17.9308,865.1794],[29.4447,-17.9287,868.9359],[29.4451,-17.9284,868.9359],[29.4465,-17.9289,868.401],[29.4446,-17.9194,868.3904],[29.4309,-17.915,861.1516],[29.4275,-17.912,858.8825],[29.4269,-17.9057,866.0703],[29.4248,-17.9051,867.4753],[29.4232,-17.9021,859.3644],[29.4213,-17.9026,857.1017],[29.4208,-17.9049,855.4388],[29.4179,-17.9036,858.8949],[29.4171,-17.9003,855.12],[29.4204,-17.9012,854.0848],[29.4214,-17.8993,863.3158],[29.4234,-17.9005,861.9771],[29.4221,-17.8976,863.1688],[29.42,-17.8964,859.3751],[29.4182,-17.8979,859.913],[29.4162,-17.8965,859.5328],[29.4156,-17.8989,856.2959],[29.4118,-17.8996,858.9791],[29.4101,-17.8988,854.6875],[29.4125,-17.8963,859.4354],[29.4081,-17.8953,858.3286],[29.4009,-17.9006,856.0319],[29.4003,-17.904,857.1809],[29.3985,-17.9046,857.4476],[29.3988,-17.9071,858.2604],[29.3952,-17.906,861.6349],[29.3961,-17.9086,857.1862],[29.3983,-17.9096,860.4402],[29.3955,-17.9123,864.2792],[29.398,-17.9142,862.2773],[29.3963,-17.9154,860.172],[29.3946,-17.9298,864.7371],[29.3968,-17.9352,871.8794],[29.3937,-17.9399,870.7661],[29.3983,-17.9487,876.6257],[29.3953,-17.952,870.8791],[29.3943,-17.9577,872.5961],[29.396,-17.9689,877.0776],[29.3927,-17.9692,882.0515],[29.395,-17.9713,880.332],[29.3925,-17.9746,884.3745],[29.3929,-17.9779,883.5347],[29.3905,-17.9776,886.9853],[29.3905,-17.9787,887.1553],[29.3926,-17.9851,887.6719],[29.3998,-17.9928,891.9281],[29.4002,-17.9972,894.5614],[29.4025,-18.0006,897.8024],[29.4016,-18.0018,897.1321],[29.4105,-18.0062,906.6508]]]]}}