{"type":"Feature","properties":{"GID_3":"ZWE.10.2.17_2","GID_0":"ZWE","country":"Zimbabwe","GID_1":"ZWE.10_1","province":"Midlands","NL_NAME_1":"NA","GID_2":"ZWE.10.2_2","county":"GokweNorth","NL_NAME_2":"NA","city":"Ward24","VARNAME_3":"NA","NL_NAME_3":"NA","TYPE_3":"Ward","ENGTYPE_3":"Ward","CC_3":"NA","HASC_3":"NA","name":"Ward24.city"},
"geometry":{"type": "MultiPolygon","coordinates": [[[[29.082,-17.7747,924.3026],[29.0926,-17.7698,932.0603],[29.1055,-17.7482,918.9541],[29.1351,-17.7352,912.0505],[29.1598,-17.7206,909.9697],[29.1822,-17.7194,886.8092],[29.1978,-17.7161,871.4349],[29.2016,-17.7131,867.5653],[29.2175,-17.7094,861.7394],[29.2454,-17.694,863.9396],[29.2991,-17.6574,832.5462],[29.2945,-17.6463,846.5792],[29.295,-17.6149,816.0596],[29.2827,-17.6205,806.8307],[29.2565,-17.6019,844.1873],[29.2492,-17.6008,868.3961],[29.2067,-17.5868,858.9796],[29.1934,-17.5913,866.7964],[29.1874,-17.5891,850.4443],[29.1751,-17.6028,847.0272],[29.1317,-17.6215,866.4476],[29.1149,-17.6249,861.0897],[29.0961,-17.6259,852.2751],[29.0637,-17.6586,848.6455],[29.0532,-17.662,846.4187],[29.0575,-17.672,847.18],[29.0742,-17.7371,889.1386],[29.0766,-17.7467,897.2993],[29.0755,-17.7486,896.7936],[29.082,-17.7747,924.3026]]]]}}