{"type":"Feature","properties":{"GID_3":"ZWE.8.1.18_2","GID_0":"ZWE","country":"Zimbabwe","GID_1":"ZWE.8_1","province":"MatabelelandNorth","NL_NAME_1":"NA","GID_2":"ZWE.8.1_2","county":"Binga","NL_NAME_2":"NA","city":"Ward25","VARNAME_3":"NA","NL_NAME_3":"NA","TYPE_3":"Ward","ENGTYPE_3":"Ward","CC_3":"NA","HASC_3":"NA","name":"Ward25.city"},
"geometry":{"type": "MultiPolygon","coordinates": [[[[26.9298,-17.9729,567.9158],[26.9234,-17.975,536.2179],[26.9274,-17.9816,501.3788],[26.924,-17.9873,514.309],[26.9236,-17.9927,485.8282],[26.9213,-17.9949,533.7073],[26.9124,-17.9961,514.2567],[26.9065,-18.0007,488.9768],[26.8817,-18.0091,515.9441],[26.882,-18.0123,507.2735],[26.8865,-18.0191,587.049],[26.8866,-18.0311,523.2791],[26.8913,-18.0354,526.4701],[26.8841,-18.0403,579.2594],[26.8881,-18.0458,659.0483],[26.8872,-18.0569,532.4971],[26.8902,-18.0628,621.4637],[26.8901,-18.07,505.6201],[26.8873,-18.0739,517.842],[26.871,-18.0826,564.1306],[26.8668,-18.0881,522.0549],[26.8676,-18.0983,513.8256],[26.8636,-18.1057,513.4794],[26.8645,-18.1194,513.0428],[26.8624,-18.1264,513.4924],[26.8527,-18.1407,569.0808],[26.8531,-18.1463,522.4501],[26.8642,-18.15,602.5314],[26.869,-18.1605,576.1531],[26.9711,-18.1585,704.5271],[26.9722,-18.1698,700.5763],[26.9576,-18.1863,705.0508],[26.965,-18.206,726.5721],[26.9842,-18.2137,799.496],[26.9882,-18.2194,821.9397],[27.0001,-18.217,886.8334],[27.0194,-18.2187,932.343],[27.0419,-18.2152,933.8469],[27.0437,-18.2259,934.6774],[27.0528,-18.2242,938.3781],[27.0571,-18.2337,986.0912],[27.0631,-18.2314,988.9515],[27.0742,-18.2334,980.9548],[27.0841,-18.2316,1002.6685],[27.1104,-18.2356,1021.436],[27.1193,-18.2347,1011.7673],[27.1209,-18.2246,981.3651],[27.1288,-18.2144,941.8363],[27.1389,-18.2048,870.3645],[27.1408,-18.1955,911.1056],[27.1529,-18.1904,919.9814],[27.1634,-18.1696,809.2892],[27.1768,-18.1548,753.1148],[27.1871,-18.1478,703.253],[27.1863,-18.1437,738.6356],[27.1816,-18.1448,662.5106],[27.1768,-18.1433,666.277],[27.1724,-18.1463,636.8652],[27.1677,-18.1463,649.134],[27.1653,-18.1418,654.9066],[27.1617,-18.1425,686.376],[27.1569,-18.1395,652.5996],[27.1525,-18.1387,646.5027],[27.1466,-18.1406,596.6058],[27.1446,-18.1338,611.9849],[27.1378,-18.13,594.7518],[27.1342,-18.1308,580.3818],[27.1331,-18.1285,571.9029],[27.1346,-18.1251,642.8295],[27.1319,-18.122,573.4521],[27.133,-18.1182,575.6036],[27.1318,-18.1129,599.6162],[27.0873,-18.1122,672.22],[27.0853,-18.1084,659.6987],[27.0821,-18.1081,647.475],[27.0694,-18.1001,590.1702],[27.0678,-18.094,569.0872],[27.069,-18.0913,576.1205],[27.067,-18.0887,571.0873],[27.0682,-18.086,569.9489],[27.0714,-18.086,567.071],[27.0738,-18.0784,565.6351],[27.0714,-18.0757,567.4429],[27.0746,-18.0731,565.5259],[27.0809,-18.0731,561.4276],[27.0805,-18.0689,560.5778],[27.0829,-18.0674,557.794],[27.0817,-18.0651,560.8008],[27.0861,-18.0624,558.0339],[27.0877,-18.0567,565.5236],[27.0853,-18.0503,554.9124],[27.0861,-18.0472,567.96],[27.0805,-18.0442,565.5007],[27.0702,-18.0442,558.1725],[27.077,-18.0395,555.6564],[27.0773,-18.0327,570.0017],[27.0853,-18.0323,572.0203],[27.0885,-18.0296,573.7584],[27.0956,-18.0327,517.9212],[27.1,-18.0293,520.1614],[27.1056,-18.0293,509.9871],[27.1083,-18.0255,515.035],[27.1,-18.0266,513.7974],[27.0996,-18.0228,540.954],[27.1063,-18.0175,500.6382],[27.1063,-18.0144,571.3394],[27.1143,-18.0125,503.4107],[27.1222,-18.0076,523.8914],[27.1214,-18.003,492.8127],[27.1184,-18.0008,491.0075],[27.113,-18.0001,525.4512],[27.1106,-17.9945,495.5653],[27.0998,-17.9891,484.9218],[27.0946,-17.9834,493.6967],[27.0896,-17.9746,484.4576],[27.0825,-17.971,499.4283],[27.0778,-17.9583,484.5031],[27.074,-17.9554,483.5],[27.0693,-17.9477,487.7361],[27.0524,-17.9351,483.5],[27.0347,-17.9622,483.5],[27.0054,-17.9536,518.9875],[26.9984,-17.9562,575.0449],[26.9883,-17.963,607.3636],[26.9769,-17.9654,570.5618],[26.9574,-17.9645,627.7966],[26.9544,-17.9654,634.3114],[26.9473,-17.9721,483.5],[26.9403,-17.9735,483.5],[26.9298,-17.9729,567.9158]]]]}}