{"type": "Feature","bbox": [31.0911,-18.0352,31.1102,-18.0201],"geometry": {"type": "MultiPolygon","coordinates": [[[[31.0911,-18.0278,1430.3618],[31.0913,-18.0335,1421.166],[31.0943,-18.0326,1425.1638],[31.0963,-18.0349,1425.5188],[31.1002,-18.0352,1428.5796],[31.1102,-18.0339,1437.4626],[31.1087,-18.0285,1444.0085],[31.1006,-18.0201,1445.2594],[31.0948,-18.0232,1437.5533],[31.0911,-18.0278,1430.3618]]]]}
,"properties": {"GID_3": "ZWE.2.1.16_2","GID_0": "ZWE","country": "Zimbabwe","GID_1": "ZWE.2_1","province": "Harare","NL_NAME_1": "NA","GID_2": "ZWE.2.1_2","county": "Chitungwiza","NL_NAME_2": "NA","city": "Ward23","VARNAME_3": "NA","NL_NAME_3": "NA","TYPE_3": "Ward","ENGTYPE_3": "Ward","CC_3": "NA","HASC_3": "NA","name": "Ward23.city","area_km2": 2.237893,"hist_schema_id": "Elevation0-9000","hist_area_km2": {"1425": 1.04837,"1450": 1.189523}}}