{"type": "Feature","bbox": [31.5433,-20.0033,31.6364,-19.8651],"geometry": {"type": "MultiPolygon","coordinates": [[[[31.621,-19.8651,914.5938],[31.6134,-19.8682,925.6271],[31.6033,-19.869,936.1359],[31.5976,-19.8717,950.217],[31.5835,-19.8738,967.11],[31.5815,-19.8748,964.1816],[31.5786,-19.8817,947.5977],[31.5527,-19.8864,1005.1616],[31.5503,-19.8877,1010.4487],[31.5483,-19.8918,1006.4835],[31.5433,-19.9144,1028.1262],[31.5445,-19.9233,1033.5665],[31.5751,-19.9789,1092.448],[31.5748,-19.9843,1020.1581],[31.5861,-19.9927,994.3392],[31.5894,-20.0033,971.4876],[31.5954,-19.99,999.869],[31.602,-19.984,1023.7886],[31.6101,-19.9703,1024.7573],[31.6364,-19.9516,1009.1702],[31.6297,-19.9508,1000.2573],[31.6255,-19.9465,995.2982],[31.6211,-19.9465,989.9708],[31.6194,-19.9447,982.9277],[31.6175,-19.9292,969.1058],[31.6185,-19.9263,971.825],[31.6164,-19.9175,957.0278],[31.6179,-19.9117,952.3271],[31.6159,-19.9066,956.8738],[31.6185,-19.9036,945.5521],[31.6174,-19.8917,948.5399],[31.622,-19.8785,925.2384],[31.6222,-19.8741,924.0289],[31.6193,-19.87,918.6357],[31.621,-19.8651,914.5938]]]]}
,"properties": {"GID_3": "ZWE.7.1.4_2","GID_0": "ZWE","country": "Zimbabwe","GID_1": "ZWE.7_1","province": "Masvingo","NL_NAME_1": "NA","GID_2": "ZWE.7.1_2","county": "Bikita","NL_NAME_2": "NA","city": "Ward12","VARNAME_3": "NA","NL_NAME_3": "NA","TYPE_3": "Ward","ENGTYPE_3": "Ward","CC_3": "NA","HASC_3": "NA","name": "Ward12.city","area_km2": 81.50536,"hist_schema_id": "Elevation0-9000","hist_area_km2": {"925": 2.29303,"950": 5.32351,"975": 6.06045,"1000": 11.62099,"1025": 12.43863,"1050": 9.98639,"1075": 7.63379,"1100": 9.42712,"1125": 8.11144,"1150": 4.10566,"1175": 2.35189,"1200": 1.05633,"1225": 0.69756,"1250": 0.23915,"1275": 0.11957,"1300": 0.03986}}}