{"type": "Feature","bbox": [29.1085,-16.9714,29.29,-16.8117],"geometry": {"type": "MultiPolygon","coordinates": [[[[29.2517,-16.8802,1058.9668],[29.2493,-16.8761,1076.6022],[29.2475,-16.8666,1057.7242],[29.2474,-16.8594,1089.2917],[29.2492,-16.8535,1108.6384],[29.2474,-16.8533,1106.0986],[29.2434,-16.8479,1083.5806],[29.2302,-16.8373,1070.6477],[29.2227,-16.8361,1065.4846],[29.2189,-16.8326,1076.905],[29.2139,-16.831,1075.2145],[29.2141,-16.8263,1079.2081],[29.2122,-16.8226,1082.4807],[29.2095,-16.8205,1081.5614],[29.2088,-16.8176,1080.0586],[29.2035,-16.8134,1069.5994],[29.2004,-16.8117,1069.4803],[29.1944,-16.8122,1068.5645],[29.1774,-16.8213,1037.8724],[29.1742,-16.8251,1027.6792],[29.1722,-16.8325,1021.9818],[29.1701,-16.8322,1025.6686],[29.1632,-16.8423,1022.2811],[29.1548,-16.8468,1012.4707],[29.1526,-16.8505,1011.3428],[29.1561,-16.8599,989.8685],[29.15,-16.862,1000.6868],[29.1449,-16.8665,990.6814],[29.147,-16.8708,988.6705],[29.1446,-16.8739,985.6291],[29.1408,-16.8736,988.1812],[29.1395,-16.8764,975.2676],[29.1411,-16.8783,982.2455],[29.1364,-16.8816,989.1809],[29.1345,-16.8859,976.1425],[29.1323,-16.8868,975.1093],[29.1325,-16.8888,972.1526],[29.1298,-16.89,976.4343],[29.1308,-16.8918,965.8806],[29.1277,-16.8925,989.6178],[29.1282,-16.8947,974.0361],[29.1249,-16.8973,969.6873],[29.1257,-16.9003,960.5492],[29.1239,-16.8982,971.7539],[29.119,-16.8988,974.1937],[29.1146,-16.9034,960.3949],[29.1113,-16.8998,958.9398],[29.1085,-16.9005,963.561],[29.1275,-16.9538,930.1983],[29.1447,-16.9574,939.0156],[29.1443,-16.954,939.9349],[29.1469,-16.9489,945.6675],[29.1521,-16.9485,942.1362],[29.1568,-16.9538,945.4155],[29.1603,-16.9469,975.1962],[29.1633,-16.9531,968.4736],[29.1676,-16.9496,992.2362],[29.1692,-16.9499,992.2362],[29.1679,-16.9525,990.7338],[29.1765,-16.9549,980.4282],[29.1762,-16.9568,987.9514],[29.1892,-16.9484,993.6022],[29.1929,-16.9509,989.3114],[29.1968,-16.9503,994.4188],[29.1981,-16.9521,988.1281],[29.2004,-16.9502,994.3947],[29.1998,-16.9534,988.732],[29.2018,-16.9584,997.3497],[29.2051,-16.9574,1009.7065],[29.2091,-16.9612,1006.335],[29.2117,-16.9608,1006.7079],[29.2121,-16.9643,1006.2393],[29.219,-16.9658,1021.4531],[29.2223,-16.9705,1014.4327],[29.2263,-16.9714,1020.119],[29.2341,-16.9657,1024.9462],[29.235,-16.9622,1026.3831],[29.2491,-16.9607,1027.605],[29.2517,-16.956,1041.9368],[29.2553,-16.954,1035.1239],[29.2589,-16.9549,1033.991],[29.2609,-16.959,1035.5671],[29.2659,-16.9599,1039.3525],[29.2733,-16.9532,1052.9032],[29.2797,-16.9405,1054.6755],[29.2815,-16.9278,1064.7041],[29.2755,-16.917,1093.748],[29.2801,-16.9095,1098.8843],[29.29,-16.9021,1115.526],[29.2891,-16.9006,1107.1509],[29.2855,-16.9016,1142.3999],[29.2757,-16.9096,1086.9023],[29.2718,-16.9109,1078.4308],[29.2695,-16.9093,1071.0975],[29.2688,-16.9059,1080.1886],[29.2582,-16.9,1052.4034],[29.2588,-16.8943,1050.989],[29.2562,-16.8927,1049.2549],[29.2571,-16.8911,1064.3416],[29.2486,-16.89,1042.1888],[29.2476,-16.8922,1036.5697],[29.2434,-16.8932,1035.7057],[29.2433,-16.89,1036.8354],[29.2518,-16.8845,1050.91],[29.2517,-16.8802,1058.9668]]]]}
,"properties": {"GID_3": "ZWE.6.4.9_2","GID_0": "ZWE","country": "Zimbabwe","GID_1": "ZWE.6_1","province": "MashonalandWest","NL_NAME_1": "NA","GID_2": "ZWE.6.4_2","county": "Hurungwe","NL_NAME_2": "NA","city": "Ward17","VARNAME_3": "NA","NL_NAME_3": "NA","TYPE_3": "Ward","ENGTYPE_3": "Ward","CC_3": "NA","HASC_3": "NA","name": "Ward17.city","area_km2": 193.2696,"hist_schema_id": "Elevation0-9000","hist_area_km2": {"925": 0.5476,"950": 10.4254,"975": 20.9543,"1000": 35.6227,"1025": 42.8055,"1050": 43.515,"1075": 29.3359,"1100": 9.414,"1125": 0.6086,"1150": 0.0406}}}