{"type": "Feature","bbox": [27.5918,-20.3216,27.787,-19.9988],"geometry": {"type": "MultiPolygon","coordinates": [[[[27.6122,-19.9988,1104.2346],[27.612,-20.0044,1104.3398],[27.6065,-20.0096,1107.4893],[27.6067,-20.0125,1107.4891],[27.6027,-20.0163,1109.9362],[27.6026,-20.0225,1111.9928],[27.5982,-20.0267,1114.5415],[27.5959,-20.0346,1118.2507],[27.5933,-20.0377,1121.4678],[27.5918,-20.0425,1121.8179],[27.5937,-20.05,1126.1276],[27.5924,-20.0537,1128.2269],[27.5968,-20.0605,1131.4558],[27.6256,-20.0583,1132.2944],[27.6313,-20.062,1132.7678],[27.6399,-20.0647,1128.1825],[27.6455,-20.0818,1136.5],[27.6484,-20.0827,1136.5],[27.6511,-20.0891,1137.8624],[27.6612,-20.0999,1143.6084],[27.6665,-20.1125,1153.1531],[27.6681,-20.1214,1159.3489],[27.6712,-20.1264,1160.7441],[27.6757,-20.1296,1169.2389],[27.6859,-20.1493,1174.2766],[27.6836,-20.1606,1188.9327],[27.6798,-20.164,1187.6194],[27.6813,-20.1727,1196.585],[27.6881,-20.1824,1207.7643],[27.6892,-20.1876,1203.0111],[27.6881,-20.1952,1215.8826],[27.6917,-20.1989,1217.9003],[27.6942,-20.2063,1218.1646],[27.6911,-20.2091,1220.9569],[27.6929,-20.2205,1227.9624],[27.6962,-20.2294,1235.324],[27.6957,-20.2322,1240.2899],[27.6983,-20.2365,1256.1451],[27.7021,-20.2375,1246.7346],[27.7051,-20.2452,1243.9397],[27.7048,-20.2482,1246.1277],[27.7133,-20.2558,1260.4922],[27.7138,-20.2596,1256.5527],[27.712,-20.2593,1259.9404],[27.7107,-20.2611,1269.609],[27.7126,-20.2887,1297.7273],[27.7246,-20.3018,1301.0364],[27.7331,-20.3086,1309.4769],[27.7408,-20.3216,1311.1461],[27.749,-20.3214,1319.101],[27.7554,-20.3166,1312.79],[27.7621,-20.3061,1296.9335],[27.7603,-20.2838,1271.9717],[27.7606,-20.2772,1268.3737],[27.7629,-20.2723,1280.3748],[27.7591,-20.2604,1253.958],[27.7575,-20.2486,1253.5776],[27.776,-20.2413,1231.2284],[27.779,-20.234,1233.4255],[27.7762,-20.2316,1233.3053],[27.7753,-20.2254,1226.5228],[27.7763,-20.2206,1220.4062],[27.7752,-20.2177,1219.8882],[27.7772,-20.2138,1216.4724],[27.7757,-20.2103,1217.387],[27.7794,-20.2076,1213.6475],[27.776,-20.199,1202.9976],[27.7756,-20.1856,1201.1083],[27.7813,-20.1755,1190.267],[27.7816,-20.1623,1181.3706],[27.784,-20.154,1179.3169],[27.787,-20.1517,1177.2747],[27.7851,-20.1495,1172.0452],[27.7855,-20.1472,1175.2764],[27.7775,-20.1423,1172.9158],[27.7666,-20.1304,1168.7795],[27.7588,-20.1345,1163.2418],[27.757,-20.1246,1167.1553],[27.7532,-20.1202,1160.0768],[27.7522,-20.1134,1158.1029],[27.746,-20.1097,1152.0101],[27.7461,-20.1057,1159.0371],[27.7429,-20.1009,1150.8958],[27.7371,-20.0965,1143.6699],[27.7317,-20.097,1141.1287],[27.7262,-20.0867,1136.8864],[27.7187,-20.0828,1137.8942],[27.7094,-20.0746,1130.4742],[27.6995,-20.0712,1130.089],[27.6956,-20.0656,1130.1471],[27.6891,-20.0617,1124.48],[27.6828,-20.0506,1121.7031],[27.6617,-20.0423,1118.1285],[27.6521,-20.032,1116.1506],[27.6489,-20.0208,1114.7524],[27.6443,-20.015,1112.2371],[27.634,-20.0115,1107.1327],[27.6221,-20.0026,1108.2048],[27.6122,-19.9988,1104.2346]]]]}
,"properties": {"GID_3": "ZWE.9.3.18_2","GID_0": "ZWE","country": "Zimbabwe","GID_1": "ZWE.9_1","province": "MatabelelandSouth","NL_NAME_1": "NA","GID_2": "ZWE.9.3_2","county": "Bulilima","NL_NAME_2": "NA","city": "Ward5","VARNAME_3": "NA","NL_NAME_3": "NA","TYPE_3": "Ward","ENGTYPE_3": "Ward","CC_3": "NA","HASC_3": "NA","name": "Ward5.city","area_km2": 254.5096,"hist_schema_id": "Elevation0-9000","hist_area_km2": {"1100": 6.5742,"1125": 37.4251,"1150": 31.5809,"1175": 35.7343,"1200": 38.6723,"1225": 41.8468,"1250": 30.4181,"1275": 18.0397,"1300": 13.741,"1325": 0.4772}}}