{"type":"Feature","properties":{"GID_3":"ZWE.8.6.7_2","GID_0":"ZWE","country":"Zimbabwe","GID_1":"ZWE.8_1","province":"MatabelelandNorth","NL_NAME_1":"NA","GID_2":"ZWE.8.6_2","county":"Nkayi","NL_NAME_2":"NA","city":"Ward15","VARNAME_3":"NA","NL_NAME_3":"NA","TYPE_3":"Ward","ENGTYPE_3":"Ward","CC_3":"NA","HASC_3":"NA","name":"Ward15.city"},
"geometry":{"type": "MultiPolygon","coordinates": [[[[28.4919,-18.7807,1010.446],[28.4985,-18.7877,1015.2196],[28.5027,-18.7966,1028.8478],[28.5107,-18.8273,1093.6033],[28.5209,-18.8468,1119.5936],[28.531,-18.8612,1105.384],[28.546,-18.8597,1113.8099],[28.5681,-18.8616,1113.231],[28.5758,-18.8607,1109.0908],[28.5762,-18.8516,1095.2295],[28.6056,-18.8265,1054.145],[28.6047,-18.8237,1054.5476],[28.5929,-18.8211,1044.4288],[28.591,-18.8179,1043.1091],[28.5948,-18.8051,1038.8108],[28.5898,-18.8013,1031.6041],[28.5908,-18.797,1028.5474],[28.5888,-18.7919,1024.7417],[28.5897,-18.7824,1018.2429],[28.5915,-18.7797,1017.2407],[28.5912,-18.7767,1016.4451],[28.5967,-18.7724,1016.8658],[28.5966,-18.7705,1017.196],[28.5873,-18.7725,1016.6895],[28.5827,-18.7671,1014.5326],[28.5803,-18.7667,1014.7441],[28.5755,-18.7688,1015.1544],[28.5705,-18.7686,1016.8754],[28.5697,-18.7707,1016.7326],[28.5662,-18.7715,1013.4259],[28.5626,-18.7653,1014.3711],[28.5428,-18.7652,1014.2145],[28.5293,-18.7679,1012.7539],[28.5081,-18.776,1006.7151],[28.4993,-18.7771,1006.2415],[28.4919,-18.7807,1010.446]]]]}}