{"type": "Feature","bbox": [31.4609,-17.8002,31.5304,-17.6584],"geometry": {"type": "MultiPolygon","coordinates": [[[[31.4609,-17.6587,1224.3917],[31.4672,-17.7781,1280.3575],[31.4698,-17.8002,1240.5975],[31.4812,-17.7985,1220.9596],[31.4886,-17.7952,1243.6643],[31.5001,-17.7971,1215.8904],[31.5041,-17.7963,1215.3131],[31.5065,-17.7879,1223.337],[31.5105,-17.7841,1203.1259],[31.5125,-17.7792,1204.6821],[31.5087,-17.774,1195.149],[31.5105,-17.7678,1193.6866],[31.5093,-17.7618,1199.024],[31.5122,-17.7621,1192.0951],[31.5158,-17.7569,1192.343],[31.5201,-17.7586,1181.6486],[31.5206,-17.7575,1179.9609],[31.5187,-17.7507,1178.2023],[31.52,-17.7473,1188.8347],[31.5164,-17.7392,1168.9225],[31.5184,-17.729,1170.1512],[31.5245,-17.7137,1160.5127],[31.5231,-17.7015,1151.9564],[31.5209,-17.699,1155.4863],[31.5223,-17.6875,1157.5758],[31.5259,-17.6802,1152.0953],[31.5255,-17.6772,1167.5319],[31.5291,-17.6769,1154.3824],[31.5304,-17.674,1146.7534],[31.5142,-17.6749,1190.462],[31.5154,-17.6696,1191.7117],[31.5006,-17.6725,1207.2385],[31.4853,-17.6731,1235.0682],[31.4748,-17.6584,1230.7437],[31.4609,-17.6587,1224.3917]]]]}
,"properties": {"GID_3": "ZWE.5.2.4_2","GID_0": "ZWE","country": "Zimbabwe","GID_1": "ZWE.5_1","province": "MashonalandEast","NL_NAME_1": "NA","GID_2": "ZWE.5.2_2","county": "Goromonzi","NL_NAME_2": "NA","city": "Ward12","VARNAME_3": "NA","NL_NAME_3": "NA","TYPE_3": "Ward","ENGTYPE_3": "Ward","CC_3": "NA","HASC_3": "NA","name": "Ward12.city","area_km2": 80.31733,"hist_schema_id": "Elevation0-9000","hist_area_km2": {"1150": 1.00994,"1175": 7.37209,"1200": 15.6928,"1225": 30.96103,"1250": 19.44651,"1275": 5.39078,"1300": 0.42399,"1325": 0.02019}}}