{"type": "Feature","bbox": [26.5036,-18.3304,26.5174,-18.2504],"geometry": {"type": "MultiPolygon","coordinates": [[[[26.5078,-18.3304,800.2343],[26.5102,-18.3275,795.3597],[26.5174,-18.3277,785.0745],[26.5165,-18.2504,644.8845],[26.504,-18.2687,642.8865],[26.5036,-18.3281,789.7137],[26.5078,-18.3304,800.2343]]]]}
,"properties": {"GID_3": "ZWE.8.4.10_2","GID_0": "ZWE","country": "Zimbabwe","GID_1": "ZWE.8_1","province": "MatabelelandNorth","NL_NAME_1": "NA","GID_2": "ZWE.8.4_2","county": "HwangeUrban","NL_NAME_2": "NA","city": "Ward4","VARNAME_3": "NA","NL_NAME_3": "NA","TYPE_3": "Ward","ENGTYPE_3": "Ward","CC_3": "NA","HASC_3": "NA","name": "Ward4.city","area_km2": 10.628929,"hist_schema_id": "Elevation0-9000","hist_area_km2": {"625": 0.463071,"650": 2.31537,"675": 1.026683,"700": 0.603934,"725": 0.684462,"750": 0.543532,"775": 0.6441,"800": 2.032927,"825": 0.644147,"850": 0.261679,"875": 0.120773,"900": 0.764903,"925": 0.523349}}}