{"type": "Feature","bbox": [28.953,-20.4883,29.2317,-20.2662],"geometry": {"type": "MultiPolygon","coordinates": [[[[29.1871,-20.2662,1200.082],[29.117,-20.303,1128.163],[29.1344,-20.3364,1100.0475],[29.129,-20.3717,1140.1047],[29.1334,-20.3794,1087.4698],[29.1148,-20.385,1180.1138],[29.119,-20.4062,1056.957],[29.1135,-20.412,1034.4669],[29.0987,-20.4139,1076.1814],[29.0068,-20.4156,1134.8093],[28.9823,-20.4403,1090.7065],[28.953,-20.4452,1136.5942],[28.9616,-20.4565,1135.9285],[28.971,-20.4563,1127.584],[28.9979,-20.4715,1087.1027],[29.0035,-20.475,1059.998],[29.0097,-20.4843,1054.0845],[29.0253,-20.4838,1038.5193],[29.0692,-20.4883,1110.3153],[29.1312,-20.4472,1003.3708],[29.1279,-20.4399,1005.8861],[29.1274,-20.429,1009.9864],[29.13,-20.4244,1012.0233],[29.1259,-20.4227,1015.7343],[29.1224,-20.424,1010.3123],[29.121,-20.4215,1011.6293],[29.1218,-20.411,1013.9857],[29.177,-20.4057,1072.7778],[29.2317,-20.378,1163.3741],[29.1936,-20.3201,1221.7689],[29.1995,-20.2871,1174.5958],[29.1871,-20.2662,1200.082]]]]}
,"properties": {"GID_3": "ZWE.9.10.13_2","GID_0": "ZWE","country": "Zimbabwe","GID_1": "ZWE.9_1","province": "MatabelelandSouth","NL_NAME_1": "NA","GID_2": "ZWE.9.10_2","county": "Umzingwane","NL_NAME_2": "NA","city": "Ward20","VARNAME_3": "NA","NL_NAME_3": "NA","TYPE_3": "Ward","ENGTYPE_3": "Ward","CC_3": "NA","HASC_3": "NA","name": "Ward20.city","area_km2": 221.6058,"hist_schema_id": "Elevation0-9000","hist_area_km2": {"1000": 1.6689,"1025": 9.0001,"1050": 28.448,"1075": 44.6603,"1100": 33.5422,"1125": 32.6772,"1150": 26.2198,"1175": 23.6005,"1200": 16.2627,"1225": 3.7172,"1250": 1.3318,"1275": 0.3777,"1300": 0.0795,"1325": 0.0199}}}