{"type":"Feature","properties":{"GID_2":"ZWE.6.8_2","GID_0":"ZWE","country":"Zimbabwe","GID_1":"ZWE.6_1","province":"MashonalandWest","NL_NAME_1":"NA","county":"Karoi","VARNAME_2":"NA","NL_NAME_2":"NA","TYPE_2":"District","ENGTYPE_2":"District","CC_2":"NA","HASC_2":"NA","name":"Karoi.county"},
"geometry":{"type": "MultiPolygon","coordinates": [[[[29.6889,-16.8363,1278.8235],[29.6975,-16.8371,1276.75],[29.702,-16.8441,1298.8503],[29.7028,-16.8492,1292.2],[29.7148,-16.8394,1262.731],[29.7146,-16.8188,1252.9032],[29.704,-16.8074,1219.7019],[29.707,-16.8043,1235.6255],[29.707,-16.8015,1230.4806],[29.6988,-16.7986,1223.0681],[29.6969,-16.7954,1238.4498],[29.6937,-16.796,1246.082],[29.6892,-16.8003,1238.745],[29.6857,-16.7984,1245.082],[29.6727,-16.8116,1258.621],[29.6749,-16.8179,1259.8658],[29.6714,-16.8196,1263.6682],[29.6731,-16.8237,1252.7627],[29.6712,-16.8289,1259.1084],[29.6779,-16.8327,1284.9314],[29.6847,-16.8327,1291.186],[29.6866,-16.836,1275.6471],[29.6889,-16.8363,1278.8235]]]]}}