{"type":"Feature","properties":{"GID_3":"ZWE.5.6.1_2","GID_0":"ZWE","country":"Zimbabwe","GID_1":"ZWE.5_1","province":"MashonalandEast","NL_NAME_1":"NA","GID_2":"ZWE.5.6_2","county":"Mudzi","NL_NAME_2":"NA","city":"Ward1","VARNAME_3":"NA","NL_NAME_3":"NA","TYPE_3":"Ward","ENGTYPE_3":"Ward","CC_3":"NA","HASC_3":"NA","name":"Ward1.city"},
"geometry":{"type": "MultiPolygon","coordinates": [[[[32.9469,-16.7034,303.9659],[32.9473,-16.7054,304.5907],[32.941,-16.7113,341.2547],[32.9348,-16.7106,469.78],[32.9319,-16.7125,379.3329],[32.932,-16.7143,340.2137],[32.9358,-16.717,348.2075],[32.9327,-16.719,378.0782],[32.9305,-16.7268,358.5116],[32.9252,-16.7313,378.3954],[32.9199,-16.7297,399.054],[32.9257,-16.7379,446.3654],[32.9251,-16.7452,421.5523],[32.9202,-16.7469,530.3786],[32.9226,-16.7482,436.2002],[32.9241,-16.7531,447.4421],[32.9208,-16.7551,461.9167],[32.9157,-16.7553,480.2618],[32.9145,-16.7588,450.0987],[32.9084,-16.7591,474.8034],[32.9052,-16.7569,507.1919],[32.9065,-16.7631,479.9117],[32.9037,-16.7669,475.461],[32.9021,-16.7625,546.9474],[32.8978,-16.7613,558.2654],[32.8944,-16.7661,495.5263],[32.8959,-16.7712,479.1248],[32.8904,-16.7698,516.0366],[32.8876,-16.7712,545.5247],[32.8889,-16.7793,490.0565],[32.8865,-16.7831,493.9047],[32.8881,-16.7873,496.4453],[32.8867,-16.7906,496.3947],[32.889,-16.7946,502.7859],[32.8874,-16.8006,504.0398],[32.8892,-16.8031,512.697],[32.8869,-16.8058,513.2162],[32.8897,-16.809,512.8913],[32.8876,-16.8142,525.0514],[32.8833,-16.8153,526.0708],[32.8877,-16.8191,526.1067],[32.8885,-16.8228,534.8998],[32.8843,-16.8331,539.1978],[32.8893,-16.8344,547.0447],[32.892,-16.8398,567.6102],[32.8904,-16.8439,551.6079],[32.8922,-16.8467,562.0869],[32.8908,-16.8511,563.8467],[32.8934,-16.855,572.2756],[32.889,-16.8581,574.3944],[32.8863,-16.8569,582.4565],[32.8861,-16.8611,575.6232],[32.8834,-16.8663,594.2423],[32.8807,-16.8669,604.6456],[32.8837,-16.8698,593.2211],[32.8828,-16.8768,594.9309],[32.8782,-16.8772,606.8796],[32.8743,-16.8799,604.1222],[32.8688,-16.8777,626.089],[32.8657,-16.8809,613.209],[32.8636,-16.8778,626.8428],[32.8577,-16.8838,619.0362],[32.8399,-16.8947,645.0858],[32.8353,-16.8937,660.5145],[32.8318,-16.8959,663.0838],[32.8277,-16.8956,670.2117],[32.819,-16.8999,674.1793],[32.8168,-16.9026,678.6919],[32.8094,-16.9041,704.1526],[32.8044,-16.9077,718.6086],[32.7911,-16.9065,915.3341],[32.7781,-16.9118,762.4047],[32.7651,-16.9129,744.6639],[32.7633,-16.9146,738.4993],[32.7624,-16.9198,751.5345],[32.7704,-16.9204,819.9155],[32.7723,-16.922,803.3817],[32.774,-16.926,730.9257],[32.7734,-16.9317,708.9891],[32.7788,-16.9364,704.5955],[32.7808,-16.9417,695.0427],[32.7882,-16.9477,691.9858],[32.7887,-16.9548,673.1115],[32.7921,-16.9607,664.6132],[32.7969,-16.9631,655.8404],[32.8168,-16.9661,657.9687],[32.825,-16.9703,636.9649],[32.836,-16.9722,623.5647],[32.8384,-16.9758,613.8189],[32.8404,-16.9757,616.6704],[32.849,-16.9838,609.2501],[32.8553,-16.9853,604.82],[32.8598,-16.9898,589.9131],[32.8624,-16.989,602.5358],[32.8613,-16.9914,584.8993],[32.8711,-17.0004,577.355],[32.8684,-17.0074,583.8908],[32.8721,-17.0133,577.8071],[32.8758,-17.0143,565.2032],[32.879,-17.012,578.5793],[32.8801,-17.0169,569.1426],[32.8829,-17.0197,561.5588],[32.8908,-17.0188,551.6254],[32.9081,-17.026,551.184],[32.8628,-16.9639,615.3491],[32.8496,-16.9482,637.1038],[32.8385,-16.932,689.0264],[32.8332,-16.9209,934.6571],[32.8448,-16.9158,718.7556],[32.8515,-16.9149,730.3494],[32.9079,-16.8972,729.4708],[32.9122,-16.8942,758.4853],[32.9392,-16.8351,552.3112],[32.9423,-16.8251,537.2003],[32.956,-16.7977,500.2562],[32.9638,-16.7789,465.4867],[32.9719,-16.7533,394.3885],[32.9785,-16.7072,255.1511],[32.9713,-16.7046,279.2497],[32.9469,-16.7034,303.9659]]]]}}