{"type": "Feature","bbox": [30.197,-17.4709,30.4203,-17.194],"geometry": {"type": "MultiPolygon","coordinates": [[[[30.2165,-17.353,1108.177],[30.2225,-17.3687,1122.355],[30.2164,-17.374,1125.3389],[30.2077,-17.3906,1130.3835],[30.2104,-17.3964,1132.1848],[30.207,-17.3995,1137.5728],[30.205,-17.4098,1142.0533],[30.2099,-17.4245,1147.2859],[30.209,-17.4282,1153.0514],[30.2049,-17.4331,1147.7197],[30.2059,-17.4435,1148.049],[30.1973,-17.4452,1149.9216],[30.197,-17.4466,1151.7838],[30.2009,-17.4651,1166.0887],[30.2045,-17.4673,1174.0],[30.2079,-17.4673,1174.0],[30.2106,-17.4709,1174.0],[30.2511,-17.4548,1210.9121],[30.2644,-17.4578,1216.9629],[30.3085,-17.458,1239.2993],[30.312,-17.4562,1237.8135],[30.3373,-17.4278,1297.3831],[30.3464,-17.4051,1218.1266],[30.343,-17.4029,1228.2477],[30.3396,-17.4033,1215.0413],[30.3735,-17.3892,1250.8208],[30.3648,-17.3885,1244.303],[30.3495,-17.3825,1225.6223],[30.3669,-17.3291,1213.838],[30.3603,-17.3246,1204.0452],[30.3722,-17.3056,1179.6049],[30.3596,-17.2891,1163.2778],[30.355,-17.2897,1154.1838],[30.3508,-17.2838,1165.1652],[30.3424,-17.2815,1151.4397],[30.3491,-17.2735,1164.6844],[30.3927,-17.2655,1185.9227],[30.3929,-17.2507,1188.1737],[30.4203,-17.2478,1157.5],[30.4197,-17.2423,1157.5],[30.4183,-17.2417,1157.5],[30.4161,-17.244,1157.5],[30.4109,-17.2424,1157.5],[30.4096,-17.2405,1157.5],[30.4105,-17.233,1160.0619],[30.4039,-17.2302,1157.5],[30.4017,-17.2256,1167.7324],[30.3976,-17.2234,1157.5],[30.3908,-17.2144,1105.5662],[30.3898,-17.2092,1105.0857],[30.3954,-17.1998,1101.4354],[30.3604,-17.194,1142.4989],[30.3488,-17.2497,1190.4823],[30.3394,-17.2529,1201.6141],[30.3126,-17.2737,1130.5769],[30.3116,-17.2718,1136.8284],[30.3078,-17.2731,1120.2633],[30.3065,-17.2685,1121.4185],[30.3039,-17.266,1118.3311],[30.3046,-17.2644,1127.6055],[30.3016,-17.2632,1120.9109],[30.2723,-17.2931,1107.0742],[30.2715,-17.2912,1105.4426],[30.2737,-17.2895,1106.4833],[30.2718,-17.2879,1105.6772],[30.2723,-17.2805,1104.9349],[30.2767,-17.2769,1100.0315],[30.277,-17.2729,1109.8325],[30.2744,-17.2715,1099.9048],[30.2727,-17.2675,1099.7885],[30.2711,-17.269,1097.6155],[30.2687,-17.2672,1099.4242],[30.2751,-17.2623,1105.9823],[30.2732,-17.2623,1097.2185],[30.272,-17.2602,1102.2142],[30.2714,-17.2619,1095.96],[30.2686,-17.2615,1090.3044],[30.2674,-17.2584,1101.4241],[30.2638,-17.2601,1090.0],[30.259,-17.2533,1083.8433],[30.2554,-17.2525,1102.4487],[30.2555,-17.2605,1086.922],[30.2587,-17.2644,1101.4833],[30.265,-17.2669,1107.2717],[30.2673,-17.2771,1087.7227],[30.2617,-17.2796,1088.2904],[30.2568,-17.2774,1101.327],[30.2526,-17.2784,1098.7224],[30.2396,-17.2911,1096.2815],[30.238,-17.2982,1096.6881],[30.2404,-17.3049,1104.677],[30.2311,-17.3148,1112.8525],[30.2265,-17.3238,1117.5164],[30.2202,-17.3272,1116.9312],[30.2158,-17.3394,1109.4761],[30.217,-17.3451,1114.3313],[30.2137,-17.3483,1119.5869],[30.2165,-17.353,1108.177]]]]}
,"properties": {"GID_3": "ZWE.6.13.9_2","GID_0": "ZWE","country": "Zimbabwe","GID_1": "ZWE.6_1","province": "MashonalandWest","NL_NAME_1": "NA","GID_2": "ZWE.6.13_2","county": "Zvimba","NL_NAME_2": "NA","city": "Ward17","VARNAME_3": "NA","NL_NAME_3": "NA","TYPE_3": "Ward","ENGTYPE_3": "Ward","CC_3": "NA","HASC_3": "NA","name": "Ward17.city","area_km2": 336.853,"hist_schema_id": "Elevation0-9000","hist_area_km2": {"1075": 0.4049,"1100": 8.0167,"1125": 24.1897,"1150": 64.1664,"1175": 91.5029,"1200": 78.7758,"1225": 49.851,"1250": 18.3069,"1275": 0.8699,"1300": 0.3439,"1325": 0.2225,"1350": 0.1618,"1375": 0.0405}}}