{"type": "Feature","bbox": [30.7463,-16.7854,30.8131,-16.6706],"geometry": {"type": "MultiPolygon","coordinates": [[[[30.7592,-16.671,1188.4001],[30.7571,-16.6744,1189.1825],[30.7575,-16.6819,1225.4542],[30.7555,-16.6848,1226.2515],[30.757,-16.6863,1236.78],[30.7564,-16.6928,1245.8759],[30.7604,-16.6993,1280.1102],[30.7552,-16.7051,1250.3999],[30.7469,-16.7097,1219.5698],[30.7463,-16.7153,1222.8174],[30.7475,-16.7179,1225.0591],[30.7534,-16.7176,1247.5652],[30.7557,-16.7203,1254.0568],[30.7533,-16.7245,1232.9856],[30.758,-16.7348,1249.2833],[30.7638,-16.733,1278.7887],[30.7701,-16.7362,1277.2097],[30.7733,-16.7356,1289.1027],[30.7783,-16.7462,1286.4656],[30.7768,-16.7524,1289.6742],[30.7786,-16.7529,1289.6742],[30.7786,-16.7546,1294.0182],[30.7807,-16.7542,1304.9956],[30.7813,-16.7607,1302.8406],[30.7847,-16.7621,1310.7961],[30.7891,-16.7685,1319.2986],[30.7977,-16.775,1336.0823],[30.8003,-16.7806,1331.876],[30.8053,-16.7854,1337.8973],[30.8131,-16.7762,1364.0149],[30.8112,-16.7013,1274.1702],[30.8085,-16.7017,1267.1919],[30.8052,-16.6985,1263.0022],[30.7966,-16.6946,1256.5111],[30.7938,-16.692,1242.5859],[30.7933,-16.6884,1259.7733],[30.7896,-16.6857,1252.5205],[30.7862,-16.6893,1256.0482],[30.7805,-16.6868,1251.7982],[30.7776,-16.6879,1238.2377],[30.7778,-16.6905,1226.7638],[30.7757,-16.6902,1220.6267],[30.7759,-16.6838,1242.6191],[30.7717,-16.6834,1231.5881],[30.7677,-16.6853,1207.3735],[30.7681,-16.679,1220.894],[30.7657,-16.676,1211.3755],[30.7612,-16.6744,1194.1587],[30.7616,-16.6706,1204.9912],[30.7592,-16.671,1188.4001]]]]}
,"properties": {"GID_3": "ZWE.4.4.15_2","GID_0": "ZWE","country": "Zimbabwe","GID_1": "ZWE.4_1","province": "MashonalandCentral","NL_NAME_1": "NA","GID_2": "ZWE.4.4_2","county": "Guruve","NL_NAME_2": "NA","city": "Ward22","VARNAME_3": "NA","NL_NAME_3": "NA","TYPE_3": "Ward","ENGTYPE_3": "Ward","CC_3": "NA","HASC_3": "NA","name": "Ward22.city","area_km2": 47.73769,"hist_schema_id": "Elevation0-9000","hist_area_km2": {"1200": 0.89365,"1225": 3.16814,"1250": 7.859,"1275": 12.8946,"1300": 9.36047,"1325": 10.11073,"1350": 3.3496,"1375": 0.1015}}}