{"type": "Feature","bbox": [29.2433,-17.0538,29.5179,-16.8195],"geometry": {"type": "MultiPolygon","coordinates": [[[[29.394,-16.8391,1136.8204],[29.3913,-16.8378,1126.6453],[29.3905,-16.8343,1129.5626],[29.3867,-16.8313,1130.4878],[29.3778,-16.8291,1115.1747],[29.376,-16.8269,1116.4633],[29.3756,-16.8219,1113.1628],[29.3722,-16.8195,1114.3981],[29.3643,-16.8261,1133.0312],[29.367,-16.8348,1130.7908],[29.3628,-16.8406,1136.5957],[29.3679,-16.8465,1138.3447],[29.3679,-16.8487,1137.2933],[29.3484,-16.8657,1151.6176],[29.3446,-16.8673,1149.4496],[29.3406,-16.8626,1144.2592],[29.3374,-16.8613,1132.3643],[29.3328,-16.8681,1148.8042],[29.3272,-16.8678,1148.3821],[29.3248,-16.8649,1154.6637],[29.3243,-16.8614,1150.8147],[29.3181,-16.8567,1151.6627],[29.3165,-16.8514,1149.9662],[29.3182,-16.8492,1142.8351],[29.3104,-16.8422,1134.6996],[29.3056,-16.8473,1131.8121],[29.2695,-16.8717,1061.411],[29.2604,-16.8734,1059.9972],[29.2523,-16.8793,1052.9227],[29.2511,-16.8811,1058.9668],[29.2518,-16.8845,1050.91],[29.2495,-16.8871,1040.8214],[29.2433,-16.89,1036.8354],[29.2434,-16.8932,1035.7057],[29.2476,-16.8922,1036.5697],[29.2486,-16.89,1042.1888],[29.2571,-16.8911,1064.3416],[29.2562,-16.8927,1049.2549],[29.2588,-16.8943,1050.989],[29.2582,-16.9,1052.4034],[29.2688,-16.9059,1080.1886],[29.2695,-16.9093,1071.0975],[29.2718,-16.9109,1078.4308],[29.2757,-16.9096,1086.9023],[29.2855,-16.9016,1142.3999],[29.291,-16.9014,1114.0374],[29.2936,-16.8947,1102.7516],[29.3013,-16.8942,1114.3231],[29.3059,-16.8902,1117.4558],[29.3107,-16.8888,1132.0133],[29.3221,-16.8896,1127.9719],[29.3333,-16.8941,1144.2737],[29.3367,-16.898,1152.7593],[29.3371,-16.9068,1159.0093],[29.3244,-16.9066,1140.4042],[29.3082,-16.9153,1094.3723],[29.3069,-16.919,1089.8458],[29.312,-16.9239,1113.845],[29.3174,-16.9251,1131.0613],[29.3224,-16.9188,1137.5897],[29.3278,-16.9256,1114.9149],[29.3345,-16.9288,1121.5486],[29.3431,-16.9255,1138.657],[29.3413,-16.9338,1121.2305],[29.3304,-16.9445,1111.1823],[29.3317,-16.9506,1117.9951],[29.3299,-16.9583,1102.0126],[29.3307,-16.9627,1107.6775],[29.3403,-16.9715,1127.5111],[29.3612,-16.9666,1162.7289],[29.3584,-16.9789,1120.4995],[29.3493,-16.99,1108.1353],[29.3492,-16.9956,1080.1736],[29.3477,-16.9974,1086.4224],[29.3307,-17.0026,1064.3755],[29.3289,-17.0039,1064.2247],[29.3292,-17.0071,1050.0529],[29.3265,-17.0106,1049.153],[29.3216,-17.0139,1044.4081],[29.3168,-17.0118,1046.0745],[29.3062,-17.0198,1038.698],[29.3059,-17.0234,1031.3523],[29.2975,-17.0213,1032.7736],[29.2939,-17.0233,1027.3805],[29.3016,-17.0289,1052.115],[29.3073,-17.0275,1047.3539],[29.3099,-17.0285,1076.8527],[29.3183,-17.0229,1071.5342],[29.3219,-17.0272,1081.9614],[29.332,-17.0246,1101.1121],[29.3515,-17.0308,1074.2141],[29.3602,-17.0364,1155.6719],[29.3565,-17.0385,1130.0613],[29.3522,-17.0454,1146.7015],[29.3531,-17.0538,1115.7247],[29.358,-17.047,1143.2594],[29.3615,-17.046,1138.6326],[29.3687,-17.0368,1168.4226],[29.3732,-17.0344,1171.4388],[29.3838,-17.0241,1196.5684],[29.3902,-17.0266,1200.7682],[29.3999,-17.0273,1205.335],[29.4088,-17.0207,1221.6522],[29.4076,-17.0316,1220.5059],[29.4118,-17.0344,1224.9264],[29.4161,-17.0323,1231.9518],[29.4166,-17.0288,1236.1948],[29.4195,-17.0261,1231.4875],[29.4312,-17.0227,1240.3729],[29.4401,-17.0162,1251.0991],[29.4445,-17.0154,1255.3431],[29.4474,-17.0186,1260.1088],[29.4522,-17.0196,1245.6677],[29.4529,-17.0159,1273.7017],[29.4505,-17.0127,1271.9248],[29.4545,-17.0108,1278.8289],[29.4618,-17.0014,1274.8528],[29.4702,-16.9998,1269.3047],[29.4741,-16.9963,1266.3286],[29.4819,-16.993,1263.8914],[29.4987,-16.9945,1260.9631],[29.4981,-16.9995,1261.2667],[29.5087,-17.0114,1249.6208],[29.5115,-17.022,1220.8667],[29.5137,-17.0227,1214.14],[29.5179,-17.0207,1210.5303],[29.5001,-16.9243,1267.1885],[29.497,-16.9251,1263.9004],[29.4923,-16.9226,1261.5544],[29.4747,-16.9229,1251.8649],[29.4638,-16.9277,1237.9762],[29.4599,-16.9252,1228.269],[29.4573,-16.92,1236.0049],[29.4537,-16.9208,1224.7692],[29.4547,-16.9142,1227.0984],[29.4456,-16.9072,1205.3599],[29.4399,-16.8989,1188.2576],[29.4329,-16.894,1172.2521],[29.4344,-16.8912,1177.3147],[29.4308,-16.8863,1169.0],[29.4316,-16.8832,1170.2837],[29.4267,-16.8811,1169.0],[29.4246,-16.8783,1170.6851],[29.4215,-16.8785,1165.4625],[29.4234,-16.8711,1162.0771],[29.4119,-16.8612,1142.8291],[29.4127,-16.8562,1144.1035],[29.4167,-16.8537,1141.5771],[29.418,-16.8468,1154.7672],[29.4151,-16.848,1142.5568],[29.409,-16.8451,1142.8818],[29.3996,-16.8441,1130.7184],[29.394,-16.8391,1136.8204]]]]}
,"properties": {"GID_3": "ZWE.6.4.3_2","GID_0": "ZWE","country": "Zimbabwe","GID_1": "ZWE.6_1","province": "MashonalandWest","NL_NAME_1": "NA","GID_2": "ZWE.6.4_2","county": "Hurungwe","NL_NAME_2": "NA","city": "Ward11","VARNAME_3": "NA","NL_NAME_3": "NA","TYPE_3": "Ward","ENGTYPE_3": "Ward","CC_3": "NA","HASC_3": "NA","name": "Ward11.city","area_km2": 324.4365,"hist_schema_id": "Elevation0-9000","hist_area_km2": {"1025": 1.0745,"1050": 6.693,"1075": 12.6349,"1100": 18.4973,"1125": 35.5588,"1150": 56.779,"1175": 56.5919,"1200": 39.8345,"1225": 37.5986,"1250": 46.4397,"1275": 12.7343}}}