{"type":"Feature","properties":{"GID_3":"ZWE.8.7.16_2","GID_0":"ZWE","country":"Zimbabwe","GID_1":"ZWE.8_1","province":"MatabelelandNorth","NL_NAME_1":"NA","GID_2":"ZWE.8.7_2","county":"Tsholotsho","NL_NAME_2":"NA","city":"Ward3","VARNAME_3":"NA","NL_NAME_3":"NA","TYPE_3":"Ward","ENGTYPE_3":"Ward","CC_3":"NA","HASC_3":"NA","name":"Ward3.city"},
"geometry":{"type": "MultiPolygon","coordinates": [[[[27.2269,-19.317,988.162],[27.2345,-19.3184,988.0198],[27.2444,-19.3127,992.5153],[27.2685,-19.3085,990.9313],[27.279,-19.3095,991.0638],[27.3134,-19.3069,996.1561],[27.3268,-19.309,995.6108],[27.3583,-19.3286,1011.6751],[27.3695,-19.3389,1010.6147],[27.3766,-19.3409,1004.308],[27.3797,-19.345,1004.3575],[27.3813,-19.3508,1011.7899],[27.3847,-19.354,1012.8807],[27.3968,-19.3454,1005.3939],[27.4047,-19.3453,1010.3024],[27.4076,-19.3438,1011.6559],[27.4037,-19.3261,1013.5383],[27.4098,-19.3149,1011.8218],[27.4155,-19.312,1014.7224],[27.432,-19.3085,1016.344],[27.516,-19.3372,1017.3098],[27.5364,-19.359,1021.9997],[27.5507,-19.3645,1023.5649],[27.5567,-19.3626,1025.431],[27.5622,-19.3656,1025.3147],[27.5967,-19.3749,1003.7524],[27.5963,-19.365,1008.7464],[27.6059,-19.3291,1004.0746],[27.5469,-19.2695,1020.8452],[27.5441,-19.2642,1017.1595],[27.5438,-19.2596,1016.1751],[27.546,-19.2436,1018.3064],[27.5584,-19.2343,1020.8612],[27.5584,-19.2225,1021.9653],[27.5558,-19.2147,1017.9075],[27.5616,-19.199,1020.2406],[27.5616,-19.1951,1019.9976],[27.5502,-19.1828,1019.381],[27.5486,-19.172,1020.8813],[27.5496,-19.1695,1020.449],[27.5574,-19.1656,1017.7769],[27.5688,-19.1677,1017.7103],[27.5699,-19.1661,1017.6143],[27.5725,-19.149,1018.7547],[27.5875,-19.0941,1014.8549],[27.4665,-19.0981,1018.9202],[27.4465,-19.1227,1017.7734],[27.4453,-19.1265,1015.3007],[27.4476,-19.131,1016.8237],[27.4454,-19.1344,1015.1368],[27.4455,-19.1417,1014.9425],[27.4428,-19.145,1015.2183],[27.4439,-19.1509,1013.3392],[27.4492,-19.1546,1014.5999],[27.4526,-19.1602,1014.0498],[27.4565,-19.1726,1012.7173],[27.4556,-19.1854,1012.5147],[27.4595,-19.19,1013.649],[27.4599,-19.1973,1012.5198],[27.4535,-19.2024,1009.9491],[27.455,-19.2124,1008.568],[27.4537,-19.2169,1008.0952],[27.4494,-19.217,1009.8019],[27.4402,-19.2115,1011.3671],[27.4184,-19.2135,1008.514],[27.4082,-19.219,1007.2365],[27.3984,-19.2274,1004.6314],[27.3906,-19.2288,1006.8613],[27.3749,-19.225,1003.5684],[27.3584,-19.2163,1002.0495],[27.357,-19.2248,1003.5258],[27.3539,-19.225,1006.8102],[27.3495,-19.228,1003.6856],[27.3413,-19.2259,1006.3253],[27.3238,-19.2269,1004.7352],[27.3218,-19.2294,998.9286],[27.3091,-19.2364,998.9318],[27.3068,-19.2368,996.9382],[27.3062,-19.2334,1005.4781],[27.303,-19.2358,999.3399],[27.3,-19.2355,1002.9648],[27.2913,-19.2408,1002.3602],[27.2801,-19.2506,1006.2617],[27.2787,-19.2529,998.3603],[27.2799,-19.2549,995.1829],[27.2788,-19.2627,995.0487],[27.2677,-19.2635,1007.9117],[27.2428,-19.2812,1006.6879],[27.2433,-19.2835,992.7314],[27.2336,-19.2934,990.673],[27.2339,-19.3016,989.8368],[27.2313,-19.3089,990.4241],[27.2346,-19.3134,989.5939],[27.2269,-19.317,988.162]]]]}}