{"type": "Feature","bbox": [30.2475,-17.9793,30.3478,-17.8989],"geometry": {"type": "MultiPolygon","coordinates": [[[[30.3474,-17.9739,1236.1227],[30.3371,-17.9645,1233.0291],[30.3478,-17.957,1229.2435],[30.3457,-17.9563,1231.7156],[30.3366,-17.9436,1243.2532],[30.3332,-17.946,1241.6223],[30.3283,-17.9382,1226.8833],[30.3294,-17.9334,1236.7819],[30.3248,-17.9197,1253.6501],[30.3124,-17.9261,1248.8525],[30.3047,-17.9157,1260.2825],[30.3016,-17.8989,1256.459],[30.2637,-17.9053,1243.8066],[30.2636,-17.9065,1242.2373],[30.2479,-17.9097,1228.1656],[30.2544,-17.9437,1222.0167],[30.2475,-17.9781,1188.9385],[30.2591,-17.9793,1198.1858],[30.2704,-17.9681,1201.2231],[30.3281,-17.9747,1224.6362],[30.3474,-17.9739,1236.1227]]]]}
,"properties": {"GID_3": "ZWE.6.1.9_2","GID_0": "ZWE","country": "Zimbabwe","GID_1": "ZWE.6_1","province": "MashonalandWest","NL_NAME_1": "NA","GID_2": "ZWE.6.1_2","county": "Chegutu","NL_NAME_2": "NA","city": "Ward17","VARNAME_3": "NA","NL_NAME_3": "NA","TYPE_3": "Ward","ENGTYPE_3": "Ward","CC_3": "NA","HASC_3": "NA","name": "Ward17.city","area_km2": 62.3086,"hist_schema_id": "Elevation0-9000","hist_area_km2": {"1175": 0.44369,"1200": 11.7584,"1225": 32.93924,"1250": 17.16727}}}