{"type":"Feature","properties":{"GID_3":"ZWE.6.6.6_2","GID_0":"ZWE","country":"Zimbabwe","GID_1":"ZWE.6_1","province":"MashonalandWest","NL_NAME_1":"NA","GID_2":"ZWE.6.6_2","county":"Kariba","NL_NAME_2":"NA","city":"Ward3","VARNAME_3":"NA","NL_NAME_3":"NA","TYPE_3":"Ward","ENGTYPE_3":"Ward","CC_3":"NA","HASC_3":"NA","name":"Ward3.city"},
"geometry":{"type": "MultiPolygon","coordinates": [[[[28.2893,-16.8411,491.8365],[28.2839,-16.8401,483.5],[28.2853,-16.8425,486.2812],[28.283,-16.8424,483.5],[28.2826,-16.8446,484.7418],[28.2794,-16.8469,487.1598],[28.2802,-16.8498,486.6124],[28.2789,-16.8504,486.6124],[28.2774,-16.8465,491.48],[28.2807,-16.8413,483.5],[28.2768,-16.8435,483.5],[28.2733,-16.8425,483.5],[28.2728,-16.8467,490.1932],[28.2745,-16.8492,494.2853],[28.2719,-16.851,486.2628],[28.2691,-16.8459,493.5717],[28.2727,-16.8382,483.5],[28.2688,-16.8376,483.5],[28.2661,-16.8304,483.5],[28.259,-16.8348,483.5],[28.2563,-16.8341,483.5],[28.2527,-16.8438,486.9231],[28.2508,-16.8362,483.5],[28.248,-16.837,484.0746],[28.248,-16.8347,483.5],[28.2462,-16.8339,483.5],[28.2429,-16.8349,483.5],[28.2376,-16.8333,483.5],[28.2328,-16.8368,483.5],[28.2297,-16.8367,483.5],[28.2305,-16.8386,484.6371],[28.228,-16.838,483.5],[28.2289,-16.8402,487.1945],[28.2269,-16.8388,483.5],[28.2287,-16.8422,494.6074],[28.226,-16.8412,483.5],[28.2278,-16.8432,493.2965],[28.2261,-16.8438,483.5],[28.2264,-16.8457,483.5],[28.2236,-16.8431,483.5],[28.2233,-16.85,490.4717],[28.2247,-16.8527,492.0107],[28.2226,-16.8559,483.5],[28.2265,-16.856,515.9183],[28.2225,-16.8603,483.5],[28.2303,-16.8603,534.7539],[28.2303,-16.8615,498.7182],[28.2331,-16.8603,545.2719],[28.2337,-16.8638,499.9858],[28.2262,-16.8674,483.5],[28.2331,-16.8662,487.3315],[28.2406,-16.8686,496.1281],[28.2408,-16.8713,485.7308],[28.238,-16.8716,486.0645],[28.2417,-16.8757,497.391],[28.2363,-16.8715,483.5],[28.2358,-16.8735,484.6635],[28.2327,-16.8708,483.5],[28.2272,-16.8722,483.5],[28.2326,-16.877,487.4696],[28.2287,-16.8763,483.5],[28.2291,-16.8794,486.3967],[28.2256,-16.8778,483.5],[28.2236,-16.88,484.7524],[28.2253,-16.8838,499.9981],[28.2203,-16.8839,489.3792],[28.2216,-16.8883,495.8138],[28.2268,-16.8897,505.4396],[28.2239,-16.8904,498.6671],[28.2234,-16.894,485.0563],[28.2304,-16.8964,495.5475],[28.2309,-16.8983,487.1637],[28.2284,-16.8997,483.5],[28.2303,-16.9027,494.9951],[28.2278,-16.9018,490.4998],[28.227,-16.9049,483.5],[28.232,-16.9047,494.7031],[28.2287,-16.9067,487.3997],[28.2315,-16.9103,491.425],[28.2344,-16.9115,484.002],[28.2343,-16.9131,487.7461],[28.2381,-16.9129,502.942],[28.2383,-16.915,487.1566],[28.2422,-16.9173,494.3913],[28.2467,-16.919,493.6458],[28.2512,-16.918,494.2067],[28.2534,-16.9212,492.0071],[28.2531,-16.9258,496.2371],[28.2567,-16.9276,505.0971],[28.2571,-16.9259,507.2246],[28.2603,-16.9269,504.9794],[28.2643,-16.9299,504.017],[28.263,-16.9352,496.4014],[28.2652,-16.9384,497.8743],[28.2625,-16.9426,500.149],[28.2668,-16.9488,502.3916],[28.2681,-16.9487,502.3916],[28.2679,-16.9517,505.8247],[28.2699,-16.9531,503.2336],[28.2669,-16.9557,508.7546],[28.2687,-16.9644,510.77],[28.2752,-16.9674,524.9224],[28.279,-16.9753,517.9882],[28.2791,-16.9789,517.8801],[28.2823,-16.9779,522.4262],[28.2832,-16.9819,523.7104],[28.2869,-16.9805,527.0267],[28.2855,-16.9869,530.2124],[28.2908,-16.987,532.5789],[28.2902,-16.9949,533.8215],[28.2925,-16.9972,541.2174],[28.2926,-17.0012,534.9656],[28.2952,-17.0018,541.1473],[28.2949,-17.0055,538.6563],[28.2979,-17.0062,552.9353],[28.3027,-17.0123,553.2485],[28.302,-17.0172,552.1736],[28.2939,-17.0201,555.735],[28.2942,-17.0264,564.78],[28.2884,-17.0385,580.4781],[28.2798,-17.0501,697.951],[28.2761,-17.0529,700.9287],[28.2828,-17.0578,690.9335],[28.2829,-17.0602,699.2004],[28.2861,-17.0632,723.2288],[28.2956,-17.0686,905.5599],[28.3146,-17.0614,1054.5012],[28.3195,-17.058,1104.9865],[28.321,-17.0538,985.776],[28.3949,-17.055,531.2499],[28.3925,-17.0512,556.6945],[28.3861,-17.0509,544.6833],[28.3852,-17.0469,547.5787],[28.3872,-17.041,555.2292],[28.3908,-17.0394,528.8884],[28.3948,-17.0273,518.6116],[28.3987,-17.0214,526.7292],[28.4025,-17.0099,554.4938],[28.3992,-17.0033,520.816],[28.402,-17.0022,494.7786],[28.4004,-16.998,504.9603],[28.4033,-16.9934,509.0118],[28.4063,-16.9912,524.9669],[28.4125,-16.9913,493.4258],[28.4147,-16.9883,511.5032],[28.4283,-16.9846,490.2394],[28.4304,-16.9819,519.8153],[28.4372,-16.9821,501.1277],[28.4414,-16.9806,493.5343],[28.4482,-16.975,484.1472],[28.4453,-16.9718,484.9683],[28.4424,-16.9739,484.8922],[28.4412,-16.9722,486.5769],[28.4393,-16.9734,485.1616],[28.4388,-16.9711,491.339],[28.4329,-16.9723,490.6199],[28.436,-16.9703,487.772],[28.4333,-16.9693,501.303],[28.4356,-16.9671,508.0895],[28.4393,-16.9689,486.238],[28.4395,-16.9669,496.6375],[28.4446,-16.9638,489.8256],[28.4441,-16.9607,483.5],[28.4418,-16.9611,483.5],[28.4425,-16.9556,483.5],[28.4394,-16.9574,483.5],[28.4391,-16.9621,491.5931],[28.4349,-16.9566,483.5],[28.4349,-16.9608,488.9534],[28.4326,-16.9567,483.5],[28.4331,-16.9619,497.6562],[28.4311,-16.9632,494.2982],[28.4204,-16.9622,508.3901],[28.4172,-16.9598,512.52],[28.4245,-16.9598,510.2122],[28.4276,-16.9613,495.6864],[28.4295,-16.9567,483.5],[28.4269,-16.9567,503.9094],[28.4294,-16.955,493.7301],[28.4292,-16.9532,502.7363],[28.4364,-16.9537,496.0761],[28.4371,-16.9498,485.8328],[28.4347,-16.9514,485.1677],[28.4348,-16.9495,491.1859],[28.4326,-16.9497,495.974],[28.4346,-16.9473,488.6908],[28.4341,-16.9445,484.502],[28.4298,-16.9492,483.5],[28.4284,-16.9483,495.3994],[28.4282,-16.9517,484.723],[28.4255,-16.9535,484.9218],[28.4194,-16.9539,508.3603],[28.4225,-16.9516,503.4628],[28.4218,-16.9503,511.2765],[28.4255,-16.9493,495.3377],[28.4252,-16.9462,504.8189],[28.4326,-16.9442,485.9838],[28.4274,-16.9439,505.6296],[28.4273,-16.9423,513.4252],[28.4309,-16.9415,493.7028],[28.4318,-16.9397,507.7549],[28.4353,-16.9409,494.5058],[28.4371,-16.9365,486.5991],[28.435,-16.9338,504.2117],[28.4409,-16.9283,486.3025],[28.4363,-16.929,504.7563],[28.4351,-16.9277,509.8484],[28.4411,-16.9264,483.5],[28.4409,-16.9184,503.3185],[28.4436,-16.9209,489.5125],[28.4463,-16.9185,484.6403],[28.4441,-16.9165,497.8318],[28.448,-16.9148,486.101],[28.4469,-16.9132,490.0752],[28.4498,-16.9134,487.7988],[28.4472,-16.9124,487.1747],[28.4438,-16.9081,498.8898],[28.4465,-16.9078,514.0699],[28.452,-16.9107,485.5647],[28.4505,-16.9077,495.5512],[28.4531,-16.9079,497.8249],[28.4521,-16.9041,485.4161],[28.4562,-16.903,483.5],[28.4547,-16.8997,483.5],[28.4528,-16.9021,483.5],[28.4503,-16.9008,484.9683],[28.4503,-16.8982,483.5],[28.4454,-16.8937,483.5],[28.4445,-16.8893,497.8895],[28.4463,-16.8858,483.5],[28.4433,-16.8824,485.5645],[28.4435,-16.8782,483.5],[28.4407,-16.8788,486.2988],[28.438,-16.8694,483.5],[28.4388,-16.8639,487.2141],[28.442,-16.8612,483.5],[28.4389,-16.8599,483.5],[28.4358,-16.8525,483.5],[28.4329,-16.8499,494.497],[28.4365,-16.8491,488.5002],[28.4366,-16.8479,483.5],[28.4305,-16.8463,483.5],[28.4208,-16.8382,483.5],[28.4179,-16.839,483.5],[28.4153,-16.8373,483.5],[28.4148,-16.84,486.2458],[28.4107,-16.8389,483.5],[28.411,-16.8414,486.38],[28.4174,-16.8445,499.6607],[28.4204,-16.8501,484.8136],[28.42,-16.8557,483.5],[28.4227,-16.8649,501.1846],[28.4204,-16.8749,483.5],[28.4228,-16.8771,497.2943],[28.4163,-16.8776,483.5],[28.4169,-16.8801,487.7115],[28.4194,-16.8802,487.9329],[28.4197,-16.8849,487.7392],[28.4152,-16.8807,485.2509],[28.4133,-16.8751,484.4246],[28.4151,-16.8732,486.705],[28.4124,-16.873,483.5],[28.4106,-16.877,493.7899],[28.4099,-16.8745,484.8425],[28.403199999999998,-16.875,497.3252],[28.4042,-16.8732,492.2461],[28.4063,-16.8731,494.1891],[28.4033,-16.8709,503.0948],[28.4102,-16.8722,487.4592],[28.4083,-16.8705,486.8542],[28.41,-16.8691,483.5],[28.4071,-16.8687,485.5034],[28.4087,-16.8632,483.5],[28.4039,-16.8587,484.4796],[28.4051,-16.8553,484.7089],[28.4022,-16.852,494.0882],[28.4053,-16.8537,484.7148],[28.4051,-16.8498,493.1586],[28.4074,-16.8493,483.5],[28.4074,-16.8472,485.4661],[28.4053,-16.8467,492.1951],[28.4083,-16.8442,483.5],[28.4069,-16.8386,483.5],[28.4047,-16.8398,483.5],[28.4049,-16.8418,487.8319],[28.3998,-16.8389,484.1051],[28.4009,-16.8417,488.9722],[28.3983,-16.8418,483.5],[28.3974,-16.8442,488.3744],[28.3975,-16.8407,483.5],[28.3958,-16.8398,483.5],[28.3944,-16.8406,483.5],[28.3952,-16.8446,485.7047],[28.3939,-16.8428,484.23],[28.392,-16.8438,484.5292],[28.3902,-16.8413,483.5],[28.3866,-16.8436,483.5],[28.3865,-16.8461,489.4405],[28.3843,-16.8443,483.5],[28.3845,-16.8475,485.3546],[28.382,-16.8443,483.5],[28.3818,-16.8476,485.9403],[28.3798,-16.8491,483.5],[28.382,-16.8534,499.8739],[28.3816,-16.857,490.1279],[28.3806,-16.8558,487.0443],[28.3793,-16.8567,495.7642],[28.3787,-16.8517,483.5],[28.3772,-16.851,483.5],[28.3768,-16.8553,490.9528],[28.374,-16.8538,485.6468],[28.3751,-16.8571,484.6627],[28.3735,-16.8559,483.5],[28.3717,-16.8572,487.5233],[28.3719,-16.8541,486.0404],[28.3702,-16.8535,491.2273],[28.3665,-16.8602,494.5388],[28.3656,-16.8585,495.0412],[28.3687,-16.8535,486.2201],[28.3642,-16.8565,497.2057],[28.3611,-16.8551,498.2368],[28.3271,-16.866,523.5988],[28.3022,-16.8686,534.4128],[28.2987,-16.8635,534.6053],[28.2976,-16.8575,638.6354],[28.2893,-16.8411,491.8365]]]]}}