{"type":"Feature","properties":{"GID_3":"ZWE.4.7.5_2","GID_0":"ZWE","country":"Zimbabwe","GID_1":"ZWE.4_1","province":"MashonalandCentral","NL_NAME_1":"NA","GID_2":"ZWE.4.7_2","county":"MountDarwin","NL_NAME_2":"NA","city":"Ward13","VARNAME_3":"NA","NL_NAME_3":"NA","TYPE_3":"Ward","ENGTYPE_3":"Ward","CC_3":"NA","HASC_3":"NA","name":"Ward13.city"},
"geometry":{"type": "MultiPolygon","coordinates": [[[[31.8823,-16.6037,820.4719],[31.883,-16.6081,821.6577],[31.8799,-16.6108,828.3956],[31.8807,-16.6151,825.7131],[31.8741,-16.6209,838.2616],[31.866,-16.6247,838.0255],[31.8654,-16.6281,828.6573],[31.8694,-16.6387,837.9981],[31.8788,-16.6343,853.0213],[31.8893,-16.6357,859.4628],[31.9125,-16.6492,884.2037],[31.9173,-16.642,886.8458],[31.9203,-16.6483,891.2],[31.9339,-16.6494,897.7594],[31.9326,-16.6593,901.3082],[31.9448,-16.6643,916.6708],[31.9374,-16.6678,907.7747],[31.9335,-16.6725,903.0099],[31.9324,-16.6823,912.4849],[31.9399,-16.6792,893.5247],[31.9412,-16.6902,899.0778],[31.9515,-16.696,885.6251],[31.9593,-16.7116,864.6273],[31.9725,-16.7109,849.4088],[31.9639,-16.7176,853.7727],[31.9571,-16.717,876.6745],[31.9701,-16.721,858.7762],[32.0027,-16.7514,742.6454],[32.035,-16.757,696.4026],[32.0339,-16.7522,700.4591],[32.0366,-16.7473,731.9885],[32.0352,-16.7423,729.3613],[32.0335,-16.7415,732.6068],[32.027,-16.6679,893.8956],[32.015,-16.6719,870.712],[32.0115,-16.6586,904.9559],[31.9923,-16.6705,855.7921],[31.9785,-16.6769,861.5129],[31.9761,-16.671,858.2997],[31.9655,-16.6694,875.2501],[31.9601,-16.6588,890.4926],[31.9648,-16.6561,889.567],[31.965,-16.6451,923.6602],[31.9734,-16.6324,967.6774],[31.9734,-16.6279,932.7552],[31.9631,-16.6208,931.8823],[31.9592,-16.6157,916.9892],[31.9481,-16.6132,917.9951],[31.9445,-16.6045,908.3784],[31.9484,-16.5982,892.7744],[31.9436,-16.5958,892.2734],[31.9447,-16.5925,871.1962],[31.9427,-16.5923,872.2966],[31.93,-16.5807,835.2685],[31.9139,-16.5718,815.2444],[31.9074,-16.561,804.5459],[31.9034,-16.5666,798.212],[31.8934,-16.5712,809.3384],[31.8931,-16.5798,820.8029],[31.8915,-16.5825,818.6775],[31.8852,-16.5877,829.7975],[31.8795,-16.59,826.651],[31.8791,-16.5934,815.7],[31.8823,-16.6037,820.4719]]]]}}