{"type":"Feature","properties":{"GID_3":"ZWE.3.5.1_2","GID_0":"ZWE","country":"Zimbabwe","GID_1":"ZWE.3_1","province":"Manicaland","NL_NAME_1":"NA","GID_2":"ZWE.3.5_2","county":"Makoni","NL_NAME_2":"NA","city":"Ward1","VARNAME_3":"NA","NL_NAME_3":"NA","TYPE_3":"Ward","ENGTYPE_3":"Ward","CC_3":"NA","HASC_3":"NA","name":"Ward1.city"},
"geometry":{"type": "MultiPolygon","coordinates": [[[[32.5015,-17.6093,883.8441],[32.4935,-17.6191,891.9055],[32.4917,-17.6242,887.465],[32.4825,-17.6264,892.4225],[32.48,-17.6239,902.5436],[32.4732,-17.6267,899.0455],[32.4706,-17.6339,905.7213],[32.4704,-17.6396,898.8893],[32.4664,-17.6451,900.7299],[32.4639,-17.6479,909.0937],[32.461,-17.6482,904.933],[32.4541,-17.6538,904.7819],[32.4484,-17.6554,925.023],[32.4426,-17.6601,935.1145],[32.4423,-17.6635,923.5013],[32.4454,-17.6646,937.2229],[32.4457,-17.6662,945.467],[32.4429,-17.6696,932.6939],[32.4376,-17.6721,935.2516],[32.4512,-17.7267,1041.663],[32.4714,-17.7386,1086.1953],[32.5179,-17.7814,901.6592],[32.5204,-17.7792,906.7632],[32.5214,-17.7744,898.1932],[32.5166,-17.768,892.2977],[32.5164,-17.7654,902.5326],[32.5228,-17.762,894.6481],[32.5249,-17.7582,886.145],[32.5239,-17.7534,882.7203],[32.5383,-17.7395,867.2283],[32.5416,-17.7285,867.2111],[32.5397,-17.7193,907.4335],[32.5492,-17.7018,854.1078],[32.5497,-17.697,864.5609],[32.5442,-17.6891,849.6259],[32.5408,-17.6696,846.5104],[32.5396,-17.6474,847.8223],[32.5781,-17.6337,824.2795],[32.5776,-17.6289,816.8018],[32.5799,-17.6256,816.1815],[32.5809,-17.6141,811.4477],[32.5791,-17.6054,826.868],[32.5745,-17.6035,886.7535],[32.5714,-17.6047,837.3669],[32.5687,-17.6016,843.0298],[32.5681,-17.5973,844.7866],[32.5644,-17.6007,847.2789],[32.5626,-17.5963,858.3152],[32.5588,-17.5994,848.1848],[32.5565,-17.6059,853.5553],[32.5505,-17.6065,858.4037],[32.5514,-17.6153,876.3385],[32.5484,-17.6194,862.5898],[32.5464,-17.6194,863.746],[32.5421,-17.6155,865.6516],[32.5363,-17.6146,870.7958],[32.5333,-17.6174,865.7587],[32.5307,-17.6176,872.2446],[32.5244,-17.6147,874.8005],[32.519,-17.6149,877.5599],[32.5123,-17.6101,882.152],[32.5015,-17.6093,883.8441]]]]}}