{"type": "Feature","bbox": [27.7383,-18.5506,28.002,-18.4166],"geometry": {"type": "MultiPolygon","coordinates": [[[[27.7448,-18.4869,1054.0179],[27.7524,-18.4878,1062.9241],[27.7524,-18.4917,1062.6631],[27.7491,-18.5016,1057.1783],[27.7442,-18.5092,1046.3306],[27.7383,-18.5096,1044.7349],[27.7392,-18.5195,1036.3867],[27.7472,-18.5273,989.7216],[27.7498,-18.5235,993.7855],[27.7559,-18.5218,999.984],[27.7597,-18.524,997.0817],[27.7616,-18.522,1019.6567],[27.764,-18.5237,1002.8757],[27.7682,-18.5234,1027.8607],[27.7723,-18.5259,1018.2898],[27.778,-18.5239,1042.3496],[27.7802,-18.528199999999998,994.2806],[27.7855,-18.5308,999.131],[27.7957,-18.5294,1005.6504],[27.8057,-18.5317,1007.358],[27.811,-18.5349,1002.9221],[27.8179,-18.5354,1006.4911],[27.8289,-18.533,1013.3605],[27.831,-18.5356,1007.7087],[27.8431,-18.535,1010.9872],[27.8495,-18.5363,1017.2695],[27.8522,-18.5384,1014.1591],[27.8572,-18.5373,1017.5787],[27.8583,-18.5354,1025.0481],[27.8594,-18.5375,1021.0457],[27.8616,-18.5368,1023.3776],[27.861,-18.5398,1010.2084],[27.8629,-18.5419,1013.3531],[27.8672,-18.5406,1018.1147],[27.8673,-18.5427,1013.4576],[27.8722,-18.5431,1011.8504],[27.8735,-18.5411,1017.1301],[27.877,-18.5441,1012.4128],[27.8781,-18.5429,1018.8573],[27.8818,-18.5437,1013.3958],[27.8816,-18.5414,1018.2081],[27.8859,-18.5454,1016.7122],[27.8877,-18.5439,1025.9519],[27.892,-18.5454,1019.42],[27.9009,-18.5441,1017.7004],[27.8984,-18.5418,1024.6233],[27.9005,-18.5408,1027.7844],[27.913,-18.5475,1022.3987],[27.9197,-18.5445,1031.4128],[27.9226,-18.5447,1028.3351],[27.9295,-18.5506,1023.9435],[27.9305,-18.5487,1032.8972],[27.9344,-18.5499,1023.5649],[27.9371,-18.5479,1037.5864],[27.9401,-18.5482,1036.252],[27.9392,-18.5503,1027.4076],[27.9509,-18.5483,1027.02],[27.9599,-18.5451,1029.535],[27.9611,-18.5434,1038.1134],[27.9636,-18.5454,1030.4414],[27.9839,-18.5462,1044.4501],[27.9909,-18.5452,1043.6801],[27.9995,-18.5467,1041.9767],[28.0009,-18.532,1072.2688],[27.999,-18.5212,1126.1488],[28.002,-18.518,1127.3811],[28.0013,-18.4989,1131.8737],[27.9999,-18.4978,1132.5989],[28.0013,-18.4807,1100.366],[27.9999,-18.4633,1081.2297],[28.0001,-18.4339,1050.5802],[27.9948,-18.4331,1051.4701],[27.9931,-18.43,1048.8132],[27.989,-18.4312,1048.5044],[27.9873,-18.4296,1047.4635],[27.9811,-18.43,1047.0786],[27.9773,-18.4277,1045.5039],[27.971,-18.4166,1039.6008],[27.966,-18.4178,1039.4062],[27.9565,-18.4254,1035.6567],[27.9524,-18.4262,1035.9873],[27.9487,-18.4314,1032.0601],[27.9337,-18.4402,1026.8142],[27.8847,-18.4515,1028.5807],[27.8657,-18.4611,1030.0563],[27.8611,-18.4647,1029.1522],[27.8613,-18.4679,1031.1384],[27.8518,-18.4661,1026.7111],[27.8469,-18.4625,1024.151],[27.8469,-18.4601,1023.4539],[27.8418,-18.4591,1022.8445],[27.8361,-18.4553,1020.0967],[27.8346,-18.4553,1020.0967],[27.8329,-18.4591,1021.5095],[27.8249,-18.4554,1019.7599],[27.8038,-18.4568,1013.6832],[27.7977,-18.4565,1012.6338],[27.7962,-18.4548,1012.6154],[27.7904,-18.4563,1015.5364],[27.7901,-18.4579,1015.5364],[27.7862,-18.4552,1019.4216],[27.7883,-18.4483,1023.7145],[27.784,-18.4477,1025.8984],[27.7764,-18.4498,1027.4707],[27.7703,-18.4481,1023.7418],[27.77,-18.4464,1020.9279],[27.7628,-18.4433,1025.3318],[27.7567,-18.4433,1022.2219],[27.742,-18.4526,1021.6205],[27.7481,-18.4757,1058.6858],[27.7484,-18.4803,1060.606],[27.7448,-18.4869,1054.0179]]]]}
,"properties": {"GID_3": "ZWE.8.5.20_2","GID_0": "ZWE","country": "Zimbabwe","GID_1": "ZWE.8_1","province": "MatabelelandNorth","NL_NAME_1": "NA","GID_2": "ZWE.8.5_2","county": "Lupane","NL_NAME_2": "NA","city": "Ward27","VARNAME_3": "NA","NL_NAME_3": "NA","TYPE_3": "Ward","ENGTYPE_3": "Ward","CC_3": "NA","HASC_3": "NA","name": "Ward27.city","area_km2": 277.3627,"hist_schema_id": "Elevation0-9000","hist_area_km2": {"1000": 5.0874,"1025": 49.0869,"1050": 71.1231,"1075": 60.1809,"1100": 71.3165,"1125": 20.5277,"1150": 0.0402}}}