{"type": "Feature","bbox": [31.1957,-18.2429,31.3705,-18.1539],"geometry": {"type": "MultiPolygon","coordinates": [[[[31.1957,-18.1875,1446.7637],[31.2071,-18.198,1459.3718],[31.2168,-18.1971,1469.8762],[31.2203,-18.1995,1469.9391],[31.2291,-18.1992,1479.7373],[31.2439,-18.1924,1482.9539],[31.2549,-18.1946,1486.9661],[31.2614,-18.2006,1487.7167],[31.2736,-18.2013,1497.5623],[31.2795,-18.2067,1502.1389],[31.2871,-18.2077,1509.7466],[31.2891,-18.2112,1506.6508],[31.2954,-18.2131,1510.2939],[31.2997,-18.2191,1513.7966],[31.3118,-18.2281,1518.3728],[31.315,-18.2339,1523.13],[31.3263,-18.2365,1527.5221],[31.3362,-18.2418,1527.4928],[31.347,-18.2429,1530.8438],[31.3515,-18.238,1534.7861],[31.3629,-18.2324,1548.4224],[31.3647,-18.2144,1583.7422],[31.3705,-18.2044,1574.7103],[31.3571,-18.2038,1566.1102],[31.3464,-18.2096,1550.4951],[31.3375,-18.21,1546.3798],[31.3304,-18.2078,1544.0925],[31.3246,-18.2022,1538.9381],[31.3196,-18.1896,1524.5573],[31.3066,-18.1852,1526.4536],[31.3004,-18.1758,1522.2883],[31.293,-18.1764,1510.4882],[31.2858,-18.1703,1514.8151],[31.2781,-18.1693,1501.4048],[31.2685,-18.1593,1503.4451],[31.26,-18.1539,1493.2885],[31.2511,-18.1554,1493.7626],[31.2472,-18.1574,1493.3032],[31.2429,-18.1624,1484.3113],[31.2363,-18.1622,1483.8966],[31.2231,-18.1658,1478.4956],[31.2214,-18.1669,1474.897],[31.2213,-18.1706,1472.28],[31.2161,-18.171,1475.2097],[31.214,-18.1748,1467.2229],[31.2064,-18.1751,1467.9413],[31.2031,-18.1789,1461.0978],[31.1958,-18.1827,1454.1288],[31.1957,-18.1875,1446.7637]]]]}
,"properties": {"GID_3": "ZWE.5.4.10_2","GID_0": "ZWE","country": "Zimbabwe","GID_1": "ZWE.5_1","province": "MashonalandEast","NL_NAME_1": "NA","GID_2": "ZWE.5.4_2","county": "Marondera","NL_NAME_2": "NA","city": "Ward18","VARNAME_3": "NA","NL_NAME_3": "NA","TYPE_3": "Ward","ENGTYPE_3": "Ward","CC_3": "NA","HASC_3": "NA","name": "Ward18.city","area_km2": 67.67687,"hist_schema_id": "Elevation0-9000","hist_area_km2": {"1450": 1.12802,"1475": 9.89059,"1500": 17.90771,"1525": 20.34303,"1550": 16.23241,"1575": 2.15497,"1600": 0.02014}}}