{"type": "Feature","bbox": [30.5582,-18.7382,30.609,-18.6677],"geometry": {"type": "MultiPolygon","coordinates": [[[[30.6007,-18.698,1286.5504],[30.5968,-18.6921,1286.9744],[30.5876,-18.6848,1282.9697],[30.5777,-18.6812,1276.5516],[30.57,-18.6729,1270.3374],[30.5699,-18.6699,1270.4193],[30.5676,-18.6677,1271.0181],[30.5608,-18.6684,1268.8079],[30.5582,-18.6806,1277.3435],[30.5638,-18.7047,1290.2106],[30.5629,-18.7146,1292.7126],[30.5607,-18.7183,1290.7856],[30.5729,-18.7274,1295.6705],[30.5709,-18.7339,1299.5637],[30.609,-18.7382,1315.786],[30.5984,-18.6998,1290.2405],[30.6007,-18.698,1286.5504]]]]}
,"properties": {"GID_3": "ZWE.6.10.14_2","GID_0": "ZWE","country": "Zimbabwe","GID_1": "ZWE.6_1","province": "MashonalandWest","NL_NAME_1": "NA","GID_2": "ZWE.6.10_2","county": "Mhondoro-Ngezi","NL_NAME_2": "NA","city": "Ward7","VARNAME_3": "NA","NL_NAME_3": "NA","TYPE_3": "Ward","ENGTYPE_3": "Ward","CC_3": "NA","HASC_3": "NA","name": "Ward7.city","area_km2": 25.02234,"hist_schema_id": "Elevation0-9000","hist_area_km2": {"1275": 7.35098,"1300": 16.42647,"1325": 1.24489}}}