{"type": "Feature","bbox": [30.6523,-20.3837,30.9088,-20.1615],"geometry": {"type": "MultiPolygon","coordinates": [[[[30.6547,-20.3111,822.727],[30.6693,-20.3279,810.7753],[30.6846,-20.3374,801.6656],[30.6817,-20.3638,785.7435],[30.6776,-20.3711,787.0081],[30.6778,-20.3792,776.7999],[30.6804,-20.3837,782.2715],[30.7205,-20.3776,829.2745],[30.7494,-20.3648,869.9911],[30.7256,-20.3288,842.6462],[30.7326,-20.3127,848.4653],[30.7409,-20.2996,860.4645],[30.7555,-20.2815,893.4791],[30.7766,-20.2613,986.7584],[30.8655,-20.2657,1092.3904],[30.8714,-20.2694,1075.9635],[30.8987,-20.2407,1081.1875],[30.8996,-20.2075,1048.8627],[30.8766,-20.1979,1105.9736],[30.8995,-20.1854,1048.4758],[30.8901,-20.1804,1049.8887],[30.8924,-20.1762,1063.4141],[30.8973,-20.1796,1051.3182],[30.9088,-20.1762,1046.636],[30.8966,-20.1615,1060.6218],[30.8562,-20.1817,1089.6414],[30.8484,-20.1676,1095.2832],[30.8374,-20.1907,1143.3925],[30.8168,-20.1955,1141.7308],[30.8231,-20.178,1114.3854],[30.8002,-20.1827,1106.9196],[30.8003,-20.1646,1110.6064],[30.7799,-20.1785,1296.678],[30.7726,-20.1916,1299.8134],[30.7454,-20.2243,931.5347],[30.7318,-20.2278,904.7662],[30.7253,-20.2386,888.5654],[30.7044,-20.2412,874.0966],[30.6986,-20.2542,864.3611],[30.7032,-20.2561,859.9043],[30.7056,-20.2596,857.0614],[30.709,-20.2658,854.936],[30.7109,-20.2742,854.0927],[30.7031,-20.2775,841.5978],[30.7049,-20.2793,846.1338],[30.7048,-20.284,840.9789],[30.6996,-20.2857,834.3529],[30.6997,-20.2872,834.6042],[30.7024,-20.2867,839.4508],[30.7028,-20.2882,840.0422],[30.6991,-20.2897,833.1516],[30.6999,-20.2926,834.0233],[30.6976,-20.2925,830.5779],[30.6955,-20.2969,828.8689],[30.6959,-20.3023,827.2819],[30.6527,-20.3015,814.6421],[30.6523,-20.3086,811.2048],[30.6547,-20.3111,822.727]]]]}
,"properties": {"GID_3": "ZWE.7.6.2_2","GID_0": "ZWE","country": "Zimbabwe","GID_1": "ZWE.7_1","province": "Masvingo","NL_NAME_1": "NA","GID_2": "ZWE.7.6_2","county": "Masvingo","NL_NAME_2": "NA","city": "Ward10","VARNAME_3": "NA","NL_NAME_3": "NA","TYPE_3": "Ward","ENGTYPE_3": "Ward","CC_3": "NA","HASC_3": "NA","name": "Ward10.city","area_km2": 231.9463,"hist_schema_id": "Elevation0-9000","hist_area_km2": {"775": 0.6957,"800": 11.7278,"825": 32.1274,"850": 24.1803,"875": 15.6333,"900": 8.9111,"925": 6.445,"950": 6.7637,"975": 6.1274,"1000": 5.4313,"1025": 5.8893,"1050": 11.8393,"1075": 23.5975,"1100": 25.0084,"1125": 15.1604,"1150": 8.356,"1175": 4.9737,"1200": 4.3968,"1225": 4.6355,"1250": 3.5611,"1275": 2.825,"1300": 1.6313,"1325": 0.6963,"1350": 0.3382,"1375": 0.4178,"1400": 0.1592,"1425": 0.1592,"1450": 0.1592,"1475": 0.0199,"1500": 0.0597,"1525": 0.0199}}}