{"type":"Feature","properties":{"GID_3":"ZWE.7.9.31_2","GID_0":"ZWE","country":"Zimbabwe","GID_1":"ZWE.7_1","province":"Masvingo","NL_NAME_1":"NA","GID_2":"ZWE.7.9_2","county":"Zaka","NL_NAME_2":"NA","city":"Ward6","VARNAME_3":"NA","NL_NAME_3":"NA","TYPE_3":"Ward","ENGTYPE_3":"Ward","CC_3":"NA","HASC_3":"NA","name":"Ward6.city"},
"geometry":{"type": "MultiPolygon","coordinates": [[[[31.1537,-20.2448,885.7164],[31.1553,-20.2489,942.1115],[31.1597,-20.2528,945.4312],[31.171,-20.256,925.5939],[31.1769,-20.2546,933.7418],[31.1804,-20.248,938.0633],[31.1841,-20.2468,1018.4136],[31.1875,-20.2473,1034.5273],[31.1959,-20.254,979.9062],[31.2012,-20.2551,968.8267],[31.2047,-20.2527,983.8519],[31.2069,-20.2477,1034.9277],[31.2152,-20.2429,1077.8921],[31.2326,-20.2449,1055.9174],[31.237,-20.2488,1079.3577],[31.2492,-20.2486,1159.6616],[31.2627,-20.2566,1081.856],[31.2671,-20.2556,1080.2881],[31.2834,-20.2723,1010.7463],[31.2869,-20.2735,938.7013],[31.296,-20.2722,911.5403],[31.3012,-20.2678,940.072],[31.3074,-20.267,846.6293],[31.3097,-20.2682,827.8761],[31.3247,-20.2632,825.9889],[31.3288,-20.2525,879.1727],[31.328,-20.2452,914.8236],[31.3239,-20.2452,959.4908],[31.315,-20.24,984.2933],[31.3083,-20.2336,1086.2512],[31.2906,-20.2036,1104.5194],[31.3037,-20.1952,1026.9836],[31.3043,-20.1897,1008.4681],[31.3079,-20.1856,1003.9481],[31.3043,-20.1818,1020.585],[31.3022,-20.1758,1026.8933],[31.2968,-20.1728,1020.3367],[31.2787,-20.1756,1100.906],[31.2658,-20.1756,1069.0824],[31.2517,-20.1793,1088.5361],[31.2054,-20.2105,1112.1549],[31.1736,-20.23,924.4839],[31.1707,-20.2304,925.3017],[31.1673,-20.2329,921.3546],[31.1668,-20.2356,915.2583],[31.1636,-20.2358,900.3591],[31.1586,-20.2419,943.3304],[31.1537,-20.2448,885.7164]]]]}}