{"type": "Feature","bbox": [30.4099,-16.3607,30.5325,-16.2142],"geometry": {"type": "MultiPolygon","coordinates": [[[[30.5202,-16.3606,553.0269],[30.5223,-16.3525,488.7078],[30.5182,-16.3495,454.3699],[30.5162,-16.3514,555.9327],[30.5131,-16.3514,548.5859],[30.5121,-16.3494,445.8265],[30.5168,-16.3435,458.925],[30.5133,-16.338,409.1863],[30.5143,-16.3331,405.8801],[30.5104,-16.3211,400.5995],[30.511,-16.3137,396.4938],[30.5126,-16.3122,397.2466],[30.5121,-16.3083,398.3624],[30.5173,-16.3044,401.3589],[30.5163,-16.2999,400.8777],[30.5199,-16.2999,403.3454],[30.5266,-16.2966,411.3919],[30.5272,-16.2921,398.1701],[30.5242,-16.2866,392.6825],[30.5242,-16.2831,394.771],[30.5273,-16.2797,394.5484],[30.5309,-16.2798,391.6941],[30.5325,-16.2753,390.5504],[30.5301,-16.2669,389.0609],[30.5207,-16.2559,396.4739],[30.5185,-16.2508,393.0094],[30.515,-16.2494,391.2697],[30.5003,-16.229,395.2391],[30.5002,-16.2246,394.1791],[30.493,-16.2188,399.3112],[30.4813,-16.2142,376.4974],[30.4781,-16.2249,375.4027],[30.4793,-16.2278,374.5708],[30.4751,-16.2283,375.4395],[30.4768,-16.2335,388.0956],[30.4673,-16.2345,376.1281],[30.4667,-16.2368,376.4291],[30.4607,-16.2414,381.4121],[30.4524,-16.2372,385.6477],[30.4458,-16.2377,389.527],[30.4386,-16.2423,386.2809],[30.4415,-16.2475,378.6332],[30.4445,-16.2475,383.1182],[30.4456,-16.251,378.9227],[30.4426,-16.2578,381.2304],[30.4431,-16.263,380.8668],[30.4407,-16.267,381.3703],[30.4424,-16.2688,384.8508],[30.4412,-16.2745,382.3122],[30.4429,-16.2751,380.2277],[30.4417,-16.2797,393.0159],[30.4381,-16.2825,379.6183],[30.4309,-16.2836,382.0459],[30.4309,-16.2865,388.4882],[30.4213,-16.2893,381.9568],[30.4165,-16.2932,383.5104],[30.4099,-16.2943,382.7384],[30.4109,-16.3075,387.468],[30.4244,-16.3261,387.7589],[30.4196,-16.3389,399.4595],[30.4283,-16.3391,770.0089],[30.433,-16.3516,903.5174],[30.4421,-16.3503,852.3492],[30.4551,-16.3526,727.5229],[30.4631,-16.3559,816.1443],[30.4697,-16.3561,731.9645],[30.4831,-16.3545,791.1207],[30.4924,-16.351,828.9935],[30.5021,-16.3555,936.9389],[30.5069,-16.3607,967.8947],[30.5202,-16.3606,553.0269]]]]}
,"properties": {"GID_3": "ZWE.4.6.2_2","GID_0": "ZWE","country": "Zimbabwe","GID_1": "ZWE.4_1","province": "MashonalandCentral","NL_NAME_1": "NA","GID_2": "ZWE.4.6_2","county": "Mbire","NL_NAME_2": "NA","city": "Ward10","VARNAME_3": "NA","NL_NAME_3": "NA","TYPE_3": "Ward","ENGTYPE_3": "Ward","CC_3": "NA","HASC_3": "NA","name": "Ward10.city","area_km2": 130.2025,"hist_schema_id": "Elevation0-9000","hist_area_km2": {"375": 9.2003,"400": 63.3173,"425": 31.6627,"450": 7.569,"475": 2.3195,"500": 1.7294,"525": 1.6276,"550": 1.4649,"575": 1.4038,"600": 1.1597,"625": 0.9359,"650": 0.8342,"675": 0.8952,"700": 0.8952,"725": 0.9562,"750": 0.9562,"775": 0.8341,"800": 0.59,"825": 0.6917,"850": 0.4883,"875": 0.2441,"900": 0.2034,"925": 0.1424,"950": 0.0814}}}