{"type": "Feature","bbox": [30.8919,-19.0044,30.9042,-18.9822],"geometry": {"type": "MultiPolygon","coordinates": [[[[30.8931,-19.0044,1455.5243],[30.8965,-19.0029,1465.1559],[30.8969,-18.9996,1467.7651],[30.9033,-18.9986,1470.2837],[30.9042,-18.9923,1453.1096],[30.8919,-18.9822,1432.7483],[30.8925,-19.0029,1455.8512],[30.8931,-19.0044,1455.5243]]]]}
,"properties": {"GID_3": "ZWE.5.1.4_2","GID_0": "ZWE","country": "Zimbabwe","GID_1": "ZWE.5_1","province": "MashonalandEast","NL_NAME_1": "NA","GID_2": "ZWE.5.1_2","county": "Chikomba","NL_NAME_2": "NA","city": "Ward12","VARNAME_3": "NA","NL_NAME_3": "NA","TYPE_3": "Ward","ENGTYPE_3": "Ward","CC_3": "NA","HASC_3": "NA","name": "Ward12.city","area_km2": 1.964687,"hist_schema_id": "Elevation0-9000","hist_area_km2": {"1425": 0.280682,"1450": 1.202871,"1475": 0.481135}}}