{"type":"Feature","properties":{"GID_3":"ZWE.3.2.14_2","GID_0":"ZWE","country":"Zimbabwe","GID_1":"ZWE.3_1","province":"Manicaland","NL_NAME_1":"NA","GID_2":"ZWE.3.2_2","county":"Chimanimani","NL_NAME_2":"NA","city":"Ward21","VARNAME_3":"NA","NL_NAME_3":"NA","TYPE_3":"Ward","ENGTYPE_3":"Ward","CC_3":"NA","HASC_3":"NA","name":"Ward21.city"},
"geometry":{"type": "MultiPolygon","coordinates": [[[[32.8428,-20.0202,816.7255],[32.8298,-20.0225,1167.2874],[32.8488,-20.0562,553.0485],[32.8584,-20.056,502.757],[32.8621,-20.0593,493.6784],[32.8755,-20.0514,504.1275],[32.8942,-20.05,446.1111],[32.9019,-20.0454,448.5423],[32.8984,-20.0326,782.2317],[32.8911,-20.0208,918.3263],[32.891,-20.0176,948.5103],[32.8734,-20.0137,1443.4921],[32.8428,-20.0202,816.7255]]]]}}