{"type": "Feature","bbox": [29.6952,-19.0753,29.8419,-18.9471],"geometry": {"type": "MultiPolygon","coordinates": [[[[29.6991,-19.0089,1205.8289],[29.7031,-19.0341,1209.0483],[29.6952,-19.0358,1210.9843],[29.6993,-19.0604,1245.9424],[29.7459,-19.0542,1228.3049],[29.7505,-19.0753,1245.3821],[29.7805,-19.0632,1326.0757],[29.7835,-19.0486,1222.0779],[29.7908,-19.0514,1203.0],[29.7889,-19.055,1235.0597],[29.791,-19.058,1204.3318],[29.8007,-19.0629,1204.7596],[29.8038,-19.0573,1208.0396],[29.816,-19.0617,1209.522],[29.8303,-19.061,1222.5496],[29.8419,-19.025,1239.2295],[29.8195,-19.0142,1222.4561],[29.8272,-19.001,1234.8254],[29.8284,-18.9944,1245.8151],[29.7913,-18.9968,1224.7944],[29.7806,-18.979,1197.3479],[29.7416,-18.9778,1284.6157],[29.7522,-18.9531,1197.7808],[29.7288,-18.9471,1163.5337],[29.729,-18.9576,1162.6801],[29.7319,-18.9591,1160.5599],[29.7287,-18.9774,1166.9536],[29.732,-18.9869,1167.6469],[29.7409,-18.9948,1173.5197],[29.7413,-18.9999,1187.0798],[29.6991,-19.0089,1205.8289]]]]}
,"properties": {"GID_2": "ZWE.10.10_2","GID_0": "ZWE","country": "Zimbabwe","GID_1": "ZWE.10_1","province": "Midlands","NL_NAME_1": "NA","county": "Redcliff","VARNAME_2": "NA","NL_NAME_2": "NA","TYPE_2": "District","ENGTYPE_2": "District","CC_2": "NA","HASC_2": "NA","name": "Redcliff.county","area_km2": 113.04991,"hist_schema_id": "Elevation0-9000","hist_area_km2": {"1125": 0.04009,"1150": 0.48123,"1175": 8.19992,"1200": 34.95877,"1225": 52.8146,"1250": 11.14353,"1275": 2.48545,"1300": 1.76387,"1325": 0.72155,"1350": 0.4409}}}