{"type": "Feature","bbox": [30.3784,-18.2567,30.6676,-18.026],"geometry": {"type": "MultiPolygon","coordinates": [[[[30.4322,-18.1777,1210.8201],[30.4325,-18.1807,1206.7015],[30.4283,-18.1861,1207.8229],[30.4248,-18.1878,1206.285],[30.4203,-18.1872,1204.4379],[30.417,-18.19,1202.8914],[30.4167,-18.1951,1203.1561],[30.4138,-18.1949,1200.7742],[30.4113,-18.1984,1200.3447],[30.4049,-18.1995,1200.3252],[30.3994,-18.1971,1192.2157],[30.3982,-18.1935,1200.4003],[30.3949,-18.1929,1198.4259],[30.3903,-18.1953,1186.5216],[30.3853,-18.1934,1186.3029],[30.3823,-18.1972,1184.8978],[30.3784,-18.1969,1183.6943],[30.383,-18.212,1187.9749],[30.3862,-18.2152,1188.8181],[30.4037,-18.2247,1192.3984],[30.4092,-18.226,1194.0217],[30.4098,-18.2289,1187.4845],[30.4117,-18.2298,1189.4026],[30.4246,-18.2276,1198.2179],[30.4311,-18.2238,1196.1731],[30.4417,-18.2255,1197.0734],[30.4518,-18.2228,1196.7527],[30.4606,-18.225,1201.525],[30.4609,-18.2271,1194.7489],[30.4581,-18.23,1190.0989],[30.4644,-18.2337,1202.6489],[30.4687,-18.2342,1202.2834],[30.4704,-18.2374,1199.8497],[30.4813,-18.2431,1203.8256],[30.4933,-18.2427,1206.8313],[30.4978,-18.2398,1202.8772],[30.5008,-18.2403,1208.0693],[30.516,-18.2509,1224.9027],[30.5151,-18.2537,1210.379],[30.5173,-18.2556,1211.5349],[30.5397,-18.2567,1221.5543],[30.5476,-18.255,1218.8271],[30.5529,-18.2508,1219.3545],[30.5564,-18.241,1235.4027],[30.554,-18.2353,1241.6288],[30.5843,-18.2369,1255.1589],[30.5965,-18.1981,1281.6876],[30.5659,-18.2067,1265.9963],[30.5555,-18.1753,1274.4734],[30.5614,-18.131,1296.5645],[30.5944,-18.1242,1316.0421],[30.6206,-18.122,1319.8146],[30.6495,-18.1287,1303.3872],[30.6592,-18.1264,1306.6074],[30.6638,-18.1227,1312.5195],[30.6676,-18.1071,1320.7318],[30.6666,-18.1053,1318.709],[30.6387,-18.0961,1327.3693],[30.6339,-18.0388,1348.9515],[30.6267,-18.0445,1343.4609],[30.6214,-18.0429,1345.8042],[30.6194,-18.0439,1340.5234],[30.6189,-18.0473,1341.6891],[30.6109,-18.0459,1341.5081],[30.6102,-18.0488,1338.5172],[30.6065,-18.0517,1338.3781],[30.604,-18.0509,1340.0415],[30.6031,-18.0522,1339.7955],[30.6036,-18.0546,1337.0518],[30.6021,-18.0559,1337.0518],[30.6038,-18.0566,1337.4825],[30.6041,-18.0587,1338.4703],[30.5936,-18.0605,1335.6361],[30.5914,-18.0574,1334.451],[30.5874,-18.0582,1333.1486],[30.5869,-18.0561,1331.6449],[30.5891,-18.0549,1332.205],[30.5882,-18.0528,1336.3708],[30.5847,-18.0536,1331.225],[30.5841,-18.05,1331.4707],[30.5795,-18.0481,1330.4347],[30.5793,-18.0454,1330.2737],[30.577,-18.0446,1333.9385],[30.5762,-18.042,1329.5801],[30.5712,-18.0394,1327.7952],[30.5706,-18.0342,1329.5818],[30.568,-18.0305,1330.5498],[30.5585,-18.026,1324.1006],[30.5381,-18.0527,1311.3389],[30.5149,-18.0559,1325.7751],[30.5022,-18.0557,1303.9779],[30.4946,-18.0609,1297.0049],[30.4872,-18.0819,1270.4417],[30.492,-18.0917,1265.97],[30.5023,-18.1057,1254.0669],[30.5022,-18.1116,1253.9023],[30.5046,-18.115,1253.0206],[30.5021,-18.115,1253.3513],[30.5004,-18.1175,1249.1699],[30.4957,-18.1187,1251.1742],[30.4865,-18.1193,1246.6804],[30.4771,-18.1236,1238.688],[30.4777,-18.1324,1236.0748],[30.4693,-18.1393,1230.7834],[30.4678,-18.1445,1229.0326],[30.4649,-18.1469,1228.2969],[30.4617,-18.1466,1227.8337],[30.4609,-18.1488,1227.1331],[30.4569,-18.1509,1224.2889],[30.4544,-18.1502,1222.9965],[30.4433,-18.156,1220.6282],[30.4416,-18.1591,1217.6068],[30.4421,-18.1617,1215.7693],[30.4402,-18.1624,1217.3864],[30.4398,-18.1647,1215.9111],[30.4375,-18.1648,1215.7841],[30.4373,-18.1688,1214.1609],[30.4316,-18.1755,1210.9917],[30.4322,-18.1777,1210.8201]]]]}
,"properties": {"GID_3": "ZWE.6.1.4_2","GID_0": "ZWE","country": "Zimbabwe","GID_1": "ZWE.6_1","province": "MashonalandWest","NL_NAME_1": "NA","GID_2": "ZWE.6.1_2","county": "Chegutu","NL_NAME_2": "NA","city": "Ward12","VARNAME_3": "NA","NL_NAME_3": "NA","TYPE_3": "Ward","ENGTYPE_3": "Ward","CC_3": "NA","HASC_3": "NA","name": "Ward12.city","area_km2": 329.0494,"hist_schema_id": "Elevation0-9000","hist_area_km2": {"1175": 0.5237,"1200": 25.1144,"1225": 50.434,"1250": 58.0914,"1275": 61.7884,"1300": 46.7733,"1325": 65.9657,"1350": 20.3584}}}