{"type":"Feature","properties":{"GID_3":"ZWE.3.8.11_2","GID_0":"ZWE","country":"Zimbabwe","GID_1":"ZWE.3_1","province":"Manicaland","NL_NAME_1":"NA","GID_2":"ZWE.3.8_2","county":"Mutasa","NL_NAME_2":"NA","city":"Ward19","VARNAME_3":"NA","NL_NAME_3":"NA","TYPE_3":"Ward","ENGTYPE_3":"Ward","CC_3":"NA","HASC_3":"NA","name":"Ward19.city"},
"geometry":{"type": "MultiPolygon","coordinates": [[[[32.6965,-18.6158,1038.1261],[32.6938,-18.6172,1080.5837],[32.6939,-18.62,1035.5598],[32.6914,-18.6203,1091.9423],[32.6939,-18.624,1088.798],[32.6843,-18.6283,1117.2025],[32.6818,-18.6317,1150.4911],[32.6789,-18.6326,1172.6338],[32.6794,-18.6352,1119.7445],[32.6752,-18.6399,1138.7357],[32.672,-18.6395,1158.8142],[32.6716,-18.6422,1152.7378],[32.6638,-18.6455,1193.83],[32.6569,-18.6381,1388.2716],[32.6533,-18.6379,1295.3763],[32.652,-18.6346,1305.3844],[32.645,-18.6348,1351.5985],[32.6386,-18.6298,1417.1602],[32.6398,-18.6497,1461.4274],[32.6386,-18.6639,1433.3116],[32.6358,-18.6823,1402.1615],[32.6316,-18.687,1416.3459],[32.632,-18.6896,1432.882],[32.6378,-18.6895,1413.8582],[32.6382,-18.6909,1420.5247],[32.6549,-18.6872,1476.3613],[32.6681,-18.6793,1457.9067],[32.672,-18.685,1434.3438],[32.6853,-18.6758,1459.6804],[32.7117,-18.6976,1672.0082],[32.7155,-18.695,1624.9681],[32.7121,-18.6925,1591.3298],[32.721,-18.6885,1590.6201],[32.7172,-18.6838,1546.5654],[32.7252,-18.6807,1519.2112],[32.7237,-18.6924,1611.7371],[32.7355,-18.6924,1628.6512],[32.7509,-18.6773,1637.6753],[32.7623,-18.6595,1771.655],[32.7587,-18.6589,1633.6803],[32.7559,-18.6556,1459.6252],[32.7576,-18.6489,1224.6027],[32.7522,-18.6491,1293.114],[32.7431,-18.6402,1556.4769],[32.7372,-18.6399,1514.0042],[32.7333,-18.6358,1449.5989],[32.7205,-18.6332,1259.4227],[32.7163,-18.6244,1158.2068],[32.723,-18.6182,1024.9189],[32.723,-18.6157,1050.1157],[32.7173,-18.6167,1149.1477],[32.6965,-18.6158,1038.1261]]]]}}