{"type":"Feature","properties":{"GID_2":"ZWE.7.4_2","GID_0":"ZWE","country":"Zimbabwe","GID_1":"ZWE.7_1","province":"Masvingo","NL_NAME_1":"NA","county":"Chivi","VARNAME_2":"NA","NL_NAME_2":"NA","TYPE_2":"District","ENGTYPE_2":"District","CC_2":"NA","HASC_2":"NA","name":"Chivi.county"},
"geometry":{"type": "MultiPolygon","coordinates": [[[[31.0544,-20.9232,487.9383],[31.0587,-20.9218,489.5316],[31.0584,-20.9208,487.292],[31.0534,-20.9189,503.9422],[31.0488,-20.9101,511.5434],[31.0429,-20.9045,509.701],[31.0435,-20.9008,517.4068],[31.0385,-20.8973,515.3445],[31.0419,-20.8935,525.7979],[31.0423,-20.8843,537.4769],[31.0366,-20.8822,535.2543],[31.0328,-20.8872,533.3936],[31.031,-20.8875,535.1789],[31.0197,-20.8625,552.7122],[31.0153,-20.840699999999998,561.2779],[31.0123,-20.8337,566.5425],[31.0015,-20.8172,583.0307],[30.9978,-20.8146,567.4863],[30.9939,-20.8021,579.3452],[30.9903,-20.7992,579.3192],[30.9764,-20.7796,585.1188],[30.9675,-20.7765,587.3516],[30.9527,-20.7614,601.837],[30.9368,-20.7518,605.5295],[30.9295,-20.7505,603.895],[30.9249,-20.7552,596.9587],[30.9221,-20.756,601.1455],[30.915,-20.7391,612.9617],[30.8943,-20.7178,683.6165],[30.8895,-20.7165,636.111],[30.8802,-20.7211,663.3405],[30.8758,-20.721,664.2473],[30.8682,-20.7128,657.627],[30.8654,-20.7039,655.6094],[30.8622,-20.7009,657.3733],[30.8434,-20.6926,666.7755],[30.8143,-20.6742,669.9946],[30.8125,-20.6709,655.6675],[30.8108,-20.659,668.1935],[30.812,-20.6362,676.2383],[30.808,-20.6206,725.546],[30.8014,-20.6218,690.4562],[30.7884,-20.6162,696.1127],[30.7777,-20.618,699.6422],[30.7668,-20.615,700.5987],[30.7609,-20.6189,704.1119],[30.7569,-20.6246,698.6255],[30.7506,-20.6255,702.1955],[30.7478,-20.6134,718.4192],[30.7406,-20.5999,711.8636],[30.7342,-20.5786,731.5611],[30.7246,-20.5656,737.0142],[30.7124,-20.5559,750.0856],[30.7095,-20.5516,750.0013],[30.7124,-20.5416,744.7059],[30.7101,-20.5199,744.4924],[30.7165,-20.511,762.8993],[30.7169,-20.5051,747.1053],[30.7135,-20.4984,748.7642],[30.7109,-20.4792,771.9908],[30.7028,-20.4625,754.0767],[30.7044,-20.4532,757.3015],[30.6982,-20.4382,761.9815],[30.7035,-20.4313,760.751],[30.6967,-20.4153,769.8156],[30.6995,-20.4077,773.8808],[30.6776,-20.3786,776.7999],[30.6776,-20.3711,787.0081],[30.6821,-20.3617,791.4027],[30.6821,-20.3515,791.804],[30.6846,-20.3374,801.6656],[30.6693,-20.3279,810.7753],[30.6526,-20.3092,811.2048],[30.653,-20.2921,812.1375],[30.6399,-20.2758,837.3448],[30.6282,-20.2669,838.0436],[30.6245,-20.2611,840.2032],[30.6175,-20.2552,841.5972],[30.6055,-20.2511,846.0787],[30.6043,-20.247,849.5181],[30.6079,-20.2368,845.4238],[30.6016,-20.2285,852.8883],[30.5936,-20.2276,861.5504],[30.588,-20.2353,851.4839],[30.5846,-20.237,857.9402],[30.5669,-20.2222,864.8102],[30.5571,-20.2192,868.1375],[30.5449,-20.2196,872.7634],[30.5431,-20.2131,873.4524],[30.539,-20.2084,874.7137],[30.5273,-20.215,878.1638],[30.5142,-20.215,881.1133],[30.509,-20.2091,889.165],[30.5042,-20.2072,894.4811],[30.4904,-20.2057,883.7332],[30.487,-20.1999,883.0707],[30.4902,-20.1958,892.0712],[30.4889,-20.1913,885.8403],[30.477,-20.185,890.1774],[30.46,-20.1651,897.9564],[30.4531,-20.1492,902.5298],[30.445,-20.1386,912.491],[30.4464,-20.1286,918.8684],[30.4429,-20.1189,918.0137],[30.4446,-20.1119,928.7424],[30.4555,-20.1019,921.4964],[30.4581,-20.1019,925.2057],[30.4581,-20.1005,927.9592],[30.446,-20.0877,935.1179],[30.4433,-20.0812,940.8574],[30.4366,-20.0786,930.7863],[30.4366,-20.0694,938.3151],[30.4297,-20.0682,940.7903],[30.4216,-20.0564,948.3632],[30.4288,-20.0489,951.7923],[30.4248,-20.0471,948.7591],[30.4225,-20.0436,950.0239],[30.4237,-20.0391,950.546],[30.4287,-20.0321,954.0574],[30.44,-20.0334,959.7539],[30.4422,-20.0245,964.4132],[30.44,-20.0214,962.8546],[30.4403,-20.0158,968.2506],[30.4339,-20.0115,965.2275],[30.4348,-20.003,970.8949],[30.4326,-19.9948,963.6614],[30.4423,-19.9864,968.9368],[30.4392,-19.9813,970.684],[30.4315,-19.9859,967.0692],[30.431,-19.9901,976.5558],[30.3548,-19.9974,1021.8387],[30.3342,-19.9928,1039.1422],[30.3221,-19.9996,1006.3529],[30.2405,-20.0081,1004.1402],[30.2238,-20.0125,1010.1627],[30.2198,-20.0168,999.5348],[30.1445,-20.0242,956.6622],[30.1426,-20.0283,950.8919],[30.144,-20.0333,943.7126],[30.151,-20.0365,943.7621],[30.1604,-20.044,940.3314],[30.1668,-20.0436,941.2587],[30.1707,-20.0545,935.973],[30.1904,-20.0653,930.3776],[30.1917,-20.0673,923.1663],[30.1882,-20.0717,922.3459],[30.1853,-20.0806,916.792],[30.1863,-20.0844,919.0468],[30.185,-20.0891,910.1808],[30.1875,-20.098,902.2753],[30.1767,-20.1001,901.4343],[30.1759,-20.1038,900.1643],[30.1719,-20.1082,897.1136],[30.1683,-20.1188,890.4108],[30.1666,-20.1211,892.3038],[30.1618,-20.1224,895.5877],[30.1582,-20.1267,885.2262],[30.1619,-20.1352,890.3245],[30.1667,-20.155,877.01],[30.164,-20.1695,873.9592],[30.1606,-20.1759,875.5089],[30.16,-20.1877,869.4421],[30.1527,-20.1903,873.4581],[30.1479,-20.1988,868.3167],[30.1536,-20.2004,872.2836],[30.1553,-20.202,872.6376],[30.1565,-20.2073,865.2119],[30.1585,-20.2065,880.5381],[30.1978,-20.1717,905.4708],[30.2778,-20.229,850.5958],[30.2773,-20.2374,844.6456],[30.2795,-20.2425,845.9471],[30.2751,-20.2512,839.098],[30.2748,-20.2569,836.6437],[30.2681,-20.2627,838.363],[30.2692,-20.2651,832.9513],[30.2671,-20.272,827.6023],[30.2613,-20.2764,825.9889],[30.2602,-20.2835,872.6522],[30.2436,-20.322,810.1562],[30.2436,-20.3348,802.5516],[30.258,-20.3523,801.4715],[30.2739,-20.3538,804.324],[30.2819,-20.357,801.4059],[30.2868,-20.3566,793.3686],[30.3138,-20.3649,819.8743],[30.3201,-20.3713,790.9147],[30.3183,-20.3876,788.3976],[30.3227,-20.3964,783.9068],[30.3391,-20.4181,782.0774],[30.3452,-20.4231,780.2138],[30.3524,-20.4199,779.9016],[30.358,-20.4155,782.2671],[30.3602,-20.4161,790.2662],[30.3643,-20.4274,762.5217],[30.3681,-20.4311,771.7612],[30.3717,-20.4389,770.3678],[30.3756,-20.4411,773.8193],[30.3902,-20.4564,745.1567],[30.3941,-20.4574,769.3794],[30.4135,-20.4777,748.5645],[30.4141,-20.4813,737.2352],[30.411,-20.4878,736.1373],[30.4123,-20.4912,737.7042],[30.421,-20.4993,751.8304],[30.4438,-20.528,732.1659],[30.461,-20.5566,725.4796],[30.4603,-20.5629,726.4571],[30.4525,-20.5629,730.9874],[30.4481,-20.5657,721.849],[30.4449,-20.573,720.0955],[30.4449,-20.5757,723.5862],[30.4493,-20.5827,719.9373],[30.4506,-20.5895,719.119],[30.4512,-20.5963,713.3337],[30.4495,-20.6092,714.5807],[30.4538,-20.6173,727.4454],[30.4514,-20.6237,707.4584],[30.449,-20.6249,710.7682],[30.4504,-20.6268,703.6412],[30.4506,-20.6329,702.7563],[30.4583,-20.6467,699.565],[30.467,-20.6524,701.2142],[30.4769,-20.6544,704.2255],[30.4788,-20.6563,695.2742],[30.4814,-20.6611,699.9774],[30.4815,-20.6659,689.352],[30.4788,-20.6761,686.3681],[30.4815,-20.6802,695.4088],[30.4925,-20.684,694.9467],[30.5162,-20.6814,680.3727],[30.5199,-20.6823,685.0805],[30.5234,-20.6853,674.9249],[30.5221,-20.7016,673.0458],[30.5142,-20.7178,672.9609],[30.5127,-20.7254,672.4246],[30.5155,-20.7407,665.5928],[30.5217,-20.7488,666.7985],[30.5418,-20.7563,657.3944],[30.5515,-20.7656,711.5257],[30.5597,-20.7706,657.76],[30.5726,-20.7746,652.6472],[30.5905,-20.7764,652.0184],[30.5934,-20.7794,641.9669],[30.6049,-20.7678,644.2412],[30.6275,-20.7531,639.0189],[30.633,-20.7622,646.7304],[30.6347,-20.7712,661.0505],[30.6278,-20.777,619.1634],[30.6308,-20.7849,628.6096],[30.6345,-20.7873,634.2534],[30.6427,-20.7876,627.5256],[30.6455,-20.7929,629.6194],[30.6484,-20.8072,623.5946],[30.653,-20.8098,615.323],[30.6648,-20.8083,603.5858],[30.6685,-20.8103,596.915],[30.6744,-20.8186,673.1391],[30.6764,-20.8284,611.5449],[30.678,-20.8301,599.4963],[30.704,-20.8243,606.991],[30.7079,-20.825,582.716],[30.7089,-20.8277,627.5333],[30.7049,-20.8366,573.5],[30.7004,-20.8663,584.9077],[30.6941,-20.8888,579.9483],[30.6898,-20.8966,579.0923],[30.6892,-20.9058,568.5],[30.6927,-20.9095,583.6953],[30.702,-20.9099,584.8577],[30.71,-20.9129,575.2025],[30.7376,-20.9123,561.6536],[30.7549,-20.9022,558.5007],[30.7645,-20.8947,557.318],[30.7795,-20.889,571.3522],[30.8126,-20.9142,548.5034],[30.8133,-20.9167,543.3037],[30.8108,-20.9203,549.7564],[30.8124,-20.9256,546.9288],[30.8247,-20.9278,538.5693],[30.8388,-20.9326,531.5702],[30.8464,-20.9377,538.533],[30.8563,-20.9406,521.6722],[30.8632,-20.9476,529.6548],[30.8711,-20.9518,520.4787],[30.9067,-20.9577,500.8289],[30.9256,-20.9663,506.209],[30.9472,-20.9686,501.8012],[30.9645,-20.9789,499.6938],[30.9821,-20.9986,464.3492],[30.9948,-20.9928,469.0984],[31.0051,-20.9941,441.8438],[31.0136,-21.0001,429.7176],[31.0253,-21.0148,459.2806],[31.0376,-21.019,426.6411],[31.0394,-21.0188,435.715],[31.0411,-20.9988,458.0952],[31.0544,-20.9232,487.9383]]]]}}