{"type":"Feature","properties":{"GID_3":"ZWE.4.7.30_2","GID_0":"ZWE","country":"Zimbabwe","GID_1":"ZWE.4_1","province":"MashonalandCentral","NL_NAME_1":"NA","GID_2":"ZWE.4.7_2","county":"MountDarwin","NL_NAME_2":"NA","city":"Ward36","VARNAME_3":"NA","NL_NAME_3":"NA","TYPE_3":"Ward","ENGTYPE_3":"Ward","CC_3":"NA","HASC_3":"NA","name":"Ward36.city"},
"geometry":{"type": "MultiPolygon","coordinates": [[[[31.625,-16.4593,778.7033],[31.6219,-16.4587,863.9852],[31.6129,-16.4637,958.1505],[31.5788,-16.4615,1074.0886],[31.5789,-16.4706,960.1797],[31.5741,-16.4792,1019.6772],[31.5793,-16.488,1215.5007],[31.5795,-16.4986,1100.4587],[31.5834,-16.503,1082.597],[31.5823,-16.5102,1068.4485],[31.5841,-16.5153,1057.3671],[31.5785,-16.5227,1051.3228],[31.5826,-16.5286,1036.1625],[31.5804,-16.5293,1039.6233],[31.572,-16.5422,1032.5718],[31.5642,-16.5383,1035.5698],[31.5507,-16.5217,1079.7458],[31.5446,-16.5196,1090.707],[31.543,-16.5164,1110.0565],[31.5371,-16.5117,1130.3727],[31.5367,-16.5224,1116.1755],[31.5398,-16.5307,1106.2917],[31.5328,-16.5303,1086.8264],[31.53,-16.5328,1095.2427],[31.5329,-16.5412,1110.2344],[31.5389,-16.5462,1087.7966],[31.5415,-16.5509,1076.694],[31.5441,-16.567,1060.8927],[31.5406,-16.5716,1060.1216],[31.5391,-16.5772,1053.0146],[31.5398,-16.5816,1046.9935],[31.5535,-16.5816,1067.7007],[31.5624,-16.5787,1044.6763],[31.5598,-16.5749,1047.2767],[31.556,-16.5735,1092.2388],[31.5546,-16.5698,1095.2524],[31.5571,-16.5601,1094.2264],[31.5619,-16.5514,1048.6987],[31.5686,-16.5482,1031.625],[31.5772,-16.5488,1028.2417],[31.5781,-16.5538,1011.2107],[31.5829,-16.5562,1012.3975],[31.5829,-16.5585,1017.3137],[31.5867,-16.5571,1010.5368],[31.5848,-16.5603,1006.1169],[31.5852,-16.5677,1003.6039],[31.5837,-16.5737,994.24],[31.588,-16.5737,994.5751],[31.5914,-16.5691,989.3363],[31.5989,-16.5746,985.1198],[31.5985,-16.5807,983.6982],[31.5946,-16.583,978.8219],[31.597,-16.5849,982.0428],[31.5965,-16.5867,979.3421],[31.5927,-16.5876,981.3995],[31.5917,-16.5899,974.7456],[31.5951,-16.5908,986.8395],[31.5953,-16.599,970.7111],[31.5971,-16.6009,975.6422],[31.5994,-16.6006,979.352],[31.5969,-16.6056,967.5585],[31.6036,-16.6093,969.2591],[31.6065,-16.607,953.4394],[31.6115,-16.6109,954.2456],[31.613,-16.6064,975.634],[31.6136,-16.6089,964.5132],[31.6245,-16.6028,976.7117],[31.6255,-16.5943,995.8198],[31.6278,-16.5924,991.5545],[31.6302,-16.5835,1017.3829],[31.6332,-16.5798,1015.6294],[31.6349,-16.5548,1048.6267],[31.6388,-16.5503,1076.3391],[31.635,-16.5271,1086.3584],[31.634,-16.5065,1057.9642],[31.6294,-16.5014,1000.3375],[31.628,-16.4951,992.5511],[31.6296,-16.4891,972.9237],[31.6223,-16.4858,944.9293],[31.622,-16.4809,942.4854],[31.6201,-16.4801,926.71],[31.6184,-16.4757,921.7329],[31.6194,-16.4735,974.34],[31.6258,-16.4719,922.1631],[31.6285,-16.4676,861.1725],[31.6288,-16.4628,809.7479],[31.6249,-16.4625,746.8102],[31.625,-16.4593,778.7033]]]]}}