{"type":"Feature","properties":{"GID_3":"ZWE.9.3.12_2","GID_0":"ZWE","country":"Zimbabwe","GID_1":"ZWE.9_1","province":"MatabelelandSouth","NL_NAME_1":"NA","GID_2":"ZWE.9.3_2","county":"Bulilima","NL_NAME_2":"NA","city":"Ward2","VARNAME_3":"NA","NL_NAME_3":"NA","TYPE_3":"Ward","ENGTYPE_3":"Ward","CC_3":"NA","HASC_3":"NA","name":"Ward2.city"},
"geometry":{"type": "MultiPolygon","coordinates": [[[[27.8677,-20.3241,1310.23],[27.8608,-20.33,1318.6],[27.8571,-20.3309,1310.7406],[27.8287,-20.332,1338.5942],[27.8311,-20.3181,1333.4733],[27.8303,-20.2917,1311.8688],[27.7912,-20.2928,1276.3362],[27.7825,-20.2915,1260.066],[27.7819,-20.2864,1257.2517],[27.7845,-20.2828,1254.2491],[27.784,-20.2737,1255.2484],[27.781,-20.2652,1244.0812],[27.7829,-20.2607,1245.1594],[27.7816,-20.2593,1248.7047],[27.7816,-20.2527,1241.5128],[27.7787,-20.2508,1235.2394],[27.7781,-20.2429,1230.4758],[27.776,-20.2413,1231.2284],[27.7575,-20.2486,1253.5776],[27.7591,-20.2604,1253.958],[27.7629,-20.2723,1280.3748],[27.7606,-20.2772,1268.3737],[27.7603,-20.2838,1271.9717],[27.7621,-20.3061,1296.9335],[27.7554,-20.3166,1312.79],[27.7508,-20.3202,1315.9136],[27.7411,-20.3217,1311.1461],[27.7429,-20.3246,1310.3505],[27.7534,-20.3281,1316.345],[27.7596,-20.3338,1313.6946],[27.7682,-20.3344,1309.9355],[27.7713,-20.3433,1317.5037],[27.779,-20.3468,1314.0912],[27.786,-20.3468,1326.1207],[27.7901,-20.3531,1328.8977],[27.806,-20.353,1338.5779],[27.8171,-20.3568,1343.2957],[27.8263,-20.3541,1352.4797],[27.8273,-20.3605,1350.2554],[27.8313,-20.3631,1351.7487],[27.8364,-20.392,1365.6044],[27.8323,-20.3888,1356.4636],[27.8142,-20.3866,1338.6562],[27.801,-20.3794,1324.8063],[27.7954,-20.3786,1314.9844],[27.7849,-20.3705,1320.8759],[27.7723,-20.3688,1314.9977],[27.7693,-20.3668,1311.2318],[27.7622,-20.3669,1307.2078],[27.7643,-20.3793,1289.3469],[27.7708,-20.3768,1292.2512],[27.7784,-20.3796,1295.3525],[27.7839,-20.3797,1297.9309],[27.7899,-20.3868,1306.0096],[27.7936,-20.3964,1305.6034],[27.806,-20.4045,1321.8484],[27.8081,-20.4093,1317.5275],[27.8223,-20.416,1325.0216],[27.827,-20.4166,1330.3987],[27.8293,-20.4188,1331.322],[27.8419,-20.408,1349.5029],[27.8449,-20.4019,1359.2473],[27.8485,-20.3773,1345.196],[27.8503,-20.3729,1339.9266],[27.8588,-20.3645,1336.377],[27.8631,-20.3546,1333.2539],[27.8609,-20.3448,1322.3857],[27.8627,-20.3448,1322.3857],[27.8627,-20.3424,1317.3203],[27.8688,-20.336,1315.4028],[27.8677,-20.3241,1310.23]]]]}}