{"type": "Feature","bbox": [27.1317,-17.8848,27.4196,-17.6703],"geometry": {"type": "MultiPolygon","coordinates": [[[[27.1448,-17.8427,483.5],[27.1534,-17.8349,483.5],[27.1703,-17.8598,483.5],[27.1912,-17.8621,487.8322],[27.2128,-17.8709,496.0364],[27.2318,-17.868,502.7409],[27.2432,-17.8791,489.2654],[27.2477,-17.8806,487.188],[27.2524,-17.8779,523.6447],[27.2556,-17.878,502.6044],[27.2605,-17.8848,489.8221],[27.2658,-17.8688,516.8412],[27.2731,-17.8592,522.6166],[27.275,-17.854,534.9106],[27.2775,-17.854,530.506],[27.2784,-17.85,541.4164],[27.2841,-17.8481,541.9344],[27.2879,-17.8427,569.903],[27.2922,-17.8398,565.3513],[27.325,-17.8224,703.9999],[27.3363,-17.8175,688.0315],[27.3494,-17.8143,689.2203],[27.3703,-17.8119,713.3041],[27.3884,-17.8124,747.9059],[27.3971,-17.8063,778.3882],[27.4068,-17.8055,752.1443],[27.4131,-17.8081,747.293],[27.4174,-17.8077,749.6093],[27.4196,-17.8017,749.2542],[27.4167,-17.7947,720.655],[27.4168,-17.7828,684.984],[27.391,-17.783,669.9658],[27.3638,-17.7894,633.4249],[27.3517,-17.7862,585.6613],[27.3472,-17.7835,564.3886],[27.3435,-17.7766,542.1597],[27.3388,-17.7745,538.6371],[27.3322,-17.7741,532.8132],[27.3295,-17.7704,530.3206],[27.3279,-17.772,527.5439],[27.3256,-17.771,529.3218],[27.3244,-17.7728,528.3045],[27.3215,-17.7702,525.8054],[27.3184,-17.7727,523.5157],[27.3105,-17.7722,518.2639],[27.3054,-17.7694,518.5327],[27.304,-17.7649,513.7123],[27.3001,-17.7658,510.3917],[27.2951,-17.7635,508.8635],[27.2933,-17.7593,507.4671],[27.2875,-17.7571,500.8268],[27.2847,-17.7531,499.4904],[27.3233,-17.7033,519.2519],[27.2559,-17.6703,483.5],[27.1317,-17.8019,483.5],[27.1461,-17.8415,483.5],[27.1448,-17.8427,483.5]]]]}
,"properties": {"GID_3": "ZWE.8.1.24_2","GID_0": "ZWE","country": "Zimbabwe","GID_1": "ZWE.8_1","province": "MatabelelandNorth","NL_NAME_1": "NA","GID_2": "ZWE.8.1_2","county": "Binga","NL_NAME_2": "NA","city": "Ward8","VARNAME_3": "NA","NL_NAME_3": "NA","TYPE_3": "Ward","ENGTYPE_3": "Ward","CC_3": "NA","HASC_3": "NA","name": "Ward8.city","area_km2": 321.9515,"hist_schema_id": "Elevation0-9000","hist_area_km2": {"475": 85.4311,"500": 90.1259,"525": 66.2156,"550": 33.428,"575": 14.0484,"600": 6.0354,"625": 3.0077,"650": 2.9069,"675": 4.4008,"700": 5.6928,"725": 6.8232,"750": 3.4318,"775": 0.4037}}}