{"type": "Feature","bbox": [27.9975,-18.3544,28.1301,-18.1906],"geometry": {"type": "MultiPolygon","coordinates": [[[[27.9975,-18.2372,967.412],[27.9987,-18.2382,961.2969],[27.9988,-18.3489,1052.5901],[28.0012,-18.3502,1058.9535],[28.0093,-18.3481,1069.1096],[28.0309,-18.3544,1089.1992],[28.0555,-18.3383,1001.7343],[28.0808,-18.3325,943.3828],[28.0841,-18.3331,945.84],[28.0851,-18.3303,940.9229],[28.0839,-18.3266,943.5321],[28.0883,-18.3183,955.6175],[28.0864,-18.3153,953.235],[28.0864,-18.3074,958.7117],[28.0887,-18.2871,919.8354],[28.0972,-18.2769,910.2512],[28.1,-18.2663,907.0649],[28.0992,-18.2578,903.119],[28.1063,-18.2478,896.67],[28.1067,-18.2448,895.9805],[28.1053,-18.2433,895.2695],[28.1079,-18.2418,894.7627],[28.108,-18.2391,893.6593],[28.1053,-18.2379,936.926],[28.1081,-18.2367,899.3063],[28.1148,-18.2404,890.6982],[28.1157,-18.2363,889.3854],[28.1143,-18.2331,888.3898],[28.1171,-18.2327,890.8438],[28.1163,-18.2285,895.3368],[28.1232,-18.2258,892.9859],[28.1231,-18.2234,885.6397],[28.1266,-18.22,882.1986],[28.1263,-18.2132,880.8083],[28.1283,-18.2126,879.9643],[28.126,-18.2101,879.4758],[28.1272,-18.2084,877.5947],[28.1301,-18.2085,879.4796],[28.1277,-18.207,877.3082],[28.1271,-18.2011,880.8971],[28.1261,-18.2003,874.73],[28.1236,-18.2025,874.3923],[28.1218,-18.2002,875.6263],[28.1214,-18.198,875.905],[28.1239,-18.1967,876.3193],[28.1096,-18.1906,908.8206],[28.1068,-18.1961,879.2777],[28.0981,-18.2052,882.5989],[28.0901,-18.2068,884.7086],[28.0599,-18.2024,899.9952],[28.0273,-18.2056,931.8806],[28.002,-18.2232,966.7093],[27.9975,-18.2372,967.412]]]]}
,"properties": {"GID_3": "ZWE.10.3.23_2","GID_0": "ZWE","country": "Zimbabwe","GID_1": "ZWE.10_1","province": "Midlands","NL_NAME_1": "NA","GID_2": "ZWE.10.3_2","county": "GokweSouth","NL_NAME_2": "NA","city": "Ward3","VARNAME_3": "NA","NL_NAME_3": "NA","TYPE_3": "Ward","ENGTYPE_3": "Ward","CC_3": "NA","HASC_3": "NA","name": "Ward3.city","area_km2": 164.6919,"hist_schema_id": "Elevation0-9000","hist_area_km2": {"875": 3.142,"900": 9.7272,"925": 9.8679,"950": 15.2637,"975": 33.9874,"1000": 34.9725,"1025": 26.1108,"1050": 20.1487,"1075": 11.0491,"1100": 0.4226}}}