{"type": "Feature","bbox": [30.9867,-19.9858,31.08,-19.8055],"geometry": {"type": "MultiPolygon","coordinates": [[[[31.0781,-19.977,1111.3013],[31.08,-19.9724,1118.5098],[31.077,-19.96,1108.7715],[31.07,-19.9433,1127.8367],[31.062,-19.9377,1129.4402],[31.0532,-19.9227,1138.7251],[31.061,-19.9092,1143.1418],[31.0741,-19.906,1145.4463],[31.076,-19.8958,1163.3134],[31.0743,-19.886,1193.4762],[31.0691,-19.8728,1205.9297],[31.0645,-19.8659,1205.3372],[31.0559,-19.8648,1211.8356],[31.0495,-19.8347,1221.9076],[31.0483,-19.8166,1237.936],[31.0429,-19.806,1245.0173],[31.0369,-19.8055,1236.1089],[31.0128,-19.8217,1260.4929],[30.9946,-19.8364,1228.5199],[30.9879,-19.8529,1214.5328],[30.9867,-19.8788,1173.5029],[30.9903,-19.8832,1185.3512],[30.9983,-19.8815,1185.7859],[31.0075,-19.8852,1225.8103],[31.013,-19.8918,1235.0149],[31.0222,-19.8985,1201.6367],[31.0254,-19.9078,1186.952],[31.0299,-19.9153,1155.5387],[31.0317,-19.9259,1176.6965],[31.0302,-19.9298,1163.9285],[31.0389,-19.9427,1150.0256],[31.0384,-19.9484,1142.5759],[31.042,-19.9577,1135.8363],[31.0461,-19.9634,1122.5498],[31.053,-19.9648,1124.8306],[31.0567,-19.9728,1123.3057],[31.0584,-19.982,1130.749],[31.0636,-19.9858,1140.6052],[31.0781,-19.977,1111.3013]]]]}
,"properties": {"GID_3": "ZWE.7.5.24_2","GID_0": "ZWE","country": "Zimbabwe","GID_1": "ZWE.7_1","province": "Masvingo","NL_NAME_1": "NA","GID_2": "ZWE.7.5_2","county": "Gutu","NL_NAME_2": "NA","city": "Ward30","VARNAME_3": "NA","NL_NAME_3": "NA","TYPE_3": "Ward","ENGTYPE_3": "Ward","CC_3": "NA","HASC_3": "NA","name": "Ward30.city","area_km2": 90.45918,"hist_schema_id": "Elevation0-9000","hist_area_km2": {"1100": 1.0761,"1125": 9.82514,"1150": 13.9128,"1175": 10.34708,"1200": 12.76089,"1225": 23.47105,"1250": 16.65281,"1275": 2.29366,"1300": 0.11965}}}