{"type":"Feature","properties":{"GID_3":"ZWE.7.1.28_2","GID_0":"ZWE","country":"Zimbabwe","GID_1":"ZWE.7_1","province":"Masvingo","NL_NAME_1":"NA","GID_2":"ZWE.7.1_2","county":"Bikita","NL_NAME_2":"NA","city":"Ward5","VARNAME_3":"NA","NL_NAME_3":"NA","TYPE_3":"Ward","ENGTYPE_3":"Ward","CC_3":"NA","HASC_3":"NA","name":"Ward5.city"},
"geometry":{"type": "MultiPolygon","coordinates": [[[[31.6716,-20.1008,793.9576],[31.6676,-20.0955,804.8101],[31.6633,-20.0967,816.8666],[31.655,-20.0941,865.6278],[31.6456,-20.1026,1092.972],[31.6323,-20.1048,1102.0748],[31.6253,-20.1143,1192.3646],[31.6244,-20.1189,1012.6754],[31.6137,-20.1379,831.2278],[31.6057,-20.1411,816.1339],[31.6012,-20.1516,799.5302],[31.5943,-20.1604,779.132],[31.5941,-20.1649,780.8114],[31.5956,-20.1671,774.3234],[31.5911,-20.1744,783.2925],[31.5938,-20.186,777.6581],[31.6006,-20.1846,792.8751],[31.6064,-20.1856,815.8849],[31.6092,-20.1883,809.2321],[31.61,-20.1919,804.715],[31.6306,-20.1958,772.017],[31.6458,-20.2065,738.1677],[31.6689,-20.197,728.0226],[31.6723,-20.2042,710.1325],[31.675,-20.2046,710.8833],[31.676,-20.2073,708.7667],[31.6895,-20.204,707.9119],[31.6908,-20.2044,707.1407],[31.6899,-20.2064,696.4495],[31.6926,-20.2082,693.3357],[31.6969,-20.2074,697.1792],[31.6948,-20.2047,691.5185],[31.6943,-20.2003,695.6764],[31.686,-20.1926,701.0651],[31.6862,-20.1866,713.6562],[31.6786,-20.1733,723.4961],[31.6724,-20.169,717.872],[31.6704,-20.1639,721.1046],[31.6692,-20.1557,730.2081],[31.674,-20.1535,733.672],[31.6774,-20.1538,736.1963],[31.6799,-20.1438,746.0432],[31.6765,-20.1362,758.0381],[31.667,-20.1232,777.5745],[31.6684,-20.1184,791.0006],[31.6645,-20.11,856.9497],[31.6694,-20.1016,833.1879],[31.6716,-20.1008,793.9576]]]]}}