{"type":"Feature","properties":{"GID_3":"ZWE.5.1.15_2","GID_0":"ZWE","country":"Zimbabwe","GID_1":"ZWE.5_1","province":"MashonalandEast","NL_NAME_1":"NA","GID_2":"ZWE.5.1_2","county":"Chikomba","NL_NAME_2":"NA","city":"Ward22","VARNAME_3":"NA","NL_NAME_3":"NA","TYPE_3":"Ward","ENGTYPE_3":"Ward","CC_3":"NA","HASC_3":"NA","name":"Ward22.city"},
"geometry":{"type": "MultiPolygon","coordinates": [[[[31.3794,-18.9319,1282.416],[31.3821,-18.9298,1302.8931],[31.3847,-18.9195,1359.438],[31.3912,-18.9074,1400.2573],[31.3973,-18.906,1415.2529],[31.4019,-18.8995,1410.7798],[31.4011,-18.8931,1398.0631],[31.3967,-18.888,1408.9548],[31.3956,-18.8779,1450.0225],[31.3972,-18.8718,1474.762],[31.4087,-18.8719,1454.1539],[31.4168,-18.8742,1403.7667],[31.4266,-18.8722,1396.2386],[31.4369,-18.8746,1379.6957],[31.448,-18.8741,1342.2837],[31.4547,-18.852,1329.5007],[31.4564,-18.8329,1285.7386],[31.4602,-18.8268,1281.0371],[31.4667,-18.8226,1280.35],[31.4736,-18.8129,1284.2697],[31.474,-18.8086,1278.6982],[31.4556,-18.7994,1275.3904],[31.4458,-18.7921,1254.7859],[31.4599,-18.7829,1238.2996],[31.465699999999998,-18.7766,1232.071],[31.4614,-18.7782,1239.1196],[31.4516,-18.777,1262.5096],[31.4445,-18.7741,1261.0115],[31.438,-18.7748,1263.7717],[31.4304,-18.7823,1277.8254],[31.4236,-18.7851,1290.1858],[31.409,-18.7871,1328.9077],[31.4081,-18.7944,1332.2759],[31.4092,-18.7995,1336.4561],[31.4038,-18.8032,1340.4772],[31.4022,-18.8118,1349.5414],[31.3997,-18.8144,1356.964],[31.4002,-18.8216,1387.306],[31.3875,-18.840699999999998,1436.6248],[31.3724,-18.8444,1426.1262],[31.3508,-18.8432,1418.0601],[31.3449,-18.8849,1353.7589],[31.3437,-18.9049,1357.0823],[31.3467,-18.9053,1348.6696],[31.3569,-18.9021,1366.1935],[31.3613,-18.9041,1332.2473],[31.3686,-18.9034,1303.8494],[31.373,-18.9116,1300.4825],[31.3719,-18.9157,1296.0732],[31.3782,-18.9243,1314.1769],[31.3794,-18.9319,1282.416]]]]}}