{"type":"Feature","properties":{"GID_3":"ZWE.6.1.25_2","GID_0":"ZWE","country":"Zimbabwe","GID_1":"ZWE.6_1","province":"MashonalandWest","NL_NAME_1":"NA","GID_2":"ZWE.6.1_2","county":"Chegutu","NL_NAME_2":"NA","city":"Ward5","VARNAME_3":"NA","NL_NAME_3":"NA","TYPE_3":"Ward","ENGTYPE_3":"Ward","CC_3":"NA","HASC_3":"NA","name":"Ward5.city"},
"geometry":{"type": "MultiPolygon","coordinates": [[[[30.7003,-18.4454,1279.4374],[30.6994,-18.436,1281.0858],[30.6917,-18.428,1276.0524],[30.6917,-18.4212,1274.4503],[30.6879,-18.4159,1273.5713],[30.6847,-18.4156,1273.1328],[30.6828,-18.4065,1275.7313],[30.6801,-18.4064,1272.0693],[30.6793,-18.4028,1274.4355],[30.6748,-18.4047,1271.3291],[30.6702,-18.3987,1270.1367],[30.6678,-18.4,1269.4043],[30.6648,-18.3973,1268.4995],[30.6625,-18.3979,1268.5989],[30.66,-18.392,1267.3397],[30.657,-18.3918,1267.2091],[30.656,-18.3889,1266.728],[30.6584,-18.3853,1266.4587],[30.659,-18.3768,1272.5553],[30.6533,-18.3713,1269.0297],[30.6489,-18.371,1265.7845],[30.6457,-18.3685,1264.5413],[30.5888,-18.3687,1259.1731],[30.5893,-18.3791,1263.0665],[30.5875,-18.3883,1266.3024],[30.5889,-18.4051,1272.3689],[30.5709,-18.4543,1304.7919],[30.5785,-18.4543,1308.472],[30.5826,-18.456,1305.4926],[30.5832,-18.4625,1315.4653],[30.5857,-18.4676,1308.4365],[30.5911,-18.476,1308.5549],[30.598,-18.4812,1326.8918],[30.6031,-18.4786,1315.1379],[30.6097,-18.472,1295.7335],[30.6119,-18.4783,1301.8416],[30.627,-18.4961,1334.8538],[30.6321,-18.4897,1337.0377],[30.6333,-18.4849,1335.9952],[30.6466,-18.4762,1307.2605],[30.6447,-18.4685,1303.8873],[30.6454,-18.4569,1294.549],[30.6538,-18.4454,1286.5518],[30.6666,-18.4521,1302.058],[30.6703,-18.4569,1304.8083],[30.6729,-18.4579,1306.3906],[30.6856,-18.4569,1300.1396],[30.6996,-18.4517,1285.3872],[30.7003,-18.4454,1279.4374]]]]}}