{"type":"Feature","properties":{"GID_3":"ZWE.5.10.2_2","GID_0":"ZWE","country":"Zimbabwe","GID_1":"ZWE.5_1","province":"MashonalandEast","NL_NAME_1":"NA","GID_2":"ZWE.5.10_2","county":"Seke","NL_NAME_2":"NA","city":"Ward10","VARNAME_3":"NA","NL_NAME_3":"NA","TYPE_3":"Ward","ENGTYPE_3":"Ward","CC_3":"NA","HASC_3":"NA","name":"Ward10.city"},
"geometry":{"type": "MultiPolygon","coordinates": [[[[31.0,-17.9994,1383.6699],[30.9997,-17.9977,1387.3674],[30.995,-17.9976,1379.4473],[30.9881,-17.9911,1384.863],[30.9886,-17.9871,1384.561],[30.9874,-17.9849,1379.6689],[30.9829,-17.9888,1379.5875],[30.9803,-17.988,1380.7482],[30.974,-17.9783,1378.0547],[30.9711,-17.9783,1385.187],[30.9678,-17.9827,1380.917],[30.9605,-17.9813,1382.6787],[30.9603,-17.9781,1379.1443],[30.951,-17.9775,1379.0494],[30.9477,-17.975,1377.005],[30.9472,-17.9713,1377.0236],[30.9417,-17.9715,1376.9895],[30.9366,-17.9692,1376.6552],[30.9222,-17.9601,1375.5737],[30.9116,-17.9597,1376.7339],[30.9076,-17.9642,1376.7167],[30.9055,-17.9641,1375.6328],[30.9043,-17.9617,1374.7603],[30.909,-17.9572,1374.4778],[30.9082,-17.9552,1377.6299],[30.9017,-17.9574,1374.0912],[30.882,-17.9353,1364.0276],[30.8733,-17.9316,1375.785],[30.8707,-17.9347,1369.114],[30.8628,-17.9277,1377.2863],[30.8637,-17.9253,1367.0057],[30.8618,-17.9238,1363.0],[30.858,-17.9268,1375.6814],[30.8447,-17.9244,1363.9434],[30.8472,-17.929,1380.3495],[30.8439,-17.932,1378.0579],[30.8442,-17.9445,1383.8352],[30.8411,-17.9451,1374.5566],[30.8374,-17.9297,1373.988],[30.8311,-17.921,1376.3821],[30.8085,-17.9469,1378.1667],[30.8166,-17.9812,1424.1436],[30.7763,-18.0183,1406.9447],[30.8242,-18.0243,1396.9702],[30.8072,-18.1198,1344.5231],[30.8481,-18.1323,1330.687],[30.8643,-18.1248,1325.0574],[30.8618,-18.1224,1327.8866],[30.8624,-18.1186,1337.0043],[30.8662,-18.1164,1331.4757],[30.867,-18.1093,1336.9626],[30.8799,-18.1084,1338.4207],[30.8857,-18.1021,1340.514],[30.9152,-18.0964,1359.4596],[30.9166,-18.1058,1360.718],[30.9102,-18.1185,1355.6567],[30.9433,-18.1499,1330.441],[30.9441,-18.1465,1331.6938],[30.9481,-18.1431,1332.074],[30.9602,-18.1265,1334.7815],[30.9627,-18.1114,1346.0271],[30.962,-18.1098,1352.3755],[30.9574,-18.1092,1353.9219],[30.9624,-18.1027,1348.8109],[30.9653,-18.0943,1359.3162],[30.9693,-18.0882,1357.1995],[30.9659,-18.0817,1357.9006],[30.9656,-18.0754,1368.8484],[30.9626,-18.076,1368.7782],[30.9618,-18.0747,1368.4006],[30.9562,-18.0461,1385.9338],[30.9922,-18.0242,1407.3833],[30.9892,-18.0211,1405.0204],[31.0068,-18.0141,1383.8274],[31.0028,-18.0116,1386.0869],[31.0026,-18.0055,1383.385],[30.9992,-18.0058,1385.7084],[30.9945,-18.0009,1388.6193],[30.9976,-18.0011,1383.9146],[31.0,-17.9994,1383.6699]]]]}}