{"type": "Feature","bbox": [29.7748,-18.9493,29.7968,-18.9303],"geometry": {"type": "MultiPolygon","coordinates": [[[[29.7962,-18.9303,1213.2443],[29.7862,-18.9315,1215.7715],[29.7764,-18.94,1200.2255],[29.7748,-18.942,1193.6578],[29.7763,-18.9426,1193.6578],[29.7765,-18.9493,1193.9896],[29.7847,-18.9465,1216.4143],[29.7888,-18.948,1213.1384],[29.7908,-18.9366,1217.0884],[29.7968,-18.9325,1211.1746],[29.7962,-18.9303,1213.2443]]]]}
,"properties": {"GID_3": "ZWE.10.8.12_2","GID_0": "ZWE","country": "Zimbabwe","GID_1": "ZWE.10_1","province": "Midlands","NL_NAME_1": "NA","GID_2": "ZWE.10.8_2","county": "KwekweUrban","NL_NAME_2": "NA","city": "Ward7","VARNAME_3": "NA","NL_NAME_3": "NA","TYPE_3": "Ward","ENGTYPE_3": "Ward","CC_3": "NA","HASC_3": "NA","name": "Ward7.city","area_km2": 2.426577,"hist_schema_id": "Elevation0-9000","hist_area_km2": {"1200": 1.263418,"1225": 1.12305,"1250": 0.040109}}}