{"type": "Feature","bbox": [27.4122,-18.8537,27.7478,-18.6196],"geometry": {"type": "MultiPolygon","coordinates": [[[[27.6469,-18.73,937.1884],[27.6424,-18.7273,936.5067],[27.6266,-18.7237,937.3362],[27.6224,-18.7205,935.8206],[27.6162,-18.7114,937.8875],[27.6053,-18.7155,935.2219],[27.6022,-18.7151,935.1515],[27.5957,-18.7067,934.7502],[27.597,-18.6937,932.9959],[27.5941,-18.691,932.5127],[27.5649,-18.6847,927.2258],[27.5593,-18.6785,926.2344],[27.5215,-18.6616,922.0103],[27.5145,-18.6564,923.4044],[27.5052,-18.6592,923.0007],[27.5014,-18.6588,922.1693],[27.4998,-18.6535,922.8683],[27.495,-18.6487,930.6376],[27.4781,-18.6476,924.2312],[27.4706,-18.6452,919.0686],[27.4601,-18.6311,923.4226],[27.4475,-18.6219,920.1915],[27.4388,-18.6196,918.1221],[27.4126,-18.6292,934.5425],[27.4122,-18.706,1047.1179],[27.4299,-18.7103,1054.697],[27.4249,-18.7264,1034.8459],[27.4564,-18.7361,1044.2346],[27.49,-18.749,1047.0459],[27.5425,-18.7606,1046.275],[27.5956,-18.7764,1052.3015],[27.6175,-18.7955,1043.522],[27.6414,-18.8097,1019.6869],[27.6523,-18.8195,1000.8593],[27.6799,-18.8382,1022.5211],[27.6952,-18.8537,1003.6386],[27.6971,-18.845,1016.3842],[27.707,-18.8226,1051.7371],[27.7185,-18.8017,1051.2712],[27.7282,-18.7884,974.1066],[27.7366,-18.7943,975.8992],[27.7426,-18.79,968.7211],[27.7436,-18.7859,964.8341],[27.7391,-18.781,954.8772],[27.7383,-18.777,952.4397],[27.7455,-18.7719,944.3607],[27.7478,-18.7674,949.1525],[27.7191,-18.7567,943.9915],[27.7046,-18.7578,944.1353],[27.6958,-18.7533,936.6472],[27.6922,-18.7462,943.6168],[27.6887,-18.743,941.743],[27.673,-18.736,939.9076],[27.6677,-18.7358,942.1813],[27.6596,-18.7425,935.5353],[27.6536,-18.7433,937.0814],[27.6511,-18.7411,939.2418],[27.6469,-18.73,937.1884]]]]}
,"properties": {"GID_3": "ZWE.8.5.5_2","GID_0": "ZWE","country": "Zimbabwe","GID_1": "ZWE.8_1","province": "MatabelelandNorth","NL_NAME_1": "NA","GID_2": "ZWE.8.5_2","county": "Lupane","NL_NAME_2": "NA","city": "Ward13","VARNAME_3": "NA","NL_NAME_3": "NA","TYPE_3": "Ward","ENGTYPE_3": "Ward","CC_3": "NA","HASC_3": "NA","name": "Ward13.city","area_km2": 328.8201,"hist_schema_id": "Elevation0-9000","hist_area_km2": {"900": 0.7232,"925": 33.6652,"950": 85.4447,"975": 49.8981,"1000": 24.7564,"1025": 22.2437,"1050": 109.5988,"1075": 2.4899}}}