{"type":"Feature","properties":{"GID_3":"ZWE.5.1.8_2","GID_0":"ZWE","country":"Zimbabwe","GID_1":"ZWE.5_1","province":"MashonalandEast","NL_NAME_1":"NA","GID_2":"ZWE.5.1_2","county":"Chikomba","NL_NAME_2":"NA","city":"Ward16","VARNAME_3":"NA","NL_NAME_3":"NA","TYPE_3":"Ward","ENGTYPE_3":"Ward","CC_3":"NA","HASC_3":"NA","name":"Ward16.city"},
"geometry":{"type": "MultiPolygon","coordinates": [[[[31.1972,-19.1164,1357.6028],[31.2004,-19.1104,1377.2666],[31.2087,-19.1015,1355.4006],[31.2155,-19.0978,1339.0219],[31.2194,-19.0865,1353.9987],[31.2172,-19.082,1352.9995],[31.2068,-19.075,1353.0381],[31.2037,-19.0704,1366.9464],[31.2302,-19.0623,1336.7374],[31.2343,-19.0513,1338.0465],[31.2314,-19.0515,1326.4904],[31.2301,-19.0499,1326.9167],[31.2266,-19.0382,1334.9028],[31.2233,-19.0349,1339.0853],[31.2104,-19.031,1341.3948],[31.2025,-19.0222,1364.4823],[31.1913,-19.0204,1361.6885],[31.1836,-19.0222,1360.0898],[31.1778,-19.0262,1364.5062],[31.1708,-19.0205,1360.5793],[31.1671,-19.0111,1382.4342],[31.0746,-19.0317,1480.0757],[31.074,-19.0378,1439.8777],[31.0791,-19.045,1423.403],[31.0807,-19.0501,1416.1112],[31.085,-19.0537,1412.4519],[31.0867,-19.0583,1410.533],[31.0853,-19.0614,1411.334],[31.089,-19.0674,1399.193],[31.0853,-19.0719,1391.7218],[31.0854,-19.0743,1396.7571],[31.0952,-19.0832,1371.1691],[31.1073,-19.0878,1367.5598],[31.1107,-19.0971,1350.2463],[31.1154,-19.1029,1351.0194],[31.1181,-19.1046,1344.0284],[31.1221,-19.1038,1348.5695],[31.1316,-19.1128,1340.9802],[31.1403,-19.1162,1327.4135],[31.153,-19.1301,1295.1813],[31.1972,-19.1164,1357.6028]]]]}}