{"type": "Feature","bbox": [30.8257,-18.8898,31.0655,-18.6959],"geometry": {"type": "MultiPolygon","coordinates": [[[[30.8834,-18.755,1369.2493],[30.8802,-18.759,1365.5837],[30.8788,-18.7684,1363.2173],[30.8725,-18.7702,1366.9106],[30.8685,-18.7759,1363.651],[30.8686,-18.7804,1360.3331],[30.865,-18.7829,1369.3981],[30.8665,-18.7896,1358.8079],[30.8645,-18.7924,1359.703],[30.8651,-18.7961,1357.2484],[30.8592,-18.8086,1355.9011],[30.8537,-18.8063,1356.5957],[30.852,-18.807,1358.2286],[30.8496,-18.8164,1352.7854],[30.8355,-18.8245,1350.9235],[30.8343,-18.8335,1350.4122],[30.8403,-18.8403,1348.0687],[30.8328,-18.8416,1347.1216],[30.8258,-18.8509,1349.5594],[30.8287,-18.8587,1345.7236],[30.8289,-18.8722,1340.7599],[30.8257,-18.8748,1340.423],[30.8908,-18.8785,1397.5341],[30.9499,-18.8898,1435.9539],[30.9567,-18.8469,1421.3231],[30.9686,-18.8062,1427.7581],[31.0085,-18.7655,1426.6232],[31.0329,-18.7957,1444.384],[31.0507,-18.7837,1489.9323],[31.0598,-18.7512,1441.2977],[31.0655,-18.7364,1468.042],[31.0586,-18.7387,1458.6028],[31.0447,-18.7071,1420.7073],[30.9981,-18.7037,1400.8389],[30.9944,-18.7003,1399.6193],[30.9849,-18.701,1398.4062],[30.9708,-18.6959,1394.5826],[30.9592,-18.705,1389.6442],[30.9578,-18.7105,1389.0833],[30.9337,-18.735,1377.9644],[30.9319,-18.739,1377.0994],[30.9234,-18.7413,1375.6418],[30.922,-18.7353,1384.0098],[30.9164,-18.7456,1374.2729],[30.9118,-18.7428,1374.407],[30.9097,-18.7442,1371.3701],[30.8948,-18.7453,1376.4103],[30.8876,-18.7493,1375.4868],[30.8834,-18.755,1369.2493]]]]}
,"properties": {"GID_3": "ZWE.5.1.5_2","GID_0": "ZWE","country": "Zimbabwe","GID_1": "ZWE.5_1","province": "MashonalandEast","NL_NAME_1": "NA","GID_2": "ZWE.5.1_2","county": "Chikomba","NL_NAME_2": "NA","city": "Ward13","VARNAME_3": "NA","NL_NAME_3": "NA","TYPE_3": "Ward","ENGTYPE_3": "Ward","CC_3": "NA","HASC_3": "NA","name": "Ward13.city","area_km2": 271.4342,"hist_schema_id": "Elevation0-9000","hist_area_km2": {"1350": 11.2973,"1375": 59.909,"1400": 98.455,"1425": 76.0563,"1450": 21.9627,"1475": 3.5732,"1500": 0.1807}}}