{"type":"Feature","properties":{"GID_3":"ZWE.3.8.26_2","GID_0":"ZWE","country":"Zimbabwe","GID_1":"ZWE.3_1","province":"Manicaland","NL_NAME_1":"NA","GID_2":"ZWE.3.8_2","county":"Mutasa","NL_NAME_2":"NA","city":"Ward4","VARNAME_3":"NA","NL_NAME_3":"NA","TYPE_3":"Ward","ENGTYPE_3":"Ward","CC_3":"NA","HASC_3":"NA","name":"Ward4.city"},
"geometry":{"type": "MultiPolygon","coordinates": [[[[32.9639,-18.478,677.8199],[32.9713,-18.4729,674.2002],[32.9764,-18.4731,647.2843],[32.9798,-18.4715,655.0059],[32.9771,-18.4789,647.7606],[32.9818,-18.4886,652.1267],[33.004,-18.4794,648.1739],[33.0153,-18.4726,677.2451],[33.0211,-18.4655,747.9047],[33.0229,-18.4575,770.7197],[33.0227,-18.4442,704.7108],[33.0163,-18.4313,633.1639],[33.0174,-18.417,644.6061],[33.0238,-18.3911,608.218],[33.0275,-18.3875,641.2732],[33.0256,-18.3838,624.66],[33.0239,-18.3839,624.66],[33.0227,-18.3917,607.2166],[33.019,-18.3979,633.2738],[33.02,-18.4031,613.8489],[33.0187,-18.4043,616.5983],[33.0117,-18.4028,625.5122],[33.0095,-18.4057,622.6726],[32.9931,-18.4077,640.0529],[32.9856,-18.4153,641.4923],[32.9829,-18.4153,647.6678],[32.9836,-18.419,647.5234],[32.9814,-18.4234,653.7939],[32.9573,-18.4407,701.9364],[32.956,-18.448,686.9033],[32.9502,-18.448,689.2769],[32.9436,-18.4412,759.4658],[32.9282,-18.4464,1196.4858],[32.9272,-18.4497,1108.3937],[32.934,-18.456,862.8894],[32.9363,-18.4603,763.6194],[32.9421,-18.4641,737.138],[32.9437,-18.4707,723.4503],[32.953,-18.4748,705.4584],[32.9536,-18.4804,712.9998],[32.9561,-18.4814,671.8626],[32.9604,-18.478,706.5961],[32.9639,-18.478,677.8199]]]]}}