{"type": "Feature","bbox": [31.1164,-17.3655,31.3187,-17.2412],"geometry": {"type": "MultiPolygon","coordinates": [[[[31.3187,-17.2853,1163.6646],[31.3036,-17.2486,1135.9669],[31.2969,-17.2412,1015.3084],[31.2932,-17.2525,1025.8149],[31.2851,-17.2494,1049.5529],[31.2835,-17.2529,1029.2745],[31.2666,-17.2557,1067.1729],[31.2645,-17.2615,1082.0151],[31.235,-17.2598,1090.3302],[31.2303,-17.2701,1095.8163],[31.2149,-17.2709,1090.4263],[31.2158,-17.275,1097.6016],[31.2113,-17.2758,1100.5336],[31.1939,-17.2781,1092.3748],[31.194,-17.2712,1092.5308],[31.168,-17.2712,1101.5846],[31.1369,-17.2672,1120.3455],[31.1318,-17.3199,1092.5576],[31.1234,-17.319,1097.822],[31.1193,-17.3158,1101.8608],[31.1164,-17.3208,1094.4742],[31.1379,-17.3655,1145.665],[31.1513,-17.3533,1162.0924],[31.1949,-17.341,1178.6021],[31.2486,-17.3307,1317.9651],[31.2538,-17.3229,1174.9441],[31.2916,-17.3114,1221.1938],[31.3185,-17.3175,1097.2427],[31.3187,-17.2853,1163.6646]]]]}
,"properties": {"GID_3": "ZWE.4.1.14_2","GID_0": "ZWE","country": "Zimbabwe","GID_1": "ZWE.4_1","province": "MashonalandCentral","NL_NAME_1": "NA","GID_2": "ZWE.4.1_2","county": "Bindura","NL_NAME_2": "NA","city": "Ward21","VARNAME_3": "NA","NL_NAME_3": "NA","TYPE_3": "Ward","ENGTYPE_3": "Ward","CC_3": "NA","HASC_3": "NA","name": "Ward21.city","area_km2": 153.2387,"hist_schema_id": "Elevation0-9000","hist_area_km2": {"975": 0.0405,"1000": 0.0607,"1025": 2.4904,"1050": 18.7268,"1075": 38.6047,"1100": 50.1626,"1125": 17.7113,"1150": 11.6176,"1175": 5.485,"1200": 2.7527,"1225": 2.1253,"1250": 1.6192,"1275": 1.1537,"1300": 0.5667,"1325": 0.1012,"1350": 0.0202}}}