{"type":"Feature","properties":{"GID_3":"ZWE.10.9.1_2","GID_0":"ZWE","country":"Zimbabwe","GID_1":"ZWE.10_1","province":"Midlands","NL_NAME_1":"NA","GID_2":"ZWE.10.9_2","county":"Mberengwa","NL_NAME_2":"NA","city":"Ward1","VARNAME_3":"NA","NL_NAME_3":"NA","TYPE_3":"Ward","ENGTYPE_3":"Ward","CC_3":"NA","HASC_3":"NA","name":"Ward1.city"},
"geometry":{"type": "MultiPolygon","coordinates": [[[[29.6053,-20.5753,1098.5831],[29.6203,-20.5952,1045.8928],[29.5845,-20.6043,1048.8016],[29.5968,-20.6506,1037.5862],[29.6079,-20.6682,1030.9878],[29.6617,-20.6547,1023.3035],[29.6636,-20.655,1027.5122],[29.6754,-20.6705,1103.2457],[29.6936,-20.645,1078.804],[29.7632,-20.6807,983.8274],[29.7987,-20.6209,1033.4985],[29.845,-20.5891,1070.9929],[29.8378,-20.5547,1064.4591],[29.8576,-20.5436,1093.9],[29.8301,-20.5259,1063.6766],[29.884,-20.4974,1041.4956],[29.7507,-20.4807,1088.9215],[29.7134,-20.4736,1108.2881],[29.7077,-20.4988,1103.2603],[29.7011,-20.5162,1125.1465],[29.6053,-20.5753,1098.5831]]]]}}