{"type": "Feature","bbox": [31.1563,-19.7458,31.2605,-19.6211],"geometry": {"type": "MultiPolygon","coordinates": [[[[31.2133,-19.705,1285.8804],[31.1884,-19.6841,1300.2637],[31.2039,-19.6788,1293.4438],[31.2179,-19.6472,1292.2532],[31.2223,-19.6477,1286.4199],[31.2271,-19.653199999999998,1253.5593],[31.2466,-19.6488,1224.5013],[31.2519,-19.6455,1217.522],[31.2533,-19.6429,1204.8119],[31.2575,-19.6417,1208.8127],[31.2605,-19.6294,1189.491],[31.2481,-19.6321,1210.6387],[31.2433,-19.6233,1222.7878],[31.2371,-19.6237,1234.4269],[31.2336,-19.6211,1245.7628],[31.211,-19.6255,1265.4409],[31.1872,-19.6219,1326.7697],[31.178,-19.6231,1337.9509],[31.1706,-19.6261,1355.4105],[31.174,-19.6339,1367.6947],[31.1861,-19.6338,1366.0762],[31.1861,-19.6369,1381.4865],[31.1717,-19.6403,1411.8511],[31.1795,-19.6515,1429.9163],[31.1684,-19.6606,1430.9073],[31.1568,-19.6554,1428.5836],[31.1563,-19.6597,1383.667],[31.1645,-19.6802,1370.3784],[31.1789,-19.6984,1378.4463],[31.1722,-19.731,1363.636],[31.1781,-19.7458,1363.5415],[31.1782,-19.7289,1342.9215],[31.1824,-19.7299,1319.4391],[31.1859,-19.735,1306.95],[31.1931,-19.732,1316.1147],[31.1969,-19.7173,1303.3149],[31.203,-19.714,1306.4106],[31.2091,-19.7068,1278.5925],[31.2133,-19.705,1285.8804]]]]}
,"properties": {"GID_3": "ZWE.7.5.31_2","GID_0": "ZWE","country": "Zimbabwe","GID_1": "ZWE.7_1","province": "Masvingo","NL_NAME_1": "NA","GID_2": "ZWE.7.5_2","county": "Gutu","NL_NAME_2": "NA","city": "Ward37","VARNAME_3": "NA","NL_NAME_3": "NA","TYPE_3": "Ward","ENGTYPE_3": "Ward","CC_3": "NA","HASC_3": "NA","name": "Ward37.city","area_km2": 55.62428,"hist_schema_id": "Elevation0-9000","hist_area_km2": {"1175": 0.07988,"1200": 1.01843,"1225": 1.9969,"1250": 4.07368,"1275": 5.49094,"1300": 8.46529,"1325": 9.78279,"1350": 11.63905,"1375": 7.28695,"1400": 2.63561,"1425": 2.7754,"1450": 0.37937}}}