{"type": "Feature","bbox": [27.8449,-20.1214,27.9442,-19.9926],"geometry": {"type": "MultiPolygon","coordinates": [[[[27.8551,-20.0277,1219.3564],[27.86,-20.0328,1222.3279],[27.86,-20.0355,1223.4752],[27.8522,-20.0433,1226.6348],[27.8493,-20.0443,1226.302],[27.8449,-20.0498,1228.0317],[27.8449,-20.0521,1228.7729],[27.8537,-20.0581,1234.489],[27.8571,-20.0668,1240.1238],[27.8556,-20.0788,1247.3824],[27.8571,-20.0825,1248.7844],[27.862,-20.0862,1251.2075],[27.8678,-20.0866,1251.8392],[27.8736,-20.0839,1251.1239],[27.8883,-20.0825,1245.3811],[27.8922,-20.0852,1249.6754],[27.8897,-20.1073,1270.2183],[27.9199,-20.1214,1284.2308],[27.9442,-20.0589,1203.6609],[27.9063,-19.9926,1141.7205],[27.9033,-19.9941,1144.1382],[27.9019,-20.0047,1160.6934],[27.8975,-20.0079,1166.5162],[27.8717,-20.012,1194.9395],[27.8624,-20.0153,1213.8556],[27.86,-20.0171,1216.0167],[27.8551,-20.0277,1219.3564]]]]}
,"properties": {"GID_3": "ZWE.8.7.10_2","GID_0": "ZWE","country": "Zimbabwe","GID_1": "ZWE.8_1","province": "MatabelelandNorth","NL_NAME_1": "NA","GID_2": "ZWE.8.7_2","county": "Tsholotsho","NL_NAME_2": "NA","city": "Ward18","VARNAME_3": "NA","NL_NAME_3": "NA","TYPE_3": "Ward","ENGTYPE_3": "Ward","CC_3": "NA","HASC_3": "NA","name": "Ward18.city","area_km2": 81.95594,"hist_schema_id": "Elevation0-9000","hist_area_km2": {"1150": 4.38288,"1175": 11.1751,"1200": 14.08209,"1225": 27.3856,"1250": 17.98167,"1275": 6.94861}}}