{"type":"Feature","properties":{"GID_3":"ZWE.4.5.28_2","GID_0":"ZWE","country":"Zimbabwe","GID_1":"ZWE.4_1","province":"MashonalandCentral","NL_NAME_1":"NA","GID_2":"ZWE.4.5_2","county":"Mazowe","NL_NAME_2":"NA","city":"Ward35","VARNAME_3":"NA","NL_NAME_3":"NA","TYPE_3":"Ward","ENGTYPE_3":"Ward","CC_3":"NA","HASC_3":"NA","name":"Ward35.city"},
"geometry":{"type": "MultiPolygon","coordinates": [[[[30.9743,-17.5382,1516.7441],[30.9453,-17.5731,1387.7163],[30.9362,-17.5867,1444.3386],[30.9357,-17.5975,1427.2462],[30.926,-17.5967,1320.9423],[30.9275,-17.6009,1330.5841],[30.927,-17.6124,1346.2469],[30.9239,-17.6164,1356.2091],[30.9234,-17.6216,1361.7958],[30.9195,-17.6231,1380.4951],[30.9191,-17.626,1369.3036],[30.9168,-17.6256,1387.4114],[30.8972,-17.6458,1468.5385],[30.9016,-17.6809,1437.29],[30.9127,-17.6872,1437.7086],[30.9285,-17.7006,1444.9443],[30.9304,-17.6618,1463.4773],[30.9577,-17.6331,1465.8347],[30.9888,-17.6295,1453.0249],[30.9967,-17.579,1459.2444],[31.0164,-17.579,1257.7734],[31.0125,-17.5728,1252.1892],[31.0129,-17.5683,1254.6957],[31.0082,-17.5653,1246.7444],[31.0085,-17.5618,1248.5347],[31.005,-17.5603,1240.4846],[31.0059,-17.5578,1242.0088],[31.0019,-17.5571,1241.7643],[31.0031,-17.5542,1232.7074],[31.0007,-17.5495,1228.7415],[30.9959,-17.5485,1233.5271],[30.9935,-17.553,1232.8359],[30.9933,-17.5585,1239.7103],[30.9894,-17.5618,1242.5609],[30.9916,-17.5588,1235.167],[30.9918,-17.5511,1239.1967],[30.9743,-17.5382,1516.7441]]]]}}