{"type":"Feature","properties":{"GID_3":"ZWE.9.6.5_2","GID_0":"ZWE","country":"Zimbabwe","GID_1":"ZWE.9_1","province":"MatabelelandSouth","NL_NAME_1":"NA","GID_2":"ZWE.9.6_2","county":"Insiza","NL_NAME_2":"NA","city":"Ward13","VARNAME_3":"NA","NL_NAME_3":"NA","TYPE_3":"Ward","ENGTYPE_3":"Ward","CC_3":"NA","HASC_3":"NA","name":"Ward13.city"},
"geometry":{"type": "MultiPolygon","coordinates": [[[[29.6296,-20.0494,1217.0475],[29.6327,-20.0341,1241.3101],[29.6646,-19.9841,1249.1592],[29.6994,-19.9732,1239.2068],[29.6952,-19.9722,1247.9552],[29.6943,-19.9688,1249.7679],[29.6874,-19.9289,1251.2576],[29.6802,-19.9051,1259.9014],[29.6639,-19.9083,1251.8523],[29.6541,-19.9122,1271.0338],[29.6185,-19.9322,1264.9076],[29.6061,-19.935,1272.2786],[29.5985,-19.9342,1278.6039],[29.5822,-19.9182,1296.905],[29.5622,-19.8861,1340.0081],[29.5429,-19.8749,1348.4672],[29.5176,-19.8635,1400.1801],[29.5024,-19.8614,1389.2014],[29.4724,-19.8478,1415.0929],[29.4456,-19.8637,1425.0044],[29.5158,-19.9002,1418.328],[29.505,-19.9039,1359.995],[29.4598,-19.9109,1465.9203],[29.471,-19.942,1439.7455],[29.4766,-19.9625,1393.5349],[29.4383,-19.978,1413.7542],[29.3957,-19.9882,1435.7209],[29.3889,-19.9684,1464.0273],[29.3796,-19.9563,1482.475],[29.3708,-19.9933,1448.9823],[29.3676,-19.9949,1426.9301],[29.3665,-19.9996,1425.9797],[29.3528,-19.9992,1416.395],[29.3247,-19.9872,1455.6385],[29.354,-20.0457,1411.2994],[29.3582,-20.1346,1294.7305],[29.364,-20.1298,1291.3828],[29.3514,-20.1868,1296.6382],[29.3535,-20.2209,1228.2341],[29.3502,-20.3059,1221.2556],[29.3993,-20.2948,1253.067],[29.4065,-20.276,1254.963],[29.4353,-20.2947,1250.5547],[29.4387,-20.309,1243.3403],[29.4255,-20.3174,1222.4121],[29.4339,-20.3251,1223.4055],[29.4434,-20.3124,1242.9673],[29.4514,-20.3172,1234.7262],[29.5005,-20.2753,1184.8384],[29.5591,-20.3157,1159.2198],[29.5836,-20.3209,1154.782],[29.593,-20.2546,1116.7905],[29.5949,-20.2555,1110.5901],[29.6015,-20.2515,1107.2914],[29.6081,-20.2516,1101.771],[29.617,-20.2614,1099.0299],[29.6192,-20.2391,1149.9968],[29.6185,-20.198,1196.2308],[29.595,-20.1995,1145.1722],[29.5914,-20.1641,1206.8853],[29.5441,-20.1575,1309.8477],[29.5222,-20.1377,1204.0493],[29.5719,-20.1425,1186.4694],[29.5846,-20.1354,1202.2737],[29.5833,-20.1291,1209.8922],[29.5923,-20.1211,1227.0219],[29.6072,-20.1135,1253.2104],[29.62,-20.1275,1240.8156],[29.6222,-20.0864,1279.0737],[29.6296,-20.0494,1217.0475]]]]}}