{"type": "Feature","bbox": [32.0007,-17.0155,32.1855,-16.7891],"geometry": {"type": "MultiPolygon","coordinates": [[[[32.0076,-16.843,630.6819],[32.0033,-16.8479,703.6271],[32.0007,-16.856,649.0762],[32.003,-16.8626,620.075],[32.0041,-16.88,629.4516],[32.0098,-16.8883,639.2931],[32.0095,-16.8919,628.0916],[32.0038,-16.9012,646.8489],[32.0048,-16.9052,643.7424],[32.0033,-16.9068,628.1591],[32.0182,-16.9163,703.921],[32.0206,-16.9162,702.7537],[32.0275,-16.911,708.8433],[32.038,-16.9122,717.1308],[32.0434,-16.9143,725.1451],[32.0442,-16.9182,711.7748],[32.0563,-16.9269,749.7683],[32.0651,-16.9271,750.7476],[32.0657,-16.9323,753.6975],[32.073,-16.9329,748.0676],[32.077,-16.9392,753.3725],[32.0772,-16.9469,765.1468],[32.0803,-16.9508,767.002],[32.0819,-16.9582,769.7563],[32.0928,-16.9628,760.8394],[32.1019,-16.9698,755.9734],[32.1078,-16.9723,735.9756],[32.1145,-16.9815,753.9237],[32.1245,-16.9889,759.8798],[32.1251,-16.9919,752.5715],[32.1346,-16.9956,745.1052],[32.1378,-17.0013,737.5493],[32.155,-17.0026,731.9447],[32.1646,-17.0115,731.7836],[32.1707,-17.0141,708.0949],[32.1785,-17.0155,706.1851],[32.1855,-17.0146,706.1558],[32.1749,-17.0093,696.0779],[32.171,-16.9995,728.8946],[32.1564,-16.9808,699.4492],[32.1522,-16.9698,740.0811],[32.1296,-16.9387,757.7417],[32.1195,-16.9304,748.4415],[32.1194,-16.9253,739.1349],[32.1133,-16.9127,725.3698],[32.1105,-16.9008,719.2968],[32.111,-16.892,690.4786],[32.1084,-16.8783,680.446],[32.1099,-16.873,676.4467],[32.1123,-16.8708,675.9078],[32.1175,-16.8703,683.3798],[32.1276,-16.8736,713.9912],[32.1369,-16.8804,697.941],[32.1345,-16.8826,698.9139],[32.1395,-16.8927,725.867],[32.1377,-16.8989,727.7502],[32.1444,-16.9135,759.1912],[32.1466,-16.9152,758.3492],[32.1734,-16.8944,755.6528],[32.1777,-16.8887,750.8401],[32.168,-16.887,760.463],[32.1631,-16.8817,722.8045],[32.1618,-16.8794,717.6289],[32.1629,-16.8714,717.0269],[32.157,-16.8643,702.9039],[32.1604,-16.8585,691.842],[32.1529,-16.8504,661.4955],[32.1513,-16.8466,654.6291],[32.1529,-16.8439,649.9634],[32.1514,-16.8391,664.9769],[32.1483,-16.8402,654.6228],[32.146,-16.8371,639.8136],[32.1467,-16.8239,620.0654],[32.1442,-16.8121,617.7513],[32.1424,-16.8061,623.0276],[32.1372,-16.8007,615.2747],[32.1419,-16.7896,601.1845],[32.1354,-16.7911,598.9481],[32.1311,-16.7891,615.6892],[32.125,-16.7893,622.0995],[32.1101,-16.7945,619.8983],[32.1043,-16.7998,610.7784],[32.1037,-16.8061,613.9802],[32.0984,-16.8056,637.9592],[32.0926,-16.8098,620.9314],[32.0771,-16.8031,620.0265],[32.0718,-16.8028,631.0219],[32.0643,-16.8049,626.7],[32.0516,-16.8035,635.1247],[32.0399,-16.8116,628.4825],[32.0419,-16.8217,614.2769],[32.0404,-16.8269,618.4138],[32.0332,-16.8289,681.2347],[32.0302,-16.8338,619.9995],[32.022,-16.8353,651.4891],[32.0076,-16.843,630.6819]]]]}
,"properties": {"GID_3": "ZWE.5.11.12_2","GID_0": "ZWE","country": "Zimbabwe","GID_1": "ZWE.5_1","province": "MashonalandEast","NL_NAME_1": "NA","GID_2": "ZWE.5.11_2","county": "UzumbaMarambaPfungwe","NL_NAME_2": "NA","city": "Ward4","VARNAME_3": "NA","NL_NAME_3": "NA","TYPE_3": "Ward","ENGTYPE_3": "Ward","CC_3": "NA","HASC_3": "NA","name": "Ward4.city","area_km2": 229.3399,"hist_schema_id": "Elevation0-9000","hist_area_km2": {"575": 0.954,"600": 6.1701,"625": 16.0534,"650": 23.3981,"675": 29.4836,"700": 39.2385,"725": 58.2408,"750": 44.442,"775": 9.0263,"800": 1.1159,"825": 0.3855,"850": 0.2637,"875": 0.2029,"900": 0.0609,"925": 0.1015,"950": 0.1015,"975": 0.0812,"1000": 0.0203}}}