{"type":"Feature","properties":{"GID_3":"ZWE.9.2.2_2","GID_0":"ZWE","country":"Zimbabwe","GID_1":"ZWE.9_1","province":"MatabelelandSouth","NL_NAME_1":"NA","GID_2":"ZWE.9.2_2","county":"BeitbridgeUrban","NL_NAME_2":"NA","city":"Ward2","VARNAME_3":"NA","NL_NAME_3":"NA","TYPE_3":"Ward","ENGTYPE_3":"Ward","CC_3":"NA","HASC_3":"NA","name":"Ward2.city"},
"geometry":{"type": "MultiPolygon","coordinates": [[[[30.0021,-22.1972,483.4126],[29.9939,-22.2038,471.0584],[29.9909,-22.2037,468.9568],[29.9849,-22.2154,451.1756],[29.9873,-22.2159,446.8605],[29.9954,-22.2125,466.0406],[30.0036,-22.205,472.6407],[30.0021,-22.1972,483.4126]]]]}}