{"type":"Feature","properties":{"GID_3":"ZWE.8.4.5_2","GID_0":"ZWE","country":"Zimbabwe","GID_1":"ZWE.8_1","province":"MatabelelandNorth","NL_NAME_1":"NA","GID_2":"ZWE.8.4_2","county":"HwangeUrban","NL_NAME_2":"NA","city":"Ward13","VARNAME_3":"NA","NL_NAME_3":"NA","TYPE_3":"Ward","ENGTYPE_3":"Ward","CC_3":"NA","HASC_3":"NA","name":"Ward13.city"},
"geometry":{"type": "MultiPolygon","coordinates": [[[[26.384,-18.3721,717.1582],[26.3527,-18.3947,765.6665],[26.3666,-18.4263,830.3781],[26.3863,-18.4126,780.7808],[26.3967,-18.3996,771.7667],[26.4046,-18.3968,739.6494],[26.4085,-18.3889,731.6352],[26.4108,-18.3881,730.3458],[26.4165,-18.3786,724.4764],[26.415,-18.3736,721.6489],[26.384,-18.3721,717.1582]]]]}}