{"type": "Feature","bbox": [32.1723,-19.4429,32.3567,-19.337],"geometry": {"type": "MultiPolygon","coordinates": [[[[32.1723,-19.442,695.2214],[32.1861,-19.4382,708.7716],[32.1948,-19.4329,731.0016],[32.2061,-19.4341,730.7845],[32.2129,-19.4302,742.4661],[32.2286,-19.4275,753.0437],[32.2297,-19.4308,758.713],[32.228,-19.4421,740.7505],[32.23,-19.4429,740.1317],[32.2313,-19.4391,746.3411],[32.236,-19.4327,751.5205],[32.2388,-19.4316,746.495],[32.2389,-19.4296,752.8063],[32.2445,-19.4306,754.4962],[32.2478,-19.4263,758.2885],[32.2649,-19.4229,781.2177],[32.2719,-19.423,783.5895],[32.2764,-19.418,791.0926],[32.2816,-19.4151,802.2994],[32.2877,-19.4031,820.7531],[32.3011,-19.395,849.8465],[32.3006,-19.3923,859.2094],[32.3059,-19.3926,875.5168],[32.3077,-19.3995,891.8087],[32.3114,-19.4015,888.5366],[32.3182,-19.4013,875.6354],[32.3194,-19.3984,883.4031],[32.3282,-19.3942,902.6851],[32.3337,-19.389,923.8416],[32.334,-19.3756,952.0135],[32.3421,-19.3666,970.3607],[32.3567,-19.3649,932.1931],[32.3518,-19.3638,947.8602],[32.3404,-19.3531,997.7252],[32.3204,-19.3527,950.7393],[32.3159,-19.3457,933.196],[32.3134,-19.337,912.7775],[32.2988,-19.3403,888.8417],[32.2964,-19.3395,887.7653],[32.2902,-19.3419,874.4682],[32.2878,-19.3405,879.6024],[32.2799,-19.3446,855.7614],[32.2752,-19.3436,853.4166],[32.2715,-19.3456,843.7091],[32.2609,-19.3464,830.4741],[32.2499,-19.3531,810.9962],[32.2468,-19.3535,806.316],[32.2464,-19.3501,812.0178],[32.2413,-19.3505,811.4493],[32.2362,-19.3543,798.3606],[32.2181,-19.3582,774.2417],[32.2135,-19.364,768.1042],[32.2128,-19.3671,770.4305],[32.2113,-19.3669,770.4305],[32.2108,-19.3731,759.3571],[32.2077,-19.3771,755.039],[32.198,-19.4176,728.4589],[32.1935,-19.4228,720.4032],[32.1885,-19.4219,723.8005],[32.1831,-19.4238,715.8967],[32.1795,-19.4325,704.2521],[32.1725,-19.4388,702.9911],[32.1723,-19.442,695.2214]]]]}
,"properties": {"GID_3": "ZWE.3.6.16_2","GID_0": "ZWE","country": "Zimbabwe","GID_1": "ZWE.3_1","province": "Manicaland","NL_NAME_1": "NA","GID_2": "ZWE.3.6_2","county": "Mutare","NL_NAME_2": "NA","city": "Ward23","VARNAME_3": "NA","NL_NAME_3": "NA","TYPE_3": "Ward","ENGTYPE_3": "Ward","CC_3": "NA","HASC_3": "NA","name": "Ward23.city","area_km2": 107.32087,"hist_schema_id": "Elevation0-9000","hist_area_km2": {"700": 1.27964,"725": 3.45922,"750": 8.57848,"775": 14.49853,"800": 16.53938,"825": 12.44044,"850": 12.68092,"875": 10.06086,"900": 10.28086,"925": 7.94092,"950": 5.981,"975": 2.56042,"1000": 0.90017,"1025": 0.08002,"1050": 0.04001}}}