{"type": "Feature","bbox": [31.3827,-20.3502,31.4751,-20.2328],"geometry": {"type": "MultiPolygon","coordinates": [[[[31.4577,-20.3234,758.1999],[31.4542,-20.3224,764.2625],[31.4484,-20.3088,765.0305],[31.4484,-20.3029,771.6744],[31.4467,-20.2998,769.0222],[31.4492,-20.2854,775.6061],[31.4483,-20.2779,790.3268],[31.4459,-20.2745,787.8273],[31.4474,-20.2673,793.9155],[31.4419,-20.2521,803.6292],[31.4298,-20.2502,844.8135],[31.4261,-20.2523,813.5635],[31.4248,-20.2412,825.3851],[31.4165,-20.2328,836.7186],[31.411,-20.2333,853.5604],[31.384,-20.2458,793.855],[31.3853,-20.2484,802.2441],[31.3827,-20.2513,790.0385],[31.3845,-20.2536,798.2824],[31.3873,-20.2538,794.4982],[31.3854,-20.2711,782.9015],[31.3874,-20.2802,781.1075],[31.3848,-20.2856,780.3142],[31.384,-20.2939,786.9154],[31.3865,-20.2977,779.881],[31.3827,-20.3036,778.1706],[31.3839,-20.3066,784.993],[31.3868,-20.3068,781.5936],[31.3874,-20.3165,771.994],[31.3901,-20.3225,774.5204],[31.3996,-20.3204,770.564],[31.4013,-20.33,759.8664],[31.4068,-20.3317,764.5669],[31.4025,-20.3359,764.7034],[31.4044,-20.3376,764.0238],[31.4033,-20.3408,753.8574],[31.4239,-20.3409,758.6459],[31.4287,-20.3388,758.3788],[31.4313,-20.3472,751.2446],[31.4373,-20.3431,748.8489],[31.4465,-20.3415,745.0408],[31.4576,-20.3502,744.4473],[31.4667,-20.3449,761.4803],[31.4751,-20.3452,733.3065],[31.4746,-20.3399,759.9099],[31.4698,-20.3302,747.453],[31.4653,-20.3312,756.1064],[31.4577,-20.3234,758.1999]]]]}
,"properties": {"GID_3": "ZWE.7.9.33_2","GID_0": "ZWE","country": "Zimbabwe","GID_1": "ZWE.7_1","province": "Masvingo","NL_NAME_1": "NA","GID_2": "ZWE.7.9_2","county": "Zaka","NL_NAME_2": "NA","city": "Ward8","VARNAME_3": "NA","NL_NAME_3": "NA","TYPE_3": "Ward","ENGTYPE_3": "Ward","CC_3": "NA","HASC_3": "NA","name": "Ward8.city","area_km2": 73.06158,"hist_schema_id": "Elevation0-9000","hist_area_km2": {"725": 0.01988,"750": 5.00992,"775": 19.12713,"800": 19.17003,"825": 14.33952,"850": 9.16931,"875": 4.51526,"900": 1.35252,"925": 0.27845,"950": 0.07956}}}