{"type":"Feature","properties":{"GID_2":"ZWE.4.9_2","GID_0":"ZWE","country":"Zimbabwe","GID_1":"ZWE.4_1","province":"MashonalandCentral","NL_NAME_1":"NA","county":"Rushinga","VARNAME_2":"NA","NL_NAME_2":"NA","TYPE_2":"District","ENGTYPE_2":"District","CC_2":"NA","HASC_2":"NA","name":"Rushinga.county"},
"geometry":{"type": "MultiPolygon","coordinates": [[[[32.0514,-16.8024,651.6129],[32.0518,-16.8037,635.1247],[32.0568,-16.8049,625.526],[32.0771,-16.8031,620.0265],[32.0926,-16.8098,620.9314],[32.0984,-16.8056,637.9592],[32.1037,-16.8061,613.9802],[32.1043,-16.7998,610.7784],[32.1101,-16.7945,619.8983],[32.125,-16.7893,622.0995],[32.1311,-16.7891,615.6892],[32.1377,-16.7911,601.1028],[32.1454,-16.7886,609.0438],[32.1535,-16.7888,608.1603],[32.1629,-16.7786,596.8584],[32.1771,-16.7773,587.6108],[32.1808,-16.7737,594.1649],[32.2005,-16.7669,603.14],[32.2161,-16.7724,600.8922],[32.2259,-16.7833,584.0219],[32.2281,-16.7839,588.5967],[32.2344,-16.7736,587.1439],[32.2479,-16.7722,572.6284],[32.2556,-16.767,581.3058],[32.2723,-16.7473,580.2855],[32.2851,-16.7479,585.2328],[32.2974,-16.747,571.2656],[32.3144,-16.7433,559.682],[32.3267,-16.7444,567.3234],[32.3327,-16.7423,569.9131],[32.3394,-16.7428,560.343],[32.3531,-16.7294,557.8667],[32.3611,-16.7264,560.4519],[32.3709,-16.7159,549.0886],[32.39,-16.7188,544.1763],[32.3969,-16.7126,550.2052],[32.408,-16.7132,545.6383],[32.4204,-16.7062,561.592],[32.4264,-16.7049,542.8157],[32.4413,-16.7053,560.9973],[32.4602,-16.6969,528.5235],[32.4634,-16.6971,525.3024],[32.4711,-16.7023,542.959],[32.4742,-16.7024,520.3618],[32.4819,-16.6989,531.5837],[32.4873,-16.7038,520.836],[32.5011,-16.702,513.9285],[32.51,-16.7046,497.4958],[32.5165,-16.7084,501.5556],[32.5275,-16.719,500.6365],[32.5452,-16.722,499.4161],[32.5501,-16.7277,497.176],[32.5619,-16.7299,472.3327],[32.5751,-16.739,478.749],[32.5835,-16.7415,473.1612],[32.5937,-16.7418,457.92],[32.6301,-16.732,450.0366],[32.6435,-16.7233,462.7904],[32.649,-16.7218,470.4431],[32.6565,-16.723,446.3581],[32.6622,-16.73,438.5632],[32.6801,-16.7413,429.5853],[32.6926,-16.7397,428.2092],[32.7091,-16.729,490.286],[32.7202,-16.7284,449.191],[32.7328,-16.7241,418.1073],[32.7482,-16.713,405.9127],[32.7486,-16.7099,418.392],[32.7551,-16.7035,410.0573],[32.7092,-16.6855,875.5724],[32.7035,-16.6798,1061.0908],[32.7023,-16.6751,1037.6747],[32.712,-16.6025,709.1843],[32.7092,-16.6,755.2076],[32.5756,-16.5367,584.4054],[32.4877,-16.4994,577.8502],[32.412,-16.4696,577.0476],[32.3482,-16.452,567.8441],[32.3452,-16.4499,562.4418],[32.2853,-16.4346,539.0502],[32.0584,-16.4411,565.5007],[32.0545,-16.4532,557.9654],[32.048,-16.4612,678.7918],[32.0434,-16.4607,674.6708],[32.0256,-16.4681,626.6982],[32.0142,-16.47,737.7484],[31.9959,-16.4694,750.9559],[31.9931,-16.4672,723.1046],[31.9867,-16.4698,677.6295],[31.9858,-16.473,655.0725],[31.9882,-16.4767,665.0723],[31.9785,-16.4849,667.6136],[31.9765,-16.4887,672.8643],[31.9777,-16.4939,690.9695],[31.9742,-16.4991,710.5985],[31.9699,-16.502,692.5175],[31.9487,-16.5083,753.4536],[31.9443,-16.5213,733.9237],[31.9359,-16.5271,747.2969],[31.9365,-16.5304,731.6106],[31.941,-16.5348,737.1492],[31.9461,-16.5374,830.4572],[31.9571,-16.5395,852.3295],[31.9577,-16.5431,744.7757],[31.9524,-16.5441,769.3624],[31.9508,-16.5494,749.5229],[31.9479,-16.5493,764.4055],[31.941,-16.5456,821.9194],[31.928,-16.5452,834.396],[31.9224,-16.5511,810.6694],[31.9205,-16.5559,791.5525],[31.9106,-16.5576,801.1249],[31.9074,-16.561,804.5459],[31.9139,-16.5718,815.2444],[31.93,-16.5807,835.2685],[31.9427,-16.5923,872.2966],[31.9447,-16.5925,871.1962],[31.9436,-16.5958,892.2734],[31.9484,-16.5982,892.7744],[31.9445,-16.6045,908.3784],[31.9481,-16.6132,917.9951],[31.9592,-16.6157,916.9892],[31.9631,-16.6208,931.8823],[31.9734,-16.6279,932.7552],[31.9734,-16.6324,967.6774],[31.965,-16.6451,923.6602],[31.9648,-16.6561,889.567],[31.9601,-16.6588,890.4926],[31.9655,-16.6694,875.2501],[31.9761,-16.671,858.2997],[31.9785,-16.6769,861.5129],[31.9923,-16.6705,855.7921],[32.0115,-16.6586,904.9559],[32.015,-16.6719,870.712],[32.027,-16.6679,893.8956],[32.0335,-16.7415,732.6068],[32.0352,-16.7423,729.3613],[32.0366,-16.7473,731.9885],[32.0339,-16.7525,700.4591],[32.0363,-16.762,695.9773],[32.045,-16.7722,688.9392],[32.0449,-16.7746,670.2867],[32.0429,-16.7759,674.4757],[32.0435,-16.7778,668.5518],[32.0447,-16.779,668.4893],[32.0472,-16.7769,672.518],[32.0504,-16.7823,671.1414],[32.0487,-16.7851,656.7923],[32.0512,-16.7863,664.0926],[32.051,-16.7928,670.668],[32.0462,-16.7983,644.11],[32.0478,-16.8011,634.0903],[32.0514,-16.8024,651.6129]]]]}}