{"type":"Feature","properties":{"GID_3":"ZWE.10.1.4_2","GID_0":"ZWE","country":"Zimbabwe","GID_1":"ZWE.10_1","province":"Midlands","NL_NAME_1":"NA","GID_2":"ZWE.10.1_2","county":"Chirumhanzu","NL_NAME_2":"NA","city":"Ward12","VARNAME_3":"NA","NL_NAME_3":"NA","TYPE_3":"Ward","ENGTYPE_3":"Ward","CC_3":"NA","HASC_3":"NA","name":"Ward12.city"},
"geometry":{"type": "MultiPolygon","coordinates": [[[[30.5405,-19.3488,1438.6412],[30.5383,-19.3359,1439.6584],[30.5164,-19.3151,1399.1654],[30.5137,-19.3049,1397.8438],[30.5195,-19.3008,1396.8828],[30.5231,-19.2929,1392.3584],[30.5333,-19.2892,1417.8312],[30.5275,-19.2881,1405.4907],[30.5189,-19.2833,1375.4099],[30.5141,-19.264,1357.9534],[30.5193,-19.261,1356.155],[30.5223,-19.2629,1354.8889],[30.5275,-19.2624,1360.7089],[30.5335,-19.2753,1372.093],[30.536,-19.274,1373.3379],[30.5348,-19.272,1368.521],[30.5369,-19.2712,1371.1543],[30.5395,-19.2728,1372.6018],[30.5413,-19.2703,1370.2312],[30.5412,-19.2731,1375.2113],[30.5547,-19.2583,1386.7306],[30.5684,-19.2467,1395.0104],[30.5872,-19.2355,1392.7678],[30.5927,-19.23,1394.5264],[30.6022,-19.209,1375.1716],[30.6145,-19.1962,1354.9042],[30.6245,-19.1731,1344.0309],[30.6389,-19.1611,1350.6833],[30.6429,-19.1469,1328.9426],[30.6309,-19.1446,1327.5803],[30.632,-19.1354,1327.0031],[30.6219,-19.1357,1322.676],[30.6172,-19.1422,1323.1959],[30.6067,-19.1346,1323.0239],[30.6002,-19.1385,1318.5574],[30.5942,-19.1397,1318.0247],[30.587,-19.1287,1318.5114],[30.5783,-19.1286,1315.521],[30.5709,-19.1307,1319.0529],[30.5715,-19.1215,1316.5955],[30.5632,-19.1183,1312.0605],[30.5577,-19.1235,1310.7188],[30.5362,-19.114,1314.0505],[30.5177,-19.1168,1311.3291],[30.5188,-19.109,1308.7236],[30.5077,-19.1088,1308.6787],[30.5074,-19.1036,1317.8124],[30.5005,-19.0974,1308.9032],[30.4886,-19.0994,1309.0184],[30.4847,-19.1116,1301.8696],[30.4779,-19.1036,1301.9946],[30.4623,-19.1056,1298.7428],[30.4504,-19.0962,1293.5784],[30.4463,-19.0988,1289.554],[30.4384,-19.0996,1287.24],[30.4298,-19.0942,1280.3618],[30.4312,-19.0898,1283.9891],[30.4185,-19.0779,1281.9254],[30.412,-19.0835,1276.582],[30.3877,-19.0732,1277.0022],[30.2495,-19.1607,1345.5612],[30.2473,-19.1641,1344.4021],[30.251,-19.1656,1341.9048],[30.254,-19.1714,1345.0059],[30.2651,-19.1766,1341.1229],[30.329,-19.2034,1334.6339],[30.3339,-19.2024,1334.4025],[30.3428,-19.2055,1352.8025],[30.3912,-19.2282,1353.8499],[30.3964,-19.2393,1352.9806],[30.3586,-19.2721,1390.4988],[30.3537,-19.2832,1386.4148],[30.3731,-19.308,1367.1974],[30.3538,-19.3111,1381.9056],[30.347,-19.3159,1391.7644],[30.3122,-19.3267,1427.1234],[30.3044,-19.3215,1432.9026],[30.3023,-19.3169,1436.2251],[30.3007,-19.3164,1438.6035],[30.2911,-19.3219,1445.8462],[30.3501,-19.4114,1407.5409],[30.4185,-19.3681,1440.0188],[30.5073,-19.3152,1396.9587],[30.5405,-19.3488,1438.6412]]]]}}