{"type":"Feature","properties":{"GID_3":"ZWE.3.9.23_2","GID_0":"ZWE","country":"Zimbabwe","GID_1":"ZWE.3_1","province":"Manicaland","NL_NAME_1":"NA","GID_2":"ZWE.3.9_2","county":"Nyanga","NL_NAME_2":"NA","city":"Ward3","VARNAME_3":"NA","NL_NAME_3":"NA","TYPE_3":"Ward","ENGTYPE_3":"Ward","CC_3":"NA","HASC_3":"NA","name":"Ward3.city"},
"geometry":{"type": "MultiPolygon","coordinates": [[[[32.9607,-17.4879,608.4077],[32.9572,-17.4865,617.1356],[32.9514,-17.4874,620.4607],[32.9496,-17.4843,624.0895],[32.9489,-17.486,614.9213],[32.9461,-17.4862,627.12],[32.9414,-17.4824,657.0719],[32.936,-17.4805,670.708],[32.9352,-17.4785,679.9366],[32.9328,-17.4793,672.3895],[32.9316,-17.4778,676.7385],[32.9331,-17.4759,689.0306],[32.9294,-17.4753,688.4303],[32.9263,-17.4704,701.6779],[32.9198,-17.4667,700.7865],[32.92,-17.4626,724.9796],[32.9137,-17.4641,721.1617],[32.9063,-17.455,722.6323],[32.9017,-17.4547,727.1283],[32.8961,-17.4512,744.7534],[32.8927,-17.4478,746.334],[32.8925,-17.4404,762.391],[32.8812,-17.4346,792.5491],[32.8762,-17.4337,802.6838],[32.8722,-17.4305,803.6371],[32.8673,-17.4238,782.9041],[32.8637,-17.4144,744.5924],[32.8587,-17.4099,731.9251],[32.8567,-17.4045,721.2997],[32.8526,-17.4018,705.6642],[32.849,-17.3925,722.4562],[32.847,-17.3917,690.8807],[32.8357,-17.4015,904.621],[32.8416,-17.4136,883.7827],[32.8419,-17.4209,944.079],[32.8333,-17.442,949.6474],[32.8337,-17.4512,910.7823],[32.8291,-17.4558,871.8638],[32.8266,-17.4612,891.37],[32.8266,-17.4731,981.9263],[32.822,-17.4781,866.6732],[32.8137,-17.4809,779.5085],[32.8159,-17.4919,786.22],[32.8134,-17.4944,791.7572],[32.8133,-17.4989,826.0408],[32.8041,-17.4991,755.2504],[32.8039,-17.5049,770.8885],[32.806399999999996,-17.5079,776.4328],[32.8052,-17.5118,781.1929],[32.8087,-17.5219,800.741],[32.811,-17.536,859.035],[32.8134,-17.5316,841.8495],[32.8165,-17.5321,849.7733],[32.8235,-17.5295,827.4212],[32.8216,-17.54,853.1747],[32.8229,-17.5457,886.2327],[32.8271,-17.5437,861.0001],[32.8359,-17.5507,1022.1006],[32.844,-17.5609,930.251],[32.8483,-17.5634,847.6915],[32.8546,-17.5707,843.8746],[32.8704,-17.5965,819.1988],[32.8784,-17.6009,755.8602],[32.8799,-17.6051,729.0751],[32.8847,-17.6051,733.1049],[32.8931,-17.6001,723.0971],[32.8906,-17.5907,715.8766],[32.8959,-17.5799,693.1401],[32.9043,-17.573,686.869],[32.912,-17.5744,686.4667],[32.9137,-17.5722,684.0151],[32.9164,-17.5744,678.9213],[32.9164,-17.5722,681.0989],[32.9218,-17.5722,676.0737],[32.9252,-17.5694,673.0054],[32.9267,-17.5712,671.4026],[32.9282,-17.5703,671.7648],[32.929,-17.5645,665.9606],[32.9382,-17.5644,649.0709],[32.9391,-17.5606,642.2614],[32.9441,-17.5617,640.6173],[32.9441,-17.5582,643.7637],[32.9498,-17.5485,629.3195],[32.949,-17.5364,617.7522],[32.9501,-17.5337,614.7648],[32.9542,-17.5315,608.119],[32.9583,-17.5321,606.5181],[32.9638,-17.5286,593.6591],[32.9602,-17.5156,624.364],[32.9591,-17.4945,619.3261],[32.9607,-17.4879,608.4077]]]]}}