{"type": "Feature","bbox": [28.3208,-17.2562,28.4891,-17.054],"geometry": {"type": "MultiPolygon","coordinates": [[[[28.3208,-17.054,985.776],[28.3704,-17.1115,747.1704],[28.3648,-17.1161,740.1562],[28.3655,-17.1231,738.127],[28.3623,-17.1287,725.5023],[28.3552,-17.1301,737.2594],[28.3541,-17.1328,745.0525],[28.3608,-17.1412,753.5109],[28.3619,-17.1461,744.6384],[28.3657,-17.1482,754.9089],[28.3665,-17.1576,744.7644],[28.3632,-17.1606,738.7788],[28.3729,-17.1751,764.0969],[28.374,-17.1882,757.1893],[28.3637,-17.1966,728.5944],[28.3619,-17.2014,735.5941],[28.3543,-17.2089,715.9185],[28.3581,-17.2197,760.7634],[28.3533,-17.2262,755.0922],[28.3527,-17.2304,756.4506],[28.3497,-17.2353,783.6478],[28.3508,-17.2443,798.9826],[28.345,-17.254,788.4528],[28.3543,-17.2536,785.9939],[28.3567,-17.2562,746.1871],[28.3595,-17.2552,732.7549],[28.3655,-17.2485,692.6755],[28.3686,-17.2395,659.9074],[28.3735,-17.2368,643.3318],[28.3762,-17.2325,623.7889],[28.3888,-17.2256,585.7605],[28.3926,-17.2193,585.0708],[28.4007,-17.2146,582.8137],[28.4145,-17.2165,687.9529],[28.4275,-17.2228,692.4589],[28.4465,-17.2195,626.8392],[28.4597,-17.2263,619.1361],[28.4648,-17.2195,630.5015],[28.4676,-17.2226,624.6649],[28.4698,-17.2199,632.5197],[28.4781,-17.22,629.4907],[28.4773,-17.2151,632.5211],[28.4858,-17.207,647.2986],[28.4847,-17.2009,696.2489],[28.4891,-17.194,723.625],[28.4845,-17.1782,805.4214],[28.4648,-17.1696,702.7869],[28.4644,-17.1645,676.3442],[28.4659,-17.1616,672.5488],[28.4645,-17.1583,647.8298],[28.4562,-17.149,666.3721],[28.4399,-17.1385,655.8308],[28.4372,-17.1346,656.3691],[28.433,-17.1115,745.0999],[28.4308,-17.1077,696.541],[28.4364,-17.0975,663.0975],[28.4272,-17.0935,670.9399],[28.4136,-17.0551,724.3683],[28.3208,-17.054,985.776]]]]}
,"properties": {"GID_3": "ZWE.6.6.10_2","GID_0": "ZWE","country": "Zimbabwe","GID_1": "ZWE.6_1","province": "MashonalandWest","NL_NAME_1": "NA","GID_2": "ZWE.6.6_2","county": "Kariba","NL_NAME_2": "NA","city": "Ward7","VARNAME_3": "NA","NL_NAME_3": "NA","TYPE_3": "Ward","ENGTYPE_3": "Ward","CC_3": "NA","HASC_3": "NA","name": "Ward7.city","area_km2": 189.8314,"hist_schema_id": "Elevation0-9000","hist_area_km2": {"500": 0.0203,"525": 8.3291,"550": 19.168,"575": 28.3827,"600": 27.6511,"625": 22.9111,"650": 22.2643,"675": 13.7969,"700": 13.3913,"725": 14.871,"750": 10.4344,"775": 4.7004,"800": 2.2691,"825": 0.8106,"850": 0.2838,"875": 0.2432,"900": 0.1824,"925": 0.0405,"950": 0.0811}}}