{"type": "Feature","bbox": [29.9911,-20.3186,30.0532,-20.2762],"geometry": {"type": "MultiPolygon","coordinates": [[[[30.053,-20.3149,946.5087],[30.0498,-20.3047,963.6855],[30.0438,-20.2991,983.0013],[30.0414,-20.294,1001.2137],[30.0532,-20.2847,945.1334],[30.0395,-20.2762,984.3159],[29.9963,-20.2954,942.1333],[29.9946,-20.303,943.0352],[29.9911,-20.3061,941.735],[30.0034,-20.3186,939.3619],[30.0137,-20.3133,1011.5393],[30.0203,-20.3145,998.1918],[30.0212,-20.3117,1003.0169],[30.0321,-20.3119,944.2529],[30.0412,-20.3048,1043.2699],[30.0475,-20.312,1004.1913],[30.053,-20.3149,946.5087]]]]}
,"properties": {"GID_3": "ZWE.10.14.7_2","GID_0": "ZWE","country": "Zimbabwe","GID_1": "ZWE.10_1","province": "Midlands","NL_NAME_1": "NA","GID_2": "ZWE.10.14_2","county": "ZvishavaneUrban","NL_NAME_2": "NA","city": "Ward6","VARNAME_3": "NA","NL_NAME_3": "NA","TYPE_3": "Ward","ENGTYPE_3": "Ward","CC_3": "NA","HASC_3": "NA","name": "Ward6.city","area_km2": 16.86292,"hist_schema_id": "Elevation0-9000","hist_area_km2": {"950": 5.48828,"975": 7.47706,"1000": 2.40615,"1025": 0.71586,"1050": 0.49715,"1075": 0.1392,"1100": 0.13921}}}