{"type": "Feature","bbox": [28.3874,-20.2587,28.6968,-19.9615],"geometry": {"type": "MultiPolygon","coordinates": [[[[28.5009,-20.2273,1370.0798],[28.4965,-20.2356,1369.6887],[28.5388,-20.2587,1436.7795],[28.5526,-20.222,1397.04],[28.5773,-20.2276,1427.5931],[28.6053,-20.2274,1453.3615],[28.6083,-20.2307,1454.7751],[28.6161,-20.2306,1441.2175],[28.6162,-20.2318,1445.2609],[28.627,-20.2321,1439.4443],[28.6271,-20.2306,1442.4717],[28.635,-20.2288,1449.3914],[28.638,-20.2299,1433.7136],[28.6409,-20.2264,1423.6252],[28.6506,-20.2266,1399.2214],[28.6625,-20.2364,1406.8251],[28.6651,-20.2333,1400.786],[28.6632,-20.2219,1394.1703],[28.6723,-20.2199,1415.0361],[28.6736,-20.2152,1397.9189],[28.6846,-20.2208,1388.3049],[28.6858,-20.2141,1386.4844],[28.6932,-20.2021,1362.0039],[28.6968,-20.2025,1366.6841],[28.6965,-20.191,1374.5244],[28.6756,-20.182,1374.5803],[28.6744,-20.18,1368.0389],[28.677,-20.1763,1357.0265],[28.6703,-20.1723,1362.5048],[28.6752,-20.1682,1351.6002],[28.6694,-20.169,1362.8848],[28.6645,-20.1664,1362.1307],[28.6639,-20.1633,1357.8324],[28.6513,-20.153,1334.9669],[28.6765,-20.1143,1332.4019],[28.6592,-20.1116,1309.5374],[28.6512,-20.1133,1308.6333],[28.6575,-20.1001,1329.5421],[28.6566,-20.0893,1328.8658],[28.6604,-20.089,1331.5881],[28.662,-20.085,1330.9875],[28.661,-20.0842,1329.905],[28.6679,-20.0676,1331.2612],[28.6436,-20.0687,1306.0421],[28.6498,-20.0581,1330.2488],[28.6506,-20.0491,1330.9434],[28.6618,-20.028,1311.979],[28.668,-20.024,1307.4633],[28.6712,-20.0163,1302.0187],[28.6436,-20.0042,1308.0778],[28.6072,-19.9615,1285.3733],[28.5738,-20.0281,1275.135],[28.5542,-20.0443,1271.619],[28.5537,-20.0565,1259.0367],[28.5469,-20.0493,1268.8635],[28.5485,-20.0461,1248.2338],[28.5477,-20.0444,1244.3706],[28.5416,-20.0411,1241.1643],[28.5389,-20.0358,1236.3457],[28.5365,-20.0358,1242.9062],[28.5336,-20.0315,1247.9366],[28.5308,-20.0305,1235.5],[28.5126,-20.043,1273.9916],[28.513,-20.0592,1284.0022],[28.4687,-20.0706,1282.498],[28.4589,-20.0551,1268.99],[28.4458,-20.0406,1273.2439],[28.4312,-20.0302,1266.9521],[28.4203,-20.026,1253.6864],[28.4087,-20.018,1247.7324],[28.4151,-20.1185,1297.9678],[28.4041,-20.1187,1257.0261],[28.3967,-20.1346,1293.6189],[28.4154,-20.1325,1272.6268],[28.4281,-20.1536,1302.3295],[28.3874,-20.1539,1324.9474],[28.3978,-20.1702,1320.3542],[28.4425,-20.1777,1304.7701],[28.4401,-20.1704,1303.8213],[28.4369,-20.1671,1301.8812],[28.4378,-20.1625,1302.5455],[28.4325,-20.1614,1297.5121],[28.4309,-20.1599,1297.0],[28.4315,-20.1577,1297.0],[28.4914,-20.1707,1380.8931],[28.481,-20.1908,1322.4192],[28.4833,-20.1914,1324.7614],[28.4882,-20.1888,1327.4373],[28.4927,-20.1902,1329.6143],[28.4999,-20.1893,1339.6389],[28.5131,-20.2009,1339.6206],[28.5009,-20.2273,1370.0798]]]]}
,"properties": {"GID_2": "ZWE.1.1_2","GID_0": "ZWE","country": "Zimbabwe","GID_1": "ZWE.1_1","province": "Bulawayo","NL_NAME_1": "NA","county": "Bulawayo","VARNAME_2": "NA","NL_NAME_2": "NA","TYPE_2": "District","ENGTYPE_2": "District","CC_2": "NA","HASC_2": "NA","name": "Bulawayo.county","area_km2": 546.9944,"hist_schema_id": "Elevation0-9000","hist_area_km2": {"1225": 0.3386,"1250": 19.5978,"1275": 70.8994,"1300": 118.4633,"1325": 117.6739,"1350": 82.2214,"1375": 81.5524,"1400": 37.7845,"1425": 13.8473,"1450": 4.6157}}}