{"type": "Feature","bbox": [30.6126,-18.5558,30.7473,-18.4453],"geometry": {"type": "MultiPolygon","coordinates": [[[[30.6133,-18.5334,1272.0951],[30.6193,-18.5301,1274.6984],[30.6305,-18.5307,1274.9453],[30.6405,-18.5349,1283.5696],[30.6448,-18.5351,1281.999],[30.6559,-18.5419,1285.5227],[30.6599,-18.5392,1287.7476],[30.6632,-18.5393,1290.6733],[30.6721,-18.543,1291.9025],[30.6865,-18.546,1306.9786],[30.6909,-18.5488,1305.8672],[30.7046,-18.5513,1313.5945],[30.7126,-18.5499,1325.9004],[30.7219,-18.5509,1343.4457],[30.727,-18.5548,1337.3115],[30.7335,-18.5558,1357.1],[30.7373,-18.5537,1359.8708],[30.7473,-18.5342,1339.7789],[30.7447,-18.5286,1332.3458],[30.7461,-18.5242,1328.1833],[30.7419,-18.5098,1305.6429],[30.7434,-18.5033,1299.2305],[30.7363,-18.4978,1299.5933],[30.7289,-18.4962,1294.2374],[30.7199,-18.4859,1290.4575],[30.7221,-18.4794,1287.1555],[30.7216,-18.4766,1286.8279],[30.7164,-18.4661,1283.3352],[30.7098,-18.4579,1283.0419],[30.7077,-18.448,1281.9583],[30.7062,-18.4472,1286.1189],[30.7057,-18.4487,1281.3086],[30.7044,-18.4467,1281.4827],[30.7028,-18.4478,1281.4827],[30.701,-18.4453,1279.1608],[30.6996,-18.4517,1285.3872],[30.6856,-18.4569,1300.1396],[30.6729,-18.4579,1306.3906],[30.6703,-18.4569,1304.8083],[30.6666,-18.4521,1302.058],[30.6538,-18.4454,1286.5518],[30.6454,-18.4569,1294.549],[30.6447,-18.4685,1303.8873],[30.6466,-18.4762,1307.2605],[30.6333,-18.4849,1335.9952],[30.6301,-18.4929,1336.83],[30.6168,-18.5091,1299.1953],[30.6149,-18.5246,1282.0142],[30.6126,-18.5288,1277.5631],[30.6133,-18.5334,1272.0951]]]]}
,"properties": {"GID_3": "ZWE.6.1.1_2","GID_0": "ZWE","country": "Zimbabwe","GID_1": "ZWE.6_1","province": "MashonalandWest","NL_NAME_1": "NA","GID_2": "ZWE.6.1_2","county": "Chegutu","NL_NAME_2": "NA","city": "Ward1","VARNAME_3": "NA","NL_NAME_3": "NA","TYPE_3": "Ward","ENGTYPE_3": "Ward","CC_3": "NA","HASC_3": "NA","name": "Ward1.city","area_km2": 109.9396,"hist_schema_id": "Elevation0-9000","hist_area_km2": {"1275": 6.09229,"1300": 49.2419,"1325": 39.90972,"1350": 14.69569}}}