{"type": "Feature","bbox": [31.2426,-16.9229,32.0584,-16.1538],"geometry": {"type": "MultiPolygon","coordinates": [[[[31.5793,-16.8815,1124.6698],[31.613,-16.856,1305.0198],[31.5931,-16.9087,1149.2561],[31.62,-16.9229,943.3167],[31.6424,-16.9129,912.7549],[31.6437,-16.911,921.6319],[31.6462,-16.9122,918.2825],[31.6527,-16.91,901.2195],[31.6551,-16.9109,901.6312],[31.6558,-16.9086,903.5254],[31.6609,-16.91,889.9084],[31.6612,-16.9076,907.0369],[31.6632,-16.9106,888.6111],[31.6676,-16.911,892.2051],[31.6693,-16.9104,882.5216],[31.6699,-16.9069,882.9851],[31.6729,-16.909,882.0314],[31.6821,-16.9058,892.911],[31.6829,-16.9075,885.2458],[31.6817,-16.9101,878.0437],[31.6861,-16.9111,870.2219],[31.6924,-16.9049,919.946],[31.6892,-16.8988,919.752],[31.7031,-16.899,865.1155],[31.7022,-16.8933,844.4044],[31.7071,-16.887,889.0523],[31.7119,-16.8866,860.2794],[31.7161,-16.8888,853.6941],[31.7191,-16.8856,844.474],[31.7288,-16.8835,823.9227],[31.7305,-16.8801,844.4835],[31.7371,-16.8835,824.864],[31.7383,-16.8808,825.7955],[31.7412,-16.8812,817.7544],[31.7421,-16.878,821.7601],[31.7542,-16.8772,812.3063],[31.7545,-16.8751,819.4459],[31.7516,-16.8704,820.9886],[31.7559,-16.865,805.782],[31.7506,-16.8619,796.1428],[31.7503,-16.8604,801.7256],[31.7575,-16.8513,813.4844],[31.7601,-16.8512,815.7761],[31.768,-16.8562,799.1643],[31.7705,-16.8529,793.3787],[31.7766,-16.8526,796.7564],[31.7776,-16.8533,786.934],[31.7756,-16.855,784.2853],[31.7759,-16.857,781.6677],[31.7808,-16.8611,785.2036],[31.7895,-16.8487,785.0247],[31.7918,-16.8482,793.2373],[31.796,-16.8502,768.7819],[31.7956,-16.8441,776.4883],[31.8014,-16.8459,756.9851],[31.8043,-16.841,766.0959],[31.8089,-16.843,755.1708],[31.8095,-16.8397,757.5161],[31.8229,-16.8267,768.6556],[31.8249,-16.8265,773.022],[31.829,-16.8317,759.0461],[31.8387,-16.8341,739.1403],[31.839,-16.8306,750.8064],[31.8588,-16.8255,728.0295],[31.8591,-16.8206,773.5666],[31.8651,-16.8216,754.6165],[31.8679,-16.8247,730.9369],[31.8716,-16.825,729.4362],[31.8711,-16.8191,743.2566],[31.8738,-16.8186,734.569],[31.8803,-16.8208,732.7229],[31.8797,-16.8273,715.1391],[31.8811,-16.8289,714.4204],[31.8831,-16.8285,721.2659],[31.8843,-16.8242,751.5021],[31.8875,-16.8258,748.9619],[31.891,-16.825,727.1205],[31.8942,-16.8281,717.8006],[31.8968,-16.8277,720.3498],[31.9011,-16.8239,736.5609],[31.9054,-16.8293,712.0582],[31.9133,-16.8259,737.9509],[31.9182,-16.8268,710.5255],[31.9191,-16.8286,688.7697],[31.9229,-16.8269,710.4013],[31.9282,-16.8295,687.0477],[31.9419,-16.8282,694.5366],[31.957,-16.8333,679.4171],[31.9625,-16.8331,677.096],[31.9645,-16.8356,677.7321],[31.9717,-16.8386,656.6226],[31.9799,-16.834,667.5184],[31.9945,-16.8357,689.9792],[31.9981,-16.8379,651.7226],[32.0002,-16.8368,659.6104],[32.0028,-16.8405,628.9068],[32.0076,-16.843,630.6819],[32.022,-16.8353,651.4891],[32.0302,-16.8338,619.9995],[32.0332,-16.8289,681.2347],[32.0404,-16.8269,618.4138],[32.0419,-16.8217,614.2769],[32.0399,-16.8116,628.4825],[32.0516,-16.8035,635.1247],[32.051,-16.8016,651.6129],[32.0466,-16.7999,634.0903],[32.0462,-16.7977,654.0072],[32.051,-16.7928,670.668],[32.0512,-16.7863,664.0926],[32.0487,-16.7851,656.7923],[32.0504,-16.7823,671.1414],[32.0482,-16.7777,672.518],[32.0465,-16.777,672.518],[32.0447,-16.779,668.4893],[32.0435,-16.7778,668.5518],[32.0429,-16.7759,674.4757],[32.0449,-16.7746,670.2867],[32.045,-16.7722,688.9392],[32.0354,-16.7598,691.1426],[32.0339,-16.7522,700.4591],[32.0366,-16.7473,731.9885],[32.0352,-16.7423,729.3613],[32.0335,-16.7415,732.6068],[32.027,-16.6679,893.8956],[32.015,-16.6719,870.712],[32.0115,-16.6586,904.9559],[31.9923,-16.6705,855.7921],[31.9785,-16.6769,861.5129],[31.9761,-16.671,858.2997],[31.9655,-16.6694,875.2501],[31.9601,-16.6588,890.4926],[31.9648,-16.6561,889.567],[31.965,-16.6451,923.6602],[31.9734,-16.6324,967.6774],[31.9734,-16.6279,932.7552],[31.9631,-16.6208,931.8823],[31.9592,-16.6157,916.9892],[31.9481,-16.6132,917.9951],[31.9445,-16.6045,908.3784],[31.9484,-16.5982,892.7744],[31.9436,-16.5958,892.2734],[31.9447,-16.5925,871.1962],[31.9427,-16.5923,872.2966],[31.93,-16.5807,835.2685],[31.9139,-16.5718,815.2444],[31.9074,-16.561,804.5459],[31.9106,-16.5576,801.1249],[31.9205,-16.5559,791.5525],[31.9224,-16.5511,810.6694],[31.928,-16.5452,834.396],[31.941,-16.5456,821.9194],[31.9479,-16.5493,764.4055],[31.9508,-16.5494,749.5229],[31.9524,-16.5441,769.3624],[31.9577,-16.5431,744.7757],[31.9571,-16.5395,852.3295],[31.9461,-16.5374,830.4572],[31.941,-16.5348,737.1492],[31.9365,-16.5304,731.6106],[31.9359,-16.5271,747.2969],[31.9443,-16.5213,733.9237],[31.9487,-16.5083,753.4536],[31.9699,-16.502,692.5175],[31.9742,-16.4991,710.5985],[31.9777,-16.4939,690.9695],[31.9765,-16.4887,672.8643],[31.9785,-16.4849,667.6136],[31.9882,-16.4767,665.0723],[31.9858,-16.473,655.0725],[31.9867,-16.4698,677.6295],[31.9931,-16.4672,723.1046],[31.9959,-16.4694,750.9559],[32.0142,-16.47,737.7484],[32.0256,-16.4681,626.6982],[32.0434,-16.4607,674.6708],[32.048,-16.4612,678.7918],[32.0545,-16.4532,557.9654],[32.0584,-16.4411,565.5007],[32.0375,-16.4424,1108.9065],[31.9135,-16.4129,625.8593],[31.9058,-16.392,601.2559],[31.9081,-16.3907,595.5986],[31.9075,-16.3888,597.1857],[31.9092,-16.3885,593.4327],[31.9098,-16.3718,580.2626],[31.9055,-16.3676,577.88],[31.9022,-16.3476,562.9808],[31.8938,-16.3365,551.7061],[31.8834,-16.3329,545.3984],[31.8728,-16.3259,540.1868],[31.8628,-16.3241,535.1646],[31.8579,-16.319,532.4003],[31.8519,-16.3178,531.8081],[31.8485,-16.3095,525.9889],[31.84,-16.3076,524.3238],[31.8359,-16.3126,523.2936],[31.834,-16.3111,522.2415],[31.8307,-16.3084,520.6358],[31.8304,-16.3051,518.4629],[31.828,-16.3024,518.2063],[31.8295,-16.299,516.0151],[31.8254,-16.2943,513.5977],[31.8149,-16.2949,514.2765],[31.8167,-16.2879,509.7941],[31.8145,-16.2874,509.9059],[31.814,-16.284,508.4867],[31.8178,-16.2813,508.0819],[31.8161,-16.2774,506.9886],[31.8032,-16.2702,500.2104],[31.7998,-16.2634,498.4133],[31.7955,-16.2628,496.0169],[31.7951,-16.2613,497.4188],[31.7976,-16.2579,495.8129],[31.7907,-16.2583,494.2769],[31.7857,-16.2564,495.2501],[31.7708,-16.2367,483.9012],[31.758,-16.237,479.8477],[31.7331,-16.2284,479.8511],[31.7028,-16.2066,458.8598],[31.6917,-16.2017,454.6914],[31.6352,-16.1972,443.1061],[31.6182,-16.1901,436.3335],[31.588,-16.1913,429.7844],[31.5451,-16.1842,419.0314],[31.4993,-16.1707,406.5952],[31.4814,-16.1569,402.9149],[31.4659,-16.159,398.7041],[31.4628,-16.1575,404.8204],[31.4611,-16.1588,397.1318],[31.4568,-16.1558,405.6818],[31.4525,-16.1592,397.3829],[31.4511,-16.1581,399.4249],[31.452,-16.1553,400.6749],[31.45,-16.1538,400.2839],[31.4321,-16.1562,390.6329],[31.4268,-16.1591,392.5597],[31.432,-16.1646,393.982],[31.4352,-16.1721,396.4185],[31.4369,-16.1825,398.749],[31.4427,-16.1907,400.8585],[31.4452,-16.2029,404.991],[31.4534,-16.2149,409.6895],[31.4547,-16.2334,418.8791],[31.4592,-16.2433,422.522],[31.4642,-16.2498,425.3496],[31.4314,-16.2941,447.0091],[31.5012,-16.4504,645.741],[31.4993,-16.4505,636.0755],[31.4997,-16.456,685.199],[31.5118,-16.4802,1140.6593],[31.4986,-16.4725,988.3262],[31.4868,-16.4709,956.8475],[31.4714,-16.4723,1169.6523],[31.4611,-16.4683,1030.3087],[31.4396,-16.4671,1236.1292],[31.4257,-16.469,1238.5693],[31.4134,-16.4659,1195.4236],[31.4072,-16.4674,1197.293],[31.4021,-16.4648,1217.6448],[31.3954,-16.4658,1190.4442],[31.3928,-16.4677,1221.8407],[31.3734,-16.4665,1139.2683],[31.3522,-16.4522,979.6541],[31.2879,-16.478,1235.6486],[31.2975,-16.4845,1230.207],[31.2994,-16.4906,1214.8425],[31.3035,-16.4903,1219.8942],[31.3104,-16.493,1202.5076],[31.3149,-16.4985,1203.5264],[31.3177,-16.4979,1209.1569],[31.3253,-16.5009,1195.1898],[31.3306,-16.5065,1156.5],[31.335,-16.5073,1178.7726],[31.3358,-16.5095,1164.5233],[31.3398,-16.5107,1172.0671],[31.3452,-16.5099,1147.6504],[31.3493,-16.5131,1171.9088],[31.3497,-16.5161,1152.4406],[31.3135,-16.5476,1234.7234],[31.3248,-16.5622,1214.9121],[31.2866,-16.5971,1108.5382],[31.2897,-16.5986,1087.8649],[31.2891,-16.6024,1091.0919],[31.2915,-16.609,1088.1882],[31.2977,-16.6077,1106.1069],[31.3016,-16.6124,1074.9846],[31.3152,-16.6126,1098.0356],[31.3152,-16.6145,1079.3441],[31.3231,-16.6175,1083.3281],[31.3205,-16.6264,1051.5157],[31.3158,-16.6316,1044.8428],[31.3162,-16.633,1044.7888],[31.2966,-16.6502,1120.6785],[31.3111,-16.6701,1077.3394],[31.3003,-16.6804,1081.4082],[31.2793,-16.648,1140.0166],[31.2803,-16.6477,1134.2111],[31.2788,-16.648,1140.0166],[31.2426,-16.6661,1103.1344],[31.2461,-16.6783,1099.0],[31.249,-16.6783,1099.0],[31.254,-16.6829,1084.896],[31.2522,-16.6842,1085.8025],[31.2518,-16.6884,1099.9988],[31.2536,-16.6881,1081.5854],[31.255,-16.6923,1080.5892],[31.2622,-16.693,1084.3656],[31.2632,-16.6944,1075.8479],[31.2625,-16.6998,1078.6821],[31.2663,-16.7039,1073.0342],[31.2688,-16.7001,1085.8829],[31.272,-16.7002,1101.0613],[31.2739,-16.7089,1061.292],[31.2759,-16.7118,1063.3386],[31.2786,-16.7127,1071.7903],[31.2795,-16.7099,1061.7816],[31.2841,-16.7084,1039.4385],[31.2861,-16.7059,1056.0719],[31.291,-16.7054,1046.3779],[31.2899,-16.7132,1024.994],[31.2829,-16.7199,1030.696],[31.287,-16.7271,1019.2554],[31.2959,-16.7214,1026.6383],[31.2986,-16.7212,1026.0559],[31.2988,-16.7264,1007.6597],[31.3118,-16.73,1008.8132],[31.3145,-16.7375,1043.9611],[31.3178,-16.7405,1011.5634],[31.3154,-16.7421,1000.6535],[31.3162,-16.7451,989.1826],[31.3248,-16.7517,996.9708],[31.2529,-16.8202,1161.6522],[31.3716,-16.8364,1065.7303],[31.3513,-16.8575,1073.9512],[31.3593,-16.8828,1115.0155],[31.386,-16.8384,1077.5327],[31.4988,-16.8511,1008.9653],[31.5011,-16.8497,1002.4351],[31.5007,-16.8484,1011.4338],[31.5225,-16.8834,1062.8535],[31.5273,-16.8849,1052.3678],[31.5343,-16.8938,1053.7184],[31.5349,-16.8982,1054.5],[31.551,-16.914,1059.1885],[31.5676,-16.89,1079.8585],[31.5793,-16.8815,1124.6698]]]]}
,"properties": {"GID_2": "ZWE.4.7_2","GID_0": "ZWE","country": "Zimbabwe","GID_1": "ZWE.4_1","province": "MashonalandCentral","NL_NAME_1": "NA","county": "MountDarwin","VARNAME_2": "NA","NL_NAME_2": "NA","TYPE_2": "District","ENGTYPE_2": "District","CC_2": "NA","HASC_2": "NA","name": "Mount_Darwin.county","area_km2": 4557.734,"hist_schema_id": "Elevation0-9000","hist_area_km2": {"400": 27.917,"425": 93.67,"450": 140.918,"475": 160.006,"500": 150.885,"525": 117.658,"550": 114.494,"575": 93.167,"600": 59.658,"625": 35.001,"650": 31.613,"675": 37.967,"700": 50.804,"725": 59.923,"750": 69.305,"775": 89.08,"800": 108.143,"825": 141.489,"850": 192.128,"875": 254.534,"900": 279.842,"925": 272.762,"950": 299.804,"975": 294.362,"1000": 262.573,"1025": 242.782,"1050": 231.695,"1075": 189.925,"1100": 154.174,"1125": 106.193,"1150": 72.084,"1175": 45.444,"1200": 28.17,"1225": 15.651,"1250": 10.204,"1275": 6.932,"1300": 4.107,"1325": 3.111,"1350": 2.603,"1375": 2.46,"1400": 1.81,"1425": 0.895,"1450": 1.037,"1475": 0.59,"1500": 0.163}}}