{"type":"Feature","properties":{"GID_3":"ZWE.5.5.10_2","GID_0":"ZWE","country":"Zimbabwe","GID_1":"ZWE.5_1","province":"MashonalandEast","NL_NAME_1":"NA","GID_2":"ZWE.5.5_2","county":"MaronderaUrban","NL_NAME_2":"NA","city":"Ward7","VARNAME_3":"NA","NL_NAME_3":"NA","TYPE_3":"Ward","ENGTYPE_3":"Ward","CC_3":"NA","HASC_3":"NA","name":"Ward7.city"},
"geometry":{"type": "MultiPolygon","coordinates": [[[[31.5595,-18.1773,1657.4032],[31.5601,-18.1755,1656.856],[31.5559,-18.1733,1650.2158],[31.5573,-18.1713,1647.6355],[31.553,-18.1708,1638.7656],[31.5509,-18.1751,1650.5363],[31.5533,-18.1756,1651.6923],[31.5542,-18.1804,1676.9879],[31.5571,-18.1806,1666.402],[31.5583,-18.1769,1661.3113],[31.5595,-18.1773,1657.4032]]]]}}