{"type":"Feature","properties":{"GID_3":"ZWE.9.4.20_2","GID_0":"ZWE","country":"Zimbabwe","GID_1":"ZWE.9_1","province":"MatabelelandSouth","NL_NAME_1":"NA","GID_2":"ZWE.9.4_2","county":"Gwanda","NL_NAME_2":"NA","city":"Ward5","VARNAME_3":"NA","NL_NAME_3":"NA","TYPE_3":"Ward","ENGTYPE_3":"Ward","CC_3":"NA","HASC_3":"NA","name":"Ward5.city"},
"geometry":{"type": "MultiPolygon","coordinates": [[[[29.0418,-20.7309,1044.7429],[29.0386,-20.6916,1074.7615],[29.0536,-20.6715,1103.0165],[28.9777,-20.6539,1118.1675],[28.9762,-20.6111,1112.6052],[28.957,-20.5972,1122.2031],[28.9232,-20.6992,1078.9553],[28.8792,-20.6812,1072.5608],[28.8591,-20.7238,1070.1488],[28.9093,-20.7422,1053.9495],[28.9397,-20.7655,1018.8791],[28.9514,-20.7599,1041.0154],[29.0005,-20.759,1059.183],[29.0024,-20.7493,1060.842],[29.0003,-20.7374,1070.6904],[29.0418,-20.7309,1044.7429]]]]}}