{"type":"Feature","properties":{"GID_3":"ZWE.8.6.10_2","GID_0":"ZWE","country":"Zimbabwe","GID_1":"ZWE.8_1","province":"MatabelelandNorth","NL_NAME_1":"NA","GID_2":"ZWE.8.6_2","county":"Nkayi","NL_NAME_2":"NA","city":"Ward18","VARNAME_3":"NA","NL_NAME_3":"NA","TYPE_3":"Ward","ENGTYPE_3":"Ward","CC_3":"NA","HASC_3":"NA","name":"Ward18.city"},
"geometry":{"type": "MultiPolygon","coordinates": [[[[28.8947,-18.8353,1256.3654],[28.882,-18.8287,1250.1451],[28.8589,-18.8281,1238.0438],[28.8403,-18.8257,1215.8885],[28.8207,-18.8175,1199.6975],[28.8183,-18.8192,1194.2762],[28.8131,-18.8405,1117.0071],[28.8082,-18.8533,1100.075],[28.7947,-18.8717,1077.8811],[28.7874,-18.8775,1060.9888],[28.7919,-18.8813,1060.282],[28.794,-18.8865,1060.3706],[28.7946,-18.8975,1068.1931],[28.804,-18.9058,1081.4426],[28.8373,-18.9133,1102.5287],[28.8577,-18.924,1108.8372],[28.863,-18.9305,1103.947],[28.8681,-18.9328,1108.5662],[28.8709,-18.9436,1103.9741],[28.8781,-18.9461,1116.9375],[28.8876,-18.9464,1106.0034],[28.8906,-18.9547,1110.1788],[28.8968,-18.9596,1116.0637],[28.9019,-18.9675,1114.0043],[28.9021,-18.9768,1120.3469],[28.9155,-18.9863,1119.093],[28.9213,-18.998,1125.1824],[28.9366,-19.0107,1125.8727],[28.9377,-19.0099,1133.9087],[28.9197,-18.9338,1138.6769],[28.8947,-18.8353,1256.3654]]]]}}