{"type":"Feature","properties":{"GID_3":"ZWE.5.11.5_2","GID_0":"ZWE","country":"Zimbabwe","GID_1":"ZWE.5_1","province":"MashonalandEast","NL_NAME_1":"NA","GID_2":"ZWE.5.11_2","county":"UzumbaMarambaPfungwe","NL_NAME_2":"NA","city":"Ward13","VARNAME_3":"NA","NL_NAME_3":"NA","TYPE_3":"Ward","ENGTYPE_3":"Ward","CC_3":"NA","HASC_3":"NA","name":"Ward13.city"},
"geometry":{"type": "MultiPolygon","coordinates": [[[[31.8561,-17.4395,1197.4805],[31.8661,-17.4409,1189.2134],[31.874,-17.4402,1170.3151],[31.8944,-17.4303,1146.8713],[31.9076,-17.4275,1111.9626],[31.9068,-17.4258,1113.0259],[31.9082,-17.4249,1113.0259],[31.9181,-17.4262,1103.3087],[31.9166,-17.4218,1114.9088],[31.919,-17.4122,1148.7251],[31.9176,-17.4087,1153.1544],[31.8986,-17.4052,1219.5551],[31.8971,-17.3937,1198.6919],[31.8908,-17.3837,1166.8287],[31.8917,-17.3749,1140.7294],[31.8893,-17.3663,1120.8672],[31.8942,-17.3542,1120.8621],[31.8888,-17.3471,1095.3611],[31.8903,-17.3379,1094.1587],[31.8858,-17.3265,1092.9269],[31.8881,-17.3153,1098.7468],[31.8854,-17.3088,1038.7512],[31.8847,-17.2982,1038.2076],[31.8806,-17.2984,1019.492],[31.8797,-17.2966,1017.0319],[31.8818,-17.2874,1018.3892],[31.8807,-17.2835,987.8964],[31.8818,-17.2792,1015.8912],[31.8489,-17.3011,1028.6049],[31.849,-17.3048,1018.5707],[31.8451,-17.3089,1028.291],[31.8377,-17.3137,1038.4705],[31.8335,-17.3146,1042.6254],[31.8331,-17.3178,1030.1222],[31.8304,-17.3199,1035.6478],[31.8324,-17.3247,1053.6523],[31.8245,-17.3343,1063.4211],[31.8279,-17.3407,1076.5956],[31.8286,-17.3484,1075.7083],[31.8263,-17.3658,1090.1777],[31.8245,-17.3695,1093.3789],[31.8258,-17.3829,1099.4209],[31.8193,-17.3908,1111.7872],[31.8135,-17.4026,1126.2484],[31.809,-17.4033,1127.1399],[31.8002,-17.411,1130.1084],[31.8111,-17.4275,1140.4766],[31.8094,-17.433,1147.5906],[31.811,-17.4372,1146.8373],[31.8205,-17.4392,1171.7659],[31.8343,-17.4483,1163.1263],[31.8419,-17.4495,1176.3453],[31.8523,-17.4325,1251.2336],[31.8561,-17.4395,1197.4805]]]]}}