{"type":"Feature","properties":{"GID_3":"ZWE.7.9.30_2","GID_0":"ZWE","country":"Zimbabwe","GID_1":"ZWE.7_1","province":"Masvingo","NL_NAME_1":"NA","GID_2":"ZWE.7.9_2","county":"Zaka","NL_NAME_2":"NA","city":"Ward5","VARNAME_3":"NA","NL_NAME_3":"NA","TYPE_3":"Ward","ENGTYPE_3":"Ward","CC_3":"NA","HASC_3":"NA","name":"Ward5.city"},
"geometry":{"type": "MultiPolygon","coordinates": [[[[31.5011,-20.0828,1062.0433],[31.4913,-20.1007,1188.3103],[31.4827,-20.1083,1213.8054],[31.4832,-20.1153,1063.1924],[31.4889,-20.1298,967.5159],[31.483,-20.1298,986.7565],[31.4784,-20.124,1032.5063],[31.4607,-20.1104,1081.823],[31.4548,-20.1151,1134.3843],[31.4513,-20.1201,1153.8085],[31.438,-20.1302,1117.5372],[31.4311,-20.1383,1127.5487],[31.4171,-20.1455,1112.6173],[31.4094,-20.1474,1054.2874],[31.4129,-20.1534,1068.0168],[31.4146,-20.1628,1002.9473],[31.4264,-20.181,893.6069],[31.4418,-20.173,895.8864],[31.4525,-20.1618,926.606],[31.4565,-20.1619,948.718],[31.4626,-20.1586,948.0746],[31.4675,-20.1599,977.0658],[31.4734,-20.1676,1059.4729],[31.4808,-20.1722,998.9197],[31.4855,-20.1783,908.3064],[31.4948,-20.1799,899.163],[31.4988,-20.1752,894.0072],[31.5073,-20.1717,859.7297],[31.517,-20.1721,838.3951],[31.5232,-20.1706,834.3856],[31.5319,-20.1769,829.5021],[31.5433,-20.1942,814.1108],[31.5583,-20.2084,788.4432],[31.5678,-20.2125,784.9736],[31.5692,-20.2093,775.4037],[31.572,-20.2075,789.6718],[31.5812,-20.2085,767.8389],[31.5857,-20.2043,773.8701],[31.5838,-20.199,789.0542],[31.5679,-20.1845,835.4244],[31.5641,-20.1732,865.6094],[31.5569,-20.1682,931.6151],[31.5737,-20.1699,820.338],[31.5868,-20.1681,796.0913],[31.5905,-20.1662,795.1997],[31.5931,-20.1702,776.9885],[31.5956,-20.1671,774.3234],[31.5934,-20.16,779.3469],[31.5898,-20.1569,790.7404],[31.5809,-20.1541,793.1138],[31.5769,-20.1493,808.8011],[31.5714,-20.1504,811.1829],[31.5594,-20.1383,836.4579],[31.5447,-20.1283,863.5149],[31.538,-20.1254,860.7802],[31.5384,-20.1232,890.6864],[31.534,-20.1167,846.4524],[31.5352,-20.1128,868.3546],[31.5402,-20.1087,856.1624],[31.5388,-20.1014,988.0728],[31.5305,-20.0895,976.1545],[31.527,-20.0871,955.3284],[31.5216,-20.0901,969.9999],[31.5177,-20.0837,986.5972],[31.5143,-20.0823,978.8168],[31.5094,-20.0819,1002.1941],[31.5039,-20.084,1014.061],[31.5011,-20.0828,1062.0433]]]]}}