{"type":"Feature","properties":{"GID_3":"ZWE.10.7.18_2","GID_0":"ZWE","country":"Zimbabwe","GID_1":"ZWE.10_1","province":"Midlands","NL_NAME_1":"NA","GID_2":"ZWE.10.7_2","county":"Kwekwe","NL_NAME_2":"NA","city":"Ward25","VARNAME_3":"NA","NL_NAME_3":"NA","TYPE_3":"Ward","ENGTYPE_3":"Ward","CC_3":"NA","HASC_3":"NA","name":"Ward25.city"},
"geometry":{"type": "MultiPolygon","coordinates": [[[[29.1138,-19.0484,1220.1182],[29.0862,-19.0516,1190.5869],[29.0725,-19.0711,1177.9995],[29.0582,-19.0801,1169.3711],[29.0531,-19.0854,1165.0676],[29.0513,-19.0949,1157.1445],[29.0418,-19.0986,1149.9327],[29.0427,-19.1017,1153.4124],[29.0519,-19.1057,1155.5217],[29.0542,-19.1115,1153.921],[29.0498,-19.1163,1160.411],[29.05,-19.1186,1154.2161],[29.0624,-19.1281,1157.2168],[29.0689,-19.1432,1162.9346],[29.0742,-19.1487,1159.4003],[29.0861,-19.1546,1161.2544],[29.0901,-19.1708,1168.0128],[29.1023,-19.1745,1178.5682],[29.1071,-19.1874,1171.5088],[29.1121,-19.1925,1175.8467],[29.1199,-19.1968,1171.2798],[29.1266,-19.2063,1172.6499],[29.1315,-19.2069,1175.7451],[29.1332,-19.2059,1181.5658],[29.1322,-19.203,1180.2883],[29.1376,-19.1939,1195.3184],[29.144,-19.1913,1198.5614],[29.1479,-19.1834,1212.6379],[29.1595,-19.1737,1243.8518],[29.1569,-19.1669,1228.0604],[29.1574,-19.164,1228.3688],[29.1746,-19.1541,1239.2875],[29.178,-19.1536,1237.5035],[29.1853,-19.1465,1245.6416],[29.1852,-19.1327,1264.5959],[29.1876,-19.1179,1268.3541],[29.1854,-19.1053,1270.022],[29.1876,-19.0896,1293.5833],[29.1786,-19.0779,1300.4041],[29.1717,-19.0636,1291.1689],[29.1514,-19.0567,1260.7202],[29.1138,-19.0484,1220.1182]]]]}}