{"type":"Feature","properties":{"GID_3":"ZWE.6.1.6_2","GID_0":"ZWE","country":"Zimbabwe","GID_1":"ZWE.6_1","province":"MashonalandWest","NL_NAME_1":"NA","GID_2":"ZWE.6.1_2","county":"Chegutu","NL_NAME_2":"NA","city":"Ward14","VARNAME_3":"NA","NL_NAME_3":"NA","TYPE_3":"Ward","ENGTYPE_3":"Ward","CC_3":"NA","HASC_3":"NA","name":"Ward14.city"},
"geometry":{"type": "MultiPolygon","coordinates": [[[[30.5385,-17.9845,1332.0228],[30.5449,-17.9872,1330.5037],[30.559,-17.9753,1337.675],[30.5603,-17.9717,1344.295],[30.5832,-17.9497,1373.9915],[30.5872,-17.9262,1371.1477],[30.6361,-17.912,1375.7728],[30.6244,-17.8967,1370.7987],[30.6465,-17.8604,1365.6226],[30.6677,-17.8459,1339.5],[30.6667,-17.8429,1339.5],[30.6594,-17.8411,1339.7833],[30.6554,-17.835,1339.5],[30.6501,-17.835,1339.8289],[30.648,-17.8376,1341.5232],[30.6457,-17.8342,1339.8088],[30.6333,-17.8299,1340.2808],[30.6308,-17.8395,1343.9573],[30.633,-17.846,1348.3059],[30.6322,-17.8514,1342.4669],[30.6307,-17.8466,1344.6715],[30.6261,-17.8406,1343.0282],[30.6258,-17.8339,1340.3105],[30.6235,-17.8309,1339.5],[30.6142,-17.8282,1339.5],[30.6126,-17.8297,1342.2426],[30.6075,-17.8258,1339.5],[30.6033,-17.8262,1339.5],[30.5979,-17.8339,1341.9569],[30.5978,-17.8377,1344.5985],[30.6035,-17.8511,1347.0876],[30.6038,-17.8573,1347.3942],[30.5988,-17.8509,1339.5],[30.596,-17.8515,1340.713],[30.5947,-17.8471,1339.7266],[30.5909,-17.8436,1339.7598],[30.5877,-17.8478,1342.7561],[30.5842,-17.8449,1344.3027],[30.586,-17.8405,1339.5],[30.5821,-17.8411,1339.5],[30.5782,-17.8378,1339.5],[30.5706,-17.8365,1341.7849],[30.5697,-17.8347,1343.5132],[30.5712,-17.8294,1339.5],[30.5661,-17.8276,1339.5],[30.5634,-17.8286,1340.175],[30.559,-17.8262,1339.7664],[30.5506,-17.8319,1342.1523],[30.5499,-17.8352,1340.881],[30.5527,-17.8389,1345.4403],[30.5533,-17.8459,1345.7477],[30.5633,-17.8561,1348.3794],[30.5695,-17.8668,1351.5393],[30.5699,-17.8704,1348.6558],[30.5594,-17.8588,1339.5],[30.5512,-17.8588,1340.8828],[30.5482,-17.8603,1340.7391],[30.5451,-17.8582,1340.8019],[30.5385,-17.8431,1339.5],[30.5364,-17.8472,1344.5592],[30.5354,-17.8582,1343.5156],[30.5312,-17.8698,1341.8678],[30.5273,-17.875,1341.4407],[30.5245,-17.8754,1340.8058],[30.5169,-17.8673,1341.1786],[30.513,-17.8444,1342.3792],[30.4854,-17.8414,1321.1967],[30.4989,-17.8866,1377.2905],[30.5036,-17.8977,1371.3402],[30.505,-17.942,1342.8782],[30.4984,-17.9629,1357.3132],[30.4983,-17.9674,1352.1404],[30.5385,-17.9845,1332.0228]]]]}}