{"type":"Feature","properties":{"GID_3":"ZWE.3.7.16_2","GID_0":"ZWE","country":"Zimbabwe","GID_1":"ZWE.3_1","province":"Manicaland","NL_NAME_1":"NA","GID_2":"ZWE.3.7_2","county":"MutareUrban","NL_NAME_2":"NA","city":"Ward6","VARNAME_3":"NA","NL_NAME_3":"NA","TYPE_3":"Ward","ENGTYPE_3":"Ward","CC_3":"NA","HASC_3":"NA","name":"Ward6.city"},
"geometry":{"type": "MultiPolygon","coordinates": [[[[32.5865,-18.9951,994.6072],[32.5851,-19.0049,984.8082],[32.5949,-19.0103,1014.449],[32.5956,-19.0068,1019.0872],[32.592,-19.0036,1002.7844],[32.5955,-19.0034,1019.8784],[32.5977,-18.9987,1112.7111],[32.5865,-18.9951,994.6072]]]]}}