{"type": "Feature","bbox": [31.9077,-17.4338,32.0574,-17.3319],"geometry": {"type": "MultiPolygon","coordinates": [[[[32.0486,-17.3609,982.1022],[32.0415,-17.3608,998.7286],[32.0365,-17.3628,1002.8664],[32.0287,-17.3535,1069.6071],[32.0162,-17.3488,1236.3461],[32.0073,-17.3603,1156.866],[31.9994,-17.3758,1279.947],[31.9891,-17.3817,1225.9177],[31.9788,-17.3845,1182.2489],[31.9761,-17.3834,1270.9565],[31.9658,-17.3722,1180.7887],[31.9623,-17.3543,1134.8131],[31.9537,-17.3382,1054.938],[31.9523,-17.3319,1058.3373],[31.9476,-17.3382,1053.5308],[31.9348,-17.345,1083.5421],[31.9248,-17.3484,1095.7231],[31.9162,-17.3494,1124.0452],[31.9077,-17.3548,1126.8701],[31.9199,-17.3551,1124.0829],[31.9255,-17.3604,1136.4141],[31.9274,-17.3649,1152.4264],[31.9333,-17.3683,1152.1952],[31.9389,-17.3694,1144.0741],[31.944,-17.3749,1156.2161],[31.9486,-17.3764,1152.998],[31.9532,-17.3844,1156.4587],[31.9263,-17.4027,1163.0896],[31.9149,-17.4073,1152.9647],[31.919,-17.4115,1148.7251],[31.9166,-17.4206,1126.4324],[31.918,-17.4265,1097.0083],[31.9257,-17.4288,1101.3149],[31.9289,-17.4269,1094.3389],[31.9346,-17.4293,1091.0715],[31.9401,-17.4287,1088.3164],[31.9484,-17.4335,1070.3492],[31.9502,-17.4319,1075.5094],[31.9593,-17.4309,1076.2678],[31.9688,-17.4338,1061.8396],[31.9757,-17.43,1046.4514],[31.9833,-17.421,1044.2676],[31.9958,-17.4153,1042.1844],[32.0023,-17.4166,1031.7921],[32.0052,-17.4192,1028.7087],[32.0117,-17.4178,1023.2595],[32.0179,-17.4195,1023.1298],[32.0219,-17.4187,1018.1055],[32.0244,-17.4163,1016.4432],[32.0261,-17.4172,1015.4072],[32.033,-17.4151,1007.3857],[32.0415,-17.4096,1009.8442],[32.0487,-17.411,1000.6976],[32.0574,-17.4055,986.6803],[32.0538,-17.3928,982.4204],[32.0539,-17.3789,984.2717],[32.0475,-17.3729,978.838],[32.0465,-17.37,979.4258],[32.0486,-17.3609,982.1022]]]]}
,"properties": {"GID_3": "ZWE.5.11.4_2","GID_0": "ZWE","country": "Zimbabwe","GID_1": "ZWE.5_1","province": "MashonalandEast","NL_NAME_1": "NA","GID_2": "ZWE.5.11_2","county": "UzumbaMarambaPfungwe","NL_NAME_2": "NA","city": "Ward12","VARNAME_3": "NA","NL_NAME_3": "NA","TYPE_3": "Ward","ENGTYPE_3": "Ward","CC_3": "NA","HASC_3": "NA","name": "Ward12.city","area_km2": 89.75369,"hist_schema_id": "Elevation0-9000","hist_area_km2": {"975": 1.45687,"1000": 9.30739,"1025": 9.79237,"1050": 12.40255,"1075": 14.72935,"1100": 15.6199,"1125": 12.46399,"1150": 8.41698,"1175": 2.83257,"1200": 0.64751,"1225": 0.91055,"1250": 0.54635,"1275": 0.54635,"1300": 0.0607,"1325": 0.02023}}}