{"type":"Feature","properties":{"GID_3":"ZWE.3.6.31_2","GID_0":"ZWE","country":"Zimbabwe","GID_1":"ZWE.3_1","province":"Manicaland","NL_NAME_1":"NA","GID_2":"ZWE.3.6_2","county":"Mutare","NL_NAME_2":"NA","city":"Ward4","VARNAME_3":"NA","NL_NAME_3":"NA","TYPE_3":"Ward","ENGTYPE_3":"Ward","CC_3":"NA","HASC_3":"NA","name":"Ward4.city"},
"geometry":{"type": "MultiPolygon","coordinates": [[[[32.2943,-19.1664,967.2599],[32.2973,-19.166,979.7389],[32.2998,-19.1677,978.1252],[32.3009,-19.1664,978.1252],[32.3102,-19.1656,996.223],[32.315,-19.1645,1003.7061],[32.3194,-19.1607,1016.0941],[32.3411,-19.1556,1018.1733],[32.3463,-19.153,1013.176],[32.3551,-19.1422,1000.824],[32.3669,-19.1424,983.8552],[32.3736,-19.1382,969.0748],[32.3768,-19.1385,959.1595],[32.3837,-19.1347,958.1979],[32.3656,-19.1343,1210.1587],[32.343,-19.1403,1093.554],[32.3011,-19.1312,1242.7456],[32.2784,-19.1145,1238.4713],[32.2453,-19.1299,928.8082],[32.2442,-19.1355,922.9824],[32.2423,-19.1347,929.4225],[32.2423,-19.1458,914.5646],[32.2403,-19.1483,917.5892],[32.241,-19.1556,909.6863],[32.2381,-19.1575,908.0417],[32.2376,-19.167,899.0816],[32.2363,-19.168,896.8217],[32.243,-19.1754,927.0569],[32.2412,-19.1799,913.5802],[32.2425,-19.1826,906.0833],[32.2462,-19.1811,920.2095],[32.253,-19.1813,912.5298],[32.2558,-19.1774,916.0295],[32.2629,-19.1765,925.2025],[32.2665,-19.1736,931.9317],[32.2701,-19.1745,935.2301],[32.2817,-19.1726,959.2988],[32.2943,-19.1664,967.2599]]]]}}