{"type": "Feature","bbox": [30.21,-17.7321,30.2876,-17.661],"geometry": {"type": "MultiPolygon","coordinates": [[[[30.219,-17.6921,1283.0845],[30.218,-17.6951,1285.7317],[30.22,-17.7008,1297.3759],[30.2196,-17.7043,1294.4205],[30.2183,-17.7074,1297.245],[30.2112,-17.7112,1304.5317],[30.21,-17.7166,1311.429],[30.2377,-17.7265,1312.6737],[30.2415,-17.7309,1306.1428],[30.2456,-17.7321,1302.0811],[30.2588,-17.7264,1285.7334],[30.2655,-17.7169,1273.5087],[30.2654,-17.714,1278.905],[30.2695,-17.7134,1268.2655],[30.2789,-17.6945,1259.3615],[30.2831,-17.6819,1257.0022],[30.2872,-17.6777,1252.4688],[30.2876,-17.6752,1254.4828],[30.2831,-17.674,1247.7999],[30.2707,-17.661,1235.9086],[30.263,-17.6742,1250.4486],[30.241,-17.68,1268.8087],[30.2363,-17.6787,1278.4231],[30.219,-17.6921,1283.0845]]]]}
,"properties": {"GID_3": "ZWE.6.13.21_2","GID_0": "ZWE","country": "Zimbabwe","GID_1": "ZWE.6_1","province": "MashonalandWest","NL_NAME_1": "NA","GID_2": "ZWE.6.13_2","county": "Zvimba","NL_NAME_2": "NA","city": "Ward28","VARNAME_3": "NA","NL_NAME_3": "NA","TYPE_3": "Ward","ENGTYPE_3": "Ward","CC_3": "NA","HASC_3": "NA","name": "Ward28.city","area_km2": 33.52969,"hist_schema_id": "Elevation0-9000","hist_area_km2": {"1225": 0.28283,"1250": 3.83821,"1275": 10.90772,"1300": 13.41137,"1325": 5.08956}}}