{"type":"Feature","properties":{"GID_3":"ZWE.5.11.9_2","GID_0":"ZWE","country":"Zimbabwe","GID_1":"ZWE.5_1","province":"MashonalandEast","NL_NAME_1":"NA","GID_2":"ZWE.5.11_2","county":"UzumbaMarambaPfungwe","NL_NAME_2":"NA","city":"Ward17","VARNAME_3":"NA","NL_NAME_3":"NA","TYPE_3":"Ward","ENGTYPE_3":"Ward","CC_3":"NA","HASC_3":"NA","name":"Ward17.city"},
"geometry":{"type": "MultiPolygon","coordinates": [[[[31.848,-17.1508,864.9474],[31.859,-17.1576,832.2471],[31.8733,-17.162,1083.2932],[31.883,-17.1627,930.2429],[31.9016,-17.1601,901.6632],[31.9104,-17.1629,886.1165],[31.9218,-17.1557,1060.0515],[31.9212,-17.1484,1025.4766],[31.9226,-17.1461,1035.4142],[31.9304,-17.1416,1121.5393],[31.9438,-17.137,920.3304],[31.9461,-17.1314,1000.3166],[31.953,-17.1275,964.2999],[31.9547,-17.1246,982.0792],[31.9656,-17.1188,973.7518],[31.9649,-17.1126,980.9774],[31.9686,-17.0988,1062.1401],[31.9782,-17.0857,907.8976],[31.9773,-17.0793,885.9953],[31.9797,-17.0609,886.6286],[31.9742,-17.0551,834.5591],[31.9744,-17.0494,834.6865],[31.9714,-17.0481,839.4274],[31.9488,-17.0536,842.9296],[31.9246,-17.0562,753.1153],[31.9224,-17.0527,753.7613],[31.9241,-17.049,752.8488],[31.9187,-17.045,768.0581],[31.9053,-17.0439,742.0718],[31.8959,-17.0536,795.4008],[31.8753,-17.07,752.132],[31.8686,-17.0698,750.6378],[31.8587,-17.0771,741.8895],[31.8538,-17.0822,747.9166],[31.8533,-17.086,742.9175],[31.8551,-17.0895,761.7263],[31.8485,-17.1044,761.533],[31.839,-17.1183,779.8749],[31.8334,-17.1231,783.6304],[31.8351,-17.1314,780.5284],[31.8325,-17.1362,782.394],[31.848,-17.1508,864.9474]]]]}}