{"type":"Feature","properties":{"GID_3":"ZWE.8.1.19_2","GID_0":"ZWE","country":"Zimbabwe","GID_1":"ZWE.8_1","province":"MatabelelandNorth","NL_NAME_1":"NA","GID_2":"ZWE.8.1_2","county":"Binga","NL_NAME_2":"NA","city":"Ward3","VARNAME_3":"NA","NL_NAME_3":"NA","TYPE_3":"Ward","ENGTYPE_3":"Ward","CC_3":"NA","HASC_3":"NA","name":"Ward3.city"},
"geometry":{"type": "MultiPolygon","coordinates": [[[[27.9794,-17.3267,707.8259],[27.9744,-17.3294,706.7327],[27.9658,-17.3294,729.3935],[27.9633,-17.3319,712.9368],[27.955,-17.3324,718.7093],[27.9508,-17.3306,721.165],[27.9477,-17.3313,717.7456],[27.9406,-17.3279,732.3826],[27.9393,-17.3257,764.0533],[27.9376,-17.3265,721.1805],[27.9348,-17.3234,726.5597],[27.9293,-17.3239,730.1123],[27.9265,-17.3262,755.1046],[27.919,-17.3278,767.2736],[27.9176,-17.3339,758.2234],[27.9126,-17.3378,785.2693],[27.9076,-17.3453,787.2285],[27.9015,-17.3458,790.4735],[27.8824,-17.3418,837.2493],[27.883,-17.3443,830.7576],[27.8898,-17.3496,778.1234],[27.892,-17.3563,787.8712],[27.8917,-17.362,776.3712],[27.8867,-17.3647,763.3867],[27.8696,-17.3695,747.8938],[27.8615,-17.3675,781.6996],[27.8598,-17.3687,749.9535],[27.8603,-17.3712,742.0643],[27.8519,-17.373,736.4553],[27.8496,-17.3772,733.0312],[27.8444,-17.3814,710.4944],[27.8425,-17.3884,702.6652],[27.846,-17.4,673.9089],[27.8386,-17.4014,691.5123],[27.8375,-17.4036,687.3903],[27.8338,-17.4045,687.8989],[27.8334,-17.4057,674.9242],[27.8371,-17.4069,671.5095],[27.837,-17.4087,672.5181],[27.8329,-17.4092,667.8105],[27.8298,-17.4115,656.9928],[27.8262,-17.4105,700.8751],[27.8252,-17.4127,677.4965],[27.8219,-17.4134,632.6354],[27.8187,-17.4095,691.7329],[27.8155,-17.4088,643.592],[27.8064,-17.4133,594.526],[27.7975,-17.4083,589.9437],[27.798,-17.4047,610.8409],[27.7922,-17.4041,646.4756],[27.7875,-17.4061,619.3601],[27.7861,-17.4106,571.2469],[27.7806,-17.4085,585.8011],[27.7812,-17.4114,562.9044],[27.7865,-17.414,568.4602],[27.7798,-17.4219,597.9814],[27.7827,-17.4234,548.1095],[27.7851,-17.419,563.4704],[27.7886,-17.4191,556.9984],[27.7916,-17.4238,562.7555],[27.7856,-17.4267,579.0276],[27.7819,-17.4324,556.9384],[27.7916,-17.4315,601.0748],[27.7953,-17.4339,583.3422],[27.8015,-17.4337,630.2203],[27.8018,-17.4352,577.0548],[27.7987,-17.4373,558.6042],[27.7981,-17.4416,561.9506],[27.8076,-17.4521,628.4971],[27.8114,-17.4499,658.4796],[27.8241,-17.4518,644.4122],[27.8264,-17.4586,663.0898],[27.8248,-17.4623,588.7106],[27.8275,-17.4631,641.3192],[27.8313,-17.4613,677.2917],[27.8323,-17.4624,594.3068],[27.8347,-17.4702,599.4931],[27.8393,-17.4757,589.725],[27.8371,-17.4806,580.9189],[27.838,-17.4839,575.4738],[27.8418,-17.4874,593.3549],[27.8471,-17.4848,580.7657],[27.8536,-17.4761,611.1033],[27.8565,-17.4745,633.0941],[27.8584,-17.4749,617.333],[27.8602,-17.478,597.7132],[27.8645,-17.4766,631.5594],[27.8676,-17.4792,588.4776],[27.8738,-17.4787,597.3407],[27.8845,-17.4769,591.9702],[27.887,-17.4722,605.7053],[27.8904,-17.4723,593.7946],[27.8926,-17.4689,611.5311],[27.8979,-17.4668,593.9716],[27.9013,-17.4626,616.5778],[27.9042,-17.4654,618.1447],[27.9092,-17.4667,608.5505],[27.911,-17.4723,603.9558],[27.9141,-17.4749,619.0739],[27.9137,-17.4875,605.1639],[27.9193,-17.4916,619.5109],[27.9223,-17.4987,618.1863],[27.9295,-17.5078,656.1968],[27.9442,-17.521,685.7213],[27.971,-17.5508,727.2996],[27.9764,-17.5678,734.8192],[27.985,-17.5874,931.8512],[28.0003,-17.5804,866.6179],[28.0441,-17.5651,1004.7691],[28.039,-17.553,844.6849],[28.0269,-17.5398,722.5654],[28.0255,-17.5343,707.561],[28.029,-17.533,708.3267],[28.0291,-17.5314,704.8942],[28.0211,-17.5146,663.1828],[28.0219,-17.5115,663.9548],[28.0182,-17.5042,657.4302],[28.02,-17.498,653.7115],[28.015,-17.487,643.6113],[28.0105,-17.4812,640.7991],[28.0011,-17.4771,639.5974],[27.9995,-17.4745,643.9995],[27.997,-17.4762,640.1625],[27.9948,-17.4739,638.9382],[27.9911,-17.4755,632.1048],[27.9927,-17.4711,635.8372],[27.9891,-17.4726,659.9289],[27.9866,-17.4717,678.6534],[27.9837,-17.4746,633.1965],[27.9823,-17.3435,706.2643],[27.9794,-17.3267,707.8259]]]]}}