{"type": "Feature","bbox": [32.3134,-19.3649,32.4733,-19.2722],"geometry": {"type": "MultiPolygon","coordinates": [[[[32.3134,-19.3371,912.7775],[32.3159,-19.3457,933.196],[32.3204,-19.3527,950.7393],[32.3415,-19.3535,997.5717],[32.3504,-19.3628,958.9925],[32.3544,-19.3647,939.0861],[32.3567,-19.3649,932.1931],[32.3606,-19.3503,959.498],[32.3724,-19.3537,921.8824],[32.3791,-19.3528,915.3332],[32.3825,-19.3545,903.5967],[32.3864,-19.353,895.4607],[32.4011,-19.3529,870.1796],[32.4152,-19.3594,840.4888],[32.4203,-19.3586,827.0173],[32.4337,-19.3612,806.6082],[32.4372,-19.3645,795.199],[32.4535,-19.3603,763.0762],[32.4627,-19.3541,750.4501],[32.4681,-19.3555,738.9567],[32.4733,-19.3526,728.8267],[32.4681,-19.3368,753.7951],[32.4681,-19.3268,754.4957],[32.4659,-19.3221,757.642],[32.4675,-19.317,758.415],[32.4662,-19.3137,760.9215],[32.4648,-19.3156,762.3854],[32.4617,-19.3135,768.8357],[32.4591,-19.3148,779.1031],[32.4511,-19.3121,783.7624],[32.4456,-19.3134,788.0505],[32.4377,-19.3181,808.7432],[32.4342,-19.318,809.3926],[32.4324,-19.3213,822.0131],[32.4277,-19.32,815.8557],[32.4244,-19.3211,823.8542],[32.42,-19.3188,834.3846],[32.394,-19.2848,970.2053],[32.3951,-19.2755,974.5686],[32.3838,-19.2772,1000.968],[32.371,-19.2737,1029.5345],[32.3675,-19.2746,1040.7961],[32.3618,-19.2791,1046.6279],[32.3555,-19.2722,1006.0029],[32.3493,-19.2797,1031.127],[32.3495,-19.2824,1038.7581],[32.3568,-19.2892,1067.8165],[32.3643,-19.293,1085.3508],[32.3642,-19.3012,1036.6733],[32.3718,-19.3069,990.4489],[32.3726,-19.3106,981.3489],[32.3653,-19.3201,959.6808],[32.36,-19.3151,973.4916],[32.3556,-19.3068,997.0281],[32.3508,-19.3014,1018.037],[32.3464,-19.2904,1058.8186],[32.3336,-19.2945,1035.2684],[32.3309,-19.2982,1017.075],[32.3313,-19.303,1000.8742],[32.3249,-19.3097,981.8835],[32.3233,-19.3191,964.5367],[32.3213,-19.3212,947.653],[32.3224,-19.3275,953.9548],[32.3213,-19.331,931.6736],[32.3155,-19.3375,909.9777],[32.3134,-19.3371,912.7775]]]]}
,"properties": {"GID_3": "ZWE.3.6.11_2","GID_0": "ZWE","country": "Zimbabwe","GID_1": "ZWE.3_1","province": "Manicaland","NL_NAME_1": "NA","GID_2": "ZWE.3.6_2","county": "Mutare","NL_NAME_2": "NA","city": "Ward19","VARNAME_3": "NA","NL_NAME_3": "NA","TYPE_3": "Ward","ENGTYPE_3": "Ward","CC_3": "NA","HASC_3": "NA","name": "Ward19.city","area_km2": 96.956,"hist_schema_id": "Elevation0-9000","hist_area_km2": {"725": 0.30007,"750": 2.60069,"775": 5.90174,"800": 5.94181,"825": 6.88217,"850": 8.28258,"875": 7.30244,"900": 7.66267,"925": 9.44327,"950": 11.644,"975": 10.86392,"1000": 5.98272,"1025": 5.08269,"1050": 4.00225,"1075": 1.84106,"1100": 1.5209,"1125": 0.58034,"1150": 0.44027,"1175": 0.28017,"1200": 0.22014,"1225": 0.12007,"1250": 0.04003,"1275": 0.02001}}}