{"type": "Feature","bbox": [29.3179,-19.7524,29.7286,-19.3544],"geometry": {"type": "MultiPolygon","coordinates": [[[[29.4108,-19.7491,1322.6981],[29.4199,-19.746,1328.5857],[29.4314,-19.7519,1352.4067],[29.4592,-19.7524,1354.5093],[29.4693,-19.7494,1368.1042],[29.4769,-19.7491,1379.8319],[29.4848,-19.7414,1391.4045],[29.4912,-19.7276,1405.4243],[29.4996,-19.7232,1405.293],[29.489,-19.6622,1358.5999],[29.4985,-19.6564,1388.8232],[29.517,-19.6472,1407.0238],[29.5279,-19.6396,1420.0964],[29.572,-19.6256,1382.0918],[29.5984,-19.6214,1372.6807],[29.6033,-19.614,1385.4871],[29.6308,-19.5969,1377.3716],[29.7286,-19.567,1431.0686],[29.7108,-19.4749,1381.7667],[29.6354,-19.4964,1394.0287],[29.5871,-19.4649,1358.8433],[29.5565,-19.4476,1359.141],[29.5264,-19.4199,1365.4966],[29.4741,-19.3544,1320.4387],[29.465699999999998,-19.3776,1340.9941],[29.3805,-19.4426,1320.5225],[29.3542,-19.4717,1365.1077],[29.4206,-19.5622,1373.569],[29.3179,-19.6185,1281.4414],[29.322,-19.6185,1284.0591],[29.3463,-19.6305,1292.1475],[29.3568,-19.6414,1295.4506],[29.3544,-19.6432,1290.5515],[29.3564,-19.6444,1286.0569],[29.3563,-19.6468,1287.1301],[29.3588,-19.6496,1289.6929],[29.3588,-19.6523,1289.7721],[29.3567,-19.6549,1292.1616],[29.3618,-19.6606,1302.4426],[29.3599,-19.6624,1293.2627],[29.3597,-19.669,1293.4974],[29.3631,-19.6791,1300.1417],[29.3703,-19.6777,1307.5076],[29.3769,-19.6882,1300.927],[29.3867,-19.6904,1304.1028],[29.3892,-19.6938,1305.3834],[29.3922,-19.6936,1317.6521],[29.4014,-19.6989,1314.9565],[29.4007,-19.7032,1303.9089],[29.4041,-19.7095,1307.6093],[29.404,-19.713,1305.6268],[29.4064,-19.7144,1318.9597],[29.4036,-19.7171,1311.5848],[29.4035,-19.7193,1310.4247],[29.4065,-19.7221,1314.72],[29.4075,-19.7272,1313.0959],[29.413,-19.7333,1320.3975],[29.4139,-19.7423,1318.7142],[29.4095,-19.7478,1331.6814],[29.4108,-19.7491,1322.6981]]]]}
,"properties": {"GID_3": "ZWE.10.5.11_2","GID_0": "ZWE","country": "Zimbabwe","GID_1": "ZWE.10_1","province": "Midlands","NL_NAME_1": "NA","GID_2": "ZWE.10.5_2","county": "Gweru","NL_NAME_2": "NA","city": "Ward19","VARNAME_3": "NA","NL_NAME_3": "NA","TYPE_3": "Ward","ENGTYPE_3": "Ward","CC_3": "NA","HASC_3": "NA","name": "Ward19.city","area_km2": 864.4264,"hist_schema_id": "Elevation0-9000","hist_area_km2": {"1275": 2.3184,"1300": 47.3149,"1325": 133.7426,"1350": 278.8568,"1375": 283.5671,"1400": 108.837,"1425": 9.7895}}}