{"type":"Feature","properties":{"GID_2":"ZWE.7.5_2","GID_0":"ZWE","country":"Zimbabwe","GID_1":"ZWE.7_1","province":"Masvingo","NL_NAME_1":"NA","county":"Gutu","VARNAME_2":"NA","NL_NAME_2":"NA","TYPE_2":"District","ENGTYPE_2":"District","CC_2":"NA","HASC_2":"NA","name":"Gutu.county"},
"geometry":{"type": "MultiPolygon","coordinates": [[[[31.4643,-19.902,1062.3777],[31.4724,-19.902,1061.5051],[31.4812,-19.9059,1059.6359],[31.4813,-19.8994,1058.5183],[31.4932,-19.8835,1050.1548],[31.4967,-19.8862,1046.9551],[31.5013,-19.8853,1051.5925],[31.5056,-19.8866,1042.3834],[31.5113,-19.8839,1031.0564],[31.5135,-19.8798,1038.155],[31.5182,-19.8825,1030.7113],[31.5264,-19.8768,1026.5461],[31.5295,-19.8769,1023.2413],[31.5396,-19.8709,1017.1685],[31.5457,-19.8751,1009.1195],[31.5533,-19.8867,1005.1616],[31.5786,-19.8817,947.5977],[31.5823,-19.8743,971.0482],[31.5976,-19.8717,950.217],[31.6033,-19.869,936.1359],[31.6134,-19.8682,925.6271],[31.6212,-19.8649,914.5938],[31.6233,-19.8622,908.8886],[31.6253,-19.8489,910.2078],[31.6293,-19.844,912.0698],[31.6378,-19.8513,902.6866],[31.6452,-19.8556,902.9801],[31.649,-19.8555,909.1394],[31.6559,-19.861,899.5083],[31.6626,-19.8604,888.3539],[31.6637,-19.8572,894.2812],[31.6672,-19.8542,884.832],[31.6674,-19.8473,908.1578],[31.6718,-19.8487,876.0195],[31.6736,-19.8451,892.2872],[31.6806,-19.846,875.5066],[31.6899,-19.8326,884.4394],[31.7159,-19.8362,868.2397],[31.7221,-19.8344,860.4472],[31.7427,-19.838,851.7054],[31.749,-19.8377,851.4959],[31.7695,-19.8421,833.8138],[31.7953,-19.8413,809.758],[31.8066,-19.8469,813.5928],[31.8131,-19.8476,813.2424],[31.8317,-19.8401,799.5087],[31.8532,-19.8381,793.8162],[31.8629,-19.8337,783.6655],[31.8866,-19.8303,757.2318],[31.8933,-19.833,754.7881],[31.9022,-19.8323,757.9251],[31.9166,-19.8302,750.6643],[31.9272,-19.826,830.0891],[31.947,-19.8245,774.7178],[31.9626,-19.8212,783.8399],[31.9727,-19.8214,708.3416],[31.9674,-19.7991,723.9594],[31.9267,-19.768,753.1313],[31.9191,-19.7548,752.6354],[31.8994,-19.7118,771.5553],[31.8959,-19.7085,776.1196],[31.877,-19.702,812.8896],[31.8589,-19.6838,807.9631],[31.8584,-19.685,806.2906],[31.8559,-19.683,813.3005],[31.8489,-19.6818,821.6802],[31.8435,-19.6785,831.757],[31.843,-19.6679,850.7742],[31.8353,-19.6649,839.2656],[31.8346,-19.6589,845.7314],[31.8329,-19.6569,847.627],[31.8235,-19.6552,846.9284],[31.8277,-19.6304,868.542],[31.8255,-19.6203,873.6022],[31.8162,-19.6175,884.8781],[31.8022,-19.6069,888.8507],[31.7955,-19.6051,899.5396],[31.7913,-19.5999,904.8042],[31.791,-19.594,905.3793],[31.7747,-19.5901,909.0754],[31.7701,-19.5837,913.1501],[31.7609,-19.5833,912.8199],[31.7563,-19.5858,908.9523],[31.7393,-19.584,920.5054],[31.7361,-19.5797,916.433],[31.7335,-19.5602,939.0],[31.7265,-19.5424,939.0],[31.7143,-19.5405,939.0],[31.7095,-19.5286,939.0],[31.7031,-19.5243,939.0],[31.6832,-19.5223,939.0],[31.6818,-19.506,939.0],[31.6784,-19.4972,939.0],[31.6793,-19.4927,939.0],[31.6759,-19.4866,940.9733],[31.6752,-19.4743,943.3353],[31.6778,-19.4683,941.2914],[31.6746,-19.4614,950.7531],[31.6689,-19.4609,960.0314],[31.6567,-19.4662,966.6183],[31.6493,-19.4665,958.5548],[31.6396,-19.4575,961.1544],[31.622,-19.4634,969.5245],[31.6104,-19.4471,964.6203],[31.5937,-19.4507,994.8662],[31.5896,-19.4559,980.5065],[31.5863,-19.456,1006.8042],[31.5832,-19.4539,1001.5911],[31.573,-19.4569,1010.372],[31.5636,-19.4449,1006.3085],[31.5606,-19.4372,1019.735],[31.5486,-19.4173,1021.1958],[31.5275,-19.4118,1028.213],[31.525,-19.4057,1036.6477],[31.5264,-19.3947,1039.6705],[31.5216,-19.3905,1054.1648],[31.5032,-19.3854,1063.2388],[31.4923,-19.3852,1076.3986],[31.4903,-19.3836,1071.8866],[31.4893,-19.3768,1079.7319],[31.48,-19.3727,1094.2576],[31.4773,-19.3727,1092.0898],[31.4641,-19.381,1093.8644],[31.4613,-19.3813,1084.9888],[31.4484,-19.3624,1098.399],[31.4438,-19.3601,1103.2335],[31.4402,-19.3627,1105.1196],[31.4338,-19.3775,1111.3646],[31.431,-19.3769,1107.7958],[31.4251,-19.37,1120.9119],[31.4111,-19.3748,1122.8088],[31.4068,-19.3743,1138.3896],[31.4021,-19.3705,1132.2043],[31.396,-19.3688,1127.8435],[31.3821,-19.3522,1144.8732],[31.3649,-19.3369,1149.8116],[31.3588,-19.3351,1151.5868],[31.354,-19.3292,1164.1967],[31.3383,-19.3188,1165.6415],[31.3252,-19.3115,1167.3337],[31.3181,-19.3094,1172.0559],[31.3112,-19.2995,1165.9734],[31.2939,-19.2911,1180.9954],[31.2838,-19.2808,1190.3259],[31.2588,-19.2729,1225.5978],[31.2502,-19.2673,1202.7484],[31.2414,-19.2586,1203.1479],[31.2306,-19.2548,1199.5697],[31.2178,-19.2448,1212.2582],[31.2093,-19.2444,1214.6565],[31.2036,-19.2398,1206.9026],[31.1932,-19.2407,1217.3225],[31.1885,-19.2338,1227.1112],[31.0821,-19.244,1338.2987],[31.0149,-19.2562,1394.85],[30.996,-19.2579,1409.5562],[30.996,-19.2538,1406.5051],[31.0001,-19.2487,1418.6279],[30.9891,-19.225,1421.5295],[30.9895,-19.1953,1393.0067],[30.9991,-19.1556,1437.0137],[30.9695,-19.1557,1453.1245],[30.9368,-19.1488,1447.4227],[30.92,-19.1802,1461.0527],[30.9214,-19.1923,1462.5641],[30.8924,-19.192,1461.9679],[30.8898,-19.1973,1470.318],[30.8952,-19.202,1476.0198],[30.907,-19.2223,1470.5103],[30.9085,-19.2439,1494.624],[30.8939,-19.2445,1489.9219],[30.8876,-19.2479,1477.1166],[30.6989,-19.3912,1494.3428],[30.6957,-19.3958,1485.2693],[30.7584,-19.4026,1459.1694],[30.7552,-19.4068,1457.2493],[30.76,-19.4145,1459.1035],[30.7541,-19.4225,1457.3904],[30.7534,-19.4374,1459.3818],[30.714,-19.429,1471.0886],[30.7093,-19.4565,1460.3542],[30.7182,-19.4637,1448.3351],[30.7201,-19.5211,1395.8385],[30.719,-19.5301,1403.1738],[30.715699999999998,-19.5386,1395.1538],[30.7097,-19.5478,1384.891],[30.7092,-19.5538,1365.6978],[30.7127,-19.5589,1352.5768],[30.6978,-19.5689,1322.6866],[30.6949,-19.5804,1311.7509],[30.6872,-19.5879,1276.4202],[30.6972,-19.6063,1279.9735],[30.7094,-19.6369,1258.1711],[30.7055,-19.6589,1252.37],[30.7055,-19.6866,1248.578],[30.6965,-19.6911,1208.5511],[30.6961,-19.7181,1178.3077],[30.6992,-19.7228,1172.0779],[30.6986,-19.73,1208.4688],[30.7047,-19.7441,1183.297],[30.7661,-19.7181,1254.5219],[30.7614,-19.7385,1243.6407],[30.7602,-19.758,1240.4393],[30.7552,-19.7584,1234.7815],[30.7497,-19.7655,1226.991],[30.7464,-19.7833,1220.3699],[30.7341,-19.7934,1210.9493],[30.7372,-19.7964,1210.726],[30.7344,-19.8053,1211.3793],[30.7405,-19.8143,1208.4089],[30.7565,-19.8251,1200.1365],[30.7818,-19.8195,1208.745],[30.7749,-19.7969,1232.752],[30.7709,-19.7654,1252.374],[30.7961,-19.7874,1200.2394],[30.7999,-19.744,1221.429],[30.8081,-19.7378,1237.3368],[30.809,-19.7305,1243.0688],[30.8163,-19.7251,1256.8834],[30.8214,-19.7171,1259.217],[30.8229,-19.7044,1282.2927],[30.8539,-19.715,1307.4419],[30.9395,-19.6944,1313.7185],[30.959,-19.6862,1288.0554],[30.9639,-19.6907,1290.0715],[30.9654,-19.6943,1288.6379],[30.9726,-19.6966,1270.6826],[30.975,-19.7001,1275.5955],[30.9799,-19.7002,1267.9714],[30.983,-19.7163,1277.4846],[30.9902,-19.7366,1234.1553],[30.9891,-19.7372,1234.1553],[30.9911,-19.7366,1236.4155],[31.0021,-19.7472,1240.0872],[30.9945,-19.7585,1218.0231],[30.9712,-19.7732,1201.5782],[30.9616,-19.8011,1181.46],[30.9522,-19.8159,1172.5161],[30.9508,-19.8483,1164.0813],[30.9572,-19.8554,1175.6855],[30.9554,-19.878,1159.4194],[30.9631,-19.9134,1137.4185],[30.9685,-19.9317,1154.1416],[31.0252,-19.9224,1191.9573],[31.0271,-19.9332,1156.6849],[30.9857,-19.9566,1128.8423],[30.987,-19.9669,1122.5027],[30.984,-19.9711,1110.8204],[30.9869,-19.9758,1110.1069],[31.0322,-19.9681,1142.4911],[31.0619,-19.992,1090.1895],[31.0994,-19.9892,1171.2737],[31.1113,-19.9965,1181.0231],[31.1523,-20.0029,1129.6509],[31.1949,-20.0328,1106.634],[31.2017,-20.0269,1116.6085],[31.2034,-20.0122,1124.7228],[31.2055,-20.0106,1135.4155],[31.2042,-20.0082,1124.5681],[31.2073,-20.0038,1138.0911],[31.208,-19.9968,1133.9457],[31.2126,-19.9934,1161.7371],[31.2127,-19.989,1143.51],[31.2156,-19.9853,1172.0854],[31.2181,-19.9739,1208.1498],[31.2994,-19.9494,1285.5983],[31.308,-19.9588,1181.955],[31.3493,-19.9298,1128.353],[31.3592,-19.9244,1159.5166],[31.3697,-19.9332,1117.3254],[31.3737,-19.9328,1117.7642],[31.3746,-19.9348,1110.4009],[31.3847,-19.938,1102.3846],[31.4,-19.9377,1098.2903],[31.4139,-19.9283,1093.0],[31.4296,-19.9225,1104.0146],[31.4334,-19.9139,1122.8962],[31.4423,-19.9175,1080.098],[31.4493,-19.9064,1069.2252],[31.4643,-19.902,1062.3777]]]]}}