{"type": "Feature","bbox": [30.5805,-17.875,30.8565,-17.7063],"geometry": {"type": "MultiPolygon","coordinates": [[[[30.6677,-17.8459,1339.5],[30.666,-17.8534,1341.9607],[30.6737,-17.8479,1339.5],[30.6761,-17.8503,1339.5],[30.6772,-17.8545,1340.7922],[30.68,-17.8528,1339.5],[30.6829,-17.8535,1339.5],[30.6856,-17.8579,1342.3586],[30.686,-17.8527,1339.5],[30.6892,-17.8496,1340.4248],[30.6938,-17.8465,1341.02],[30.7006,-17.8462,1339.5],[30.7061,-17.8529,1340.8087],[30.7063,-17.8597,1344.0745],[30.7106,-17.8649,1341.016],[30.7125,-17.875,1341.7419],[30.7152,-17.869,1344.0482],[30.7158,-17.8556,1342.5911],[30.7173,-17.8547,1339.5],[30.7204,-17.856,1339.5],[30.7304,-17.8524,1341.3794],[30.7367,-17.8634,1341.3729],[30.7383,-17.8619,1343.5601],[30.739,-17.8559,1344.214],[30.7414,-17.8551,1344.926],[30.745,-17.862,1342.5359],[30.7481,-17.8647,1344.6125],[30.754,-17.8682,1345.3213],[30.7604,-17.8654,1348.524],[30.7641,-17.8718,1347.0723],[30.7965,-17.8488,1380.5676],[30.8001,-17.8441,1387.1377],[30.8018,-17.8373,1388.8806],[30.8052,-17.832,1386.5945],[30.8311,-17.8247,1404.1877],[30.8359,-17.8199,1415.2526],[30.8398,-17.8076,1409.7668],[30.8453,-17.8033,1415.0364],[30.8565,-17.7794,1448.8135],[30.8435,-17.754,1413.1377],[30.825,-17.7547,1407.7356],[30.8346,-17.7253,1430.0996],[30.8032,-17.7063,1407.5276],[30.7963,-17.7272,1402.7698],[30.7516,-17.725,1396.9686],[30.7528,-17.7368,1370.7532],[30.7491,-17.7379,1375.007],[30.7334,-17.7495,1368.2954],[30.7294,-17.7499,1364.1823],[30.7233,-17.7567,1359.9994],[30.7156,-17.7601,1357.9663],[30.7115,-17.759,1362.6538],[30.7087,-17.7639,1357.1567],[30.7031,-17.7632,1359.204],[30.6975,-17.7679,1357.708],[30.6927,-17.7681,1354.7834],[30.6898,-17.7706,1356.0308],[30.685,-17.7695,1358.7197],[30.6765,-17.7717,1351.6411],[30.6751,-17.774,1352.1167],[30.6728,-17.7723,1358.2814],[30.6724,-17.7753,1350.9518],[30.6661,-17.774,1357.7673],[30.6616,-17.7773,1349.1147],[30.6599,-17.7749,1352.0521],[30.6579,-17.778,1346.7629],[30.6544,-17.7757,1349.6752],[30.6492,-17.7795,1348.4677],[30.6457,-17.7768,1348.8687],[30.6429,-17.7769,1348.9854],[30.6378,-17.7806,1344.9517],[30.6293,-17.7909,1341.1213],[30.6147,-17.7939,1342.7075],[30.6061,-17.7991,1339.5],[30.5957,-17.8189,1339.5],[30.5805,-17.8391,1339.5],[30.5821,-17.8411,1339.5],[30.5861,-17.840699999999998,1339.5],[30.5842,-17.8449,1344.3027],[30.5877,-17.8478,1342.7561],[30.5909,-17.8436,1339.7598],[30.5947,-17.8471,1339.7266],[30.596,-17.8515,1340.713],[30.5988,-17.8509,1339.5],[30.6038,-17.8573,1347.3942],[30.6035,-17.8511,1347.0876],[30.5978,-17.8377,1344.5985],[30.5979,-17.8339,1341.9569],[30.6033,-17.8262,1339.5],[30.6075,-17.8258,1339.5],[30.6126,-17.8297,1342.2426],[30.6142,-17.8282,1339.5],[30.6235,-17.8309,1339.5],[30.6258,-17.8339,1340.3105],[30.6261,-17.8406,1343.0282],[30.6307,-17.8466,1344.6715],[30.6322,-17.8514,1342.4669],[30.633,-17.846,1348.3059],[30.6308,-17.8395,1343.9573],[30.6333,-17.8299,1340.2808],[30.6457,-17.8342,1339.8088],[30.648,-17.8376,1341.5232],[30.6501,-17.835,1339.8289],[30.6554,-17.835,1339.5],[30.6594,-17.8411,1339.7833],[30.6659,-17.8423,1339.5],[30.6677,-17.8459,1339.5]]]]}
,"properties": {"GID_3": "ZWE.6.13.18_2","GID_0": "ZWE","country": "Zimbabwe","GID_1": "ZWE.6_1","province": "MashonalandWest","NL_NAME_1": "NA","GID_2": "ZWE.6.13_2","county": "Zvimba","NL_NAME_2": "NA","city": "Ward25","VARNAME_3": "NA","NL_NAME_3": "NA","TYPE_3": "Ward","ENGTYPE_3": "Ward","CC_3": "NA","HASC_3": "NA","name": "Ward25.city","area_km2": 269.0391,"hist_schema_id": "Elevation0-9000","hist_area_km2": {"1350": 89.9018,"1375": 79.8826,"1400": 71.5732,"1425": 23.5023,"1450": 4.1387,"1475": 0.0404}}}