{"type":"Feature","properties":{"GID_3":"ZWE.10.5.5_2","GID_0":"ZWE","country":"Zimbabwe","GID_1":"ZWE.10_1","province":"Midlands","NL_NAME_1":"NA","GID_2":"ZWE.10.5_2","county":"Gweru","NL_NAME_2":"NA","city":"Ward13","VARNAME_3":"NA","NL_NAME_3":"NA","TYPE_3":"Ward","ENGTYPE_3":"Ward","CC_3":"NA","HASC_3":"NA","name":"Ward13.city"},
"geometry":{"type": "MultiPolygon","coordinates": [[[[30.1307,-19.1314,1290.1206],[30.1149,-19.1228,1279.9556],[30.106,-19.1225,1275.3198],[30.103,-19.1185,1259.8937],[30.1029,-19.1131,1258.3939],[30.1017,-19.1125,1267.5632],[30.090699999999998,-19.1116,1251.8903],[30.0707,-19.1007,1246.976],[30.0574,-19.1025,1247.2327],[30.0499,-19.0983,1243.4238],[30.0477,-19.1041,1234.5383],[30.0458,-19.1045,1226.6577],[30.0439,-19.1014,1234.9611],[30.0377,-19.1017,1223.5],[30.0311,-19.0996,1223.5],[30.0294,-19.0971,1223.7668],[30.0304,-19.0927,1228.23],[30.0284,-19.0917,1223.8807],[30.0235,-19.0924,1223.5],[30.0188,-19.091,1223.5],[30.0154,-19.0938,1223.5],[30.0179,-19.1531,1260.2197],[30.0357,-19.1611,1287.1511],[30.0237,-19.1954,1310.731],[30.0563,-19.1864,1338.9624],[30.0165,-19.2149,1336.0071],[30.0264,-19.2208,1324.8331],[30.012,-19.2482,1355.4631],[30.0715,-19.284,1407.7122],[30.1148,-19.2695,1424.7192],[30.1354,-19.2501,1377.9521],[30.1663,-19.2736,1408.2137],[30.1711,-19.2492,1368.2169],[30.0651,-19.2004,1333.0239],[30.1307,-19.1314,1290.1206]]]]}}