{"type": "Feature","bbox": [28.9062,-17.7577,29.022,-17.619],"geometry": {"type": "MultiPolygon","coordinates": [[[[29.0,-17.619,849.0461],[28.9964,-17.6213,849.0308],[28.9913,-17.6211,848.291],[28.9904,-17.6225,849.894],[28.9802,-17.6203,850.454],[28.9704,-17.623,855.4017],[28.962,-17.6194,859.5245],[28.9577,-17.6194,855.1964],[28.9605,-17.6226,859.45],[28.9608,-17.6272,855.8209],[28.957,-17.6367,858.7607],[28.9585,-17.648,863.9734],[28.952,-17.6582,867.9991],[28.953,-17.663,871.1755],[28.9478,-17.6715,884.3521],[28.9494,-17.6746,888.1923],[28.9386,-17.6815,887.5256],[28.9342,-17.682,884.473],[28.9311,-17.6845,878.014],[28.9204,-17.6828,888.9993],[28.9071,-17.6871,897.5476],[28.9066,-17.7043,906.9725],[28.9107,-17.7116,913.7969],[28.9062,-17.7458,951.1431],[28.9119,-17.756,954.7711],[28.9353,-17.7577,949.0558],[28.9565,-17.7545,944.2755],[28.9744,-17.7357,907.8242],[28.9792,-17.7336,902.9625],[28.991,-17.7182,891.9924],[29.0085,-17.7095,882.4532],[29.0106,-17.6985,878.5571],[29.0172,-17.6934,869.9182],[29.022,-17.6853,869.089],[29.0196,-17.6675,855.9122],[29.016,-17.6642,864.5344],[29.015,-17.6578,865.5388],[29.0088,-17.6494,859.6415],[29.0,-17.619,849.0461]]]]}
,"properties": {"GID_3": "ZWE.10.2.30_2","GID_0": "ZWE","country": "Zimbabwe","GID_1": "ZWE.10_1","province": "Midlands","NL_NAME_1": "NA","GID_2": "ZWE.10.2_2","county": "GokweNorth","NL_NAME_2": "NA","city": "Ward36","VARNAME_3": "NA","NL_NAME_3": "NA","TYPE_3": "Ward","ENGTYPE_3": "Ward","CC_3": "NA","HASC_3": "NA","name": "Ward36.city","area_km2": 113.92423,"hist_schema_id": "Elevation0-9000","hist_area_km2": {"850": 13.05283,"875": 38.94874,"900": 37.79044,"925": 18.68015,"950": 5.45207}}}