{"type": "Feature","bbox": [30.9165,-17.9059,30.9594,-17.874],"geometry": {"type": "MultiPolygon","coordinates": [[[[30.9554,-17.874,1436.3025],[30.9533,-17.8747,1433.9642],[30.9538,-17.8784,1431.7439],[30.9464,-17.8838,1421.3315],[30.9256,-17.8873,1407.1831],[30.9214,-17.8905,1402.9695],[30.9165,-17.8997,1397.6212],[30.9265,-17.9059,1411.6104],[30.9359,-17.8973,1422.8237],[30.952,-17.8926,1427.9324],[30.9594,-17.8839,1430.7919],[30.9554,-17.874,1436.3025]]]]}
,"properties": {"GID_3": "ZWE.2.3.26_2","GID_0": "ZWE","country": "Zimbabwe","GID_1": "ZWE.2_1","province": "Harare","NL_NAME_1": "NA","GID_2": "ZWE.2.3_2","county": "Harare","NL_NAME_2": "NA","city": "Ward33","VARNAME_3": "NA","NL_NAME_3": "NA","TYPE_3": "Ward","ENGTYPE_3": "Ward","CC_3": "NA","HASC_3": "NA","name": "Ward33.city","area_km2": 6.03289,"hist_schema_id": "Elevation0-9000","hist_area_km2": {"1400": 1.896596,"1425": 4.136294}}}