{"type":"Feature","properties":{"GID_3":"ZWE.4.6.4_2","GID_0":"ZWE","country":"Zimbabwe","GID_1":"ZWE.4_1","province":"MashonalandCentral","NL_NAME_1":"NA","GID_2":"ZWE.4.6_2","county":"Mbire","NL_NAME_2":"NA","city":"Ward12","VARNAME_3":"NA","NL_NAME_3":"NA","TYPE_3":"Ward","ENGTYPE_3":"Ward","CC_3":"NA","HASC_3":"NA","name":"Ward12.city"},
"geometry":{"type": "MultiPolygon","coordinates": [[[[30.6542,-16.0,380.3969],[30.5521,-16.0015,354.9864],[30.5513,-16.0054,355.0839],[30.5492,-16.0059,355.2208],[30.5487,-16.0088,354.8444],[30.5446,-16.0118,355.3172],[30.5471,-16.0128,353.0404],[30.5491,-16.0163,354.754],[30.5537,-16.0168,354.1192],[30.5536,-16.0257,356.0238],[30.5561,-16.0283,356.2365],[30.555,-16.0337,356.9172],[30.5581,-16.0367,354.1667],[30.558,-16.0402,357.1828],[30.556,-16.0426,355.7086],[30.563,-16.0511,358.918],[30.5747,-16.0577,358.5894],[30.5804,-16.0563,362.3067],[30.5902,-16.0499,357.1997],[30.5948,-16.0505,359.1719],[30.607,-16.0586,364.931],[30.6095,-16.0621,358.0237],[30.6079,-16.0705,360.3957],[30.6058,-16.0699,361.1528],[30.5986,-16.0743,360.6278],[30.5991,-16.0793,361.2081],[30.597,-16.0822,360.7581],[30.5821,-16.087,361.1947],[30.5815,-16.0905,369.5731],[30.584,-16.094,361.2501],[30.584,-16.0969,361.9034],[30.5783,-16.1038,362.4608],[30.5808,-16.1058,365.1323],[30.5818,-16.1108,365.3047],[30.5838,-16.1123,362.9276],[30.5709,-16.124,365.8908],[30.563,-16.1378,370.4359],[30.5589,-16.1398,366.484],[30.5603,-16.1452,365.2218],[30.5524,-16.1691,371.9194],[30.5552,-16.1709,380.1167],[30.5609,-16.1709,380.1801],[30.573,-16.1611,375.4326],[30.576,-16.1606,380.3829],[30.5827,-16.1613,386.4611],[30.5854,-16.1601,384.7729],[30.5924,-16.1638,389.8376],[30.6035,-16.1646,383.96],[30.6113,-16.1744,385.2016],[30.62,-16.1778,387.1576],[30.6379,-16.1902,400.8657],[30.6509,-16.1966,410.7343],[30.6592,-16.1983,411.081],[30.673,-16.2088,419.9185],[30.6845,-16.2219,426.1579],[30.6855,-16.2252,429.7104],[30.6931,-16.2316,433.4755],[30.6936,-16.2384,439.0136],[30.6993,-16.2417,436.9227],[30.7025,-16.2457,443.0214],[30.7047,-16.2433,438.25],[30.7053,-16.2336,428.7174],[30.7024,-16.2289,425.7547],[30.704,-16.2255,422.6165],[30.7026,-16.2236,421.7649],[30.7066,-16.2151,423.0968],[30.704,-16.2147,419.527],[30.7045,-16.2048,414.9567],[30.7027,-16.2032,415.2811],[30.705,-16.2012,413.0415],[30.7035,-16.1947,410.8408],[30.7067,-16.1869,411.6371],[30.7033,-16.186,407.152],[30.7031,-16.1819,408.2963],[30.701,-16.1825,406.9305],[30.7013,-16.1796,406.5743],[30.6977,-16.1802,405.4135],[30.6978,-16.1754,403.9608],[30.6951,-16.1735,402.253],[30.6972,-16.1652,400.152],[30.6955,-16.1613,398.5842],[30.6972,-16.1599,398.6263],[30.6942,-16.157,396.7966],[30.6935,-16.1512,393.5505],[30.6916,-16.1514,395.6806],[30.6859,-16.1456,393.5486],[30.6867,-16.1414,388.6696],[30.6853,-16.1374,387.9902],[30.6876,-16.1349,390.0895],[30.6874,-16.1308,385.6523],[30.6805,-16.1265,386.3284],[30.6817,-16.1229,383.703],[30.6791,-16.1192,384.5907],[30.6749,-16.1192,384.8619],[30.6692,-16.1163,382.2322],[30.6648,-16.1096,383.6919],[30.6612,-16.1083,378.5408],[30.6559,-16.1097,377.4866],[30.6467,-16.1042,372.8235],[30.6406,-16.0971,377.1976],[30.6295,-16.0925,370.6101],[30.63,-16.0894,367.9296],[30.6266,-16.0891,366.8008],[30.6259,-16.0858,366.1073],[30.6234,-16.0859,365.503],[30.6225,-16.089,368.2653],[30.6195,-16.0883,364.7516],[30.6199,-16.0855,364.3771],[30.615,-16.0829,363.7572],[30.6151,-16.0803,363.4465],[30.6119,-16.0778,362.269],[30.6122,-16.0765,363.5035],[30.6153,-16.0765,363.0976],[30.615,-16.0728,361.9235],[30.6131,-16.0734,362.5713],[30.6133,-16.0715,362.919],[30.6168,-16.0711,365.4661],[30.6199,-16.0675,369.1733],[30.6209,-16.0624,378.2957],[30.618,-16.0568,379.5276],[30.622,-16.0526,389.1042],[30.6239,-16.0539,386.7362],[30.631,-16.0484,395.9263],[30.6497,-16.0315,412.6366],[30.651,-16.0203,401.4062],[30.6568,-16.0029,381.5796],[30.6564,-16.0,381.2413],[30.6542,-16.0,380.3969]]]]}}