{"type":"Feature","properties":{"GID_3":"ZWE.5.10.10_2","GID_0":"ZWE","country":"Zimbabwe","GID_1":"ZWE.5_1","province":"MashonalandEast","NL_NAME_1":"NA","GID_2":"ZWE.5.10_2","county":"Seke","NL_NAME_2":"NA","city":"Ward18","VARNAME_3":"NA","NL_NAME_3":"NA","TYPE_3":"Ward","ENGTYPE_3":"Ward","CC_3":"NA","HASC_3":"NA","name":"Ward18.city"},
"geometry":{"type": "MultiPolygon","coordinates": [[[[31.1328,-18.4507,1409.7677],[31.1574,-18.4466,1421.5984],[31.2007,-18.4558,1442.3496],[31.2228,-18.4359,1479.2458],[31.2191,-18.4292,1473.5968],[31.2216,-18.4181,1472.4102],[31.2097,-18.4088,1465.7554],[31.1951,-18.4141,1464.7338],[31.1796,-18.4146,1451.5239],[31.1767,-18.4084,1439.4283],[31.1398,-18.4164,1397.667],[31.128,-18.4086,1386.4556],[31.1224,-18.3969,1393.9409],[31.1016,-18.384,1369.282],[31.1018,-18.3803,1373.6014],[31.0989,-18.3771,1365.1998],[31.0994,-18.3697,1361.5],[31.0972,-18.3584,1355.8197],[31.0923,-18.3511,1349.0032],[31.0841,-18.3451,1351.6837],[31.065,-18.336,1343.4557],[31.0582,-18.3346,1332.149],[31.0516,-18.3365,1330.3469],[31.0559,-18.3424,1328.9108],[31.0603,-18.3433,1331.9303],[31.0605,-18.3529,1337.917],[31.0624,-18.3555,1336.2998],[31.0617,-18.3619,1339.0569],[31.0643,-18.3643,1346.0244],[31.0656,-18.3702,1345.5336],[31.065,-18.3759,1343.8508],[31.0581,-18.3792,1356.5272],[31.0566,-18.3893,1348.7974],[31.0524,-18.3907,1358.4819],[31.052,-18.394,1357.8162],[31.054,-18.3977,1353.0667],[31.0531,-18.4101,1359.7881],[31.0702,-18.4124,1376.9508],[31.0546,-18.4605,1384.6121],[31.0574,-18.4607,1385.7803],[31.0922,-18.4487,1402.4652],[31.1328,-18.4507,1409.7677]]]]}}