{"type": "Feature","bbox": [30.6399,-18.4071,30.7822,-18.3096],"geometry": {"type": "MultiPolygon","coordinates": [[[[30.7197,-18.3141,1276.1493],[30.6837,-18.3192,1284.6575],[30.6725,-18.3171,1280.5947],[30.6658,-18.3098,1274.9858],[30.6491,-18.3096,1266.5011],[30.6401,-18.3119,1249.1023],[30.6399,-18.3148,1249.3336],[30.6435,-18.3196,1250.3948],[30.6441,-18.3263,1252.0481],[30.6418,-18.3395,1252.5343],[30.6494,-18.3498,1263.2556],[30.6463,-18.3582,1262.0942],[30.6497,-18.3593,1268.0638],[30.6499,-18.3609,1265.9738],[30.6457,-18.3688,1264.5413],[30.6489,-18.371,1265.7845],[30.6533,-18.3713,1269.0297],[30.659,-18.3768,1272.5553],[30.6584,-18.3853,1266.4587],[30.656,-18.3893,1266.728],[30.6572,-18.392,1267.2091],[30.66,-18.392,1267.3397],[30.6622,-18.3977,1268.5989],[30.6648,-18.3973,1268.4995],[30.6678,-18.4,1269.4043],[30.6702,-18.3987,1270.1367],[30.6748,-18.4047,1271.3291],[30.6793,-18.4028,1274.4355],[30.6801,-18.4064,1272.0693],[30.6821,-18.4064,1275.7313],[30.6913,-18.4015,1288.856],[30.6992,-18.3999,1297.4059],[30.6991,-18.3927,1292.6067],[30.7088,-18.3838,1276.4501],[30.7149,-18.3813,1275.7509],[30.726,-18.3851,1282.9734],[30.7362,-18.3933,1283.6572],[30.7463,-18.4071,1291.7183],[30.7478,-18.402,1292.45],[30.7502,-18.3996,1298.1761],[30.7661,-18.3939,1297.6622],[30.7739,-18.3797,1289.7609],[30.7822,-18.373,1290.7164],[30.7727,-18.3611,1291.0854],[30.767,-18.3602,1282.9362],[30.7671,-18.3563,1286.3041],[30.7639,-18.3489,1282.4246],[30.7585,-18.3504,1280.9834],[30.7582,-18.3437,1288.7039],[30.7537,-18.3413,1281.7574],[30.7463,-18.3432,1278.4843],[30.7403,-18.3361,1281.2676],[30.7403,-18.3325,1287.614],[30.7342,-18.3321,1277.0698],[30.7342,-18.3297,1280.5358],[30.7273,-18.3277,1279.3909],[30.7253,-18.3238,1279.1824],[30.7229,-18.3229,1275.8141],[30.7221,-18.3194,1274.7424],[30.7234,-18.3151,1280.1936],[30.7197,-18.3141,1276.1493]]]]}
,"properties": {"GID_3": "ZWE.6.1.27_2","GID_0": "ZWE","country": "Zimbabwe","GID_1": "ZWE.6_1","province": "MashonalandWest","NL_NAME_1": "NA","GID_2": "ZWE.6.1_2","county": "Chegutu","NL_NAME_2": "NA","city": "Ward7","VARNAME_3": "NA","NL_NAME_3": "NA","TYPE_3": "Ward","ENGTYPE_3": "Ward","CC_3": "NA","HASC_3": "NA","name": "Ward7.city","area_km2": 102.22587,"hist_schema_id": "Elevation0-9000","hist_area_km2": {"1250": 4.9913,"1275": 61.15504,"1300": 36.07953}}}