{"type":"Feature","properties":{"GID_3":"ZWE.2.1.9_2","GID_0":"ZWE","country":"Zimbabwe","GID_1":"ZWE.2_1","province":"Harare","NL_NAME_1":"NA","GID_2":"ZWE.2.1_2","county":"Chitungwiza","NL_NAME_2":"NA","city":"Ward17","VARNAME_3":"NA","NL_NAME_3":"NA","TYPE_3":"Ward","ENGTYPE_3":"Ward","CC_3":"NA","HASC_3":"NA","name":"Ward17.city"},
"geometry":{"type": "MultiPolygon","coordinates": [[[[31.0632,-18.0286,1406.1753],[31.0664,-18.0332,1415.4148],[31.0808,-18.0284,1428.947],[31.0864,-18.0241,1437.467],[31.0818,-18.0206,1427.6768],[31.0719,-18.0272,1413.6339],[31.0651,-18.0271,1407.6467],[31.0632,-18.0286,1406.1753]]]]}}