{"type": "Feature","bbox": [30.9816,-17.9071,31.0193,-17.8725],"geometry": {"type": "MultiPolygon","coordinates": [[[[31.0081,-17.8748,1439.7327],[31.0042,-17.8861,1426.2001],[31.0015,-17.8804,1432.9622],[31.0,-17.8812,1430.8672],[30.9816,-17.9006,1437.0355],[30.9941,-17.9071,1414.9991],[30.9986,-17.9014,1416.1189],[30.997,-17.8997,1414.8696],[30.9977,-17.8965,1417.6613],[31.0026,-17.8943,1419.293],[31.0193,-17.8726,1450.564],[31.0131,-17.8725,1441.708],[31.0081,-17.8748,1439.7327]]]]}
,"properties": {"GID_3": "ZWE.2.3.16_2","GID_0": "ZWE","country": "Zimbabwe","GID_1": "ZWE.2_1","province": "Harare","NL_NAME_1": "NA","GID_2": "ZWE.2.3_2","county": "Harare","NL_NAME_2": "NA","city": "Ward24","VARNAME_3": "NA","NL_NAME_3": "NA","TYPE_3": "Ward","ENGTYPE_3": "Ward","CC_3": "NA","HASC_3": "NA","name": "Ward24.city","area_km2": 4.49947,"hist_schema_id": "Elevation0-9000","hist_area_km2": {"1425": 3.83358,"1450": 0.66589}}}