{"type":"Feature","properties":{"GID_3":"ZWE.6.12.17_2","GID_0":"ZWE","country":"Zimbabwe","GID_1":"ZWE.6_1","province":"MashonalandWest","NL_NAME_1":"NA","GID_2":"ZWE.6.12_2","county":"Sanyati","NL_NAME_2":"NA","city":"Ward8","VARNAME_3":"NA","NL_NAME_3":"NA","TYPE_3":"Ward","ENGTYPE_3":"Ward","CC_3":"NA","HASC_3":"NA","name":"Ward8.city"},
"geometry":{"type": "MultiPolygon","coordinates": [[[[29.445,-17.9251,863.7928],[29.4465,-17.9289,868.401],[29.4447,-17.9287,868.9359],[29.4464,-17.9308,865.1794],[29.4443,-17.9311,868.2994],[29.4456,-17.9334,867.4977],[29.4431,-17.9372,872.2157],[29.4473,-17.938,871.4855],[29.4479,-17.942,872.0945],[29.446,-17.9413,868.8378],[29.4461,-17.9433,869.5044],[29.4522,-17.9508,874.775],[29.4569,-17.9509,877.827],[29.4641,-17.965,896.0933],[29.4649,-17.9703,890.206],[29.4608,-17.9748,887.5],[29.4588,-17.975,888.3096],[29.4601,-17.9809,902.4957],[29.4585,-17.9834,888.3585],[29.4651,-17.9849,893.2608],[29.4665,-17.9865,895.7213],[29.462,-17.9879,889.0046],[29.4604,-17.9973,894.5684],[29.4981,-17.9897,917.7758],[29.5037,-17.9909,911.9589],[29.5199,-17.9858,896.6246],[29.5188,-17.9824,893.4714],[29.5216,-17.9811,895.3368],[29.5227,-17.9767,893.1792],[29.5264,-17.9732,894.3188],[29.526,-17.9697,890.2999],[29.5202,-17.9699,888.6868],[29.5184,-17.9656,890.2274],[29.5147,-17.9679,886.7336],[29.5132,-17.967,886.7336],[29.5104,-17.9616,887.1155],[29.5111,-17.9578,888.2477],[29.5486,-17.9037,958.058],[29.5108,-17.896,927.3663],[29.4992,-17.9004,913.1117],[29.4584,-17.9277,872.9843],[29.4569,-17.927,872.4003],[29.457,-17.924,872.4403],[29.4512,-17.9244,870.8377],[29.4514,-17.9272,867.0657],[29.4497,-17.9245,870.8377],[29.445,-17.9251,863.7928]]]]}}