{"type": "Feature","bbox": [29.5917,-16.9339,29.7766,-16.692],"geometry": {"type": "MultiPolygon","coordinates": [[[[29.6717,-16.692,1298.2751],[29.6679,-16.715,1302.4766],[29.6272,-16.7695,1304.5361],[29.5917,-16.8002,1295.6035],[29.6007,-16.8098,1303.2928],[29.6119,-16.8143,1321.8967],[29.6313,-16.7979,1288.4598],[29.6427,-16.7904,1274.6743],[29.6439,-16.7893,1273.8828],[29.6427,-16.7847,1278.5646],[29.6608,-16.7987,1284.2756],[29.5928,-16.8785,1318.0287],[29.5988,-16.8795,1320.3],[29.6091,-16.9008,1316.9763],[29.5993,-16.9117,1310.6361],[29.6084,-16.9339,1328.16],[29.6303,-16.9036,1336.2095],[29.6341,-16.9151,1310.1223],[29.6584,-16.9067,1359.0452],[29.677,-16.8816,1315.9895],[29.6761,-16.876,1315.67],[29.684,-16.8731,1310.9745],[29.6907,-16.8726,1303.8154],[29.6929,-16.87,1291.9398],[29.6973,-16.8691,1293.1003],[29.6852,-16.833,1281.0867],[29.6779,-16.8327,1284.9314],[29.6708,-16.8281,1259.1084],[29.6731,-16.8237,1252.7627],[29.6714,-16.8196,1263.6682],[29.6749,-16.8179,1259.8658],[29.6728,-16.8147,1245.4744],[29.673,-16.8108,1253.5751],[29.6802,-16.8032,1242.9872],[29.6857,-16.7984,1245.082],[29.6892,-16.8003,1238.745],[29.6952,-16.7953,1243.6683],[29.6974,-16.7956,1238.4498],[29.6988,-16.7986,1223.0681],[29.707,-16.8015,1230.4806],[29.707,-16.8043,1235.6255],[29.704,-16.8074,1219.7019],[29.7146,-16.8188,1252.9032],[29.7148,-16.8394,1262.731],[29.7374,-16.8194,1232.7377],[29.7583,-16.8041,1216.8013],[29.7389,-16.7894,1207.0151],[29.7462,-16.7898,1183.1445],[29.7502,-16.7851,1200.8417],[29.7524,-16.7853,1201.2238],[29.754,-16.7881,1184.4037],[29.7612,-16.7868,1171.9354],[29.763,-16.7842,1189.4768],[29.7766,-16.7811,1191.3823],[29.7306,-16.7027,1314.5828],[29.7249,-16.7031,1318.1707],[29.7245,-16.7068,1324.7556],[29.7203,-16.7068,1315.4697],[29.7193,-16.7043,1316.2354],[29.6945,-16.7076,1285.3406],[29.686,-16.6921,1284.8763],[29.6717,-16.692,1298.2751]]]]}
,"properties": {"GID_3": "ZWE.6.4.22_2","GID_0": "ZWE","country": "Zimbabwe","GID_1": "ZWE.6_1","province": "MashonalandWest","NL_NAME_1": "NA","GID_2": "ZWE.6.4_2","county": "Hurungwe","NL_NAME_2": "NA","city": "Ward5","VARNAME_3": "NA","NL_NAME_3": "NA","TYPE_3": "Ward","ENGTYPE_3": "Ward","CC_3": "NA","HASC_3": "NA","name": "Ward5.city","area_km2": 226.8428,"hist_schema_id": "Elevation0-9000","hist_area_km2": {"1175": 1.1571,"1200": 11.6311,"1225": 25.6792,"1250": 42.1046,"1275": 43.4042,"1300": 36.9036,"1325": 39.9113,"1350": 24.733,"1375": 1.3188}}}