{"type":"Feature","properties":{"GID_3":"ZWE.6.8.2_2","GID_0":"ZWE","country":"Zimbabwe","GID_1":"ZWE.6_1","province":"MashonalandWest","NL_NAME_1":"NA","GID_2":"ZWE.6.8_2","county":"Karoi","NL_NAME_2":"NA","city":"Ward10","VARNAME_3":"NA","NL_NAME_3":"NA","TYPE_3":"Ward","ENGTYPE_3":"Ward","CC_3":"NA","HASC_3":"NA","name":"Ward10.city"},
"geometry":{"type": "MultiPolygon","coordinates": [[[[29.704,-16.8074,1219.7019],[29.7013,-16.8115,1226.8411],[29.7037,-16.8132,1237.2483],[29.7022,-16.8144,1226.369],[29.7047,-16.8189,1243.2565],[29.7095,-16.8244,1266.564],[29.7146,-16.8257,1266.0293],[29.7146,-16.8188,1252.9032],[29.704,-16.8074,1219.7019]]]]}}