{"type": "Feature","bbox": [31.7509,-18.6463,31.865,-18.5182],"geometry": {"type": "MultiPolygon","coordinates": [[[[31.7716,-18.5707,1313.2076],[31.7699,-18.5736,1312.5977],[31.7708,-18.5795,1303.4028],[31.7564,-18.5914,1286.4658],[31.7556,-18.5973,1286.8318],[31.7509,-18.6014,1281.7065],[31.7583,-18.6117,1280.875],[31.7586,-18.6167,1278.999],[31.7567,-18.6223,1273.9756],[31.7632,-18.636,1274.4789],[31.7725,-18.6395,1263.821],[31.7726,-18.6438,1267.4713],[31.778,-18.6463,1293.2341],[31.7808,-18.6456,1299.8119],[31.7849,-18.6406,1291.0417],[31.8061,-18.6416,1395.6547],[31.8209,-18.6459,1405.5574],[31.8217,-18.6443,1408.0303],[31.8299,-18.6431,1462.5072],[31.8317,-18.6408,1449.3455],[31.8273,-18.6326,1445.5786],[31.8328,-18.6248,1497.2111],[31.8353,-18.6182,1506.1292],[31.8367,-18.6044,1517.0934],[31.8415,-18.5966,1559.819],[31.8464,-18.5969,1571.368],[31.8517,-18.5905,1574.0549],[31.8557,-18.5898,1564.9404],[31.8604,-18.5641,1535.3146],[31.8585,-18.551,1494.3751],[31.865,-18.5466,1480.2581],[31.865,-18.5392,1475.433],[31.8499,-18.5205,1452.254],[31.846,-18.5182,1447.0527],[31.8335,-18.5257,1453.3907],[31.8283,-18.5313,1442.7467],[31.8185,-18.5489,1371.4952],[31.81,-18.5545,1364.7957],[31.8094,-18.5572,1352.3771],[31.7863,-18.5587,1334.014],[31.7823,-18.5637,1326.3207],[31.7754,-18.5649,1315.8768],[31.7719,-18.5679,1321.0833],[31.7716,-18.5707,1313.2076]]]]}
,"properties": {"GID_3": "ZWE.3.5.6_2","GID_0": "ZWE","country": "Zimbabwe","GID_1": "ZWE.3_1","province": "Manicaland","NL_NAME_1": "NA","GID_2": "ZWE.3.5_2","county": "Makoni","NL_NAME_2": "NA","city": "Ward14","VARNAME_3": "NA","NL_NAME_3": "NA","TYPE_3": "Ward","ENGTYPE_3": "Ward","CC_3": "NA","HASC_3": "NA","name": "Ward14.city","area_km2": 96.28021,"hist_schema_id": "Elevation0-9000","hist_area_km2": {"1250": 0.14063,"1275": 1.30599,"1300": 5.52608,"1325": 7.79729,"1350": 6.85266,"1375": 6.79287,"1400": 8.24012,"1425": 11.21398,"1450": 9.18424,"1475": 7.5768,"1500": 7.99836,"1525": 7.8172,"1550": 6.61104,"1575": 7.17339,"1600": 2.02949,"1625": 0.02009}}}