{"type": "Feature","bbox": [30.1332,-18.1311,30.1391,-18.127],"geometry": {"type": "MultiPolygon","coordinates": [[[[30.139,-18.1311,1184.1954],[30.1391,-18.1282,1182.5228],[30.1365,-18.127,1184.9061],[30.1332,-18.1295,1184.3806],[30.1374,-18.1311,1184.98],[30.139,-18.1311,1184.1954]]]]}
,"properties": {"GID_3": "ZWE.6.2.8_2","GID_0": "ZWE","country": "Zimbabwe","GID_1": "ZWE.6_1","province": "MashonalandWest","NL_NAME_1": "NA","GID_2": "ZWE.6.2_2","county": "ChegutuUrban","NL_NAME_2": "NA","city": "Ward5","VARNAME_3": "NA","NL_NAME_3": "NA","TYPE_3": "Ward","ENGTYPE_3": "Ward","CC_3": "NA","HASC_3": "NA","name": "Ward5.city","area_km2": 0.1410475,"hist_schema_id": "Elevation0-9000","hist_area_km2": {"1175": 0.1410475}}}