{"type":"Feature","properties":{"GID_2":"ZWE.9.2_2","GID_0":"ZWE","country":"Zimbabwe","GID_1":"ZWE.9_1","province":"MatabelelandSouth","NL_NAME_1":"NA","county":"BeitbridgeUrban","VARNAME_2":"NA","NL_NAME_2":"NA","TYPE_2":"District","ENGTYPE_2":"District","CC_2":"NA","HASC_2":"NA","name":"Beitbridge_Urban.county"},
"geometry":{"type": "MultiPolygon","coordinates": [[[[29.9658,-22.2178,426.864],[29.9673,-22.2205,425.5679],[29.9745,-22.2243,424.5727],[29.9819,-22.2235,423.5],[29.9998,-22.2288,417.7399],[30.0046,-22.2276,420.144],[30.0161,-22.2282,417.8127],[30.0212,-22.2315,420.2224],[30.0211,-22.2453,412.8814],[30.0232,-22.2506,412.2466],[30.0324,-22.2542,427.1543],[30.0549,-22.2541,416.22],[30.0514,-22.1625,528.8134],[30.0317,-22.1589,526.895],[30.0221,-22.1592,532.808],[29.9879,-22.1527,531.5978],[29.9268,-22.1883,446.3386],[29.9612,-22.2136,433.1431],[29.9651,-22.2138,432.0856],[29.9658,-22.2178,426.864]]]]}}